station,valid,tmpf,dwpf,relh,drct,sknt,p01i,alti,mslp,vsby,gust,skyc1,skyc2,skyc3,skyc4,skyl1,skyl2,skyl3,skyl4,wxcodes,ice_accretion_1hr,ice_accretion_3hr,ice_accretion_6hr,peak_wind_gust,peak_wind_drct,peak_wind_time,feel,metar
ACT,2021-02-07 00:00,,,,330.00,11.00,,29.94,,10.00,17.00,CLR,,,,,,,,,,,,,,,,KACT 070000Z AUTO 33011G17KT 10SM CLR 16/03 A2994 RMK T01600030 MADISHF
ACT,2021-02-07 00:05,,,,330.00,11.00,,29.94,,10.00,,CLR,,,,,,,,,,,,,,,,KACT 070005Z AUTO 33011KT 10SM CLR 16/03 A2994 RMK T01600030 MADISHF
ACT,2021-02-07 00:10,,,,320.00,10.00,,29.94,,10.00,15.00,CLR,,,,,,,,,,,,,,,,KACT 070010Z AUTO 32010G15KT 10SM CLR 16/03 A2994 RMK T01600030 MADISHF
ACT,2021-02-07 00:15,,,,320.00,11.00,,29.94,,10.00,17.00,CLR,,,,,,,,,,,,,,,,KACT 070015Z AUTO 32011G17KT 10SM CLR 16/02 A2994 RMK T01600020 MADISHF
ACT,2021-02-07 00:20,,,,320.00,13.00,,29.95,,10.00,,CLR,,,,,,,,,,,,,,,,KACT 070020Z AUTO 32013KT 10SM CLR 16/02 A2995 RMK T01600020 MADISHF
ACT,2021-02-07 00:25,,,,330.00,11.00,,29.95,,10.00,,CLR,,,,,,,,,,,,,,,,KACT 070025Z AUTO 33011KT 10SM CLR 16/02 A2995 RMK T01600020 MADISHF
ACT,2021-02-07 00:30,,,,330.00,9.00,,29.95,,10.00,,CLR,,,,,,,,,,,,,,,,KACT 070030Z AUTO 33009KT 10SM CLR 14/02 A2995 RMK T01400020 MADISHF
ACT,2021-02-07 00:35,,,,340.00,8.00,,29.96,,10.00,,CLR,,,,,,,,,,,,,,,,KACT 070035Z AUTO 34008KT 10SM CLR 14/02 A2995 RMK T01400020 MADISHF
ACT,2021-02-07 00:40,,,,340.00,9.00,,29.96,,10.00,,CLR,,,,,,,,,,,,,,,,KACT 070040Z AUTO 34009KT 10SM CLR 14/02 A2995 RMK T01400020 MADISHF
ACT,2021-02-07 00:45,,,,350.00,9.00,,29.96,,10.00,,CLR,,,,,,,,,,,,,,,,KACT 070045Z AUTO 35009KT 10SM CLR 14/03 A2995 RMK T01400030 MADISHF
ACT,2021-02-07 00:50,,,,350.00,8.00,,29.96,,10.00,,CLR,,,,,,,,,,,,,,,,KACT 070050Z AUTO 35008KT 10SM CLR 13/03 A2995 RMK T01300030 MADISHF
ACT,2021-02-07 00:51,55.90,37.00,48.95,350.00,8.00,0.00,29.97,1014.50,10.00,,CLR,,,,,,,,,,,,,,,,KACT 070051Z 35008KT 10SM CLR 13/03 A2997 RMK AO2 SLP145 T01330028
ACT,2021-02-07 00:55,,,,340.00,9.00,,29.97,,10.00,,CLR,,,,,,,,,,,,,,,,KACT 070055Z AUTO 34009KT 10SM CLR 13/03 A2996 RMK T01300030 MADISHF
ACT,2021-02-07 01:00,,,,340.00,8.00,,29.97,,10.00,,CLR,,,,,,,,,,,,,,,,KACT 070100Z AUTO 34008KT 10SM CLR 13/03 A2996 RMK T01300030 MADISHF
ACT,2021-02-07 01:05,,,,340.00,8.00,,29.98,,10.00,,CLR,,,,,,,,,,,,,,,,KACT 070105Z AUTO 34008KT 10SM CLR 13/03 A2997 RMK T01300030 MADISHF
ACT,2021-02-07 01:10,,,,350.00,8.00,,29.98,,10.00,,CLR,,,,,,,,,,,,,,,,KACT 070110Z AUTO 35008KT 10SM CLR 13/03 A2997 RMK T01300030 MADISHF
ACT,2021-02-07 01:15,,,,340.00,7.00,,29.98,,10.00,,CLR,,,,,,,,,,,,,,,,KACT 070115Z AUTO 34007KT 10SM CLR 12/03 A2997 RMK T01200030 MADISHF
ACT,2021-02-07 01:20,,,,350.00,8.00,,29.98,,10.00,,CLR,,,,,,,,,,,,,,,,KACT 070120Z AUTO 35008KT 10SM CLR 12/03 A2997 RMK T01200030 MADISHF
ACT,2021-02-07 01:25,,,,350.00,8.00,,29.98,,10.00,,CLR,,,,,,,,,,,,,,,,KACT 070125Z AUTO 35008KT 10SM CLR 12/03 A2997 RMK T01200030 MADISHF
ACT,2021-02-07 01:30,,,,360.00,9.00,,29.98,,10.00,,CLR,,,,,,,,,,,,,,,,KACT 070130Z AUTO 36009KT 10SM CLR 12/03 A2997 RMK T01200030 MADISHF
ACT,2021-02-07 01:35,,,,360.00,7.00,,29.99,,10.00,,CLR,,,,,,,,,,,,,,,,KACT 070135Z AUTO 36007KT 10SM CLR 12/03 A2998 RMK T01200030 MADISHF
ACT,2021-02-07 01:40,,,,360.00,5.00,,30.00,,10.00,,CLR,,,,,,,,,,,,,,,,KACT 070140Z AUTO 36005KT 10SM CLR 11/03 A3000 RMK T01100030 MADISHF
ACT,2021-02-07 01:45,,,,360.00,8.00,,30.00,,10.00,,CLR,,,,,,,,,,,,,,,,KACT 070145Z AUTO 36008KT 10SM CLR 11/03 A3000 RMK T01100030 MADISHF
ACT,2021-02-07 01:50,,,,360.00,10.00,,30.00,,10.00,,CLR,,,,,,,,,,,,,,,,KACT 070150Z AUTO 36010KT 10SM CLR 12/03 A3000 RMK T01200030 MADISHF
ACT,2021-02-07 01:51,53.10,37.90,56.17,360.00,9.00,0.00,30.00,1015.60,10.00,,CLR,,,,,,,,,,,,,,,,KACT 070151Z 36009KT 10SM CLR 12/03 A3000 RMK AO2 SLP156 T01170033
ACT,2021-02-07 01:55,,,,360.00,10.00,,30.00,,10.00,,CLR,,,,,,,,,,,,,,,,KACT 070155Z AUTO 36010KT 10SM CLR 12/03 A3000 RMK T01200030 MADISHF
ACT,2021-02-07 02:00,,,,10.00,10.00,,30.00,,10.00,,CLR,,,,,,,,,,,,,,,,KACT 070200Z AUTO 01010KT 10SM CLR 11/03 A3000 RMK T01100030 MADISHF
ACT,2021-02-07 02:05,,,,10.00,11.00,,30.00,,10.00,,CLR,,,,,,,,,,,,,,,,KACT 070205Z AUTO 01011KT 10SM CLR 11/03 A3000 RMK T01100030 MADISHF
ACT,2021-02-07 02:10,,,,10.00,11.00,,30.01,,10.00,,CLR,,,,,,,,,,,,,,,,KACT 070210Z AUTO 01011KT 10SM CLR 11/03 A3001 RMK T01100030 MADISHF
ACT,2021-02-07 02:15,,,,10.00,11.00,,30.01,,10.00,,CLR,,,,,,,,,,,,,,,,KACT 070215Z AUTO 01011KT 10SM CLR 11/03 A3001 RMK T01100030 MADISHF
ACT,2021-02-07 02:20,,,,10.00,11.00,,30.01,,10.00,,CLR,,,,,,,,,,,,,,,,KACT 070220Z AUTO 01011KT 10SM CLR 11/03 A3001 RMK T01100030 MADISHF
ACT,2021-02-07 02:25,,,,10.00,11.00,,30.01,,10.00,,CLR,,,,,,,,,,,,,,,,KACT 070225Z AUTO 01011KT 10SM CLR 11/03 A3001 RMK T01100030 MADISHF
ACT,2021-02-07 02:30,,,,10.00,11.00,,30.01,,10.00,,CLR,,,,,,,,,,,,,,,,KACT 070230Z AUTO 01011KT 10SM CLR 11/03 A3001 RMK T01100030 MADISHF
ACT,2021-02-07 02:35,,,,20.00,13.00,,30.01,,10.00,,CLR,,,,,,,,,,,,,,,,KACT 070235Z AUTO 02013KT 10SM CLR 11/03 A3001 RMK T01100030 MADISHF
ACT,2021-02-07 02:40,,,,10.00,10.00,,30.01,,10.00,,CLR,,,,,,,,,,,,,,,,KACT 070240Z AUTO 01010KT 10SM CLR 11/03 A3001 RMK T01100030 MADISHF
ACT,2021-02-07 02:45,,,,10.00,10.00,,30.02,,10.00,,CLR,,,,,,,,,,,,,,,,KACT 070245Z AUTO 01010KT 10SM CLR 10/03 A3002 RMK T01000030 MADISHF
ACT,2021-02-07 02:50,,,,10.00,9.00,,30.02,,10.00,,CLR,,,,,,,,,,,,,,,,KACT 070250Z AUTO 01009KT 10SM CLR 10/03 A3002 RMK T01000030 MADISHF
ACT,2021-02-07 02:51,50.00,37.90,62.98,10.00,9.00,0.00,30.03,1016.70,10.00,,CLR,,,,,,,,,,,,,,,,KACT 070251Z 01009KT 10SM CLR 10/03 A3003 RMK AO2 SLP167 T01000033 51031
ACT,2021-02-07 02:55,,,,10.00,9.00,,30.03,,10.00,,CLR,,,,,,,,,,,,,,,,KACT 070255Z AUTO 01009KT 10SM CLR 10/03 A3003 RMK T01000030 MADISHF
ACT,2021-02-07 03:00,,,,10.00,8.00,,30.04,,10.00,,CLR,,,,,,,,,,,,,,,,KACT 070300Z AUTO 01008KT 10SM CLR 10/03 A3004 RMK T01000030 MADISHF
ACT,2021-02-07 03:05,,,,10.00,7.00,,30.04,,10.00,,CLR,,,,,,,,,,,,,,,,KACT 070305Z AUTO 01007KT 10SM CLR 09/03 A3004 RMK T00900030 MADISHF
ACT,2021-02-07 03:10,,,,360.00,5.00,,30.04,,10.00,,CLR,,,,,,,,,,,,,,,,KACT 070310Z AUTO 36005KT 10SM CLR 09/03 A3004 RMK T00900030 MADISHF
ACT,2021-02-07 03:15,,,,10.00,5.00,,30.05,,10.00,,CLR,,,,,,,,,,,,,,,,KACT 070315Z AUTO 01005KT 10SM CLR 09/03 A3004 RMK T00900030 MADISHF
ACT,2021-02-07 03:20,,,,10.00,7.00,,30.05,,10.00,,CLR,,,,,,,,,,,,,,,,KACT 070320Z AUTO 01007KT 10SM CLR 09/03 A3004 RMK T00900030 MADISHF
ACT,2021-02-07 03:25,,,,10.00,7.00,,30.05,,10.00,,CLR,,,,,,,,,,,,,,,,KACT 070325Z AUTO 01007KT 10SM CLR 08/03 A3004 RMK T00800030 MADISHF
ACT,2021-02-07 03:30,,,,20.00,5.00,,30.06,,10.00,,CLR,,,,,,,,,,,,,,,,KACT 070330Z AUTO 02005KT 10SM CLR 08/03 A3005 RMK T00800030 MADISHF
ACT,2021-02-07 03:35,,,,20.00,5.00,,30.06,,10.00,,CLR,,,,,,,,,,,,,,,,KACT 070335Z AUTO 02005KT 10SM CLR 07/03 A3005 RMK T00700030 MADISHF
ACT,2021-02-07 03:40,,,,30.00,5.00,,30.06,,10.00,,CLR,,,,,,,,,,,,,,,,KACT 070340Z AUTO 03005KT 10SM CLR 07/03 A3005 RMK T00700030 MADISHF
ACT,2021-02-07 03:45,,,,30.00,5.00,,30.07,,10.00,,CLR,,,,,,,,,,,,,,,,KACT 070345Z AUTO 03005KT 10SM CLR 07/03 A3006 RMK T00700030 MADISHF
ACT,2021-02-07 03:50,,,,40.00,5.00,,30.07,,10.00,,CLR,,,,,,,,,,,,,,,,KACT 070350Z AUTO 04005KT 10SM CLR 06/02 A3006 RMK T00600020 MADISHF
ACT,2021-02-07 03:51,43.00,36.00,76.12,50.00,4.00,0.00,30.07,1018.20,10.00,,CLR,,,,,,,,,,,,,,,40.27,KACT 070351Z 05004KT 10SM CLR 06/02 A3007 RMK AO2 SLP182 T00610022
ACT,2021-02-07 03:55,,,,40.00,5.00,,30.07,,10.00,,CLR,,,,,,,,,,,,,,,,KACT 070355Z AUTO 04005KT 10SM CLR 06/02 A3006 RMK T00600020 MADISHF
ACT,2021-02-07 04:00,,,,40.00,5.00,,30.07,,10.00,,CLR,,,,,,,,,,,,,,,,KACT 070400Z AUTO 04005KT 10SM CLR 06/02 A3006 RMK T00600020 MADISHF
ACT,2021-02-07 04:05,,,,20.00,7.00,,30.08,,10.00,,CLR,,,,,,,,,,,,,,,,KACT 070405Z AUTO 02007KT 10SM CLR 06/02 A3007 RMK T00600020 MADISHF
ACT,2021-02-07 04:10,,,,30.00,5.00,,30.08,,10.00,,CLR,,,,,,,,,,,,,,,,KACT 070410Z AUTO 03005KT 10SM CLR 07/03 A3007 RMK T00700030 MADISHF
ACT,2021-02-07 04:15,,,,50.00,4.00,,30.08,,10.00,,CLR,,,,,,,,,,,,,,,,KACT 070415Z AUTO 05004KT 10SM CLR 06/03 A3007 RMK T00600030 MADISHF
ACT,2021-02-07 04:20,,,,60.00,4.00,,30.08,,10.00,,CLR,,,,,,,,,,,,,,,,KACT 070420Z AUTO 06004KT 10SM CLR 07/03 A3007 RMK T00700030 MADISHF
ACT,2021-02-07 04:25,,,,60.00,5.00,,30.07,,10.00,,CLR,,,,,,,,,,,,,,,,KACT 070425Z AUTO 06005KT 10SM CLR 07/03 A3006 RMK T00700030 MADISHF
ACT,2021-02-07 04:30,,,,50.00,5.00,,30.07,,10.00,,CLR,,,,,,,,,,,,,,,,KACT 070430Z AUTO 05005KT 10SM CLR 07/03 A3006 RMK T00700030 MADISHF
ACT,2021-02-07 04:35,,,,50.00,7.00,,30.06,,10.00,,CLR,,,,,,,,,,,,,,,,KACT 070435Z AUTO 05007KT 10SM CLR 06/02 A3005 RMK T00600020 MADISHF
ACT,2021-02-07 04:40,,,,50.00,7.00,,30.06,,10.00,,CLR,,,,,,,,,,,,,,,,KACT 070440Z AUTO 05007KT 10SM CLR 06/02 A3005 RMK T00600020 MADISHF
ACT,2021-02-07 04:45,,,,40.00,8.00,,30.06,,10.00,,CLR,,,,,,,,,,,,,,,,KACT 070445Z AUTO 04008KT 10SM CLR 06/02 A3005 RMK T00600020 MADISHF
ACT,2021-02-07 04:50,,,,30.00,8.00,,30.06,,10.00,,CLR,,,,,,,,,,,,,,,,KACT 070450Z AUTO 03008KT 10SM CLR 06/02 A3005 RMK T00600020 MADISHF
ACT,2021-02-07 04:51,42.10,36.00,78.80,40.00,8.00,0.00,30.06,1017.80,10.00,,CLR,,,,,,,,,,,,,,,36.55,KACT 070451Z 04008KT 10SM CLR 06/02 A3006 RMK AO2 SLP178 T00560022
ACT,2021-02-07 04:55,,,,30.00,8.00,,30.06,,10.00,,CLR,,,,,,,,,,,,,,,,KACT 070455Z AUTO 03008KT 10SM CLR 05/02 A3005 RMK T00500020 MADISHF
ACT,2021-02-07 05:00,,,,30.00,9.00,,30.06,,10.00,,CLR,,,,,,,,,,,,,,,,KACT 070500Z AUTO 03009KT 10SM CLR 06/02 A3005 RMK T00600020 MADISHF
ACT,2021-02-07 05:05,,,,30.00,9.00,,30.06,,10.00,,CLR,,,,,,,,,,,,,,,,KACT 070505Z AUTO 03009KT 10SM CLR 06/03 A3005 RMK T00600030 MADISHF
ACT,2021-02-07 05:10,,,,30.00,8.00,,30.06,,10.00,,CLR,,,,,,,,,,,,,,,,KACT 070510Z AUTO 03008KT 10SM CLR 06/03 A3005 RMK T00600030 MADISHF
ACT,2021-02-07 05:15,,,,30.00,7.00,,30.06,,10.00,,CLR,,,,,,,,,,,,,,,,KACT 070515Z AUTO 03007KT 10SM CLR 06/03 A3005 RMK T00600030 MADISHF
ACT,2021-02-07 05:20,,,,40.00,7.00,,30.07,,10.00,,CLR,,,,,,,,,,,,,,,,KACT 070520Z AUTO 04007KT 10SM CLR 06/03 A3006 RMK T00600030 MADISHF
ACT,2021-02-07 05:25,,,,30.00,5.00,,30.07,,10.00,,CLR,,,,,,,,,,,,,,,,KACT 070525Z AUTO 03005KT 10SM CLR 06/03 A3006 RMK T00600030 MADISHF
ACT,2021-02-07 05:30,,,,50.00,2.00,,30.07,,10.00,,CLR,,,,,,,,,,,,,,,,KACT 070530Z AUTO 05002KT 10SM CLR 06/03 A3006 RMK T00600030 MADISHF
ACT,2021-02-07 05:35,,,,0.00,0.00,,30.07,,10.00,,CLR,,,,,,,,,,,,,,,,KACT 070535Z AUTO 00000KT 10SM CLR 06/02 A3006 RMK T00600020 MADISHF
ACT,2021-02-07 05:40,,,,120.00,2.00,,30.08,,10.00,,CLR,,,,,,,,,,,,,,,,KACT 070540Z AUTO 12002KT 10SM CLR 06/02 A3007 RMK T00600020 MADISHF
ACT,2021-02-07 05:45,,,,140.00,2.00,,30.07,,10.00,,CLR,,,,,,,,,,,,,,,,KACT 070545Z AUTO 14002KT 10SM CLR 06/02 A3006 RMK T00600020 MADISHF
ACT,2021-02-07 05:50,,,,0.00,0.00,,30.07,,10.00,,CLR,,,,,,,,,,,,,,,,KACT 070550Z AUTO 00000KT 10SM CLR 06/02 A3006 RMK T00600020 MADISHF
ACT,2021-02-07 05:51,42.10,36.00,78.80,0.00,0.00,0.00,30.07,1018.10,10.00,,CLR,,,,,,,,,,,,,,,,KACT 070551Z AUTO 00000KT 10SM CLR 06/02 A3007 RMK AO2 SLP181 T00560022 10161 20050 402220050 51016
ACT,2021-02-07 05:55,,,,0.00,0.00,,30.07,,10.00,,CLR,,,,,,,,,,,,,,,,KACT 070555Z AUTO 00000KT 10SM CLR 06/02 A3006 RMK T00600020 MADISHF
ACT,2021-02-07 06:00,,,,0.00,0.00,,30.07,,10.00,,CLR,,,,,,,,,,,,,,,,KACT 070600Z AUTO 00000KT 10SM CLR 05/02 A3006 RMK T00500020 MADISHF
ACT,2021-02-07 06:05,,,,0.00,0.00,,30.07,,10.00,,CLR,,,,,,,,,,,,,,,,KACT 070605Z AUTO 00000KT 10SM CLR 04/01 A3006 RMK T00400010 MADISHF
ACT,2021-02-07 06:10,,,,0.00,0.00,,30.07,,10.00,,CLR,,,,,,,,,,,,,,,,KACT 070610Z AUTO 00000KT 10SM CLR 04/02 A3006 RMK T00400020 MADISHF
ACT,2021-02-07 06:15,,,,40.00,2.00,,30.07,,10.00,,CLR,,,,,,,,,,,,,,,,KACT 070615Z AUTO 04002KT 10SM CLR 04/02 A3006 RMK T00400020 MADISHF
ACT,2021-02-07 06:20,,,,50.00,5.00,,30.07,,10.00,,CLR,,,,,,,,,,,,,,,,KACT 070620Z AUTO 05005KT 10SM CLR 03/01 A3006 RMK T00300010 MADISHF
ACT,2021-02-07 06:25,,,,50.00,7.00,,30.07,,10.00,,CLR,,,,,,,,,,,,,,,,KACT 070625Z AUTO 05007KT 10SM CLR 04/02 A3006 RMK T00400020 MADISHF
ACT,2021-02-07 06:30,,,,40.00,7.00,,30.07,,10.00,,CLR,,,,,,,,,,,,,,,,KACT 070630Z AUTO 04007KT 10SM CLR 06/03 A3006 RMK T00600030 MADISHF
ACT,2021-02-07 06:35,,,,50.00,8.00,,30.07,,10.00,,CLR,,,,,,,,,,,,,,,,KACT 070635Z AUTO 05008KT 10SM CLR 06/03 A3006 RMK T00600030 MADISHF
ACT,2021-02-07 06:40,,,,60.00,5.00,,30.07,,10.00,,CLR,,,,,,,,,,,,,,,,KACT 070640Z AUTO 06005KT 10SM CLR 06/02 A3006 RMK T00600020 MADISHF
ACT,2021-02-07 06:45,,,,50.00,5.00,,30.07,,10.00,,CLR,,,,,,,,,,,,,,,,KACT 070645Z AUTO 05005KT 10SM CLR 05/02 A3006 RMK T00500020 MADISHF
ACT,2021-02-07 06:50,,,,50.00,7.00,,30.07,,10.00,,CLR,,,,,,,,,,,,,,,,KACT 070650Z AUTO 05007KT 10SM CLR 05/02 A3006 RMK T00500020 MADISHF
ACT,2021-02-07 06:51,41.00,35.10,79.34,50.00,7.00,0.00,30.07,1017.90,10.00,,CLR,,,,,,,,,,,,,,,35.75,KACT 070651Z AUTO 05007KT 10SM CLR 05/02 A3007 RMK AO2 SLP179 T00500017
ACT,2021-02-07 06:55,,,,50.00,5.00,,30.07,,10.00,,CLR,,,,,,,,,,,,,,,,KACT 070655Z AUTO 05005KT 10SM CLR 04/02 A3006 RMK T00400020 MADISHF
ACT,2021-02-07 07:00,,,,50.00,5.00,,30.07,,10.00,,CLR,,,,,,,,,,,,,,,,KACT 070700Z AUTO 05005KT 10SM CLR 05/02 A3006 RMK T00500020 MADISHF
ACT,2021-02-07 07:05,,,,40.00,2.00,,30.08,,10.00,,CLR,,,,,,,,,,,,,,,,KACT 070705Z AUTO 04002KT 10SM CLR 04/02 A3007 RMK T00400020 MADISHF
ACT,2021-02-07 07:10,,,,50.00,2.00,,30.08,,10.00,,CLR,,,,,,,,,,,,,,,,KACT 070710Z AUTO 05002KT 10SM CLR 04/02 A3007 RMK T00400020 MADISHF
ACT,2021-02-07 07:15,,,,50.00,2.00,,30.08,,10.00,,CLR,,,,,,,,,,,,,,,,KACT 070715Z AUTO 05002KT 10SM CLR 04/01 A3007 RMK T00400010 MADISHF
ACT,2021-02-07 07:20,,,,40.00,4.00,,30.08,,10.00,,CLR,,,,,,,,,,,,,,,,KACT 070720Z AUTO 04004KT 10SM CLR 04/01 A3007 RMK T00400010 MADISHF
ACT,2021-02-07 07:25,,,,30.00,4.00,,30.07,,10.00,,CLR,,,,,,,,,,,,,,,,KACT 070725Z AUTO 03004KT 10SM CLR 04/02 A3006 RMK T00400020 MADISHF
ACT,2021-02-07 07:30,,,,40.00,5.00,,30.07,,10.00,,CLR,,,,,,,,,,,,,,,,KACT 070730Z AUTO 04005KT 10SM CLR 03/01 A3006 RMK T00300010 MADISHF
ACT,2021-02-07 07:35,,,,50.00,4.00,,30.07,,10.00,,CLR,,,,,,,,,,,,,,,,KACT 070735Z AUTO 05004KT 10SM CLR 02/00 A3006 RMK T00200000 MADISHF
ACT,2021-02-07 07:40,,,,50.00,2.00,,30.07,,10.00,,CLR,,,,,,,,,,,,,,,,KACT 070740Z AUTO 05002KT 10SM CLR 02/00 A3006 RMK T00200000 MADISHF
ACT,2021-02-07 07:45,,,,60.00,4.00,,30.07,,10.00,,CLR,,,,,,,,,,,,,,,,KACT 070745Z AUTO 06004KT 10SM CLR 03/00 A3006 RMK T00300000 MADISHF
ACT,2021-02-07 07:50,,,,90.00,4.00,,30.07,,10.00,,CLR,,,,,,,,,,,,,,,,KACT 070750Z AUTO 09004KT 10SM CLR 03/01 A3006 RMK T00300010 MADISHF
ACT,2021-02-07 07:51,39.00,34.00,82.08,90.00,4.00,0.00,30.07,1018.00,10.00,,CLR,,,,,,,,,,,,,,,35.59,KACT 070751Z AUTO 09004KT 10SM CLR 04/01 A3007 RMK AO2 SLP180 T00390011
ACT,2021-02-07 07:55,,,,100.00,2.00,,30.07,,10.00,,CLR,,,,,,,,,,,,,,,,KACT 070755Z AUTO 10002KT 10SM CLR 04/02 A3006 RMK T00400020 MADISHF
ACT,2021-02-07 08:00,,,,90.00,4.00,,30.07,,10.00,,CLR,,,,,,,,,,,,,,,,KACT 070800Z AUTO 09004KT 10SM CLR 04/02 A3006 RMK T00400020 MADISHF
ACT,2021-02-07 08:05,,,,90.00,4.00,,30.07,,10.00,,CLR,,,,,,,,,,,,,,,,KACT 070805Z AUTO 09004KT 10SM CLR 04/02 A3006 RMK T00400020 MADISHF
ACT,2021-02-07 08:10,,,,100.00,2.00,,30.07,,10.00,,CLR,,,,,,,,,,,,,,,,KACT 070810Z AUTO 10002KT 10SM CLR 04/02 A3006 RMK T00400020 MADISHF
ACT,2021-02-07 08:15,,,,90.00,2.00,,30.07,,10.00,,CLR,,,,,,,,,,,,,,,,KACT 070815Z AUTO 09002KT 10SM CLR 04/02 A3006 RMK T00400020 MADISHF
ACT,2021-02-07 08:20,,,,100.00,2.00,,30.07,,10.00,,CLR,,,,,,,,,,,,,,,,KACT 070820Z AUTO 10002KT 10SM CLR 04/02 A3006 RMK T00400020 MADISHF
ACT,2021-02-07 08:25,,,,90.00,2.00,,30.06,,10.00,,CLR,,,,,,,,,,,,,,,,KACT 070825Z AUTO 09002KT 10SM CLR 04/02 A3005 RMK T00400020 MADISHF
ACT,2021-02-07 08:30,,,,70.00,5.00,,30.06,,10.00,,CLR,,,,,,,,,,,,,,,,KACT 070830Z AUTO 07005KT 10SM CLR 04/02 A3005 RMK T00400020 MADISHF
ACT,2021-02-07 08:35,,,,80.00,4.00,,30.06,,10.00,,CLR,,,,,,,,,,,,,,,,KACT 070835Z AUTO 08004KT 10SM CLR 04/02 A3005 RMK T00400020 MADISHF
ACT,2021-02-07 08:40,,,,70.00,5.00,,30.05,,10.00,,CLR,,,,,,,,,,,,,,,,KACT 070840Z AUTO 07005KT 10SM CLR 04/02 A3004 RMK T00400020 MADISHF
ACT,2021-02-07 08:45,,,,70.00,5.00,,30.04,,10.00,,CLR,,,,,,,,,,,,,,,,KACT 070845Z AUTO 07005KT 10SM CLR 04/02 A3004 RMK T00400020 MADISHF
ACT,2021-02-07 08:50,,,,70.00,5.00,,30.04,,10.00,,CLR,,,,,,,,,,,,,,,,KACT 070850Z AUTO 07005KT 10SM CLR 03/01 A3004 RMK T00300010 MADISHF
ACT,2021-02-07 08:51,37.00,34.00,88.78,70.00,6.00,0.00,30.04,1017.10,10.00,,CLR,,,,,,,,,,,,,,,31.55,KACT 070851Z AUTO 07006KT 10SM CLR 03/01 A3004 RMK AO2 SLP171 T00280011 58010
ACT,2021-02-07 08:55,,,,70.00,5.00,,30.04,,10.00,,CLR,,,,,,,,,,,,,,,,KACT 070855Z AUTO 07005KT 10SM CLR 03/01 A3004 RMK T00300010 MADISHF
ACT,2021-02-07 09:00,,,,70.00,5.00,,30.04,,10.00,,CLR,,,,,,,,,,,,,,,,KACT 070900Z AUTO 07005KT 10SM CLR 03/01 A3004 RMK T00300010 MADISHF
ACT,2021-02-07 09:05,,,,80.00,5.00,,30.04,,10.00,,CLR,,,,,,,,,,,,,,,,KACT 070905Z AUTO 08005KT 10SM CLR 03/02 A3004 RMK T00300020 MADISHF
ACT,2021-02-07 09:10,,,,80.00,2.00,,30.04,,10.00,,CLR,,,,,,,,,,,,,,,,KACT 070910Z AUTO 08002KT 10SM CLR 04/02 A3004 RMK T00400020 MADISHF
ACT,2021-02-07 09:15,,,,90.00,2.00,,30.05,,10.00,,CLR,,,,,,,,,,,,,,,,KACT 070915Z AUTO 09002KT 10SM CLR 04/02 A3004 RMK T00400020 MADISHF
ACT,2021-02-07 09:20,,,,0.00,0.00,,30.04,,10.00,,CLR,,,,,,,,,,,,,,,,KACT 070920Z AUTO 00000KT 10SM CLR 04/02 A3004 RMK T00400020 MADISHF
ACT,2021-02-07 09:25,,,,0.00,0.00,,30.04,,10.00,,CLR,,,,,,,,,,,,,,,,KACT 070925Z AUTO 00000KT 10SM CLR 03/01 A3004 RMK T00300010 MADISHF
ACT,2021-02-07 09:30,,,,0.00,0.00,,30.04,,10.00,,CLR,,,,,,,,,,,,,,,,KACT 070930Z AUTO 00000KT 10SM CLR 03/01 A3004 RMK T00300010 MADISHF
ACT,2021-02-07 09:35,,,,0.00,0.00,,30.04,,9.00,,CLR,,,,,,,,,,,,,,,,KACT 070935Z AUTO 00000KT 9SM CLR 02/01 A3004 RMK T00200010 MADISHF
ACT,2021-02-07 09:40,,,,0.00,0.00,,30.04,,9.00,,CLR,,,,,,,,,,,,,,,,KACT 070940Z AUTO 00000KT 9SM CLR 02/00 A3004 RMK T00200000 MADISHF
ACT,2021-02-07 09:45,,,,0.00,0.00,,30.03,,8.00,,CLR,,,,,,,,,,,,,,,,KACT 070945Z AUTO 00000KT 8SM CLR 02/00 A3003 RMK T00200000 MADISHF
ACT,2021-02-07 09:50,,,,0.00,0.00,,30.03,,6.00,,CLR,,,,,,,,BR,,,,,,,,KACT 070950Z AUTO 00000KT 6SM BR CLR 02/00 A3003 RMK T00200000 MADISHF
ACT,2021-02-07 09:51,35.10,32.00,88.33,0.00,0.00,0.00,30.03,1016.60,6.00,,CLR,,,,,,,,BR,,,,,,,,KACT 070951Z AUTO 00000KT 6SM BR CLR 02/00 A3003 RMK AO2 SLP166 T00170000
ACT,2021-02-07 09:55,,,,0.00,0.00,,30.03,,5.00,,CLR,,,,,,,,BR,,,,,,,,KACT 070955Z AUTO 00000KT 5SM BR CLR 01/00 A3003 RMK T00100000 MADISHF
ACT,2021-02-07 10:00,,,,0.00,0.00,,30.03,,5.00,,CLR,,,,,,,,BR,,,,,,,,KACT 071000Z AUTO 00000KT 5SM BR CLR 01/00 A3003 RMK T00100000 MADISHF
ACT,2021-02-07 10:05,,,,0.00,0.00,,30.03,,5.00,,CLR,,,,,,,,BR,,,,,,,,KACT 071005Z AUTO 00000KT 5SM BR CLR 01/00 A3003 RMK T00100000 MADISHF
ACT,2021-02-07 10:10,,,,110.00,2.00,,30.02,,5.00,,CLR,,,,,,,,BR,,,,,,,,KACT 071010Z AUTO 11002KT 5SM BR CLR 01/00 A3002 RMK T00100000 MADISHF
ACT,2021-02-07 10:15,,,,0.00,0.00,,30.02,,4.00,,CLR,,,,,,,,BR,,,,,,,,KACT 071015Z AUTO 00000KT 4SM BR CLR M01/M01 A3002 RMK T10101010 MADISHF
ACT,2021-02-07 10:20,,,,0.00,0.00,,30.02,,4.00,,CLR,,,,,,,,BR,,,,,,,,KACT 071020Z AUTO 00000KT 4SM BR CLR 02/00 A3002 RMK T00200000 MADISHF
ACT,2021-02-07 10:25,,,,130.00,2.00,,30.02,,6.00,,CLR,,,,,,,,BR,,,,,,,,KACT 071025Z AUTO 13002KT 6SM BR CLR 01/00 A3002 RMK T00100000 MADISHF
ACT,2021-02-07 10:30,,,,0.00,0.00,,30.02,,6.00,,CLR,,,,,,,,BR,,,,,,,,KACT 071030Z AUTO 00000KT 6SM BR CLR M01/M01 A3002 RMK T10101010 MADISHF
ACT,2021-02-07 10:35,,,,0.00,0.00,,30.02,,6.00,,CLR,,,,,,,,BR,,,,,,,,KACT 071035Z AUTO 00000KT 6SM BR CLR M01/M02 A3002 RMK T10101020 MADISHF
ACT,2021-02-07 10:40,,,,0.00,0.00,,30.02,,7.00,,CLR,,,,,,,,,,,,,,,,KACT 071040Z AUTO 00000KT 7SM CLR 01/M01 A3002 RMK T00101010 MADISHF
ACT,2021-02-07 10:45,,,,0.00,0.00,,30.02,,7.00,,CLR,,,,,,,,,,,,,,,,KACT 071045Z AUTO 00000KT 7SM CLR 01/00 A3002 RMK T00100000 MADISHF
ACT,2021-02-07 10:50,,,,0.00,0.00,,30.02,,6.00,,CLR,,,,,,,,BR,,,,,,,,KACT 071050Z AUTO 00000KT 6SM BR CLR M01/M01 A3002 RMK T10101010 MADISHF
ACT,2021-02-07 10:51,30.00,30.00,100.00,0.00,0.00,0.00,30.02,1016.60,6.00,,CLR,,,,,,,,BR,,,,,,,,KACT 071051Z AUTO 00000KT 6SM BR CLR M01/M01 A3002 RMK AO2 SLP166 T10111011
ACT,2021-02-07 10:55,,,,0.00,0.00,,30.02,,6.00,,CLR,,,,,,,,BR,,,,,,,,KACT 071055Z AUTO 00000KT 6SM BR CLR M01/M01 A3002 RMK T10101010 MADISHF
ACT,2021-02-07 11:00,,,,0.00,0.00,,30.02,,5.00,,CLR,,,,,,,,BR,,,,,,,,KACT 071100Z AUTO 00000KT 5SM BR CLR M01/M02 A3002 RMK T10101020 MADISHF
ACT,2021-02-07 11:05,,,,0.00,0.00,,30.02,,5.00,,CLR,,,,,,,,BR,,,,,,,,KACT 071105Z AUTO 00000KT 5SM BR CLR 00/M02 A3002 RMK T00001020 MADISHF
ACT,2021-02-07 11:10,,,,0.00,0.00,,30.02,,5.00,,CLR,,,,,,,,HZ,,,,,,,,KACT 071110Z AUTO 00000KT 5SM HZ CLR 01/M02 A3002 RMK T00101020 MADISHF
ACT,2021-02-07 11:15,,,,0.00,0.00,,30.03,,5.00,,CLR,,,,,,,,BR,,,,,,,,KACT 071115Z AUTO 00000KT 5SM BR CLR 02/00 A3003 RMK T00200000 MADISHF
ACT,2021-02-07 11:20,,,,0.00,0.00,,30.03,,5.00,,CLR,,,,,,,,BR,,,,,,,,KACT 071120Z AUTO 00000KT 5SM BR CLR M01/M01 A3003 RMK T10101010 MADISHF
ACT,2021-02-07 11:24,30.00,30.00,100.00,0.00,0.00,0.00,30.03,,1.50,,CLR,,,,,,,,BR,T,,,,,,,KACT 071124Z AUTO 00000KT 1 1/2SM BR CLR M01/M01 A3003 RMK AO2 I1000 T10111011
ACT,2021-02-07 11:25,,,,0.00,0.00,,30.03,,1.00,,CLR,,,,,,,,BR,,,,,,,,KACT 071125Z AUTO 00000KT 1SM BR CLR M01/M01 A3003 RMK T10101010 MADISHF
ACT,2021-02-07 11:29,28.00,28.00,100.00,0.00,0.00,0.00,30.02,,0.25,,CLR,,,,,,,,FZFG,0.01,,,,,,,KACT 071129Z AUTO 00000KT 1/4SM FZFG CLR M02/M02 A3002 RMK AO2 I1001 T10221022
ACT,2021-02-07 11:30,,,,0.00,0.00,,30.02,,0.25,,CLR,,,,,,,,FZFG,,,,,,,,KACT 071130Z AUTO 00000KT 1/4SM FZFG CLR M02/M02 A3002 RMK T10201020 MADISHF
ACT,2021-02-07 11:35,,,,90.00,2.00,,30.02,,0.24,,CLR,,,,,,,,FZFG,,,,,,,,KACT 071135Z AUTO 09002KT 1/4SM FZFG CLR M02/M02 A3002 RMK T10201020 MADISHF
ACT,2021-02-07 11:40,,,,0.00,0.00,,30.03,,0.50,,CLR,,,,,,,,FZFG,,,,,,,,KACT 071140Z AUTO 00000KT 1/2SM FZFG CLR M01/M02 A3003 RMK T10101020 MADISHF
ACT,2021-02-07 11:45,,,,70.00,2.00,,30.02,,1.25,,CLR,,,,,,,,BR,,,,,,,,KACT 071145Z AUTO 07002KT 1 1/2SM BR CLR M01/M02 A3002 RMK T10101020 MADISHF
ACT,2021-02-07 11:46,30.20,28.40,92.92,70.00,3.00,0.00,30.02,,2.00,,CLR,,,,,,,,BR,0.01,,,,,,26.63,KACT 071146Z AUTO 07003KT 2SM BR CLR M01/M02 A3002 RMK AO2 I1001
ACT,2021-02-07 11:50,,,,0.00,0.00,,30.02,,6.00,,CLR,,,,,,,,BR,,,,,,,,KACT 071150Z AUTO 00000KT 6SM BR CLR M01/M01 A3002 RMK T10101010 MADISHF
ACT,2021-02-07 11:51,30.90,30.00,96.41,0.00,0.00,0.00,30.02,1016.60,6.00,,CLR,,,,,,,,BR,0.01,,0.01,,,,,KACT 071151Z AUTO 00000KT 6SM BR CLR M01/M01 A3002 RMK AO2 SLP166 I1001 I6001 T10061011 10050 21022 56001
ACT,2021-02-07 11:55,,,,0.00,0.00,,30.02,,5.00,,CLR,,,,,,,,BR,,,,,,,,KACT 071155Z AUTO 00000KT 5SM BR CLR 00/M01 A3002 RMK T00001010 MADISHF
ACT,2021-02-07 12:00,,,,0.00,0.00,,30.02,,4.00,,CLR,,,,,,,,BR,,,,,,,,KACT 071200Z AUTO 00000KT 4SM BR CLR 01/M01 A3002 RMK T00101010 MADISHF
ACT,2021-02-07 12:04,34.00,30.90,88.27,0.00,0.00,0.00,30.03,,1.50,,CLR,,,,,,,,BR,,,,,,,,KACT 071204Z 00000KT 1 1/2SM BR CLR 01/M01 A3003 RMK AO2 VIS 1/2V5 T00111006
ACT,2021-02-07 12:05,,,,0.00,0.00,,30.03,,1.25,,CLR,,,,,,,,BR,,,,,,,,KACT 071205Z AUTO 00000KT 1 1/2SM BR CLR 01/M01 A3003 RMK T00101010 MADISHF
ACT,2021-02-07 12:10,,,,0.00,0.00,,30.03,,1.50,,CLR,,,,,,,,BR,,,,,,,,KACT 071210Z AUTO 00000KT 1 1/2SM BR CLR M01/M01 A3003 RMK T10101010 MADISHF
ACT,2021-02-07 12:15,,,,0.00,0.00,,30.04,,1.50,,CLR,,,,,,,,BR,,,,,,,,KACT 071215Z AUTO 00000KT 1 1/2SM BR CLR M02/M02 A3004 RMK T10201020 MADISHF
ACT,2021-02-07 12:20,,,,0.00,0.00,,30.04,,1.50,,CLR,,,,,,,,BR,,,,,,,,KACT 071220Z AUTO 00000KT 1 1/2SM BR CLR M02/M03 A3004 RMK T10201030 MADISHF
ACT,2021-02-07 12:25,,,,0.00,0.00,,30.05,,1.50,,CLR,,,,,,,,BR,,,,,,,,KACT 071225Z AUTO 00000KT 1 1/2SM BR CLR M02/M03 A3004 RMK T10201030 MADISHF
ACT,2021-02-07 12:30,,,,0.00,0.00,,30.04,,1.50,,CLR,,,,,,,,BR,,,,,,,,KACT 071230Z AUTO 00000KT 1 1/2SM BR CLR M01/M02 A3004 RMK T10101020 MADISHF
ACT,2021-02-07 12:35,,,,180.00,2.00,,30.05,,1.50,,CLR,,,,,,,,BR,,,,,,,,KACT 071235Z AUTO 18002KT 1 1/2SM BR CLR M01/M02 A3004 RMK T10101020 MADISHF
ACT,2021-02-07 12:40,,,,180.00,4.00,,30.05,,1.50,,CLR,,,,,,,,BR,,,,,,,,KACT 071240Z AUTO 18004KT 1 1/2SM BR CLR M01/M02 A3004 RMK T10101020 MADISHF
ACT,2021-02-07 12:45,,,,140.00,2.00,,30.05,,1.50,,CLR,,,,,,,,BR,,,,,,,,KACT 071245Z AUTO 14002KT 1 1/2SM BR CLR M01/M02 A3004 RMK T10101020 MADISHF
ACT,2021-02-07 12:50,,,,130.00,4.00,,30.05,,1.50,,CLR,,,,,,,,BR,,,,,,,,KACT 071250Z AUTO 13004KT 1 1/2SM BR CLR M01/M02 A3004 RMK T10101020 MADISHF
ACT,2021-02-07 12:51,30.90,28.90,92.18,130.00,4.00,0.00,30.05,1017.40,5.00,,CLR,,,,,,,,BR,,,,,,,26.14,KACT 071251Z 13004KT 5SM BR CLR M01/M02 A3005 RMK AO2 SLP174 T10061017
ACT,2021-02-07 12:55,,,,120.00,4.00,,30.04,,6.00,,CLR,,,,,,,,BR,,,,,,,,KACT 071255Z AUTO 12004KT 6SM BR CLR 00/M01 A3004 RMK T00001010 MADISHF
ACT,2021-02-07 13:00,,,,130.00,4.00,,30.04,,7.00,,CLR,,,,,,,,,,,,,,,,KACT 071300Z AUTO 13004KT 7SM CLR 01/M01 A3004 RMK T00101010 MADISHF
ACT,2021-02-07 13:05,,,,130.00,4.00,,30.04,,7.00,,CLR,,,,,,,,,,,,,,,,KACT 071305Z AUTO 13004KT 7SM CLR 01/00 A3004 RMK T00100000 MADISHF
ACT,2021-02-07 13:10,,,,150.00,2.00,,30.05,,6.00,,CLR,,,,,,,,BR,,,,,,,,KACT 071310Z AUTO 15002KT 6SM BR CLR 01/00 A3004 RMK T00100000 MADISHF
ACT,2021-02-07 13:15,,,,170.00,4.00,,30.06,,5.00,,CLR,,,,,,,,BR,,,,,,,,KACT 071315Z AUTO 17004KT 5SM BR CLR 01/00 A3005 RMK T00100000 MADISHF
ACT,2021-02-07 13:20,,,,170.00,4.00,,30.06,,5.00,,CLR,,,,,,,,BR,,,,,,,,KACT 071320Z AUTO 17004KT 5SM BR CLR 00/00 A3005 RMK T00000000 MADISHF
ACT,2021-02-07 13:25,,,,150.00,5.00,,30.06,,6.00,,CLR,,,,,,,,BR,,,,,,,,KACT 071325Z AUTO 15005KT 6SM BR CLR 00/M01 A3005 RMK T00001010 MADISHF
ACT,2021-02-07 13:30,,,,160.00,4.00,,30.06,,6.00,,CLR,,,,,,,,BR,,,,,,,,KACT 071330Z AUTO 16004KT 6SM BR CLR 00/M01 A3005 RMK T00001010 MADISHF
ACT,2021-02-07 13:35,,,,140.00,2.00,,30.06,,6.00,,CLR,,,,,,,,BR,,,,,,,,KACT 071335Z AUTO 14002KT 6SM BR CLR 00/M01 A3005 RMK T00001010 MADISHF
ACT,2021-02-07 13:40,,,,130.00,2.00,,30.06,,6.00,,CLR,,,,,,,,BR,,,,,,,,KACT 071340Z AUTO 13002KT 6SM BR CLR 00/M01 A3005 RMK T00001010 MADISHF
ACT,2021-02-07 13:45,,,,130.00,2.00,,30.06,,5.00,,CLR,,,,,,,,BR,,,,,,,,KACT 071345Z AUTO 13002KT 5SM BR CLR 00/M01 A3005 RMK T00001010 MADISHF
ACT,2021-02-07 13:50,,,,120.00,2.00,,30.06,,5.00,,CLR,,,,,,,,BR,,,,,,,,KACT 071350Z AUTO 12002KT 5SM BR CLR 01/M01 A3005 RMK T00101010 MADISHF
ACT,2021-02-07 13:51,33.10,30.90,91.51,120.00,3.00,0.00,30.06,1018.00,5.00,,CLR,,,,,,,,BR,,,,,,,29.95,KACT 071351Z 12003KT 5SM BR CLR 01/M01 A3006 RMK AO2 SLP180 T00061006
ACT,2021-02-07 13:55,,,,120.00,2.00,,30.06,,4.00,,CLR,,,,,,,,BR,,,,,,,,KACT 071355Z AUTO 12002KT 4SM BR CLR 00/M01 A3005 RMK T00001010 MADISHF
ACT,2021-02-07 14:00,,,,110.00,2.00,,30.06,,10.00,,CLR,,,,,,,,,,,,,,,,KACT 071400Z AUTO 11002KT 10SM CLR 01/00 A3005 RMK T00100000 MADISHF
ACT,2021-02-07 14:05,,,,110.00,2.00,,30.07,,10.00,,FEW,,,,1100.00,,,,,,,,,,,,KACT 071405Z AUTO 11002KT 10SM FEW011 02/01 A3006 RMK T00200010 MADISHF
ACT,2021-02-07 14:10,,,,110.00,2.00,,30.06,,10.00,,FEW,,,,1100.00,,,,,,,,,,,,KACT 071410Z AUTO 11002KT 10SM FEW011 02/01 A3005 RMK T00200010 MADISHF
ACT,2021-02-07 14:15,,,,110.00,2.00,,30.06,,10.00,,FEW,,,,1100.00,,,,,,,,,,,,KACT 071415Z AUTO 11002KT 10SM FEW011 03/02 A3005 RMK T00300020 MADISHF
ACT,2021-02-07 14:20,,,,100.00,4.00,,30.06,,10.00,,FEW,,,,1100.00,,,,,,,,,,,,KACT 071420Z AUTO 10004KT 10SM FEW011 03/02 A3005 RMK T00300020 MADISHF
ACT,2021-02-07 14:25,,,,100.00,5.00,,30.06,,10.00,,FEW,,,,1100.00,,,,,,,,,,,,KACT 071425Z AUTO 10005KT 10SM FEW011 04/03 A3005 RMK T00400030 MADISHF
ACT,2021-02-07 14:30,,,,100.00,4.00,,30.07,,10.00,,CLR,,,,,,,,,,,,,,,,KACT 071430Z AUTO 10004KT 10SM CLR 04/02 A3006 RMK T00400020 MADISHF
ACT,2021-02-07 14:35,,,,120.00,4.00,,30.07,,10.00,,CLR,,,,,,,,,,,,,,,,KACT 071435Z AUTO 12004KT 10SM CLR 04/03 A3006 RMK T00400030 MADISHF
ACT,2021-02-07 14:40,,,,110.00,5.00,,30.07,,10.00,,CLR,,,,,,,,,,,,,,,,KACT 071440Z AUTO 11005KT 10SM CLR 04/03 A3006 RMK T00400030 MADISHF
ACT,2021-02-07 14:45,,,,120.00,5.00,,30.07,,10.00,,CLR,,,,,,,,,,,,,,,,KACT 071445Z AUTO 12005KT 10SM CLR 04/03 A3006 RMK T00400030 MADISHF
ACT,2021-02-07 14:50,,,,110.00,4.00,,30.08,,10.00,,CLR,,,,,,,,,,,,,,,,KACT 071450Z AUTO 11004KT 10SM CLR 04/03 A3007 RMK T00400030 MADISHF
ACT,2021-02-07 14:51,39.90,37.00,89.27,110.00,4.00,0.00,30.08,1018.40,10.00,,CLR,,,,,,,,,,,,,,,36.65,KACT 071451Z 11004KT 10SM CLR 04/03 A3008 RMK AO2 SLP184 T00440028 51017
ACT,2021-02-07 14:55,,,,120.00,4.00,,30.08,,8.00,,CLR,,,,,,,,,,,,,,,,KACT 071455Z AUTO 12004KT 8SM CLR 04/03 A3007 RMK T00400030 MADISHF
ACT,2021-02-07 15:00,,,,130.00,4.00,,30.08,,9.00,,CLR,,,,,,,,,,,,,,,,KACT 071500Z AUTO 13004KT 9SM CLR 05/03 A3007 RMK T00500030 MADISHF
ACT,2021-02-07 15:05,,,,140.00,4.00,,30.08,,9.00,,CLR,,,,,,,,,,,,,,,,KACT 071505Z AUTO 14004KT 9SM CLR 06/03 A3007 RMK T00600030 MADISHF
ACT,2021-02-07 15:10,,,,160.00,7.00,,30.08,,10.00,,CLR,,,,,,,,,,,,,,,,KACT 071510Z AUTO 16007KT 10SM CLR 06/03 A3007 RMK T00600030 MADISHF
ACT,2021-02-07 15:15,,,,150.00,9.00,,30.08,,10.00,,CLR,,,,,,,,,,,,,,,,KACT 071515Z AUTO 15009KT 10SM CLR 06/03 A3007 RMK T00600030 MADISHF
ACT,2021-02-07 15:20,,,,140.00,11.00,,30.08,,10.00,,FEW,,,,1300.00,,,,,,,,,,,,KACT 071520Z AUTO 14011KT 10SM FEW013 07/03 A3007 RMK T00700030 MADISHF
ACT,2021-02-07 15:25,,,,150.00,10.00,,30.09,,10.00,,FEW,,,,1300.00,,,,,,,,,,,,KACT 071525Z AUTO 15010KT 10SM FEW013 07/03 A3009 RMK T00700030 MADISHF
ACT,2021-02-07 15:30,,,,130.00,9.00,,30.09,,10.00,,FEW,,,,1300.00,,,,,,,,,,,,KACT 071530Z AUTO 13009KT 10SM FEW013 07/03 A3009 RMK T00700030 MADISHF
ACT,2021-02-07 15:35,,,,170.00,10.00,,30.09,,10.00,,SCT,,,,1300.00,,,,,,,,,,,,KACT 071535Z AUTO 17010KT 10SM SCT013 07/03 A3009 RMK T00700030 MADISHF
ACT,2021-02-07 15:40,,,,160.00,10.00,,30.09,,10.00,,SCT,,,,1400.00,,,,,,,,,,,,KACT 071540Z AUTO 16010KT 10SM SCT014 07/03 A3009 RMK T00700030 MADISHF
ACT,2021-02-07 15:45,,,,160.00,9.00,,30.09,,10.00,,SCT,,,,1400.00,,,,,,,,,,,,KACT 071545Z AUTO 16009KT 10SM SCT014 07/03 A3009 RMK T00700030 MADISHF
ACT,2021-02-07 15:50,,,,150.00,10.00,,30.09,,10.00,,SCT,,,,1400.00,,,,,,,,,,,,KACT 071550Z AUTO 15010KT 10SM SCT014 08/03 A3009 RMK T00800030 MADISHF
ACT,2021-02-07 15:51,46.00,37.90,73.18,140.00,10.00,0.00,30.09,1018.80,10.00,,SCT,,,,1400.00,,,,,,,,,,,40.52,KACT 071551Z 14010KT 10SM SCT014 08/03 A3009 RMK AO2 SLP188 T00780033
ACT,2021-02-07 15:55,,,,160.00,11.00,,30.09,,10.00,,SCT,,,,1400.00,,,,,,,,,,,,KACT 071555Z AUTO 16011KT 10SM SCT014 07/03 A3009 RMK T00700030 MADISHF
ACT,2021-02-07 16:00,,,,150.00,10.00,,30.08,,10.00,,SCT,,,,1400.00,,,,,,,,,,,,KACT 071600Z AUTO 15010KT 10SM SCT014 08/03 A3007 RMK T00800030 MADISHF
ACT,2021-02-07 16:05,,,,150.00,10.00,,30.08,,10.00,,SCT,,,,1400.00,,,,,,,,,,,,KACT 071605Z AUTO 15010KT 10SM SCT014 07/03 A3007 RMK T00700030 MADISHF
ACT,2021-02-07 16:10,,,,160.00,9.00,,30.08,,10.00,,FEW,,,,1400.00,,,,,,,,,,,,KACT 071610Z AUTO 16009KT 10SM FEW014 08/03 A3007 RMK T00800030 MADISHF
ACT,2021-02-07 16:15,,,,170.00,8.00,,30.08,,10.00,,FEW,,,,1500.00,,,,,,,,,,,,KACT 071615Z AUTO 17008KT 10SM FEW015 08/03 A3007 RMK T00800030 MADISHF
ACT,2021-02-07 16:20,,,,160.00,10.00,,30.08,,10.00,,FEW,,,,1500.00,,,,,,,,,,,,KACT 071620Z AUTO 16010KT 10SM FEW015 09/03 A3007 RMK T00900030 MADISHF
ACT,2021-02-07 16:25,,,,170.00,10.00,,30.08,,10.00,,FEW,,,,1500.00,,,,,,,,,,,,KACT 071625Z AUTO 17010KT 10SM FEW015 09/03 A3007 RMK T00900030 MADISHF
ACT,2021-02-07 16:30,,,,160.00,9.00,,30.08,,10.00,,FEW,,,,1500.00,,,,,,,,,,,,KACT 071630Z AUTO 16009KT 10SM FEW015 08/03 A3007 RMK T00800030 MADISHF
ACT,2021-02-07 16:35,,,,170.00,10.00,,30.08,,10.00,,CLR,,,,,,,,,,,,,,,,KACT 071635Z AUTO 17010KT 10SM CLR 09/03 A3007 RMK T00900030 MADISHF
ACT,2021-02-07 16:40,,,,160.00,11.00,,30.08,,10.00,,CLR,,,,,,,,,,,,,,,,KACT 071640Z AUTO 16011KT 10SM CLR 09/03 A3007 RMK T00900030 MADISHF
ACT,2021-02-07 16:45,,,,150.00,10.00,,30.08,,10.00,,CLR,,,,,,,,,,,,,,,,KACT 071645Z AUTO 15010KT 10SM CLR 09/03 A3007 RMK T00900030 MADISHF
ACT,2021-02-07 16:50,,,,150.00,11.00,,30.08,,10.00,,CLR,,,,,,,,,,,,,,,,KACT 071650Z AUTO 15011KT 10SM CLR 09/03 A3007 RMK T00900030 MADISHF
ACT,2021-02-07 16:51,48.90,37.90,65.62,170.00,10.00,0.00,30.08,1018.50,10.00,,CLR,,,,,,,,,,,,,,,44.16,KACT 071651Z 17010KT 10SM CLR 09/03 A3008 RMK AO2 SLP185 T00940033
ACT,2021-02-07 16:55,,,,170.00,11.00,,30.08,,10.00,,CLR,,,,,,,,,,,,,,,,KACT 071655Z AUTO 17011KT 10SM CLR 09/03 A3007 RMK T00900030 MADISHF
ACT,2021-02-07 17:00,,,,160.00,11.00,,30.08,,10.00,,CLR,,,,,,,,,,,,,,,,KACT 071700Z AUTO 16011KT 10SM CLR 09/03 A3007 RMK T00900030 MADISHF
ACT,2021-02-07 17:05,,,,160.00,11.00,,30.07,,10.00,19.00,CLR,,,,,,,,,,,,,,,,KACT 071705Z AUTO 16011G19KT 10SM CLR 09/03 A3006 RMK T00900030 MADISHF
ACT,2021-02-07 17:10,,,,180.00,9.00,,30.07,,10.00,,CLR,,,,,,,,,,,,,,,,KACT 071710Z AUTO 18009KT 10SM CLR 10/03 A3006 RMK T01000030 MADISHF
ACT,2021-02-07 17:15,,,,180.00,9.00,,30.07,,10.00,,CLR,,,,,,,,,,,,,,,,KACT 071715Z AUTO 18009KT 10SM CLR 10/03 A3006 RMK T01000030 MADISHF
ACT,2021-02-07 17:20,,,,160.00,7.00,,30.07,,10.00,,CLR,,,,,,,,,,,,,,,,KACT 071720Z AUTO 16007KT 10SM CLR 09/03 A3006 RMK T00900030 MADISHF
ACT,2021-02-07 17:25,,,,170.00,8.00,,30.07,,10.00,,CLR,,,,,,,,,,,,,,,,KACT 071725Z AUTO 17008KT 10SM CLR 10/03 A3006 RMK T01000030 WND 14V20  MADISHF
ACT,2021-02-07 17:30,,,,160.00,8.00,,30.06,,10.00,,CLR,,,,,,,,,,,,,,,,KACT 071730Z AUTO 16008KT 10SM CLR 10/03 A3005 RMK T01000030 MADISHF
ACT,2021-02-07 17:35,,,,180.00,8.00,,30.06,,10.00,,CLR,,,,,,,,,,,,,,,,KACT 071735Z AUTO 18008KT 10SM CLR 10/04 A3005 RMK T01000040 MADISHF
ACT,2021-02-07 17:40,,,,160.00,10.00,,30.06,,10.00,,CLR,,,,,,,,,,,,,,,,KACT 071740Z AUTO 16010KT 10SM CLR 11/04 A3005 RMK T01100040 MADISHF
ACT,2021-02-07 17:45,,,,160.00,8.00,,30.05,,10.00,,CLR,,,,,,,,,,,,,,,,KACT 071745Z AUTO 16008KT 10SM CLR 11/03 A3004 RMK T01100030 MADISHF
ACT,2021-02-07 17:50,,,,150.00,9.00,,30.05,,10.00,,CLR,,,,,,,,,,,,,,,,KACT 071750Z AUTO 15009KT 10SM CLR 12/04 A3004 RMK T01200040 MADISHF
ACT,2021-02-07 17:51,52.00,39.00,61.06,160.00,9.00,0.00,30.05,1017.40,10.00,,CLR,,,,,,,,,,,,,,,,KACT 071751Z 16009KT 10SM CLR 11/04 A3005 RMK AO2 SLP174 T01110039 10117 21017 58009
ACT,2021-02-07 17:55,,,,190.00,10.00,,30.05,,10.00,,CLR,,,,,,,,,,,,,,,,KACT 071755Z AUTO 19010KT 10SM CLR 12/04 A3004 RMK T01200040 MADISHF
ACT,2021-02-07 18:00,,,,150.00,10.00,,30.05,,10.00,,CLR,,,,,,,,,,,,,,,,KACT 071800Z AUTO 15010KT 10SM CLR 12/04 A3004 RMK T01200040 MADISHF
ACT,2021-02-07 18:05,,,,140.00,10.00,,30.04,,10.00,,CLR,,,,,,,,,,,,,,,,KACT 071805Z AUTO 14010KT 10SM CLR 12/04 A3004 RMK T01200040 MADISHF
ACT,2021-02-07 18:10,,,,140.00,10.00,,30.04,,10.00,,CLR,,,,,,,,,,,,,,,,KACT 071810Z AUTO 14010KT 10SM CLR 11/04 A3004 RMK T01100040 MADISHF
ACT,2021-02-07 18:15,,,,180.00,11.00,,30.04,,10.00,,CLR,,,,,,,,,,,,,,,,KACT 071815Z AUTO 18011KT 10SM CLR 13/04 A3004 RMK T01300040 MADISHF
ACT,2021-02-07 18:20,,,,150.00,10.00,,30.03,,10.00,,CLR,,,,,,,,,,,,,,,,KACT 071820Z AUTO 15010KT 10SM CLR 12/04 A3003 RMK T01200040 MADISHF
ACT,2021-02-07 18:25,,,,170.00,11.00,,30.03,,10.00,,CLR,,,,,,,,,,,,,,,,KACT 071825Z AUTO 17011KT 10SM CLR 12/04 A3003 RMK T01200040 MADISHF
ACT,2021-02-07 18:30,,,,160.00,10.00,,30.02,,10.00,,CLR,,,,,,,,,,,,,,,,KACT 071830Z AUTO 16010KT 10SM CLR 13/03 A3002 RMK T01300030 MADISHF
ACT,2021-02-07 18:35,,,,160.00,10.00,,30.02,,10.00,,CLR,,,,,,,,,,,,,,,,KACT 071835Z AUTO 16010KT 10SM CLR 12/03 A3002 RMK T01200030 MADISHF
ACT,2021-02-07 18:40,,,,160.00,11.00,,30.01,,10.00,16.00,CLR,,,,,,,,,,,,,,,,KACT 071840Z AUTO 16011G16KT 10SM CLR 13/04 A3001 RMK T01300040 MADISHF
ACT,2021-02-07 18:45,,,,160.00,11.00,,30.01,,10.00,,CLR,,,,,,,,,,,,,,,,KACT 071845Z AUTO 16011KT 10SM CLR 13/04 A3001 RMK T01300040 MADISHF
ACT,2021-02-07 18:50,,,,170.00,11.00,,30.01,,10.00,,CLR,,,,,,,,,,,,,,,,KACT 071850Z AUTO 17011KT 10SM CLR 13/03 A3001 RMK T01300030 MADISHF
ACT,2021-02-07 18:51,57.00,37.90,48.73,170.00,12.00,0.00,30.01,1016.00,10.00,,CLR,,,,,,,,,,,,,,,,KACT 071851Z 17012KT 10SM CLR 14/03 A3001 RMK AO2 SLP160 T01390033
ACT,2021-02-07 18:55,,,,170.00,11.00,,30.00,,10.00,,CLR,,,,,,,,,,,,,,,,KACT 071855Z AUTO 17011KT 10SM CLR 14/03 A3000 RMK T01400030 MADISHF
ACT,2021-02-07 19:00,,,,180.00,10.00,,30.00,,10.00,,CLR,,,,,,,,,,,,,,,,KACT 071900Z AUTO 18010KT 10SM CLR 13/04 A3000 RMK T01300040 MADISHF
ACT,2021-02-07 19:05,,,,170.00,14.00,,29.99,,10.00,,CLR,,,,,,,,,,,,,,,,KACT 071905Z AUTO 17014KT 10SM CLR 14/04 A2998 RMK T01400040 MADISHF
ACT,2021-02-07 19:10,,,,160.00,13.00,,29.99,,10.00,,CLR,,,,,,,,,,,,,,,,KACT 071910Z AUTO 16013KT 10SM CLR 14/03 A2998 RMK T01400030 MADISHF
ACT,2021-02-07 19:15,,,,160.00,14.00,,29.98,,10.00,,CLR,,,,,,,,,,,,,,,,KACT 071915Z AUTO 16014KT 10SM CLR 15/03 A2997 RMK T01500030 MADISHF
ACT,2021-02-07 19:20,,,,150.00,13.00,,29.98,,10.00,,CLR,,,,,,,,,,,,,,,,KACT 071920Z AUTO 15013KT 10SM CLR 14/03 A2997 RMK T01400030 MADISHF
ACT,2021-02-07 19:25,,,,150.00,11.00,,29.98,,10.00,,CLR,,,,,,,,,,,,,,,,KACT 071925Z AUTO 15011KT 10SM CLR 14/03 A2997 RMK T01400030 MADISHF
ACT,2021-02-07 19:30,,,,160.00,13.00,,29.97,,10.00,,CLR,,,,,,,,,,,,,,,,KACT 071930Z AUTO 16013KT 10SM CLR 14/03 A2996 RMK T01400030 MADISHF
ACT,2021-02-07 19:35,,,,160.00,11.00,,29.97,,10.00,,CLR,,,,,,,,,,,,,,,,KACT 071935Z AUTO 16011KT 10SM CLR 15/03 A2996 RMK T01500030 MADISHF
ACT,2021-02-07 19:40,,,,170.00,11.00,,29.96,,10.00,,CLR,,,,,,,,,,,,,,,,KACT 071940Z AUTO 17011KT 10SM CLR 15/03 A2995 RMK T01500030 MADISHF
ACT,2021-02-07 19:45,,,,160.00,11.00,,29.96,,10.00,,CLR,,,,,,,,,,,,,,,,KACT 071945Z AUTO 16011KT 10SM CLR 15/03 A2995 RMK T01500030 MADISHF
ACT,2021-02-07 19:50,,,,180.00,11.00,,29.96,,10.00,,CLR,,,,,,,,,,,,,,,,KACT 071950Z AUTO 18011KT 10SM CLR 16/03 A2995 RMK T01600030 MADISHF
ACT,2021-02-07 19:51,60.10,37.90,43.61,180.00,13.00,0.00,29.96,1014.30,10.00,,CLR,,,,,,,,,,,,,,,,KACT 071951Z 18013KT 10SM CLR 16/03 A2996 RMK AO2 SLP143 T01560033
ACT,2021-02-07 19:55,,,,170.00,14.00,,29.95,,10.00,,CLR,,,,,,,,,,,,,,,,KACT 071955Z AUTO 17014KT 10SM CLR 16/03 A2995 RMK T01600030 MADISHF
ACT,2021-02-07 20:00,,,,180.00,13.00,,29.95,,10.00,18.00,CLR,,,,,,,,,,,,,,,,KACT 072000Z AUTO 18013G18KT 10SM CLR 16/03 A2995 RMK T01600030 MADISHF
ACT,2021-02-07 20:05,,,,160.00,11.00,,29.95,,10.00,,CLR,,,,,,,,,,,,,,,,KACT 072005Z AUTO 16011KT 10SM CLR 16/04 A2995 RMK T01600040 MADISHF
ACT,2021-02-07 20:10,,,,170.00,11.00,,29.95,,10.00,,CLR,,,,,,,,,,,,,,,,KACT 072010Z AUTO 17011KT 10SM CLR 16/03 A2995 RMK T01600030 MADISHF
ACT,2021-02-07 20:15,,,,170.00,14.00,,29.95,,10.00,,CLR,,,,,,,,,,,,,,,,KACT 072015Z AUTO 17014KT 10SM CLR 16/03 A2995 RMK T01600030 MADISHF
ACT,2021-02-07 20:20,,,,180.00,15.00,,29.94,,10.00,,CLR,,,,,,,,,,,,,,,,KACT 072020Z AUTO 18015KT 10SM CLR 17/03 A2994 RMK T01700030 MADISHF
ACT,2021-02-07 20:25,,,,170.00,13.00,,29.94,,10.00,,CLR,,,,,,,,,,,,,,,,KACT 072025Z AUTO 17013KT 10SM CLR 16/03 A2994 RMK T01600030 MADISHF
ACT,2021-02-07 20:30,,,,180.00,13.00,,29.94,,10.00,,CLR,,,,,,,,,,,,,,,,KACT 072030Z AUTO 18013KT 10SM CLR 17/03 A2994 RMK T01700030 MADISHF
ACT,2021-02-07 20:35,,,,170.00,14.00,,29.94,,10.00,,CLR,,,,,,,,,,,,,,,,KACT 072035Z AUTO 17014KT 10SM CLR 17/03 A2994 RMK T01700030 MADISHF
ACT,2021-02-07 20:40,,,,180.00,14.00,,29.93,,10.00,,CLR,,,,,,,,,,,,,,,,KACT 072040Z AUTO 18014KT 10SM CLR 17/03 A2993 RMK T01700030 MADISHF
ACT,2021-02-07 20:45,,,,180.00,13.00,,29.93,,10.00,,CLR,,,,,,,,,,,,,,,,KACT 072045Z AUTO 18013KT 10SM CLR 17/03 A2993 RMK T01700030 MADISHF
ACT,2021-02-07 20:50,,,,180.00,13.00,,29.93,,10.00,,CLR,,,,,,,,,,,,,,,,KACT 072050Z AUTO 18013KT 10SM CLR 17/03 A2993 RMK T01700030 MADISHF
ACT,2021-02-07 20:51,63.00,37.00,37.99,180.00,12.00,0.00,29.93,1013.30,10.00,,CLR,,,,,,,,,,,,,,,,KACT 072051Z 18012KT 10SM CLR 17/03 A2993 RMK AO2 SLP133 T01720028 56040
ACT,2021-02-07 20:55,,,,170.00,14.00,,29.93,,10.00,,CLR,,,,,,,,,,,,,,,,KACT 072055Z AUTO 17014KT 10SM CLR 18/03 A2993 RMK T01800030 MADISHF
ACT,2021-02-07 21:00,,,,180.00,13.00,,29.93,,10.00,18.00,CLR,,,,,,,,,,,,,,,,KACT 072100Z AUTO 18013G18KT 10SM CLR 17/03 A2993 RMK T01700030 MADISHF
ACT,2021-02-07 21:05,,,,170.00,14.00,,29.93,,10.00,,CLR,,,,,,,,,,,,,,,,KACT 072105Z AUTO 17014KT 10SM CLR 17/03 A2993 RMK T01700030 MADISHF
ACT,2021-02-07 21:10,,,,170.00,14.00,,29.92,,10.00,,CLR,,,,,,,,,,,,,,,,KACT 072110Z AUTO 17014KT 10SM CLR 17/03 A2992 RMK T01700030 MADISHF
ACT,2021-02-07 21:15,,,,180.00,14.00,,29.92,,10.00,,CLR,,,,,,,,,,,,,,,,KACT 072115Z AUTO 18014KT 10SM CLR 17/03 A2992 RMK T01700030 MADISHF
ACT,2021-02-07 21:20,,,,170.00,13.00,,29.92,,10.00,,CLR,,,,,,,,,,,,,,,,KACT 072120Z AUTO 17013KT 10SM CLR 18/03 A2992 RMK T01800030 MADISHF
ACT,2021-02-07 21:25,,,,180.00,13.00,,29.92,,10.00,,CLR,,,,,,,,,,,,,,,,KACT 072125Z AUTO 18013KT 10SM CLR 17/03 A2992 RMK T01700030 MADISHF
ACT,2021-02-07 21:30,,,,170.00,11.00,,29.92,,10.00,,CLR,,,,,,,,,,,,,,,,KACT 072130Z AUTO 17011KT 10SM CLR 18/03 A2992 RMK T01800030 MADISHF
ACT,2021-02-07 21:35,,,,160.00,11.00,,29.91,,10.00,,CLR,,,,,,,,,,,,,,,,KACT 072135Z AUTO 16011KT 10SM CLR 18/03 A2990 RMK T01800030 MADISHF
ACT,2021-02-07 21:40,,,,180.00,14.00,,29.91,,10.00,,CLR,,,,,,,,,,,,,,,,KACT 072140Z AUTO 18014KT 10SM CLR 18/03 A2990 RMK T01800030 MADISHF
ACT,2021-02-07 21:45,,,,170.00,13.00,,29.91,,10.00,,CLR,,,,,,,,,,,,,,,,KACT 072145Z AUTO 17013KT 10SM CLR 18/03 A2990 RMK T01800030 MADISHF
ACT,2021-02-07 21:50,,,,170.00,13.00,,29.91,,10.00,,CLR,,,,,,,,,,,,,,,,KACT 072150Z AUTO 17013KT 10SM CLR 18/03 A2990 RMK T01800030 MADISHF
ACT,2021-02-07 21:51,64.00,37.00,36.68,170.00,14.00,0.00,29.91,1012.60,10.00,,CLR,,,,,,,,,,,,,,,,KACT 072151Z AUTO 17014KT 10SM CLR 18/03 A2991 RMK AO2 SLP126 T01780028
ACT,2021-02-07 21:55,,,,180.00,13.00,,29.91,,10.00,,CLR,,,,,,,,,,,,,,,,KACT 072155Z AUTO 18013KT 10SM CLR 18/03 A2990 RMK T01800030 MADISHF
ACT,2021-02-07 22:00,,,,180.00,11.00,,29.90,,10.00,,CLR,,,,,,,,,,,,,,,,KACT 072200Z AUTO 18011KT 10SM CLR 18/03 A2989 RMK T01800030 MADISHF
ACT,2021-02-07 22:05,,,,180.00,15.00,,29.90,,10.00,,CLR,,,,,,,,,,,,,,,,KACT 072205Z AUTO 18015KT 10SM CLR 18/03 A2989 RMK T01800030 MADISHF
ACT,2021-02-07 22:10,,,,170.00,14.00,,29.90,,10.00,,CLR,,,,,,,,,,,,,,,,KACT 072210Z AUTO 17014KT 10SM CLR 18/03 A2989 RMK T01800030 MADISHF
ACT,2021-02-07 22:15,,,,180.00,13.00,,29.90,,10.00,,CLR,,,,,,,,,,,,,,,,KACT 072215Z AUTO 18013KT 10SM CLR 18/03 A2989 RMK T01800030 MADISHF
ACT,2021-02-07 22:20,,,,180.00,15.00,,29.90,,10.00,,CLR,,,,,,,,,,,,,,,,KACT 072220Z AUTO 18015KT 10SM CLR 18/03 A2989 RMK T01800030 MADISHF
ACT,2021-02-07 22:25,,,,170.00,16.00,,29.90,,10.00,,CLR,,,,,,,,,,,,,,,,KACT 072225Z AUTO 17016KT 10SM CLR 18/02 A2989 RMK T01800020 MADISHF
ACT,2021-02-07 22:30,,,,170.00,14.00,,29.90,,10.00,,CLR,,,,,,,,,,,,,,,,KACT 072230Z AUTO 17014KT 10SM CLR 18/02 A2989 RMK T01800020 MADISHF
ACT,2021-02-07 22:35,,,,170.00,16.00,,29.90,,10.00,,CLR,,,,,,,,,,,,,,,,KACT 072235Z AUTO 17016KT 10SM CLR 18/03 A2989 RMK T01800030 MADISHF
ACT,2021-02-07 22:40,,,,170.00,14.00,,29.89,,10.00,,CLR,,,,,,,,,,,,,,,,KACT 072240Z AUTO 17014KT 10SM CLR 18/02 A2988 RMK T01800020 MADISHF
ACT,2021-02-07 22:45,,,,170.00,14.00,,29.89,,10.00,,CLR,,,,,,,,,,,,,,,,KACT 072245Z AUTO 17014KT 10SM CLR 18/02 A2988 RMK T01800020 MADISHF
ACT,2021-02-07 22:50,,,,170.00,14.00,,29.89,,10.00,,CLR,,,,,,,,,,,,,,,,KACT 072250Z AUTO 17014KT 10SM CLR 18/02 A2988 RMK T01800020 MADISHF
ACT,2021-02-07 22:51,64.00,36.00,35.26,170.00,13.00,0.00,29.89,1012.10,10.00,,CLR,,,,,,,,,,,,,,,,KACT 072251Z 17013KT 10SM CLR 18/02 A2989 RMK AO2 SLP121 T01780022
ACT,2021-02-07 22:55,,,,170.00,14.00,,29.89,,10.00,19.00,CLR,,,,,,,,,,,,,,,,KACT 072255Z AUTO 17014G19KT 10SM CLR 18/02 A2988 RMK T01800020 MADISHF
ACT,2021-02-07 23:00,,,,170.00,13.00,,29.89,,10.00,,CLR,,,,,,,,,,,,,,,,KACT 072300Z AUTO 17013KT 10SM CLR 18/02 A2988 RMK T01800020 MADISHF
ACT,2021-02-07 23:05,,,,170.00,11.00,,29.89,,10.00,,CLR,,,,,,,,,,,,,,,,KACT 072305Z AUTO 17011KT 10SM CLR 18/02 A2988 RMK T01800020 MADISHF
ACT,2021-02-07 23:10,,,,170.00,13.00,,29.89,,10.00,,CLR,,,,,,,,,,,,,,,,KACT 072310Z AUTO 17013KT 10SM CLR 18/02 A2988 RMK T01800020 MADISHF
ACT,2021-02-07 23:15,,,,160.00,15.00,,29.89,,10.00,,CLR,,,,,,,,,,,,,,,,KACT 072315Z AUTO 16015KT 10SM CLR 17/02 A2988 RMK T01700020 MADISHF
ACT,2021-02-07 23:20,,,,160.00,14.00,,29.89,,10.00,,CLR,,,,,,,,,,,,,,,,KACT 072320Z AUTO 16014KT 10SM CLR 17/02 A2988 RMK T01700020 MADISHF
ACT,2021-02-07 23:25,,,,160.00,14.00,,29.89,,10.00,,CLR,,,,,,,,,,,,,,,,KACT 072325Z AUTO 16014KT 10SM CLR 17/02 A2988 RMK T01700020 MADISHF
ACT,2021-02-07 23:30,,,,160.00,13.00,,29.89,,10.00,,CLR,,,,,,,,,,,,,,,,KACT 072330Z AUTO 16013KT 10SM CLR 17/02 A2988 RMK T01700020 MADISHF
ACT,2021-02-07 23:35,,,,160.00,13.00,,29.89,,10.00,,CLR,,,,,,,,,,,,,,,,KACT 072335Z AUTO 16013KT 10SM CLR 17/02 A2988 RMK T01700020 MADISHF
ACT,2021-02-07 23:40,,,,160.00,13.00,,29.89,,10.00,,CLR,,,,,,,,,,,,,,,,KACT 072340Z AUTO 16013KT 10SM CLR 17/02 A2988 RMK T01700020 MADISHF
ACT,2021-02-07 23:45,,,,160.00,11.00,,29.89,,10.00,,CLR,,,,,,,,,,,,,,,,KACT 072345Z AUTO 16011KT 10SM CLR 16/02 A2988 RMK T01600020 MADISHF
ACT,2021-02-07 23:50,,,,160.00,11.00,,29.89,,10.00,,CLR,,,,,,,,,,,,,,,,KACT 072350Z AUTO 16011KT 10SM CLR 16/02 A2988 RMK T01600020 MADISHF
ACT,2021-02-07 23:51,61.00,36.00,39.19,160.00,12.00,0.00,29.89,1012.00,10.00,,CLR,,,,,,,,,,,,,,,,KACT 072351Z 16012KT 10SM CLR 16/02 A2989 RMK AO2 SLP120 T01610022 10183 20111 56013
ACT,2021-02-07 23:55,,,,150.00,10.00,,29.89,,10.00,,CLR,,,,,,,,,,,,,,,,KACT 072355Z AUTO 15010KT 10SM CLR 16/02 A2988 RMK T01600020 MADISHF
ACT,2021-02-08 00:00,,,,150.00,9.00,,29.89,,10.00,,CLR,,,,,,,,,,,,,,,,KACT 080000Z AUTO 15009KT 10SM CLR 16/02 A2988 RMK T01600020 MADISHF
ACT,2021-02-08 00:05,,,,150.00,9.00,,29.89,,10.00,,CLR,,,,,,,,,,,,,,,,KACT 080005Z AUTO 15009KT 10SM CLR 15/02 A2988 RMK T01500020 MADISHF
ACT,2021-02-08 00:10,,,,150.00,8.00,,29.89,,10.00,,CLR,,,,,,,,,,,,,,,,KACT 080010Z AUTO 15008KT 10SM CLR 15/02 A2988 RMK T01500020 MADISHF
ACT,2021-02-08 00:15,,,,150.00,9.00,,29.89,,10.00,,CLR,,,,,,,,,,,,,,,,KACT 080015Z AUTO 15009KT 10SM CLR 14/02 A2988 RMK T01400020 MADISHF
ACT,2021-02-08 00:20,,,,150.00,10.00,,29.89,,10.00,,CLR,,,,,,,,,,,,,,,,KACT 080020Z AUTO 15010KT 10SM CLR 14/02 A2988 RMK T01400020 MADISHF
ACT,2021-02-08 00:25,,,,150.00,11.00,,29.89,,10.00,16.00,CLR,,,,,,,,,,,,,,,,KACT 080025Z AUTO 15011G16KT 10SM CLR 15/02 A2988 RMK T01500020 MADISHF
ACT,2021-02-08 00:30,,,,150.00,9.00,,29.89,,10.00,,CLR,,,,,,,,,,,,,,,,KACT 080030Z AUTO 15009KT 10SM CLR 15/02 A2988 RMK T01500020 MADISHF
ACT,2021-02-08 00:35,,,,150.00,10.00,,29.89,,10.00,,CLR,,,,,,,,,,,,,,,,KACT 080035Z AUTO 15010KT 10SM CLR 14/02 A2988 RMK T01400020 MADISHF
ACT,2021-02-08 00:40,,,,160.00,10.00,,29.89,,10.00,,CLR,,,,,,,,,,,,,,,,KACT 080040Z AUTO 16010KT 10SM CLR 14/02 A2988 RMK T01400020 MADISHF
ACT,2021-02-08 00:45,,,,160.00,11.00,,29.89,,10.00,,CLR,,,,,,,,,,,,,,,,KACT 080045Z AUTO 16011KT 10SM CLR 15/02 A2988 RMK T01500020 MADISHF
ACT,2021-02-08 00:50,,,,150.00,10.00,,29.90,,10.00,,CLR,,,,,,,,,,,,,,,,KACT 080050Z AUTO 15010KT 10SM CLR 15/02 A2989 RMK T01500020 MADISHF
ACT,2021-02-08 00:51,59.00,36.00,42.08,160.00,10.00,0.00,29.90,1012.20,10.00,,CLR,,,,,,,,,,,,,,,,KACT 080051Z 16010KT 10SM CLR 15/02 A2990 RMK AO2 SLP122 T01500022
ACT,2021-02-08 00:55,,,,150.00,10.00,,29.90,,10.00,,CLR,,,,,,,,,,,,,,,,KACT 080055Z AUTO 15010KT 10SM CLR 14/02 A2989 RMK T01400020 MADISHF
ACT,2021-02-08 01:00,,,,150.00,11.00,,29.90,,10.00,16.00,CLR,,,,,,,,,,,,,,,,KACT 080100Z AUTO 15011G16KT 10SM CLR 14/02 A2989 RMK T01400020 MADISHF
ACT,2021-02-08 01:05,,,,140.00,9.00,,29.90,,10.00,,CLR,,,,,,,,,,,,,,,,KACT 080105Z AUTO 14009KT 10SM CLR 14/02 A2989 RMK T01400020 MADISHF
ACT,2021-02-08 01:10,,,,140.00,9.00,,29.90,,10.00,,CLR,,,,,,,,,,,,,,,,KACT 080110Z AUTO 14009KT 10SM CLR 14/02 A2989 RMK T01400020 MADISHF
ACT,2021-02-08 01:15,,,,140.00,9.00,,29.90,,10.00,,CLR,,,,,,,,,,,,,,,,KACT 080115Z AUTO 14009KT 10SM CLR 14/02 A2989 RMK T01400020 MADISHF
ACT,2021-02-08 01:20,,,,140.00,9.00,,29.91,,10.00,,CLR,,,,,,,,,,,,,,,,KACT 080120Z AUTO 14009KT 10SM CLR 13/02 A2990 RMK T01300020 MADISHF
ACT,2021-02-08 01:25,,,,140.00,9.00,,29.90,,10.00,,CLR,,,,,,,,,,,,,,,,KACT 080125Z AUTO 14009KT 10SM CLR 13/02 A2989 RMK T01300020 MADISHF
ACT,2021-02-08 01:30,,,,140.00,10.00,,29.91,,10.00,,CLR,,,,,,,,,,,,,,,,KACT 080130Z AUTO 14010KT 10SM CLR 13/02 A2990 RMK T01300020 MADISHF
ACT,2021-02-08 01:35,,,,140.00,9.00,,29.91,,10.00,,CLR,,,,,,,,,,,,,,,,KACT 080135Z AUTO 14009KT 10SM CLR 14/02 A2990 RMK T01400020 MADISHF
ACT,2021-02-08 01:40,,,,130.00,7.00,,29.91,,10.00,,CLR,,,,,,,,,,,,,,,,KACT 080140Z AUTO 13007KT 10SM CLR 13/02 A2990 RMK T01300020 MADISHF
ACT,2021-02-08 01:45,,,,110.00,7.00,,29.91,,10.00,,CLR,,,,,,,,,,,,,,,,KACT 080145Z AUTO 11007KT 10SM CLR 12/02 A2990 RMK T01200020 MADISHF
ACT,2021-02-08 01:50,,,,120.00,8.00,,29.91,,10.00,,CLR,,,,,,,,,,,,,,,,KACT 080150Z AUTO 12008KT 10SM CLR 11/02 A2990 RMK T01100020 MADISHF
ACT,2021-02-08 01:51,52.00,35.10,52.36,120.00,8.00,0.00,29.91,1012.70,10.00,,CLR,,,,,,,,,,,,,,,,KACT 080151Z 12008KT 10SM CLR 11/02 A2991 RMK AO2 SLP127 T01110017
ACT,2021-02-08 01:55,,,,120.00,8.00,,29.91,,10.00,,CLR,,,,,,,,,,,,,,,,KACT 080155Z AUTO 12008KT 10SM CLR 12/02 A2990 RMK T01200020 MADISHF
ACT,2021-02-08 02:00,,,,120.00,9.00,,29.91,,10.00,,CLR,,,,,,,,,,,,,,,,KACT 080200Z AUTO 12009KT 10SM CLR 12/02 A2990 RMK T01200020 MADISHF
ACT,2021-02-08 02:05,,,,120.00,9.00,,29.91,,10.00,,CLR,,,,,,,,,,,,,,,,KACT 080205Z AUTO 12009KT 10SM CLR 12/02 A2990 RMK T01200020 MADISHF
ACT,2021-02-08 02:10,,,,130.00,9.00,,29.91,,10.00,,CLR,,,,,,,,,,,,,,,,KACT 080210Z AUTO 13009KT 10SM CLR 12/02 A2990 RMK T01200020 MADISHF
ACT,2021-02-08 02:15,,,,130.00,9.00,,29.91,,10.00,,CLR,,,,,,,,,,,,,,,,KACT 080215Z AUTO 13009KT 10SM CLR 11/02 A2990 RMK T01100020 MADISHF
ACT,2021-02-08 02:20,,,,140.00,9.00,,29.91,,10.00,,CLR,,,,,,,,,,,,,,,,KACT 080220Z AUTO 14009KT 10SM CLR 12/02 A2990 RMK T01200020 MADISHF
ACT,2021-02-08 02:25,,,,140.00,9.00,,29.90,,10.00,,CLR,,,,,,,,,,,,,,,,KACT 080225Z AUTO 14009KT 10SM CLR 12/02 A2989 RMK T01200020 MADISHF
ACT,2021-02-08 02:30,,,,140.00,10.00,,29.91,,10.00,,CLR,,,,,,,,,,,,,,,,KACT 080230Z AUTO 14010KT 10SM CLR 13/02 A2990 RMK T01300020 MADISHF
ACT,2021-02-08 02:35,,,,140.00,11.00,,29.90,,10.00,,CLR,,,,,,,,,,,,,,,,KACT 080235Z AUTO 14011KT 10SM CLR 13/02 A2989 RMK T01300020 MADISHF
ACT,2021-02-08 02:40,,,,140.00,10.00,,29.91,,10.00,,CLR,,,,,,,,,,,,,,,,KACT 080240Z AUTO 14010KT 10SM CLR 13/03 A2990 RMK T01300030 MADISHF
ACT,2021-02-08 02:45,,,,140.00,9.00,,29.91,,10.00,,CLR,,,,,,,,,,,,,,,,KACT 080245Z AUTO 14009KT 10SM CLR 13/03 A2990 RMK T01300030 MADISHF
ACT,2021-02-08 02:50,,,,150.00,11.00,,29.91,,10.00,,CLR,,,,,,,,,,,,,,,,KACT 080250Z AUTO 15011KT 10SM CLR 13/03 A2990 RMK T01300030 MADISHF
ACT,2021-02-08 02:51,55.90,37.00,48.95,150.00,11.00,0.00,29.91,1012.70,10.00,,CLR,,,,,,,,,,,,,,,,KACT 080251Z 15011KT 10SM CLR 13/03 A2991 RMK AO2 SLP127 T01330028 51006
ACT,2021-02-08 02:55,,,,150.00,11.00,,29.91,,10.00,,CLR,,,,,,,,,,,,,,,,KACT 080255Z AUTO 15011KT 10SM CLR 13/03 A2990 RMK T01300030 MADISHF
ACT,2021-02-08 03:00,,,,150.00,11.00,,29.91,,10.00,,CLR,,,,,,,,,,,,,,,,KACT 080300Z AUTO 15011KT 10SM CLR 14/03 A2990 RMK T01400030 MADISHF
ACT,2021-02-08 03:05,,,,150.00,11.00,,29.91,,10.00,,CLR,,,,,,,,,,,,,,,,KACT 080305Z AUTO 15011KT 10SM CLR 13/03 A2990 RMK T01300030 MADISHF
ACT,2021-02-08 03:10,,,,150.00,10.00,,29.91,,10.00,,CLR,,,,,,,,,,,,,,,,KACT 080310Z AUTO 15010KT 10SM CLR 13/03 A2990 RMK T01300030 MADISHF
ACT,2021-02-08 03:15,,,,150.00,10.00,,29.91,,10.00,,CLR,,,,,,,,,,,,,,,,KACT 080315Z AUTO 15010KT 10SM CLR 13/03 A2990 RMK T01300030 MADISHF
ACT,2021-02-08 03:20,,,,150.00,11.00,,29.91,,10.00,,CLR,,,,,,,,,,,,,,,,KACT 080320Z AUTO 15011KT 10SM CLR 13/03 A2990 RMK T01300030 MADISHF
ACT,2021-02-08 03:25,,,,160.00,11.00,,29.92,,10.00,,CLR,,,,,,,,,,,,,,,,KACT 080325Z AUTO 16011KT 10SM CLR 13/03 A2992 RMK T01300030 MADISHF
ACT,2021-02-08 03:30,,,,150.00,11.00,,29.92,,10.00,,CLR,,,,,,,,,,,,,,,,KACT 080330Z AUTO 15011KT 10SM CLR 13/03 A2992 RMK T01300030 MADISHF
ACT,2021-02-08 03:35,,,,150.00,11.00,,29.92,,10.00,,CLR,,,,,,,,,,,,,,,,KACT 080335Z AUTO 15011KT 10SM CLR 13/03 A2992 RMK T01300030 MADISHF
ACT,2021-02-08 03:40,,,,150.00,11.00,,29.92,,10.00,17.00,CLR,,,,,,,,,,,,,,,,KACT 080340Z AUTO 15011G17KT 10SM CLR 13/04 A2992 RMK T01300040 MADISHF
ACT,2021-02-08 03:45,,,,150.00,13.00,,29.92,,10.00,,CLR,,,,,,,,,,,,,,,,KACT 080345Z AUTO 15013KT 10SM CLR 13/04 A2992 RMK T01300040 MADISHF
ACT,2021-02-08 03:50,,,,160.00,13.00,,29.92,,10.00,19.00,CLR,,,,,,,,,,,,,,,,KACT 080350Z AUTO 16013G19KT 10SM CLR 13/04 A2992 RMK T01300040 MADISHF
ACT,2021-02-08 03:51,55.90,39.00,52.94,160.00,13.00,0.00,29.92,1013.00,10.00,,CLR,,,,,,,,,,,,,,,,KACT 080351Z 16013KT 10SM CLR 13/04 A2992 RMK AO2 SLP130 T01330039
ACT,2021-02-08 03:55,,,,160.00,13.00,,29.92,,10.00,,CLR,,,,,,,,,,,,,,,,KACT 080355Z AUTO 16013KT 10SM CLR 13/04 A2992 RMK T01300040 MADISHF
ACT,2021-02-08 04:00,,,,160.00,11.00,,29.92,,10.00,,CLR,,,,,,,,,,,,,,,,KACT 080400Z AUTO 16011KT 10SM CLR 13/04 A2992 RMK T01300040 MADISHF
ACT,2021-02-08 04:05,,,,160.00,13.00,,29.92,,10.00,,CLR,,,,,,,,,,,,,,,,KACT 080405Z AUTO 16013KT 10SM CLR 13/04 A2992 RMK T01300040 MADISHF
ACT,2021-02-08 04:10,,,,160.00,13.00,,29.93,,10.00,,CLR,,,,,,,,,,,,,,,,KACT 080410Z AUTO 16013KT 10SM CLR 13/04 A2993 RMK T01300040 MADISHF
ACT,2021-02-08 04:15,,,,160.00,14.00,,29.92,,10.00,,CLR,,,,,,,,,,,,,,,,KACT 080415Z AUTO 16014KT 10SM CLR 13/04 A2992 RMK T01300040 MADISHF
ACT,2021-02-08 04:20,,,,160.00,16.00,,29.92,,10.00,,CLR,,,,,,,,,,,,,,,,KACT 080420Z AUTO 16016KT 10SM CLR 13/04 A2992 RMK T01300040 MADISHF
ACT,2021-02-08 04:25,,,,160.00,15.00,,29.92,,10.00,,CLR,,,,,,,,,,,,,,,,KACT 080425Z AUTO 16015KT 10SM CLR 13/04 A2992 RMK T01300040 MADISHF
ACT,2021-02-08 04:30,,,,160.00,16.00,,29.93,,10.00,,CLR,,,,,,,,,,,,,,,,KACT 080430Z AUTO 16016KT 10SM CLR 13/04 A2993 RMK T01300040 MADISHF
ACT,2021-02-08 04:35,,,,160.00,16.00,,29.93,,10.00,,CLR,,,,,,,,,,,,,,,,KACT 080435Z AUTO 16016KT 10SM CLR 13/04 A2993 RMK T01300040 MADISHF
ACT,2021-02-08 04:40,,,,160.00,14.00,,29.93,,10.00,,CLR,,,,,,,,,,,,,,,,KACT 080440Z AUTO 16014KT 10SM CLR 13/04 A2993 RMK T01300040 MADISHF
ACT,2021-02-08 04:45,,,,160.00,14.00,,29.93,,10.00,,CLR,,,,,,,,,,,,,,,,KACT 080445Z AUTO 16014KT 10SM CLR 13/05 A2993 RMK T01300050 MADISHF
ACT,2021-02-08 04:50,,,,160.00,14.00,,29.93,,10.00,,CLR,,,,,,,,,,,,,,,,KACT 080450Z AUTO 16014KT 10SM CLR 13/05 A2993 RMK T01300050 MADISHF
ACT,2021-02-08 04:51,55.00,41.00,59.13,160.00,14.00,0.00,29.93,1013.20,10.00,,CLR,,,,,,,,,,,,,,,,KACT 080451Z 16014KT 10SM CLR 13/05 A2993 RMK AO2 SLP132 T01280050
ACT,2021-02-08 04:55,,,,160.00,14.00,,29.93,,10.00,,CLR,,,,,,,,,,,,,,,,KACT 080455Z AUTO 16014KT 10SM CLR 13/05 A2993 RMK T01300050 MADISHF
ACT,2021-02-08 05:00,,,,160.00,13.00,,29.93,,10.00,,CLR,,,,,,,,,,,,,,,,KACT 080500Z AUTO 16013KT 10SM CLR 13/05 A2993 RMK T01300050 MADISHF
ACT,2021-02-08 05:05,,,,160.00,15.00,,29.93,,10.00,,CLR,,,,,,,,,,,,,,,,KACT 080505Z AUTO 16015KT 10SM CLR 13/05 A2993 RMK T01300050 MADISHF
ACT,2021-02-08 05:10,,,,160.00,14.00,,29.93,,10.00,,CLR,,,,,,,,,,,,,,,,KACT 080510Z AUTO 16014KT 10SM CLR 13/05 A2993 RMK T01300050 MADISHF
ACT,2021-02-08 05:15,,,,160.00,13.00,,29.93,,10.00,,CLR,,,,,,,,,,,,,,,,KACT 080515Z AUTO 16013KT 10SM CLR 12/05 A2993 RMK T01200050 MADISHF
ACT,2021-02-08 05:20,,,,160.00,13.00,,29.93,,10.00,,CLR,,,,,,,,,,,,,,,,KACT 080520Z AUTO 16013KT 10SM CLR 12/05 A2993 RMK T01200050 MADISHF
ACT,2021-02-08 05:25,,,,160.00,11.00,,29.93,,10.00,,CLR,,,,,,,,,,,,,,,,KACT 080525Z AUTO 16011KT 10SM CLR 12/05 A2993 RMK T01200050 MADISHF
ACT,2021-02-08 05:30,,,,160.00,11.00,,29.93,,10.00,,CLR,,,,,,,,,,,,,,,,KACT 080530Z AUTO 16011KT 10SM CLR 12/05 A2993 RMK T01200050 MADISHF
ACT,2021-02-08 05:35,,,,150.00,10.00,,29.93,,10.00,,CLR,,,,,,,,,,,,,,,,KACT 080535Z AUTO 15010KT 10SM CLR 12/05 A2993 RMK T01200050 MADISHF
ACT,2021-02-08 05:40,,,,150.00,11.00,,29.93,,10.00,,CLR,,,,,,,,,,,,,,,,KACT 080540Z AUTO 15011KT 10SM CLR 12/05 A2993 RMK T01200050 MADISHF
ACT,2021-02-08 05:45,,,,150.00,10.00,,29.94,,10.00,,CLR,,,,,,,,,,,,,,,,KACT 080545Z AUTO 15010KT 10SM CLR 12/05 A2994 RMK T01200050 MADISHF
ACT,2021-02-08 05:50,,,,160.00,10.00,,29.94,,10.00,,CLR,,,,,,,,,,,,,,,,KACT 080550Z AUTO 16010KT 10SM CLR 12/05 A2994 RMK T01200050 MADISHF
ACT,2021-02-08 05:51,53.10,41.00,63.38,160.00,10.00,0.00,29.94,1013.50,10.00,,CLR,,,,,,,,,,,,,,,,KACT 080551Z 16010KT 10SM CLR 12/05 A2994 RMK AO2 SLP135 T01170050 10161 20111 401831022 51009
ACT,2021-02-08 05:55,,,,160.00,10.00,,29.94,,10.00,,CLR,,,,,,,,,,,,,,,,KACT 080555Z AUTO 16010KT 10SM CLR 11/05 A2994 RMK T01100050 MADISHF
ACT,2021-02-08 06:00,,,,160.00,10.00,,29.93,,10.00,,CLR,,,,,,,,,,,,,,,,KACT 080600Z AUTO 16010KT 10SM CLR 11/05 A2993 RMK T01100050 MADISHF
ACT,2021-02-08 06:05,,,,160.00,10.00,,29.94,,10.00,,CLR,,,,,,,,,,,,,,,,KACT 080605Z AUTO 16010KT 10SM CLR 11/06 A2994 RMK T01100060 MADISHF
ACT,2021-02-08 06:10,,,,160.00,10.00,,29.94,,10.00,,CLR,,,,,,,,,,,,,,,,KACT 080610Z AUTO 16010KT 10SM CLR 11/06 A2994 RMK T01100060 MADISHF
ACT,2021-02-08 06:15,,,,160.00,10.00,,29.94,,10.00,,CLR,,,,,,,,,,,,,,,,KACT 080615Z AUTO 16010KT 10SM CLR 11/06 A2994 RMK T01100060 MADISHF
ACT,2021-02-08 06:20,,,,160.00,11.00,,29.93,,10.00,,CLR,,,,,,,,,,,,,,,,KACT 080620Z AUTO 16011KT 10SM CLR 11/06 A2993 RMK T01100060 MADISHF
ACT,2021-02-08 06:25,,,,160.00,11.00,,29.93,,10.00,,CLR,,,,,,,,,,,,,,,,KACT 080625Z AUTO 16011KT 10SM CLR 11/06 A2993 RMK T01100060 MADISHF
ACT,2021-02-08 06:30,,,,160.00,11.00,,29.93,,10.00,,CLR,,,,,,,,,,,,,,,,KACT 080630Z AUTO 16011KT 10SM CLR 11/06 A2993 RMK T01100060 MADISHF
ACT,2021-02-08 06:35,,,,150.00,11.00,,29.93,,10.00,,CLR,,,,,,,,,,,,,,,,KACT 080635Z AUTO 15011KT 10SM CLR 11/06 A2993 RMK T01100060 MADISHF
ACT,2021-02-08 06:40,,,,160.00,13.00,,29.93,,10.00,,CLR,,,,,,,,,,,,,,,,KACT 080640Z AUTO 16013KT 10SM CLR 11/06 A2993 RMK T01100060 MADISHF
ACT,2021-02-08 06:45,,,,160.00,13.00,,29.93,,10.00,,CLR,,,,,,,,,,,,,,,,KACT 080645Z AUTO 16013KT 10SM CLR 11/06 A2993 RMK T01100060 MADISHF
ACT,2021-02-08 06:50,,,,160.00,11.00,,29.93,,10.00,,CLR,,,,,,,,,,,,,,,,KACT 080650Z AUTO 16011KT 10SM CLR 11/06 A2993 RMK T01100060 MADISHF
ACT,2021-02-08 06:51,51.10,43.00,73.69,160.00,14.00,0.00,29.93,1013.20,10.00,,CLR,,,,,,,,,,,,,,,,KACT 080651Z AUTO 16014KT 10SM CLR 11/06 A2993 RMK AO2 SLP132 T01060061
ACT,2021-02-08 06:55,,,,160.00,11.00,,29.93,,10.00,,CLR,,,,,,,,,,,,,,,,KACT 080655Z AUTO 16011KT 10SM CLR 11/06 A2993 RMK T01100060 MADISHF
ACT,2021-02-08 07:00,,,,160.00,11.00,,29.93,,10.00,,CLR,,,,,,,,,,,,,,,,KACT 080700Z AUTO 16011KT 10SM CLR 11/06 A2993 RMK T01100060 MADISHF
ACT,2021-02-08 07:05,,,,160.00,11.00,,29.93,,10.00,,CLR,,,,,,,,,,,,,,,,KACT 080705Z AUTO 16011KT 10SM CLR 11/06 A2993 RMK T01100060 MADISHF
ACT,2021-02-08 07:10,,,,160.00,13.00,,29.93,,10.00,,CLR,,,,,,,,,,,,,,,,KACT 080710Z AUTO 16013KT 10SM CLR 11/06 A2993 RMK T01100060 MADISHF
ACT,2021-02-08 07:15,,,,160.00,11.00,,29.93,,10.00,,CLR,,,,,,,,,,,,,,,,KACT 080715Z AUTO 16011KT 10SM CLR 11/06 A2993 RMK T01100060 MADISHF
ACT,2021-02-08 07:20,,,,160.00,13.00,,29.93,,10.00,,CLR,,,,,,,,,,,,,,,,KACT 080720Z AUTO 16013KT 10SM CLR 11/07 A2993 RMK T01100070 MADISHF
ACT,2021-02-08 07:25,,,,170.00,11.00,,29.93,,10.00,,CLR,,,,,,,,,,,,,,,,KACT 080725Z AUTO 17011KT 10SM CLR 11/07 A2993 RMK T01100070 MADISHF
ACT,2021-02-08 07:30,,,,160.00,11.00,,29.93,,10.00,,CLR,,,,,,,,,,,,,,,,KACT 080730Z AUTO 16011KT 10SM CLR 11/07 A2993 RMK T01100070 MADISHF
ACT,2021-02-08 07:35,,,,170.00,11.00,,29.93,,10.00,,CLR,,,,,,,,,,,,,,,,KACT 080735Z AUTO 17011KT 10SM CLR 11/07 A2993 RMK T01100070 MADISHF
ACT,2021-02-08 07:40,,,,170.00,11.00,,29.94,,10.00,,CLR,,,,,,,,,,,,,,,,KACT 080740Z AUTO 17011KT 10SM CLR 11/07 A2994 RMK T01100070 MADISHF
ACT,2021-02-08 07:45,,,,170.00,11.00,,29.94,,10.00,,CLR,,,,,,,,,,,,,,,,KACT 080745Z AUTO 17011KT 10SM CLR 10/07 A2994 RMK T01000070 MADISHF
ACT,2021-02-08 07:50,,,,160.00,11.00,,29.93,,10.00,,CLR,,,,,,,,,,,,,,,,KACT 080750Z AUTO 16011KT 10SM CLR 10/07 A2993 RMK T01000070 MADISHF
ACT,2021-02-08 07:51,50.00,44.10,80.06,170.00,12.00,0.00,29.93,1013.30,10.00,,CLR,,,,,,,,,,,,,,,,KACT 080751Z AUTO 17012KT 10SM CLR 10/07 A2993 RMK AO2 SLP133 T01000067
ACT,2021-02-08 07:55,,,,160.00,11.00,,29.93,,10.00,,CLR,,,,,,,,,,,,,,,,KACT 080755Z AUTO 16011KT 10SM CLR 10/07 A2993 RMK T01000070 MADISHF
ACT,2021-02-08 08:00,,,,170.00,11.00,,29.94,,10.00,,CLR,,,,,,,,,,,,,,,,KACT 080800Z AUTO 17011KT 10SM CLR 10/07 A2994 RMK T01000070 MADISHF
ACT,2021-02-08 08:05,,,,170.00,11.00,,29.93,,10.00,,CLR,,,,,,,,,,,,,,,,KACT 080805Z AUTO 17011KT 10SM CLR 10/07 A2993 RMK T01000070 MADISHF
ACT,2021-02-08 08:10,,,,160.00,11.00,,29.93,,10.00,,CLR,,,,,,,,,,,,,,,,KACT 080810Z AUTO 16011KT 10SM CLR 10/07 A2993 RMK T01000070 MADISHF
ACT,2021-02-08 08:15,,,,160.00,11.00,,29.93,,10.00,,CLR,,,,,,,,,,,,,,,,KACT 080815Z AUTO 16011KT 10SM CLR 10/07 A2993 RMK T01000070 MADISHF
ACT,2021-02-08 08:20,,,,160.00,10.00,,29.93,,10.00,,FEW,,,,1300.00,,,,,,,,,,,,KACT 080820Z AUTO 16010KT 10SM FEW013 10/07 A2993 RMK T01000070 MADISHF
ACT,2021-02-08 08:25,,,,160.00,10.00,,29.93,,10.00,,SCT,,,,1300.00,,,,,,,,,,,,KACT 080825Z AUTO 16010KT 10SM SCT013 10/07 A2993 RMK T01000070 MADISHF
ACT,2021-02-08 08:30,,,,160.00,13.00,,29.93,,10.00,,BKN,,,,1300.00,,,,,,,,,,,,KACT 080830Z AUTO 16013KT 10SM BKN013 11/08 A2993 RMK T01100080 MADISHF
ACT,2021-02-08 08:34,51.10,46.00,82.62,160.00,13.00,0.00,29.93,,10.00,,BKN,,,,1300.00,,,,,,,,,,,,KACT 080834Z AUTO 16013KT 10SM BKN013 11/08 A2993 RMK AO2 T01060078
ACT,2021-02-08 08:35,,,,160.00,13.00,,29.93,,10.00,,BKN,,,,1100.00,,,,,,,,,,,,KACT 080835Z AUTO 16013KT 10SM BKN011 11/08 A2993 RMK T01100080 MADISHF
ACT,2021-02-08 08:40,,,,170.00,13.00,,29.93,,10.00,,BKN,,,,1100.00,,,,,,,,,,,,KACT 080840Z AUTO 17013KT 10SM BKN011 11/08 A2993 RMK T01100080 MADISHF
ACT,2021-02-08 08:45,,,,170.00,11.00,,29.93,,10.00,,OVC,,,,1100.00,,,,,,,,,,,,KACT 080845Z AUTO 17011KT 10SM OVC011 11/08 A2993 RMK T01100080 CIG 9V13  MADISHF
ACT,2021-02-08 08:50,,,,160.00,10.00,,29.93,,10.00,,OVC,,,,999.00,,,,,,,,,,,,KACT 080850Z AUTO 16010KT 10SM OVC009 11/08 A2993 RMK T01100080 CIG 9V13  MADISHF
ACT,2021-02-08 08:51,51.10,46.00,82.62,160.00,11.00,0.00,29.93,1013.10,10.00,,OVC,,,,1000.00,,,,,,,,,,,,KACT 080851Z AUTO 16011KT 10SM OVC010 11/08 A2993 RMK AO2 CIG 009V013 SLP131 T01060078 58003
ACT,2021-02-08 08:55,,,,160.00,10.00,,29.93,,10.00,,OVC,,,,999.00,,,,,,,,,,,,KACT 080855Z AUTO 16010KT 10SM OVC009 11/08 A2993 RMK T01100080 MADISHF
ACT,2021-02-08 09:00,,,,160.00,10.00,,29.93,,10.00,,OVC,,,,999.00,,,,,,,,,,,,KACT 080900Z AUTO 16010KT 10SM OVC009 11/08 A2993 RMK T01100080 MADISHF
ACT,2021-02-08 09:05,,,,170.00,11.00,,29.93,,10.00,,OVC,,,,999.00,,,,,,,,,,,,KACT 080905Z AUTO 17011KT 10SM OVC009 11/08 A2993 RMK T01100080 MADISHF
ACT,2021-02-08 09:10,,,,170.00,11.00,,29.93,,10.00,,OVC,,,,999.00,,,,,,,,,,,,KACT 080910Z AUTO 17011KT 10SM OVC009 11/08 A2993 RMK T01100080 MADISHF
ACT,2021-02-08 09:15,,,,170.00,11.00,,29.93,,10.00,,OVC,,,,900.00,,,,,,,,,,,,KACT 080915Z AUTO 17011KT 10SM OVC009 11/08 A2993 RMK T01100080 MADISHF
ACT,2021-02-08 09:19,51.10,46.00,82.62,170.00,11.00,0.00,29.93,,10.00,,OVC,,,,900.00,,,,,,,,,,,,KACT 080919Z AUTO 17011KT 10SM OVC009 11/08 A2993 RMK AO2 T01060078
ACT,2021-02-08 09:20,,,,170.00,11.00,,29.93,,10.00,,OVC,,,,900.00,,,,,,,,,,,,KACT 080920Z AUTO 17011KT 10SM OVC009 11/08 A2993 RMK T01100080 MADISHF
ACT,2021-02-08 09:25,,,,170.00,15.00,,29.93,,10.00,,OVC,,,,800.00,,,,,,,,,,,,KACT 080925Z AUTO 17015KT 10SM OVC008 11/08 A2993 RMK T01100080 MADISHF
ACT,2021-02-08 09:30,,,,170.00,13.00,,29.93,,10.00,,OVC,,,,800.00,,,,,,,,,,,,KACT 080930Z AUTO 17013KT 10SM OVC008 11/08 A2993 RMK T01100080 MADISHF
ACT,2021-02-08 09:35,,,,170.00,13.00,,29.93,,10.00,,OVC,,,,700.00,,,,,,,,,,,,KACT 080935Z AUTO 17013KT 10SM OVC007 11/08 A2993 RMK T01100080 MADISHF
ACT,2021-02-08 09:40,,,,170.00,13.00,,29.93,,10.00,,OVC,,,,700.00,,,,,,,,,,,,KACT 080940Z AUTO 17013KT 10SM OVC007 11/08 A2993 RMK T01100080 MADISHF
ACT,2021-02-08 09:45,,,,170.00,13.00,,29.93,,10.00,,OVC,,,,700.00,,,,,,,,,,,,KACT 080945Z AUTO 17013KT 10SM OVC007 11/08 A2993 RMK T01100080 MADISHF
ACT,2021-02-08 09:50,,,,170.00,11.00,,29.93,,10.00,,OVC,,,,700.00,,,,,,,,,,,,KACT 080950Z AUTO 17011KT 10SM OVC007 11/09 A2993 RMK T01100090 MADISHF
ACT,2021-02-08 09:51,51.10,48.00,89.09,170.00,11.00,0.00,29.93,1013.30,10.00,,OVC,,,,700.00,,,,,,,,,,,,KACT 080951Z AUTO 17011KT 10SM OVC007 11/09 A2993 RMK AO2 SLP133 T01060089
ACT,2021-02-08 09:55,,,,170.00,11.00,,29.93,,9.00,,OVC,,,,700.00,,,,,,,,,,,,KACT 080955Z AUTO 17011KT 9SM OVC007 11/09 A2993 RMK T01100090 MADISHF
ACT,2021-02-08 10:00,,,,160.00,10.00,,29.93,,9.00,,OVC,,,,600.00,,,,,,,,,,,,KACT 081000Z AUTO 16010KT 9SM OVC006 11/09 A2993 RMK T01100090 MADISHF
ACT,2021-02-08 10:05,,,,160.00,13.00,,29.93,,9.00,,OVC,,,,600.00,,,,,,,,,,,,KACT 081005Z AUTO 16013KT 9SM OVC006 11/09 A2993 RMK T01100090 MADISHF
ACT,2021-02-08 10:10,,,,170.00,11.00,,29.93,,9.00,,OVC,,,,600.00,,,,,,,,,,,,KACT 081010Z AUTO 17011KT 9SM OVC006 11/09 A2993 RMK T01100090 MADISHF
ACT,2021-02-08 10:15,,,,170.00,11.00,,29.93,,9.00,,OVC,,,,600.00,,,,,,,,,,,,KACT 081015Z AUTO 17011KT 9SM OVC006 11/09 A2993 RMK T01100090 MADISHF
ACT,2021-02-08 10:20,,,,160.00,11.00,,29.93,,9.00,,OVC,,,,600.00,,,,,,,,,,,,KACT 081020Z AUTO 16011KT 9SM OVC006 11/09 A2993 RMK T01100090 MADISHF
ACT,2021-02-08 10:25,,,,170.00,10.00,,29.93,,8.00,,OVC,,,,600.00,,,,,,,,,,,,KACT 081025Z AUTO 17010KT 8SM OVC006 11/09 A2993 RMK T01100090 MADISHF
ACT,2021-02-08 10:30,,,,170.00,10.00,,29.93,,8.00,,OVC,,,,600.00,,,,,,,,,,,,KACT 081030Z AUTO 17010KT 8SM OVC006 11/09 A2993 RMK T01100090 MADISHF
ACT,2021-02-08 10:35,,,,170.00,9.00,,29.93,,8.00,,OVC,,,,600.00,,,,,,,,,,,,KACT 081035Z AUTO 17009KT 8SM OVC006 11/09 A2993 RMK T01100090 MADISHF
ACT,2021-02-08 10:40,,,,170.00,10.00,,29.94,,8.00,,OVC,,,,600.00,,,,,,,,,,,,KACT 081040Z AUTO 17010KT 8SM OVC006 11/09 A2994 RMK T01100090 MADISHF
ACT,2021-02-08 10:45,,,,170.00,11.00,,29.94,,8.00,,OVC,,,,600.00,,,,,,,,,,,,KACT 081045Z AUTO 17011KT 8SM OVC006 11/09 A2994 RMK T01100090 MADISHF
ACT,2021-02-08 10:50,,,,170.00,13.00,,29.93,,9.00,,OVC,,,,600.00,,,,,,,,,,,,KACT 081050Z AUTO 17013KT 9SM OVC006 11/09 A2993 RMK T01100090 MADISHF
ACT,2021-02-08 10:51,52.00,48.00,86.17,170.00,14.00,0.00,29.93,1013.20,9.00,,OVC,,,,600.00,,,,,,,,,,,,KACT 081051Z AUTO 17014KT 9SM OVC006 11/09 A2993 RMK AO2 SLP132 T01110089
ACT,2021-02-08 10:55,,,,170.00,14.00,,29.93,,9.00,,OVC,,,,600.00,,,,,,,,,,,,KACT 081055Z AUTO 17014KT 9SM OVC006 11/09 A2993 RMK T01100090 MADISHF
ACT,2021-02-08 11:00,,,,170.00,11.00,,29.93,,8.00,,OVC,,,,600.00,,,,,,,,,,,,KACT 081100Z AUTO 17011KT 8SM OVC006 11/09 A2993 RMK T01100090 MADISHF
ACT,2021-02-08 11:05,,,,160.00,11.00,,29.93,,8.00,,OVC,,,,600.00,,,,,,,,,,,,KACT 081105Z AUTO 16011KT 8SM OVC006 11/09 A2993 RMK T01100090 MADISHF
ACT,2021-02-08 11:10,,,,170.00,11.00,,29.94,,8.00,,OVC,,,,600.00,,,,,,,,,,,,KACT 081110Z AUTO 17011KT 8SM OVC006 11/09 A2994 RMK T01100090 MADISHF
ACT,2021-02-08 11:15,,,,160.00,11.00,,29.94,,8.00,17.00,OVC,,,,600.00,,,,,,,,,,,,KACT 081115Z AUTO 16011G17KT 8SM OVC006 11/09 A2994 RMK T01100090 MADISHF
ACT,2021-02-08 11:20,,,,170.00,11.00,,29.94,,8.00,,OVC,,,,600.00,,,,,,,,,,,,KACT 081120Z AUTO 17011KT 8SM OVC006 11/09 A2994 RMK T01100090 MADISHF
ACT,2021-02-08 11:25,,,,160.00,13.00,,29.94,,8.00,,OVC,,,,600.00,,,,,,,,,,,,KACT 081125Z AUTO 16013KT 8SM OVC006 11/09 A2994 RMK T01100090 MADISHF
ACT,2021-02-08 11:30,,,,160.00,11.00,,29.93,,8.00,,OVC,,,,600.00,,,,,,,,,,,,KACT 081130Z AUTO 16011KT 8SM OVC006 11/09 A2993 RMK T01100090 MADISHF
ACT,2021-02-08 11:35,,,,160.00,11.00,,29.93,,8.00,,OVC,,,,600.00,,,,,,,,,,,,KACT 081135Z AUTO 16011KT 8SM OVC006 11/09 A2993 RMK T01100090 MADISHF
ACT,2021-02-08 11:40,,,,160.00,11.00,,29.94,,7.00,,OVC,,,,499.00,,,,,,,,,,,,KACT 081140Z AUTO 16011KT 7SM OVC004 11/09 A2994 RMK T01100090 MADISHF
ACT,2021-02-08 11:45,,,,160.00,13.00,,29.93,,7.00,,OVC,,,,499.00,,,,,,,,,,,,KACT 081145Z AUTO 16013KT 7SM OVC004 11/09 A2993 RMK T01100090 MADISHF
ACT,2021-02-08 11:50,,,,160.00,15.00,,29.93,,7.00,,OVC,,,,499.00,,,,,,,,,,,,KACT 081150Z AUTO 16015KT 7SM OVC004 11/09 A2993 RMK T01100090 MADISHF
ACT,2021-02-08 11:51,52.00,48.90,89.13,160.00,16.00,0.00,29.93,1013.30,7.00,,OVC,,,,500.00,,,,,,,,,,,,KACT 081151Z 16016KT 7SM OVC005 11/09 A2993 RMK AO2 SLP133 T01110094 10111 20100 51002
ACT,2021-02-08 11:55,,,,160.00,13.00,,29.93,,6.00,18.00,OVC,,,,499.00,,,,BR,,,,,,,,KACT 081155Z AUTO 16013G18KT 6SM BR OVC004 11/09 A2993 RMK T01100090 MADISHF
ACT,2021-02-08 12:00,,,,160.00,15.00,,29.93,,6.00,,OVC,,,,499.00,,,,BR,,,,,,,,KACT 081200Z AUTO 16015KT 6SM BR OVC004 11/09 A2993 RMK T01100090 MADISHF
ACT,2021-02-08 12:05,,,,160.00,15.00,,29.93,,6.00,,OVC,,,,499.00,,,,BR,,,,,,,,KACT 081205Z AUTO 16015KT 6SM BR OVC004 11/09 A2993 RMK T01100090 MADISHF
ACT,2021-02-08 12:10,,,,160.00,13.00,,29.93,,5.00,,OVC,,,,499.00,,,,BR,,,,,,,,KACT 081210Z AUTO 16013KT 5SM BR OVC004 11/09 A2993 RMK T01100090 MADISHF
ACT,2021-02-08 12:15,,,,160.00,16.00,,29.93,,5.00,,OVC,,,,400.00,,,,BR,,,,,,,,KACT 081215Z AUTO 16016KT 5SM BR OVC004 11/10 A2993 RMK T01100100 MADISHF
ACT,2021-02-08 12:20,,,,160.00,16.00,,29.94,,5.00,,OVC,,,,400.00,,,,BR,,,,,,,,KACT 081220Z AUTO 16016KT 5SM BR OVC004 11/09 A2994 RMK T01100090 MADISHF
ACT,2021-02-08 12:21,52.00,48.90,89.13,160.00,16.00,0.00,29.94,,5.00,,OVC,,,,400.00,,,,BR,,,,,,,,KACT 081221Z 16016KT 5SM BR OVC004 11/09 A2994 RMK AO2 T01110094
ACT,2021-02-08 12:25,,,,170.00,13.00,,29.94,,5.00,,OVC,,,,400.00,,,,BR,,,,,,,,KACT 081225Z AUTO 17013KT 5SM BR OVC004 11/10 A2994 RMK T01100100 MADISHF
ACT,2021-02-08 12:30,,,,170.00,13.00,,29.94,,5.00,,OVC,,,,400.00,,,,BR,,,,,,,,KACT 081230Z AUTO 17013KT 5SM BR OVC004 11/10 A2994 RMK T01100100 MADISHF
ACT,2021-02-08 12:35,,,,170.00,11.00,,29.95,,5.00,,OVC,,,,400.00,,,,BR,,,,,,,,KACT 081235Z AUTO 17011KT 5SM BR OVC004 11/10 A2995 RMK T01100100 MADISHF
ACT,2021-02-08 12:40,,,,170.00,11.00,,29.95,,4.00,,OVC,,,,400.00,,,,BR,,,,,,,,KACT 081240Z AUTO 17011KT 4SM BR OVC004 11/10 A2995 RMK T01100100 MADISHF
ACT,2021-02-08 12:45,,,,160.00,11.00,,29.95,,4.00,,OVC,,,,400.00,,,,BR,,,,,,,,KACT 081245Z AUTO 16011KT 4SM BR OVC004 11/10 A2995 RMK T01100100 MADISHF
ACT,2021-02-08 12:50,,,,160.00,11.00,,29.95,,4.00,,OVC,,,,400.00,,,,BR,,,,,,,,KACT 081250Z AUTO 16011KT 4SM BR OVC004 11/10 A2995 RMK T01100100 MADISHF
ACT,2021-02-08 12:51,52.00,48.90,89.13,160.00,13.00,0.00,29.95,1013.90,3.00,,OVC,,,,400.00,,,,BR,,,,,,,,KACT 081251Z 16013KT 3SM BR OVC004 11/09 A2995 RMK AO2 SLP139 T01110094
ACT,2021-02-08 12:55,,,,160.00,13.00,,29.95,,3.00,,OVC,,,,400.00,,,,BR,,,,,,,,KACT 081255Z AUTO 16013KT 3SM BR OVC004 11/09 A2995 RMK T01100090 MADISHF
ACT,2021-02-08 13:00,,,,160.00,11.00,,29.95,,3.00,,OVC,,,,300.00,,,,BR,,,,,,,,KACT 081300Z AUTO 16011KT 3SM BR OVC003 11/10 A2995 RMK T01100100 MADISHF
ACT,2021-02-08 13:05,,,,170.00,11.00,,29.96,,2.50,,OVC,,,,300.00,,,,BR,,,,,,,,KACT 081305Z AUTO 17011KT 2 1/2SM BR OVC003 11/10 A2995 RMK T01100100 MADISHF
ACT,2021-02-08 13:10,,,,170.00,14.00,,29.96,,2.50,,OVC,,,,300.00,,,,BR,,,,,,,,KACT 081310Z AUTO 17014KT 2 1/2SM BR OVC003 11/10 A2995 RMK T01100100 MADISHF
ACT,2021-02-08 13:15,,,,170.00,11.00,,29.96,,2.00,,OVC,,,,300.00,,,,BR,,,,,,,,KACT 081315Z AUTO 17011KT 2SM BR OVC003 11/10 A2995 RMK T01100100 MADISHF
ACT,2021-02-08 13:20,,,,160.00,10.00,,29.96,,2.00,15.00,OVC,,,,300.00,,,,BR,,,,,,,,KACT 081320Z AUTO 16010G15KT 2SM BR OVC003 11/10 A2995 RMK T01100100 MADISHF
ACT,2021-02-08 13:25,,,,170.00,11.00,,29.96,,2.00,,OVC,,,,300.00,,,,BR,,,,,,,,KACT 081325Z AUTO 17011KT 2SM BR OVC003 11/10 A2995 RMK T01100100 MADISHF
ACT,2021-02-08 13:30,,,,160.00,11.00,,29.96,,2.00,16.00,OVC,,,,300.00,,,,BR,,,,,,,,KACT 081330Z AUTO 16011G16KT 2SM BR OVC003 11/10 A2995 RMK T01100100 MADISHF
ACT,2021-02-08 13:35,,,,160.00,10.00,,29.96,,2.00,,OVC,,,,300.00,,,,BR,,,,,,,,KACT 081335Z AUTO 16010KT 2SM BR OVC003 11/10 A2995 RMK T01100100 MADISHF
ACT,2021-02-08 13:40,,,,160.00,10.00,,29.96,,1.25,,OVC,,,,200.00,,,,BR,,,,,,,,KACT 081340Z AUTO 16010KT 1 1/2SM BR OVC002 11/10 A2995 RMK T01100100 MADISHF
ACT,2021-02-08 13:42,52.00,50.00,92.86,160.00,10.00,0.00,29.96,,1.25,,OVC,,,,200.00,,,,BR,,,,,,,,KACT 081342Z 16010KT 1 1/4SM BR OVC002 11/10 A2996 RMK AO2 T01110100
ACT,2021-02-08 13:45,,,,160.00,11.00,,29.96,,1.00,,OVC,,,,200.00,,,,BR,,,,,,,,KACT 081345Z AUTO 16011KT 1SM BR OVC002 11/10 A2995 RMK T01100100 MADISHF
ACT,2021-02-08 13:50,,,,160.00,11.00,,29.96,,1.00,,OVC,,,,200.00,,,,BR,,,,,,,,KACT 081350Z AUTO 16011KT 1SM BR OVC002 11/10 A2995 RMK T01100100 MADISHF
ACT,2021-02-08 13:51,52.00,50.00,92.86,160.00,11.00,0.00,29.96,1014.40,1.00,,OVC,,,,200.00,,,,BR,,,,,,,,KACT 081351Z 16011KT 1SM BR OVC002 11/10 A2996 RMK AO2 SLP144 T01110100
ACT,2021-02-08 13:55,,,,160.00,11.00,,29.96,,1.00,,OVC,,,,200.00,,,,BR,,,,,,,,KACT 081355Z AUTO 16011KT 1SM BR OVC002 11/10 A2995 RMK T01100100 MADISHF
ACT,2021-02-08 14:00,,,,160.00,10.00,,29.96,,1.25,,OVC,,,,200.00,,,,BR,,,,,,,,KACT 081400Z AUTO 16010KT 1 1/2SM BR OVC002 11/10 A2995 RMK T01100100 MADISHF
ACT,2021-02-08 14:05,,,,160.00,11.00,,29.96,,1.25,,OVC,,,,200.00,,,,BR,,,,,,,,KACT 081405Z AUTO 16011KT 1 1/2SM BR OVC002 11/10 A2995 RMK T01100100 MADISHF
ACT,2021-02-08 14:10,,,,160.00,11.00,,29.96,,1.00,,OVC,,,,200.00,,,,BR,,,,,,,,KACT 081410Z AUTO 16011KT 1SM BR OVC002 11/10 A2995 RMK T01100100 MADISHF
ACT,2021-02-08 14:15,,,,160.00,13.00,,29.97,,1.00,,OVC,,,,200.00,,,,BR,,,,,,,,KACT 081415Z AUTO 16013KT 1SM BR OVC002 11/11 A2996 RMK T01100110 MADISHF
ACT,2021-02-08 14:20,,,,160.00,11.00,,29.97,,1.25,17.00,OVC,,,,200.00,,,,BR,,,,,,,,KACT 081420Z AUTO 16011G17KT 1 1/2SM BR OVC002 11/10 A2996 RMK T01100100 MADISHF
ACT,2021-02-08 14:25,,,,160.00,13.00,,29.96,,1.25,,OVC,,,,200.00,,,,BR,,,,,,,,KACT 081425Z AUTO 16013KT 1 1/2SM BR OVC002 11/11 A2995 RMK T01100110 MADISHF
ACT,2021-02-08 14:30,,,,160.00,11.00,,29.96,,1.25,,OVC,,,,200.00,,,,BR,,,,,,,,KACT 081430Z AUTO 16011KT 1 1/2SM BR OVC002 11/11 A2995 RMK T01100110 MADISHF
ACT,2021-02-08 14:35,,,,160.00,13.00,,29.96,,1.25,,OVC,,,,200.00,,,,BR,,,,,,,,KACT 081435Z AUTO 16013KT 1 1/2SM BR OVC002 12/11 A2995 RMK T01200110 MADISHF
ACT,2021-02-08 14:40,,,,160.00,11.00,,29.96,,1.50,,OVC,,,,200.00,,,,BR,,,,,,,,KACT 081440Z AUTO 16011KT 1 1/2SM BR OVC002 12/11 A2995 RMK T01200110 MADISHF
ACT,2021-02-08 14:45,,,,160.00,11.00,,29.96,,1.75,,OVC,,,,200.00,,,,BR,,,,,,,,KACT 081445Z AUTO 16011KT 2SM BR OVC002 12/11 A2995 RMK T01200110 MADISHF
ACT,2021-02-08 14:50,,,,160.00,11.00,,29.96,,1.75,,OVC,,,,300.00,,,,BR,,,,,,,,KACT 081450Z AUTO 16011KT 2SM BR OVC003 12/11 A2995 RMK T01200110 MADISHF
ACT,2021-02-08 14:51,53.10,51.10,92.89,160.00,12.00,0.00,29.96,1014.20,1.75,,OVC,,,,300.00,,,,BR,,,,,,,,KACT 081451Z 16012KT 1 3/4SM BR OVC003 12/11 A2996 RMK AO2 SLP142 T01170106 50009
ACT,2021-02-08 14:55,,,,160.00,13.00,,29.96,,1.75,,OVC,,,,300.00,,,,BR,,,,,,,,KACT 081455Z AUTO 16013KT 2SM BR OVC003 12/11 A2995 RMK T01200110 MADISHF
ACT,2021-02-08 15:00,,,,160.00,11.00,,29.96,,1.75,,OVC,,,,300.00,,,,BR,,,,,,,,KACT 081500Z AUTO 16011KT 2SM BR OVC003 12/11 A2995 RMK T01200110 MADISHF
ACT,2021-02-08 15:05,,,,160.00,14.00,,29.96,,1.75,,OVC,,,,300.00,,,,BR,,,,,,,,KACT 081505Z AUTO 16014KT 2SM BR OVC003 12/11 A2995 RMK T01200110 MADISHF
ACT,2021-02-08 15:10,,,,160.00,11.00,,29.96,,2.00,,OVC,,,,300.00,,,,BR,,,,,,,,KACT 081510Z AUTO 16011KT 2SM BR OVC003 12/11 A2995 RMK T01200110 MADISHF
ACT,2021-02-08 15:12,53.10,51.10,92.89,170.00,13.00,0.00,29.97,,2.00,,OVC,,,,300.00,,,,BR,,,,,,,,KACT 081512Z 17013KT 2SM BR OVC003 12/11 A2997 RMK AO2 T01170106
ACT,2021-02-08 15:15,,,,160.00,13.00,,29.97,,2.50,,OVC,,,,300.00,,,,BR,,,,,,,,KACT 081515Z AUTO 16013KT 2 1/2SM BR OVC003 12/11 A2996 RMK T01200110 MADISHF
ACT,2021-02-08 15:20,,,,160.00,13.00,,29.97,,2.50,,OVC,,,,300.00,,,,BR,,,,,,,,KACT 081520Z AUTO 16013KT 2 1/2SM BR OVC003 12/11 A2996 RMK T01200110 MADISHF
ACT,2021-02-08 15:25,,,,160.00,13.00,,29.97,,2.50,,OVC,,,,300.00,,,,BR,,,,,,,,KACT 081525Z AUTO 16013KT 2 1/2SM BR OVC003 12/11 A2996 RMK T01200110 MADISHF
ACT,2021-02-08 15:30,,,,160.00,11.00,,29.97,,2.50,,OVC,,,,300.00,,,,BR,,,,,,,,KACT 081530Z AUTO 16011KT 2 1/2SM BR OVC003 12/11 A2996 RMK T01200110 MADISHF
ACT,2021-02-08 15:35,,,,160.00,11.00,,29.97,,2.50,16.00,OVC,,,,300.00,,,,BR,,,,,,,,KACT 081535Z AUTO 16011G16KT 2 1/2SM BR OVC003 12/11 A2996 RMK T01200110 MADISHF
ACT,2021-02-08 15:40,,,,160.00,11.00,,29.97,,2.50,,OVC,,,,300.00,,,,BR,,,,,,,,KACT 081540Z AUTO 16011KT 2 1/2SM BR OVC003 12/11 A2996 RMK T01200110 MADISHF
ACT,2021-02-08 15:45,,,,160.00,13.00,,29.97,,3.00,,OVC,,,,300.00,,,,BR,,,,,,,,KACT 081545Z AUTO 16013KT 3SM BR OVC003 12/11 A2996 RMK T01200110 MADISHF
ACT,2021-02-08 15:48,53.60,51.80,93.60,160.00,12.00,0.00,29.98,,3.00,,OVC,,,,300.00,,,,BR,,,,,,,,KACT 081548Z 16012KT 3SM BR OVC003 12/11 A2998 RMK AO2
ACT,2021-02-08 15:50,,,,160.00,15.00,,29.97,,3.00,,OVC,,,,400.00,,,,BR,,,,,,,,KACT 081550Z AUTO 16015KT 3SM BR OVC004 12/11 A2996 RMK T01200110 MADISHF
ACT,2021-02-08 15:51,54.00,51.10,89.88,160.00,14.00,0.00,29.97,1014.70,3.00,,OVC,,,,400.00,,,,BR,,,,,,,,KACT 081551Z 16014KT 3SM BR OVC004 12/11 A2997 RMK AO2 SLP147 T01220106
ACT,2021-02-08 15:55,,,,160.00,13.00,,29.97,,3.00,,OVC,,,,400.00,,,,BR,,,,,,,,KACT 081555Z AUTO 16013KT 3SM BR OVC004 12/11 A2996 RMK T01200110 MADISHF
ACT,2021-02-08 16:00,,,,160.00,11.00,,29.97,,3.00,,OVC,,,,400.00,,,,BR,,,,,,,,KACT 081600Z AUTO 16011KT 3SM BR OVC004 12/11 A2996 RMK T01200110 MADISHF
ACT,2021-02-08 16:05,,,,160.00,11.00,,29.97,,3.00,,OVC,,,,400.00,,,,BR,,,,,,,,KACT 081605Z AUTO 16011KT 3SM BR OVC004 12/11 A2996 RMK T01200110 MADISHF
ACT,2021-02-08 16:10,,,,160.00,13.00,,29.97,,3.00,,OVC,,,,400.00,,,,BR,,,,,,,,KACT 081610Z AUTO 16013KT 3SM BR OVC004 12/11 A2996 RMK T01200110 MADISHF
ACT,2021-02-08 16:15,,,,170.00,11.00,,29.98,,2.50,,OVC,,,,400.00,,,,BR,,,,,,,,KACT 081615Z AUTO 17011KT 2 1/2SM BR OVC004 12/11 A2997 RMK T01200110 MADISHF
ACT,2021-02-08 16:19,55.00,52.00,89.59,160.00,12.00,0.00,29.97,,2.50,,OVC,,,,400.00,,,,BR,,,,,,,,KACT 081619Z 16012KT 2 1/2SM BR OVC004 13/11 A2997 RMK AO2 T01280111
ACT,2021-02-08 16:20,,,,160.00,11.00,,29.97,,3.00,,OVC,,,,400.00,,,,BR,,,,,,,,KACT 081620Z AUTO 16011KT 3SM BR OVC004 12/11 A2996 RMK T01200110 MADISHF
ACT,2021-02-08 16:25,,,,160.00,11.00,,29.97,,3.00,,OVC,,,,400.00,,,,BR,,,,,,,,KACT 081625Z AUTO 16011KT 3SM BR OVC004 13/11 A2996 RMK T01300110 MADISHF
ACT,2021-02-08 16:26,55.00,52.00,89.59,160.00,12.00,0.00,29.97,,3.00,,OVC,,,,400.00,,,,BR,,,,,,,,KACT 081626Z 16012KT 3SM BR OVC004 13/11 A2997 RMK AO2 T01280111
ACT,2021-02-08 16:30,,,,160.00,11.00,,29.97,,3.00,,OVC,,,,400.00,,,,BR,,,,,,,,KACT 081630Z AUTO 16011KT 3SM BR OVC004 13/11 A2996 RMK T01300110 MADISHF
ACT,2021-02-08 16:35,,,,160.00,13.00,,29.97,,3.00,,OVC,,,,400.00,,,,BR,,,,,,,,KACT 081635Z AUTO 16013KT 3SM BR OVC004 13/11 A2996 RMK T01300110 MADISHF
ACT,2021-02-08 16:40,,,,170.00,11.00,,29.97,,3.00,,OVC,,,,400.00,,,,BR,,,,,,,,KACT 081640Z AUTO 17011KT 3SM BR OVC004 13/11 A2996 RMK T01300110 MADISHF
ACT,2021-02-08 16:45,,,,160.00,11.00,,29.97,,3.50,,OVC,,,,400.00,,,,BR,,,,,,,,KACT 081645Z AUTO 16011KT 3SM BR OVC004 13/11 A2996 RMK T01300110 MADISHF
ACT,2021-02-08 16:50,,,,160.00,11.00,,29.97,,3.50,,OVC,,,,400.00,,,,BR,,,,,,,,KACT 081650Z AUTO 16011KT 3SM BR OVC004 13/11 A2996 RMK T01300110 MADISHF
ACT,2021-02-08 16:51,55.90,52.00,86.71,170.00,11.00,0.00,29.97,1014.60,3.00,,OVC,,,,400.00,,,,BR,,,,,,,,KACT 081651Z 17011KT 3SM BR OVC004 13/11 A2997 RMK AO2 SLP146 T01330111
ACT,2021-02-08 16:55,,,,170.00,10.00,,29.97,,4.00,,OVC,,,,400.00,,,,BR,,,,,,,,KACT 081655Z AUTO 17010KT 4SM BR OVC004 13/11 A2996 RMK T01300110 MADISHF
ACT,2021-02-08 17:00,,,,160.00,10.00,,29.97,,3.00,,OVC,,,,499.00,,,,BR,,,,,,,,KACT 081700Z AUTO 16010KT 3SM BR OVC004 13/11 A2996 RMK T01300110 MADISHF
ACT,2021-02-08 17:04,55.90,53.10,90.29,170.00,11.00,0.00,29.97,,3.00,,OVC,,,,500.00,,,,BR,,,,,,,,KACT 081704Z 17011KT 3SM BR OVC005 13/12 A2997 RMK AO2 T01330117
ACT,2021-02-08 17:05,,,,160.00,10.00,,29.97,,3.00,,OVC,,,,499.00,,,,BR,,,,,,,,KACT 081705Z AUTO 16010KT 3SM BR OVC004 13/11 A2996 RMK T01300110 MADISHF
ACT,2021-02-08 17:10,,,,160.00,10.00,,29.97,,3.00,,OVC,,,,499.00,,,,BR,,,,,,,,KACT 081710Z AUTO 16010KT 3SM BR OVC004 14/12 A2996 RMK T01400120 MADISHF
ACT,2021-02-08 17:15,,,,160.00,8.00,,29.97,,3.00,,OVC,,,,499.00,,,,BR,,,,,,,,KACT 081715Z AUTO 16008KT 3SM BR OVC004 14/12 A2996 RMK T01400120 MADISHF
ACT,2021-02-08 17:20,,,,160.00,9.00,,29.97,,3.00,,OVC,,,,499.00,,,,BR,,,,,,,,KACT 081720Z AUTO 16009KT 3SM BR OVC004 14/12 A2996 RMK T01400120 MADISHF
ACT,2021-02-08 17:25,,,,160.00,11.00,,29.97,,5.00,,OVC,,,,700.00,,,,BR,,,,,,,,KACT 081725Z AUTO 16011KT 5SM BR OVC007 14/12 A2996 RMK T01400120 CIG 5V8  MADISHF
ACT,2021-02-08 17:30,,,,160.00,13.00,,29.96,,5.00,,OVC,,,,700.00,,,,HZ,,,,,,,,KACT 081730Z AUTO 16013KT 5SM HZ OVC007 14/12 A2995 RMK T01400120 MADISHF
ACT,2021-02-08 17:35,,,,160.00,10.00,,29.95,,5.00,,OVC,,,,700.00,,,,HZ,,,,,,,,KACT 081735Z AUTO 16010KT 5SM HZ OVC007 14/12 A2995 RMK T01400120 MADISHF
ACT,2021-02-08 17:40,,,,160.00,11.00,,29.95,,5.00,,OVC,,,,700.00,,,,HZ,,,,,,,,KACT 081740Z AUTO 16011KT 5SM HZ OVC007 14/12 A2995 RMK T01400120 MADISHF
ACT,2021-02-08 17:45,,,,160.00,13.00,,29.95,,5.00,18.00,OVC,,,,800.00,,,,HZ,,,,,,,,KACT 081745Z AUTO 16013G18KT 5SM HZ OVC008 15/12 A2995 RMK T01500120 MADISHF
ACT,2021-02-08 17:50,,,,160.00,14.00,,29.95,,6.00,,OVC,,,,800.00,,,,HZ,,,,,,,,KACT 081750Z AUTO 16014KT 6SM HZ OVC008 16/12 A2995 RMK T01600120 MADISHF
ACT,2021-02-08 17:51,60.10,54.00,80.25,150.00,13.00,0.00,29.95,1013.70,6.00,,OVC,,,,800.00,,,,HZ,,,,,,,,KACT 081751Z 15013KT 6SM HZ OVC008 16/12 A2995 RMK AO2 CIG 007V011 SLP137 T01560122 10156 20111 58010
ACT,2021-02-08 17:55,,,,160.00,11.00,,29.94,,6.00,,OVC,,,,900.00,,,,HZ,,,,,,,,KACT 081755Z AUTO 16011KT 6SM HZ OVC009 16/12 A2994 RMK T01600120 MADISHF
ACT,2021-02-08 18:05,,,,160.00,13.00,,29.95,,6.00,,OVC,,,,1100.00,,,,HZ,,,,,,,,KACT 081805Z AUTO 16013KT 6SM HZ OVC011 16/12 A2995 RMK T01600120 MADISHF
ACT,2021-02-08 18:10,,,,160.00,11.00,,29.94,,7.00,,OVC,,,,1100.00,,,,,,,,,,,,KACT 081810Z AUTO 16011KT 7SM OVC011 16/12 A2994 RMK T01600120 MADISHF
ACT,2021-02-08 18:11,61.00,54.00,77.72,170.00,12.00,0.00,29.94,,7.00,,OVC,,,,1100.00,,,,,,,,,,,,KACT 081811Z 17012KT 7SM OVC011 16/12 A2994 RMK AO2 T01610122
ACT,2021-02-08 18:15,,,,160.00,13.00,,29.94,,7.00,,OVC,,,,1100.00,,,,,,,,,,,,KACT 081815Z AUTO 16013KT 7SM OVC011 16/12 A2994 RMK T01600120 MADISHF
ACT,2021-02-08 18:20,,,,170.00,13.00,,29.93,,7.00,,BKN,OVC,,,1300.00,1699.00,,,,,,,,,,,KACT 081820Z AUTO 17013KT 7SM BKN013 OVC016 16/12 A2993 RMK T01600120 MADISHF
ACT,2021-02-08 18:25,,,,170.00,11.00,,29.93,,7.00,,BKN,OVC,,,1300.00,1699.00,,,,,,,,,,,KACT 081825Z AUTO 17011KT 7SM BKN013 OVC016 17/12 A2993 RMK T01700120 MADISHF
ACT,2021-02-08 18:30,,,,170.00,11.00,,29.93,,7.00,,OVC,,,,1400.00,,,,,,,,,,,,KACT 081830Z AUTO 17011KT 7SM OVC014 17/12 A2993 RMK T01700120 MADISHF
ACT,2021-02-08 18:35,,,,170.00,13.00,,29.93,,8.00,,BKN,OVC,,,1400.00,1800.00,,,,,,,,,,,KACT 081835Z AUTO 17013KT 8SM BKN014 OVC018 17/12 A2993 RMK T01700120 MADISHF
ACT,2021-02-08 18:40,,,,180.00,13.00,,29.92,,8.00,,OVC,,,,1600.00,,,,,,,,,,,,KACT 081840Z AUTO 18013KT 8SM OVC016 18/13 A2992 RMK T01800130 MADISHF
ACT,2021-02-08 18:44,64.00,55.00,72.52,180.00,13.00,0.00,29.92,,9.00,,BKN,OVC,,,1600.00,3400.00,,,,,,,,,,,KACT 081844Z 18013KT 9SM BKN016 OVC034 18/13 A2992 RMK AO2 T01780128
ACT,2021-02-08 18:45,,,,180.00,14.00,,29.91,,9.00,,BKN,BKN,OVC,,1600.00,1999.00,3399.00,,,,,,,,,,KACT 081845Z AUTO 18014KT 9SM BKN016 BKN019 OVC033 18/13 A2990 RMK T01800130 MADISHF
ACT,2021-02-08 18:50,,,,180.00,13.00,,29.92,,9.00,,BKN,OVC,,,1600.00,3399.00,,,,,,,,,,,KACT 081850Z AUTO 18013KT 9SM BKN016 OVC033 18/13 A2992 RMK T01800130 MADISHF
ACT,2021-02-08 18:51,64.90,55.00,70.28,180.00,13.00,0.00,29.92,1012.70,9.00,,BKN,OVC,,,1600.00,3400.00,,,,,,,,,,,KACT 081851Z 18013KT 9SM BKN016 OVC034 18/13 A2992 RMK AO2 SLP127 T01830128
ACT,2021-02-08 18:55,,,,180.00,11.00,,29.92,,9.00,,BKN,BKN,OVC,,1600.00,2200.00,3399.00,,,,,,,,,,KACT 081855Z AUTO 18011KT 9SM BKN016 BKN022 OVC033 18/13 A2992 RMK T01800130 MADISHF
ACT,2021-02-08 19:00,,,,180.00,13.00,,29.92,,9.00,,BKN,OVC,,,1800.00,3399.00,,,,,,,,,,,KACT 081900Z AUTO 18013KT 9SM BKN018 OVC033 17/12 A2992 RMK T01700120 MADISHF
ACT,2021-02-08 19:05,,,,190.00,13.00,,29.92,,10.00,,BKN,OVC,,,1800.00,3399.00,,,,,,,,,,,KACT 081905Z AUTO 19013KT 10SM BKN018 OVC033 17/13 A2992 RMK T01700130 MADISHF
ACT,2021-02-08 19:10,,,,190.00,13.00,,29.92,,10.00,,OVC,,,,1800.00,,,,,,,,,,,,KACT 081910Z AUTO 19013KT 10SM OVC018 17/13 A2992 RMK T01700130 MADISHF
ACT,2021-02-08 19:15,,,,190.00,11.00,,29.92,,10.00,,OVC,,,,1800.00,,,,,,,,,,,,KACT 081915Z AUTO 19011KT 10SM OVC018 17/13 A2992 RMK T01700130 MADISHF
ACT,2021-02-08 19:20,,,,180.00,11.00,,29.91,,10.00,,OVC,,,,1800.00,,,,,,,,,,,,KACT 081920Z AUTO 18011KT 10SM OVC018 17/13 A2990 RMK T01700130 MADISHF
ACT,2021-02-08 19:25,,,,180.00,11.00,,29.91,,10.00,,OVC,,,,1800.00,,,,,,,,,,,,KACT 081925Z AUTO 18011KT 10SM OVC018 18/13 A2990 RMK T01800130 MADISHF
ACT,2021-02-08 19:30,,,,180.00,11.00,,29.91,,10.00,,BKN,OVC,,,1800.00,2700.00,,,,,,,,,,,KACT 081930Z AUTO 18011KT 10SM BKN018 OVC027 18/13 A2990 RMK T01800130 MADISHF
ACT,2021-02-08 19:35,,,,180.00,11.00,,29.91,,10.00,,BKN,OVC,,,1999.00,2800.00,,,,,,,,,,,KACT 081935Z AUTO 18011KT 10SM BKN019 OVC028 18/13 A2990 RMK T01800130 MADISHF
ACT,2021-02-08 19:40,,,,180.00,10.00,,29.90,,10.00,,BKN,OVC,,,1999.00,2800.00,,,,,,,,,,,KACT 081940Z AUTO 18010KT 10SM BKN019 OVC028 18/13 A2989 RMK T01800130 MADISHF
ACT,2021-02-08 19:45,,,,180.00,10.00,,29.91,,10.00,,SCT,BKN,OVC,,1999.00,2800.00,3399.00,,,,,,,,,,KACT 081945Z AUTO 18010KT 10SM SCT019 BKN028 OVC033 18/13 A2990 RMK T01800130 MADISHF
ACT,2021-02-08 19:50,,,,170.00,10.00,,29.90,,10.00,,SCT,OVC,,,1999.00,3000.00,,,,,,,,,,,KACT 081950Z AUTO 17010KT 10SM SCT019 OVC030 18/13 A2989 RMK T01800130 MADISHF
ACT,2021-02-08 19:51,64.90,55.90,72.61,170.00,11.00,0.00,29.90,1012.20,10.00,,FEW,OVC,,,2000.00,3000.00,,,,,,,,,,,KACT 081951Z 17011KT 10SM FEW020 OVC030 18/13 A2990 RMK AO2 SLP122 T01830133
ACT,2021-02-08 19:55,,,,180.00,10.00,,29.90,,10.00,,FEW,BKN,OVC,,2200.00,3000.00,3399.00,,,,,,,,,,KACT 081955Z AUTO 18010KT 10SM FEW022 BKN030 OVC033 19/13 A2989 RMK T01900130 MADISHF
ACT,2021-02-08 20:00,,,,180.00,10.00,,29.89,,10.00,,FEW,BKN,OVC,,2200.00,2900.00,3399.00,,,,,,,,,,KACT 082000Z AUTO 18010KT 10SM FEW022 BKN029 OVC033 19/13 A2988 RMK T01900130 MADISHF
ACT,2021-02-08 20:05,,,,180.00,8.00,,29.90,,10.00,,SCT,OVC,,,2500.00,3200.00,,,,,,,,,,,KACT 082005Z AUTO 18008KT 10SM SCT025 OVC032 19/13 A2989 RMK T01900130 MADISHF
ACT,2021-02-08 20:10,,,,180.00,9.00,,29.90,,10.00,,BKN,OVC,,,2500.00,3200.00,,,,,,,,,,,KACT 082010Z AUTO 18009KT 10SM BKN025 OVC032 19/13 A2989 RMK T01900130 MADISHF
ACT,2021-02-08 20:15,,,,190.00,8.00,,29.90,,10.00,,BKN,OVC,,,2700.00,3200.00,,,,,,,,,,,KACT 082015Z AUTO 19008KT 10SM BKN027 OVC032 19/13 A2989 RMK T01900130 MADISHF
ACT,2021-02-08 20:20,,,,180.00,9.00,,29.90,,10.00,,SCT,OVC,,,2700.00,3200.00,,,,,,,,,,,KACT 082020Z AUTO 18009KT 10SM SCT027 OVC032 19/13 A2989 RMK T01900130 MADISHF
ACT,2021-02-08 20:25,,,,190.00,9.00,,29.90,,10.00,,SCT,OVC,,,2700.00,3200.00,,,,,,,,,,,KACT 082025Z AUTO 19009KT 10SM SCT027 OVC032 20/13 A2989 RMK T02000130 MADISHF
ACT,2021-02-08 20:30,,,,180.00,9.00,,29.89,,10.00,,SCT,OVC,,,2700.00,3200.00,,,,,,,,,,,KACT 082030Z AUTO 18009KT 10SM SCT027 OVC032 21/14 A2988 RMK T02100140 MADISHF
ACT,2021-02-08 20:35,,,,190.00,10.00,,29.89,,10.00,,SCT,OVC,,,2700.00,3200.00,,,,,,,,,,,KACT 082035Z AUTO 19010KT 10SM SCT027 OVC032 21/14 A2988 RMK T02100140 MADISHF
ACT,2021-02-08 20:40,,,,190.00,10.00,,29.89,,10.00,,SCT,OVC,,,2700.00,3200.00,,,,,,,,,,,KACT 082040Z AUTO 19010KT 10SM SCT027 OVC032 21/13 A2988 RMK T02100130 MADISHF
ACT,2021-02-08 20:45,,,,180.00,9.00,,29.89,,10.00,,BKN,OVC,,,2700.00,3500.00,,,,,,,,,,,KACT 082045Z AUTO 18009KT 10SM BKN027 OVC035 21/14 A2988 RMK T02100140 MADISHF
ACT,2021-02-08 20:50,,,,190.00,9.00,,29.89,,10.00,,BKN,BKN,,,2700.00,3300.00,,,,,,,,,,,KACT 082050Z AUTO 19009KT 10SM BKN027 BKN033 21/14 A2988 RMK T02100140 MADISHF
ACT,2021-02-08 20:51,70.00,57.00,63.37,180.00,8.00,0.00,29.89,1011.70,10.00,,BKN,BKN,,,2700.00,3300.00,,,,,,,,,,,KACT 082051Z AUTO 18008KT 10SM BKN027 BKN033 21/14 A2989 RMK AO2 SLP117 T02110139 56019
ACT,2021-02-08 20:55,,,,180.00,11.00,,29.89,,10.00,,BKN,BKN,,,2900.00,3800.00,,,,,,,,,,,KACT 082055Z AUTO 18011KT 10SM BKN029 BKN038 21/13 A2988 RMK T02100130 MADISHF
ACT,2021-02-08 21:00,,,,190.00,14.00,,29.88,,10.00,,BKN,BKN,,,2900.00,3800.00,,,,,,,,,,,KACT 082100Z AUTO 19014KT 10SM BKN029 BKN038 21/13 A2987 RMK T02100130 MADISHF
ACT,2021-02-08 21:05,,,,190.00,14.00,,29.88,,10.00,,BKN,BKN,,,2900.00,3600.00,,,,,,,,,,,KACT 082105Z AUTO 19014KT 10SM BKN029 BKN036 22/13 A2987 RMK T02200130 MADISHF
ACT,2021-02-08 21:10,,,,200.00,15.00,,29.88,,10.00,,BKN,BKN,,,2900.00,3800.00,,,,,,,,,,,KACT 082110Z AUTO 20015KT 10SM BKN029 BKN038 22/13 A2987 RMK T02200130 MADISHF
ACT,2021-02-08 21:15,,,,200.00,11.00,,29.88,,10.00,,BKN,,,,3000.00,,,,,,,,,,,,KACT 082115Z AUTO 20011KT 10SM BKN030 22/13 A2987 RMK T02200130 MADISHF
ACT,2021-02-08 21:18,71.10,55.90,58.65,190.00,12.00,0.00,29.88,,10.00,,BKN,,,,3000.00,,,,,,,,,,,,KACT 082118Z 19012KT 10SM BKN030 22/13 A2988 RMK AO2 T02170133
ACT,2021-02-08 21:20,,,,200.00,11.00,,29.88,,10.00,,BKN,,,,3000.00,,,,,,,,,,,,KACT 082120Z AUTO 20011KT 10SM BKN030 21/13 A2987 RMK T02100130 MADISHF
ACT,2021-02-08 21:25,,,,180.00,13.00,,29.88,,10.00,,BKN,,,,3000.00,,,,,,,,,,,,KACT 082125Z AUTO 18013KT 10SM BKN030 21/13 A2987 RMK T02100130 MADISHF
ACT,2021-02-08 21:30,,,,190.00,10.00,,29.88,,10.00,,BKN,,,,3000.00,,,,,,,,,,,,KACT 082130Z AUTO 19010KT 10SM BKN030 21/13 A2987 RMK T02100130 MADISHF
ACT,2021-02-08 21:35,,,,180.00,11.00,,29.88,,10.00,,BKN,,,,3000.00,,,,,,,,,,,,KACT 082135Z AUTO 18011KT 10SM BKN030 21/13 A2987 RMK T02100130 MADISHF
ACT,2021-02-08 21:40,,,,180.00,11.00,,29.88,,10.00,,BKN,,,,3000.00,,,,,,,,,,,,KACT 082140Z AUTO 18011KT 10SM BKN030 22/13 A2987 RMK T02200130 MADISHF
ACT,2021-02-08 21:45,,,,190.00,11.00,,29.88,,10.00,,BKN,,,,3000.00,,,,,,,,,,,,KACT 082145Z AUTO 19011KT 10SM BKN030 23/13 A2987 RMK T02300130 MADISHF
ACT,2021-02-08 21:50,,,,170.00,13.00,,29.88,,10.00,,BKN,,,,3000.00,,,,,,,,,,,,KACT 082150Z AUTO 17013KT 10SM BKN030 22/13 A2987 RMK T02200130 MADISHF
ACT,2021-02-08 21:51,72.00,55.90,56.89,170.00,13.00,0.00,29.88,1011.30,10.00,,BKN,,,,3000.00,,,,,,,,,,,,KACT 082151Z 17013KT 10SM BKN030 22/13 A2988 RMK AO2 SLP113 T02220133
ACT,2021-02-08 21:55,,,,180.00,11.00,,29.88,,10.00,,SCT,,,,3500.00,,,,,,,,,,,,KACT 082155Z AUTO 18011KT 10SM SCT035 22/13 A2987 RMK T02200130 MADISHF
ACT,2021-02-08 22:00,,,,180.00,10.00,,29.88,,10.00,,FEW,,,,3500.00,,,,,,,,,,,,KACT 082200Z AUTO 18010KT 10SM FEW035 22/13 A2987 RMK T02200130 MADISHF
ACT,2021-02-08 22:05,,,,170.00,11.00,,29.88,,10.00,,FEW,,,,3500.00,,,,,,,,,,,,KACT 082205Z AUTO 17011KT 10SM FEW035 23/14 A2987 RMK T02300140 MADISHF
ACT,2021-02-08 22:10,,,,170.00,10.00,,29.88,,10.00,,FEW,,,,3700.00,,,,,,,,,,,,KACT 082210Z AUTO 17010KT 10SM FEW037 22/13 A2987 RMK T02200130 MADISHF
ACT,2021-02-08 22:15,,,,170.00,10.00,,29.88,,10.00,,FEW,,,,3999.00,,,,,,,,,,,,KACT 082215Z AUTO 17010KT 10SM FEW039 23/13 A2987 RMK T02300130 MADISHF
ACT,2021-02-08 22:20,,,,180.00,10.00,,29.88,,10.00,,SCT,,,,3999.00,,,,,,,,,,,,KACT 082220Z AUTO 18010KT 10SM SCT039 23/13 A2987 RMK T02300130 MADISHF
ACT,2021-02-08 22:25,,,,170.00,11.00,,29.88,,10.00,16.00,BKN,,,,3999.00,,,,,,,,,,,,KACT 082225Z AUTO 17011G16KT 10SM BKN039 23/13 A2987 RMK T02300130 MADISHF
ACT,2021-02-08 22:30,,,,180.00,11.00,,29.88,,10.00,,SCT,,,,4200.00,,,,,,,,,,,,KACT 082230Z AUTO 18011KT 10SM SCT042 22/13 A2987 RMK T02200130 MADISHF
ACT,2021-02-08 22:35,,,,190.00,11.00,,29.88,,10.00,,SCT,,,,4200.00,,,,,,,,,,,,KACT 082235Z AUTO 19011KT 10SM SCT042 22/13 A2987 RMK T02200130 MADISHF
ACT,2021-02-08 22:40,,,,180.00,10.00,,29.88,,10.00,,SCT,,,,4100.00,,,,,,,,,,,,KACT 082240Z AUTO 18010KT 10SM SCT041 22/13 A2987 RMK T02200130 MADISHF
ACT,2021-02-08 22:45,,,,180.00,11.00,,29.88,,10.00,,FEW,,,,4100.00,,,,,,,,,,,,KACT 082245Z AUTO 18011KT 10SM FEW041 22/13 A2987 RMK T02200130 MADISHF
ACT,2021-02-08 22:50,,,,180.00,11.00,,29.88,,10.00,,FEW,,,,4100.00,,,,,,,,,,,,KACT 082250Z AUTO 18011KT 10SM FEW041 22/13 A2987 RMK T02200130 MADISHF
ACT,2021-02-08 22:51,72.00,55.00,55.06,180.00,11.00,0.00,29.88,1011.40,10.00,,FEW,,,,4100.00,,,,,,,,,,,,KACT 082251Z 18011KT 10SM FEW041 22/13 A2988 RMK AO2 SLP114 T02220128
ACT,2021-02-08 22:55,,,,180.00,11.00,,29.88,,10.00,,CLR,,,,,,,,,,,,,,,,KACT 082255Z AUTO 18011KT 10SM CLR 22/13 A2987 RMK T02200130 MADISHF
ACT,2021-02-08 23:00,,,,170.00,13.00,,29.88,,10.00,,CLR,,,,,,,,,,,,,,,,KACT 082300Z AUTO 17013KT 10SM CLR 22/13 A2987 RMK T02200130 MADISHF
ACT,2021-02-08 23:05,,,,170.00,13.00,,29.88,,10.00,,FEW,,,,3999.00,,,,,,,,,,,,KACT 082305Z AUTO 17013KT 10SM FEW039 22/13 A2987 RMK T02200130 MADISHF
ACT,2021-02-08 23:10,,,,170.00,11.00,,29.88,,10.00,,FEW,,,,3999.00,,,,,,,,,,,,KACT 082310Z AUTO 17011KT 10SM FEW039 22/13 A2987 RMK T02200130 MADISHF
ACT,2021-02-08 23:15,,,,170.00,11.00,,29.88,,10.00,,CLR,,,,,,,,,,,,,,,,KACT 082315Z AUTO 17011KT 10SM CLR 22/13 A2987 RMK T02200130 MADISHF
ACT,2021-02-08 23:20,,,,180.00,9.00,,29.88,,10.00,,CLR,,,,,,,,,,,,,,,,KACT 082320Z AUTO 18009KT 10SM CLR 21/13 A2987 RMK T02100130 MADISHF
ACT,2021-02-08 23:25,,,,180.00,8.00,,29.88,,10.00,,CLR,,,,,,,,,,,,,,,,KACT 082325Z AUTO 18008KT 10SM CLR 21/13 A2987 RMK T02100130 MADISHF
ACT,2021-02-08 23:30,,,,180.00,9.00,,29.88,,10.00,,CLR,,,,,,,,,,,,,,,,KACT 082330Z AUTO 18009KT 10SM CLR 21/13 A2987 RMK T02100130 MADISHF
ACT,2021-02-08 23:35,,,,180.00,8.00,,29.89,,10.00,,CLR,,,,,,,,,,,,,,,,KACT 082335Z AUTO 18008KT 10SM CLR 21/13 A2988 RMK T02100130 MADISHF
ACT,2021-02-08 23:40,,,,170.00,9.00,,29.89,,10.00,,CLR,,,,,,,,,,,,,,,,KACT 082340Z AUTO 17009KT 10SM CLR 20/13 A2988 RMK T02000130 MADISHF
ACT,2021-02-08 23:45,,,,170.00,8.00,,29.88,,10.00,,CLR,,,,,,,,,,,,,,,,KACT 082345Z AUTO 17008KT 10SM CLR 20/13 A2987 RMK T02000130 MADISHF
ACT,2021-02-08 23:50,,,,160.00,8.00,,29.88,,10.00,,CLR,,,,,,,,,,,,,,,,KACT 082350Z AUTO 16008KT 10SM CLR 19/13 A2987 RMK T01900130 MADISHF
ACT,2021-02-08 23:51,66.90,55.00,65.56,160.00,9.00,0.00,29.88,1011.50,10.00,,CLR,,,,,,,,,,,,,,,,KACT 082351Z 16009KT 10SM CLR 19/13 A2988 RMK AO2 SLP115 T01940128 10228 20156 55001
ACT,2021-02-08 23:55,,,,160.00,8.00,,29.88,,10.00,,CLR,,,,,,,,,,,,,,,,KACT 082355Z AUTO 16008KT 10SM CLR 19/12 A2987 RMK T01900120 MADISHF
ACT,2021-02-09 00:00,,,,160.00,8.00,,29.89,,10.00,,CLR,,,,,,,,,,,,,,,,KACT 090000Z AUTO 16008KT 10SM CLR 19/12 A2988 RMK T01900120 MADISHF
ACT,2021-02-09 00:05,,,,150.00,8.00,,29.89,,10.00,,CLR,,,,,,,,,,,,,,,,KACT 090005Z AUTO 15008KT 10SM CLR 19/12 A2988 RMK T01900120 MADISHF
ACT,2021-02-09 00:10,,,,160.00,9.00,,29.89,,10.00,,CLR,,,,,,,,,,,,,,,,KACT 090010Z AUTO 16009KT 10SM CLR 19/12 A2988 RMK T01900120 MADISHF
ACT,2021-02-09 00:15,,,,160.00,8.00,,29.89,,10.00,,CLR,,,,,,,,,,,,,,,,KACT 090015Z AUTO 16008KT 10SM CLR 18/12 A2988 RMK T01800120 MADISHF
ACT,2021-02-09 00:20,,,,160.00,7.00,,29.89,,10.00,,CLR,,,,,,,,,,,,,,,,KACT 090020Z AUTO 16007KT 10SM CLR 18/12 A2988 RMK T01800120 MADISHF
ACT,2021-02-09 00:25,,,,150.00,7.00,,29.89,,10.00,,CLR,,,,,,,,,,,,,,,,KACT 090025Z AUTO 15007KT 10SM CLR 18/12 A2988 RMK T01800120 MADISHF
ACT,2021-02-09 00:30,,,,150.00,8.00,,29.90,,10.00,,CLR,,,,,,,,,,,,,,,,KACT 090030Z AUTO 15008KT 10SM CLR 19/12 A2989 RMK T01900120 MADISHF
ACT,2021-02-09 00:35,,,,150.00,9.00,,29.89,,10.00,,CLR,,,,,,,,,,,,,,,,KACT 090035Z AUTO 15009KT 10SM CLR 18/12 A2988 RMK T01800120 MADISHF
ACT,2021-02-09 00:40,,,,160.00,8.00,,29.90,,10.00,,CLR,,,,,,,,,,,,,,,,KACT 090040Z AUTO 16008KT 10SM CLR 18/12 A2989 RMK T01800120 MADISHF
ACT,2021-02-09 00:45,,,,160.00,8.00,,29.90,,10.00,,CLR,,,,,,,,,,,,,,,,KACT 090045Z AUTO 16008KT 10SM CLR 19/12 A2989 RMK T01900120 MADISHF
ACT,2021-02-09 00:50,,,,160.00,9.00,,29.90,,10.00,,CLR,,,,,,,,,,,,,,,,KACT 090050Z AUTO 16009KT 10SM CLR 19/13 A2989 RMK T01900130 MADISHF
ACT,2021-02-09 00:51,66.00,55.00,67.64,160.00,9.00,0.00,29.90,1012.10,10.00,,CLR,,,,,,,,,,,,,,,,KACT 090051Z 16009KT 10SM CLR 19/13 A2990 RMK AO2 SLP121 T01890128
ACT,2021-02-09 00:55,,,,160.00,9.00,,29.90,,10.00,,CLR,,,,,,,,,,,,,,,,KACT 090055Z AUTO 16009KT 10SM CLR 19/13 A2989 RMK T01900130 MADISHF
ACT,2021-02-09 01:00,,,,160.00,9.00,,29.90,,10.00,,CLR,,,,,,,,,,,,,,,,KACT 090100Z AUTO 16009KT 10SM CLR 18/13 A2989 RMK T01800130 MADISHF
ACT,2021-02-09 01:05,,,,160.00,8.00,,29.90,,10.00,,CLR,,,,,,,,,,,,,,,,KACT 090105Z AUTO 16008KT 10SM CLR 18/13 A2989 RMK T01800130 MADISHF
ACT,2021-02-09 01:10,,,,160.00,9.00,,29.90,,10.00,,CLR,,,,,,,,,,,,,,,,KACT 090110Z AUTO 16009KT 10SM CLR 18/12 A2989 RMK T01800120 MADISHF
ACT,2021-02-09 01:15,,,,160.00,8.00,,29.90,,10.00,,CLR,,,,,,,,,,,,,,,,KACT 090115Z AUTO 16008KT 10SM CLR 18/13 A2989 RMK T01800130 MADISHF
ACT,2021-02-09 01:20,,,,160.00,8.00,,29.91,,10.00,,CLR,,,,,,,,,,,,,,,,KACT 090120Z AUTO 16008KT 10SM CLR 18/13 A2990 RMK T01800130 MADISHF
ACT,2021-02-09 01:25,,,,160.00,9.00,,29.91,,10.00,,CLR,,,,,,,,,,,,,,,,KACT 090125Z AUTO 16009KT 10SM CLR 18/13 A2990 RMK T01800130 MADISHF
ACT,2021-02-09 01:30,,,,150.00,8.00,,29.91,,10.00,,CLR,,,,,,,,,,,,,,,,KACT 090130Z AUTO 15008KT 10SM CLR 18/13 A2990 RMK T01800130 MADISHF
ACT,2021-02-09 01:35,,,,150.00,7.00,,29.91,,10.00,,CLR,,,,,,,,,,,,,,,,KACT 090135Z AUTO 15007KT 10SM CLR 17/13 A2990 RMK T01700130 MADISHF
ACT,2021-02-09 01:40,,,,150.00,8.00,,29.91,,10.00,,CLR,,,,,,,,,,,,,,,,KACT 090140Z AUTO 15008KT 10SM CLR 17/13 A2990 RMK T01700130 MADISHF
ACT,2021-02-09 01:45,,,,150.00,7.00,,29.91,,10.00,,CLR,,,,,,,,,,,,,,,,KACT 090145Z AUTO 15007KT 10SM CLR 17/13 A2990 RMK T01700130 MADISHF
ACT,2021-02-09 01:50,,,,160.00,7.00,,29.91,,10.00,,CLR,,,,,,,,,,,,,,,,KACT 090150Z AUTO 16007KT 10SM CLR 17/13 A2990 RMK T01700130 MADISHF
ACT,2021-02-09 01:51,63.00,54.00,72.42,160.00,7.00,0.00,29.91,1012.60,10.00,,CLR,,,,,,,,,,,,,,,,KACT 090151Z 16007KT 10SM CLR 17/12 A2991 RMK AO2 SLP126 T01720122
ACT,2021-02-09 01:55,,,,160.00,7.00,,29.91,,10.00,,CLR,,,,,,,,,,,,,,,,KACT 090155Z AUTO 16007KT 10SM CLR 17/12 A2990 RMK T01700120 MADISHF
ACT,2021-02-09 02:00,,,,160.00,7.00,,29.92,,10.00,,CLR,,,,,,,,,,,,,,,,KACT 090200Z AUTO 16007KT 10SM CLR 17/12 A2992 RMK T01700120 MADISHF
ACT,2021-02-09 02:05,,,,160.00,7.00,,29.92,,10.00,,CLR,,,,,,,,,,,,,,,,KACT 090205Z AUTO 16007KT 10SM CLR 16/12 A2992 RMK T01600120 MADISHF
ACT,2021-02-09 02:10,,,,150.00,8.00,,29.92,,10.00,,CLR,,,,,,,,,,,,,,,,KACT 090210Z AUTO 15008KT 10SM CLR 17/12 A2992 RMK T01700120 MADISHF
ACT,2021-02-09 02:15,,,,160.00,7.00,,29.92,,10.00,,CLR,,,,,,,,,,,,,,,,KACT 090215Z AUTO 16007KT 10SM CLR 17/12 A2992 RMK T01700120 MADISHF
ACT,2021-02-09 02:20,,,,160.00,5.00,,29.92,,10.00,,CLR,,,,,,,,,,,,,,,,KACT 090220Z AUTO 16005KT 10SM CLR 16/12 A2992 RMK T01600120 MADISHF
ACT,2021-02-09 02:25,,,,160.00,5.00,,29.93,,10.00,,CLR,,,,,,,,,,,,,,,,KACT 090225Z AUTO 16005KT 10SM CLR 16/12 A2993 RMK T01600120 MADISHF
ACT,2021-02-09 02:30,,,,170.00,5.00,,29.93,,10.00,,CLR,,,,,,,,,,,,,,,,KACT 090230Z AUTO 17005KT 10SM CLR 16/12 A2993 RMK T01600120 MADISHF
ACT,2021-02-09 02:35,,,,170.00,5.00,,29.93,,10.00,,CLR,,,,,,,,,,,,,,,,KACT 090235Z AUTO 17005KT 10SM CLR 15/12 A2993 RMK T01500120 MADISHF
ACT,2021-02-09 02:40,,,,170.00,5.00,,29.94,,10.00,,CLR,,,,,,,,,,,,,,,,KACT 090240Z AUTO 17005KT 10SM CLR 16/12 A2994 RMK T01600120 MADISHF
ACT,2021-02-09 02:45,,,,180.00,5.00,,29.94,,10.00,,CLR,,,,,,,,,,,,,,,,KACT 090245Z AUTO 18005KT 10SM CLR 16/12 A2994 RMK T01600120 MADISHF
ACT,2021-02-09 02:50,,,,180.00,2.00,,29.94,,10.00,,CLR,,,,,,,,,,,,,,,,KACT 090250Z AUTO 18002KT 10SM CLR 16/12 A2994 RMK T01600120 MADISHF
ACT,2021-02-09 02:51,59.00,53.10,80.75,190.00,3.00,0.00,29.94,1013.60,10.00,,CLR,,,,,,,,,,,,,,,,KACT 090251Z 19003KT 10SM CLR 15/12 A2994 RMK AO2 SLP136 T01500117 53019
ACT,2021-02-09 02:55,,,,340.00,5.00,,29.95,,10.00,,CLR,,,,,,,,,,,,,,,,KACT 090255Z AUTO 34005KT 10SM CLR 14/11 A2995 RMK T01400110 MADISHF
ACT,2021-02-09 03:00,,,,330.00,8.00,,29.95,,10.00,,CLR,,,,,,,,,,,,,,,,KACT 090300Z AUTO 33008KT 10SM CLR 15/12 A2995 RMK T01500120 MADISHF
ACT,2021-02-09 03:05,,,,330.00,8.00,,29.96,,10.00,,CLR,,,,,,,,,,,,,,,,KACT 090305Z AUTO 33008KT 10SM CLR 16/13 A2995 RMK T01600130 MADISHF
ACT,2021-02-09 03:10,,,,340.00,11.00,,29.97,,10.00,18.00,FEW,,,,6000.00,,,,,,,,,,,,KACT 090310Z AUTO 34011G18KT 10SM FEW060 16/13 A2996 RMK T01600130 MADISHF
ACT,2021-02-09 03:15,,,,,14.00,,29.97,,10.00,,FEW,SCT,,,5000.00,6000.00,,,,,,,,,,,KACT 090315Z AUTO ///14KT 10SM FEW050 SCT060 16/10 A2996 RMK T01600100 MADISHF
ACT,2021-02-09 03:20,,,,340.00,11.00,,29.98,,10.00,,SCT,SCT,,,5000.00,6000.00,,,,,,,,,,,KACT 090320Z AUTO 34011KT 10SM SCT050 SCT060 14/09 A2997 RMK T01400090 MADISHF
ACT,2021-02-09 03:25,,,,340.00,11.00,,29.98,,10.00,,FEW,SCT,,,5000.00,6000.00,,,,,,,,,,,KACT 090325Z AUTO 34011KT 10SM FEW050 SCT060 14/08 A2997 RMK T01400080 MADISHF
ACT,2021-02-09 03:30,,,,340.00,10.00,,29.98,,10.00,,FEW,FEW,,,5000.00,6000.00,,,,,,,,,,,KACT 090330Z AUTO 34010KT 10SM FEW050 FEW060 14/08 A2997 RMK T01400080 MADISHF
ACT,2021-02-09 03:35,,,,350.00,11.00,,29.99,,10.00,,FEW,FEW,,,5000.00,6000.00,,,,,,,,,,,KACT 090335Z AUTO 35011KT 10SM FEW050 FEW060 14/08 A2998 RMK T01400080 MADISHF
ACT,2021-02-09 03:40,,,,350.00,16.00,,29.99,,10.00,,FEW,,,,5000.00,,,,,,,,,,,,KACT 090340Z AUTO 35016KT 10SM FEW050 13/07 A2998 RMK T01300070 MADISHF
ACT,2021-02-09 03:45,,,,350.00,14.00,,29.99,,10.00,,FEW,,,,5000.00,,,,,,,,,,,,KACT 090345Z AUTO 35014KT 10SM FEW050 13/06 A2998 RMK T01300060 MADISHF
ACT,2021-02-09 03:50,,,,350.00,13.00,,29.99,,10.00,,CLR,,,,,,,,,,,,,,,,KACT 090350Z AUTO 35013KT 10SM CLR 13/06 A2998 RMK T01300060 MADISHF
ACT,2021-02-09 03:51,54.00,42.10,63.98,350.00,14.00,0.00,29.99,1015.30,10.00,,CLR,,,,,,,,,,,,,,,,KACT 090351Z 35014KT 10SM CLR 12/06 A2999 RMK AO2 SLP153 T01220056
ACT,2021-02-09 03:55,,,,360.00,13.00,,29.99,,10.00,,CLR,,,,,,,,,,,,,,,,KACT 090355Z AUTO 36013KT 10SM CLR 12/05 A2998 RMK T01200050 MADISHF
ACT,2021-02-09 04:00,,,,350.00,11.00,,30.00,,10.00,,CLR,,,,,,,,,,,,,,,,KACT 090400Z AUTO 35011KT 10SM CLR 12/05 A3000 RMK T01200050 MADISHF
ACT,2021-02-09 04:05,,,,350.00,8.00,,30.00,,10.00,,CLR,,,,,,,,,,,,,,,,KACT 090405Z AUTO 35008KT 10SM CLR 12/05 A3000 RMK T01200050 MADISHF
ACT,2021-02-09 04:10,,,,350.00,10.00,,30.00,,10.00,,CLR,,,,,,,,,,,,,,,,KACT 090410Z AUTO 35010KT 10SM CLR 12/04 A3000 RMK T01200040 MADISHF
ACT,2021-02-09 04:15,,,,340.00,10.00,,30.00,,10.00,,CLR,,,,,,,,,,,,,,,,KACT 090415Z AUTO 34010KT 10SM CLR 11/04 A3000 RMK T01100040 MADISHF
ACT,2021-02-09 04:20,,,,340.00,9.00,,30.00,,10.00,,CLR,,,,,,,,,,,,,,,,KACT 090420Z AUTO 34009KT 10SM CLR 11/04 A3000 RMK T01100040 MADISHF
ACT,2021-02-09 04:25,,,,340.00,9.00,,30.01,,10.00,,CLR,,,,,,,,,,,,,,,,KACT 090425Z AUTO 34009KT 10SM CLR 11/04 A3001 RMK T01100040 MADISHF
ACT,2021-02-09 04:30,,,,340.00,9.00,,30.01,,10.00,,CLR,,,,,,,,,,,,,,,,KACT 090430Z AUTO 34009KT 10SM CLR 10/04 A3001 RMK T01000040 MADISHF
ACT,2021-02-09 04:35,,,,340.00,8.00,,30.01,,10.00,,CLR,,,,,,,,,,,,,,,,KACT 090435Z AUTO 34008KT 10SM CLR 09/04 A3001 RMK T00900040 MADISHF
ACT,2021-02-09 04:40,,,,340.00,8.00,,30.02,,10.00,,CLR,,,,,,,,,,,,,,,,KACT 090440Z AUTO 34008KT 10SM CLR 09/03 A3002 RMK T00900030 MADISHF
ACT,2021-02-09 04:45,,,,340.00,9.00,,30.02,,10.00,,FEW,,,,4100.00,,,,,,,,,,,,KACT 090445Z AUTO 34009KT 10SM FEW041 09/03 A3002 RMK T00900030 MADISHF
ACT,2021-02-09 04:50,,,,340.00,10.00,,30.02,,10.00,,FEW,SCT,,,2500.00,4100.00,,,,,,,,,,,KACT 090450Z AUTO 34010KT 10SM FEW025 SCT041 09/03 A3002 RMK T00900030 MADISHF
ACT,2021-02-09 04:51,48.00,37.90,67.87,340.00,11.00,0.00,30.02,1016.20,10.00,,FEW,SCT,,,2500.00,4100.00,,,,,,,,,,42.69,KACT 090451Z 34011KT 10SM FEW025 SCT041 09/03 A3002 RMK AO2 SLP162 T00890033
ACT,2021-02-09 04:55,,,,340.00,10.00,,30.02,,10.00,,SCT,BKN,,,2500.00,4100.00,,,,,,,,,,,KACT 090455Z AUTO 34010KT 10SM SCT025 BKN041 09/03 A3002 RMK T00900030 MADISHF
ACT,2021-02-09 05:00,,,,340.00,10.00,,30.02,,10.00,,BKN,BKN,,,2500.00,4100.00,,,,,,,,,,,KACT 090500Z AUTO 34010KT 10SM BKN025 BKN041 09/03 A3002 RMK T00900030 MADISHF
ACT,2021-02-09 05:05,,,,350.00,9.00,,30.02,,10.00,,BKN,BKN,,,2400.00,4100.00,,,,,,,,,,,KACT 090505Z AUTO 35009KT 10SM BKN024 BKN041 09/03 A3002 RMK T00900030 MADISHF
ACT,2021-02-09 05:10,,,,350.00,8.00,,30.02,,10.00,,BKN,OVC,,,2400.00,4100.00,,,,,,,,,,,KACT 090510Z AUTO 35008KT 10SM BKN024 OVC041 09/03 A3002 RMK T00900030 MADISHF
ACT,2021-02-09 05:15,,,,340.00,9.00,,30.02,,10.00,,OVC,,,,2300.00,,,,,,,,,,,,KACT 090515Z AUTO 34009KT 10SM OVC023 09/03 A3002 RMK T00900030 MADISHF
ACT,2021-02-09 05:20,,,,340.00,11.00,,30.02,,10.00,,OVC,,,,2300.00,,,,,,,,,,,,KACT 090520Z AUTO 34011KT 10SM OVC023 09/03 A3002 RMK T00900030 MADISHF
ACT,2021-02-09 05:25,,,,350.00,11.00,,30.03,,10.00,,OVC,,,,2300.00,,,,,,,,,,,,KACT 090525Z AUTO 35011KT 10SM OVC023 09/03 A3003 RMK T00900030 MADISHF
ACT,2021-02-09 05:30,,,,350.00,11.00,,30.03,,10.00,,OVC,,,,2200.00,,,,,,,,,,,,KACT 090530Z AUTO 35011KT 10SM OVC022 08/03 A3003 RMK T00800030 MADISHF
ACT,2021-02-09 05:35,,,,350.00,11.00,,30.03,,10.00,,OVC,,,,2200.00,,,,,,,,,,,,KACT 090535Z AUTO 35011KT 10SM OVC022 08/03 A3003 RMK T00800030 MADISHF
ACT,2021-02-09 05:40,,,,350.00,9.00,,30.03,,10.00,,OVC,,,,2100.00,,,,,,,,,,,,KACT 090540Z AUTO 35009KT 10SM OVC021 08/03 A3003 RMK T00800030 MADISHF
ACT,2021-02-09 05:45,,,,340.00,11.00,,30.03,,10.00,,OVC,,,,2100.00,,,,,,,,,,,,KACT 090545Z AUTO 34011KT 10SM OVC021 08/03 A3003 RMK T00800030 MADISHF
ACT,2021-02-09 05:50,,,,350.00,13.00,,30.04,,10.00,,OVC,,,,1999.00,,,,,,,,,,,,KACT 090550Z AUTO 35013KT 10SM OVC019 08/03 A3004 RMK T00800030 MADISHF
ACT,2021-02-09 05:51,46.90,37.00,68.27,350.00,13.00,0.00,30.03,1016.80,10.00,,OVC,,,,2000.00,,,,,,,,,,,40.66,KACT 090551Z 35013KT 10SM OVC020 08/03 A3003 RMK AO2 SLP168 T00830028 10194 20083 402280083 51031
ACT,2021-02-09 05:55,,,,350.00,10.00,,30.03,,10.00,,OVC,,,,1999.00,,,,,,,,,,,,KACT 090555Z AUTO 35010KT 10SM OVC019 08/03 A3003 RMK T00800030 MADISHF
ACT,2021-02-09 06:00,,,,350.00,10.00,,30.04,,10.00,,OVC,,,,1999.00,,,,,,,,,,,,KACT 090600Z AUTO 35010KT 10SM OVC019 08/03 A3004 RMK T00800030 MADISHF
ACT,2021-02-09 06:05,,,,340.00,11.00,,30.04,,10.00,,OVC,,,,1999.00,,,,,,,,,,,,KACT 090605Z AUTO 34011KT 10SM OVC019 08/03 A3004 RMK T00800030 MADISHF
ACT,2021-02-09 06:10,,,,350.00,11.00,,30.04,,10.00,,OVC,,,,1900.00,,,,,,,,,,,,KACT 090610Z AUTO 35011KT 10SM OVC019 08/03 A3004 RMK T00800030 MADISHF
ACT,2021-02-09 06:15,,,,350.00,10.00,,30.04,,10.00,,OVC,,,,1900.00,,,,,,,,,,,,KACT 090615Z AUTO 35010KT 10SM OVC019 08/03 A3004 RMK T00800030 MADISHF
ACT,2021-02-09 06:20,,,,350.00,10.00,,30.04,,10.00,,OVC,,,,1800.00,,,,,,,,,,,,KACT 090620Z AUTO 35010KT 10SM OVC018 08/03 A3004 RMK T00800030 MADISHF
ACT,2021-02-09 06:25,,,,340.00,11.00,,30.04,,10.00,,OVC,,,,1800.00,,,,,,,,,,,,KACT 090625Z AUTO 34011KT 10SM OVC018 08/02 A3004 RMK T00800020 MADISHF
ACT,2021-02-09 06:30,,,,350.00,11.00,,30.04,,10.00,,OVC,,,,1800.00,,,,,,,,,,,,KACT 090630Z AUTO 35011KT 10SM OVC018 08/02 A3004 RMK T00800020 MADISHF
ACT,2021-02-09 06:35,,,,350.00,8.00,,30.05,,10.00,,OVC,,,,1699.00,,,,,,,,,,,,KACT 090635Z AUTO 35008KT 10SM OVC016 07/02 A3004 RMK T00700020 MADISHF
ACT,2021-02-09 06:40,,,,350.00,9.00,,30.04,,10.00,,OVC,,,,1699.00,,,,,,,,,,,,KACT 090640Z AUTO 35009KT 10SM OVC016 07/02 A3004 RMK T00700020 MADISHF
ACT,2021-02-09 06:45,,,,350.00,10.00,,30.04,,10.00,,OVC,,,,1600.00,,,,,,,,,,,,KACT 090645Z AUTO 35010KT 10SM OVC016 07/02 A3004 RMK T00700020 MADISHF
ACT,2021-02-09 06:50,,,,350.00,11.00,,30.04,,10.00,,OVC,,,,1600.00,,,,,,,,,,,,KACT 090650Z AUTO 35011KT 10SM OVC016 07/02 A3004 RMK T00700020 MADISHF
ACT,2021-02-09 06:51,45.00,36.00,70.53,350.00,10.00,0.00,30.04,1017.10,10.00,,OVC,,,,1600.00,,,,,,,,,,,39.27,KACT 090651Z AUTO 35010KT 10SM OVC016 07/02 A3004 RMK AO2 SLP171 T00720022
ACT,2021-02-09 06:55,,,,360.00,11.00,,30.05,,10.00,,OVC,,,,1500.00,,,,,,,,,,,,KACT 090655Z AUTO 36011KT 10SM OVC015 07/02 A3004 RMK T00700020 MADISHF
ACT,2021-02-09 07:00,,,,350.00,11.00,,30.05,,10.00,,OVC,,,,1500.00,,,,,,,,,,,,KACT 090700Z AUTO 35011KT 10SM OVC015 07/02 A3004 RMK T00700020 MADISHF
ACT,2021-02-09 07:05,,,,350.00,8.00,,30.04,,10.00,,OVC,,,,1500.00,,,,,,,,,,,,KACT 090705Z AUTO 35008KT 10SM OVC015 07/02 A3004 RMK T00700020 MADISHF
ACT,2021-02-09 07:10,,,,340.00,10.00,,30.05,,10.00,,OVC,,,,1500.00,,,,,,,,,,,,KACT 090710Z AUTO 34010KT 10SM OVC015 07/02 A3004 RMK T00700020 MADISHF
ACT,2021-02-09 07:15,,,,340.00,10.00,,30.05,,10.00,,OVC,,,,1500.00,,,,,,,,,,,,KACT 090715Z AUTO 34010KT 10SM OVC015 07/02 A3004 RMK T00700020 MADISHF
ACT,2021-02-09 07:20,,,,340.00,11.00,,30.05,,10.00,,OVC,,,,1500.00,,,,,,,,,,,,KACT 090720Z AUTO 34011KT 10SM OVC015 07/02 A3004 RMK T00700020 MADISHF
ACT,2021-02-09 07:25,,,,340.00,10.00,,30.05,,10.00,,OVC,,,,1500.00,,,,,,,,,,,,KACT 090725Z AUTO 34010KT 10SM OVC015 07/02 A3004 RMK T00700020 MADISHF
ACT,2021-02-09 07:30,,,,340.00,11.00,,30.05,,10.00,,OVC,,,,1500.00,,,,,,,,,,,,KACT 090730Z AUTO 34011KT 10SM OVC015 07/02 A3004 RMK T00700020 MADISHF
ACT,2021-02-09 07:35,,,,340.00,10.00,,30.06,,10.00,,OVC,,,,1400.00,,,,,,,,,,,,KACT 090735Z AUTO 34010KT 10SM OVC014 07/02 A3005 RMK T00700020 MADISHF
ACT,2021-02-09 07:37,44.10,35.10,70.43,350.00,11.00,0.00,30.06,,10.00,,OVC,,,,1400.00,,,,,,,,,,,37.76,KACT 090737Z AUTO 35011KT 10SM OVC014 07/02 A3006 RMK AO2 T00670017
ACT,2021-02-09 07:40,,,,340.00,10.00,,30.06,,10.00,,OVC,,,,1400.00,,,,,,,,,,,,KACT 090740Z AUTO 34010KT 10SM OVC014 07/02 A3005 RMK T00700020 MADISHF
ACT,2021-02-09 07:45,,,,340.00,11.00,,30.06,,10.00,,OVC,,,,1400.00,,,,,,,,,,,,KACT 090745Z AUTO 34011KT 10SM OVC014 07/02 A3005 RMK T00700020 MADISHF
ACT,2021-02-09 07:50,,,,340.00,9.00,,30.06,,10.00,,OVC,,,,1400.00,,,,,,,,,,,,KACT 090750Z AUTO 34009KT 10SM OVC014 06/02 A3005 RMK T00600020 MADISHF
ACT,2021-02-09 07:51,43.00,35.10,73.45,340.00,10.00,0.00,30.06,1017.50,10.00,,OVC,,,,1400.00,,,,,,,,,,,36.76,KACT 090751Z AUTO 34010KT 10SM OVC014 06/02 A3006 RMK AO2 SLP175 T00610017
ACT,2021-02-09 07:55,,,,340.00,13.00,,30.06,,10.00,,OVC,,,,1400.00,,,,,,,,,,,,KACT 090755Z AUTO 34013KT 10SM OVC014 06/02 A3005 RMK T00600020 MADISHF
ACT,2021-02-09 08:00,,,,340.00,8.00,,30.06,,10.00,,OVC,,,,1400.00,,,,,,,,,,,,KACT 090800Z AUTO 34008KT 10SM OVC014 06/02 A3005 RMK T00600020 MADISHF
ACT,2021-02-09 08:05,,,,330.00,9.00,,30.06,,10.00,,OVC,,,,1400.00,,,,,,,,,,,,KACT 090805Z AUTO 33009KT 10SM OVC014 06/02 A3005 RMK T00600020 MADISHF
ACT,2021-02-09 08:10,,,,340.00,11.00,,30.06,,10.00,,OVC,,,,1400.00,,,,,,,,,,,,KACT 090810Z AUTO 34011KT 10SM OVC014 06/02 A3005 RMK T00600020 MADISHF
ACT,2021-02-09 08:15,,,,340.00,8.00,,30.06,,10.00,,OVC,,,,1300.00,,,,,,,,,,,,KACT 090815Z AUTO 34008KT 10SM OVC013 06/02 A3005 RMK T00600020 MADISHF
ACT,2021-02-09 08:20,,,,330.00,9.00,,30.06,,10.00,,OVC,,,,1300.00,,,,,,,,,,,,KACT 090820Z AUTO 33009KT 10SM OVC013 06/02 A3005 RMK T00600020 MADISHF
ACT,2021-02-09 08:25,,,,340.00,10.00,,30.06,,10.00,,OVC,,,,1300.00,,,,,,,,,,,,KACT 090825Z AUTO 34010KT 10SM OVC013 06/02 A3005 RMK T00600020 MADISHF
ACT,2021-02-09 08:30,,,,340.00,11.00,,30.06,,10.00,,OVC,,,,1300.00,,,,,,,,,,,,KACT 090830Z AUTO 34011KT 10SM OVC013 06/02 A3005 RMK T00600020 MADISHF
ACT,2021-02-09 08:35,,,,330.00,10.00,,30.06,,10.00,,OVC,,,,1300.00,,,,,,,,,,,,KACT 090835Z AUTO 33010KT 10SM OVC013 06/02 A3005 RMK T00600020 MADISHF
ACT,2021-02-09 08:40,,,,330.00,9.00,,30.06,,10.00,,OVC,,,,1200.00,,,,,,,,,,,,KACT 090840Z AUTO 33009KT 10SM OVC012 05/02 A3005 RMK T00500020 MADISHF
ACT,2021-02-09 08:45,,,,340.00,11.00,,30.06,,10.00,,OVC,,,,1200.00,,,,,,,,,,,,KACT 090845Z AUTO 34011KT 10SM OVC012 05/02 A3005 RMK T00500020 MADISHF
ACT,2021-02-09 08:50,,,,330.00,11.00,,30.06,,10.00,,OVC,,,,1200.00,,,,,,,,,,,,KACT 090850Z AUTO 33011KT 10SM OVC012 05/02 A3005 RMK T00500020 MADISHF
ACT,2021-02-09 08:51,41.00,35.10,79.34,330.00,11.00,0.00,30.06,1017.70,10.00,,OVC,,,,1200.00,,,,,,,,,,,33.84,KACT 090851Z AUTO 33011KT 10SM OVC012 05/02 A3006 RMK AO2 SLP177 T00500017 51009
ACT,2021-02-09 08:55,,,,340.00,10.00,,30.06,,10.00,,OVC,,,,1200.00,,,,,,,,,,,,KACT 090855Z AUTO 34010KT 10SM OVC012 05/02 A3005 RMK T00500020 MADISHF
ACT,2021-02-09 09:00,,,,340.00,11.00,,30.07,,10.00,,OVC,,,,1200.00,,,,,,,,,,,,KACT 090900Z AUTO 34011KT 10SM OVC012 05/02 A3006 RMK T00500020 MADISHF
ACT,2021-02-09 09:05,,,,330.00,11.00,,30.07,,10.00,,OVC,,,,1200.00,,,,,,,,,,,,KACT 090905Z AUTO 33011KT 10SM OVC012 05/02 A3006 RMK T00500020 MADISHF
ACT,2021-02-09 09:10,,,,340.00,11.00,,30.07,,9.00,,OVC,,,,1100.00,,,,,,,,,,,,KACT 090910Z AUTO 34011KT 9SM OVC011 05/02 A3006 RMK T00500020 MADISHF
ACT,2021-02-09 09:15,,,,330.00,11.00,,30.07,,8.00,,OVC,,,,1100.00,,,,,,,,,,,,KACT 090915Z AUTO 33011KT 8SM OVC011 04/02 A3006 RMK T00400020 MADISHF
ACT,2021-02-09 09:20,,,,340.00,9.00,,30.07,,7.00,,OVC,,,,999.00,,,,,,,,,,,,KACT 090920Z AUTO 34009KT 7SM OVC009 04/02 A3006 RMK T00400020 MADISHF
ACT,2021-02-09 09:25,,,,340.00,10.00,,30.06,,6.00,,OVC,,,,999.00,,,,BR,,,,,,,,KACT 090925Z AUTO 34010KT 6SM BR OVC009 04/02 A3005 RMK T00400020 CIG 7V11  MADISHF
ACT,2021-02-09 09:30,,,,340.00,11.00,,30.07,,5.00,,OVC,,,,900.00,,,,BR,,,,,,,,KACT 090930Z AUTO 34011KT 5SM BR OVC009 04/02 A3006 RMK T00400020 CIG 7V11  MADISHF
ACT,2021-02-09 09:35,,,,340.00,10.00,,30.07,,4.00,,OVC,,,,900.00,,,,BR,,,,,,,,KACT 090935Z AUTO 34010KT 4SM BR OVC009 04/02 A3006 RMK T00400020 CIG 7V10  MADISHF
ACT,2021-02-09 09:36,39.90,36.00,85.81,340.00,11.00,0.00,30.07,,4.00,,OVC,,,,900.00,,,,BR,,,,,,,32.45,KACT 090936Z AUTO 34011KT 4SM BR OVC009 04/02 A3007 RMK AO2 CIG 007V010 T00440022
ACT,2021-02-09 09:40,,,,340.00,10.00,,30.07,,4.00,,OVC,,,,900.00,,,,BR,,,,,,,,KACT 090940Z AUTO 34010KT 4SM BR OVC009 04/02 A3006 RMK T00400020 CIG 6V10  MADISHF
ACT,2021-02-09 09:45,,,,340.00,10.00,,30.08,,4.00,,OVC,,,,700.00,,,,BR,,,,,,,,KACT 090945Z AUTO 34010KT 4SM BR OVC007 04/02 A3007 RMK T00400020 CIG 5V10  MADISHF
ACT,2021-02-09 09:47,39.20,35.60,86.79,340.00,11.00,0.00,30.08,,4.00,,OVC,,,,700.00,,,,BR,,,,,,,31.57,KACT 090947Z AUTO 34011KT 4SM BR OVC007 04/02 A3008 RMK AO2 CIG 005V010
ACT,2021-02-09 09:50,,,,340.00,11.00,,30.08,,3.50,,OVC,,,,700.00,,,,BR,,,,,,,,KACT 090950Z AUTO 34011KT 3SM BR OVC007 04/02 A3007 RMK T00400020 CIG 5V10  MADISHF
ACT,2021-02-09 09:51,39.90,36.00,85.81,350.00,11.00,0.00,30.08,1018.20,3.00,,OVC,,,,700.00,,,,BR,,,,,,,32.45,KACT 090951Z AUTO 35011KT 3SM BR OVC007 04/02 A3008 RMK AO2 CIG 005V009 SLP182 T00440022
ACT,2021-02-09 09:55,,,,340.00,13.00,,30.08,,3.00,,OVC,,,,700.00,,,,BR,,,,,,,,KACT 090955Z AUTO 34013KT 3SM BR OVC007 04/02 A3007 RMK T00400020 CIG 5V9  MADISHF
ACT,2021-02-09 10:00,,,,340.00,11.00,,30.08,,2.50,,OVC,,,,700.00,,,,BR,,,,,,,,KACT 091000Z AUTO 34011KT 2 1/2SM BR OVC007 04/02 A3007 RMK T00400020 CIG 5V10  MADISHF
ACT,2021-02-09 10:02,39.90,37.00,89.27,350.00,11.00,0.00,30.08,,2.50,,OVC,,,,700.00,,,,BR,,,,,,,32.45,KACT 091002Z AUTO 35011KT 2 1/2SM BR OVC007 04/03 A3008 RMK AO2 CIG 005V010 T00440028
ACT,2021-02-09 10:05,,,,340.00,11.00,,30.08,,2.50,,OVC,,,,700.00,,,,BR,,,,,,,,KACT 091005Z AUTO 34011KT 2 1/2SM BR OVC007 04/03 A3007 RMK T00400030 CIG 5V10  MADISHF
ACT,2021-02-09 10:10,,,,340.00,11.00,,30.08,,2.50,,BKN,OVC,,,499.00,900.00,,,BR,,,,,,,,KACT 091010Z AUTO 34011KT 2 1/2SM BR BKN004 OVC009 04/03 A3007 RMK T00400030 MADISHF
ACT,2021-02-09 10:15,,,,350.00,9.00,,30.08,,2.50,,BKN,OVC,,,499.00,900.00,,,BR,,,,,,,,KACT 091015Z AUTO 35009KT 2 1/2SM BR BKN004 OVC009 04/03 A3007 RMK T00400030 MADISHF
ACT,2021-02-09 10:20,,,,340.00,10.00,,30.08,,2.00,,OVC,,,,499.00,,,,BR,,,,,,,,KACT 091020Z AUTO 34010KT 2SM BR OVC004 04/03 A3007 RMK T00400030 MADISHF
ACT,2021-02-09 10:25,,,,340.00,11.00,,30.08,,2.00,,OVC,,,,499.00,,,,BR,,,,,,,,KACT 091025Z AUTO 34011KT 2SM BR OVC004 04/03 A3007 RMK T00400030 MADISHF
ACT,2021-02-09 10:30,,,,330.00,11.00,,30.08,,2.50,,OVC,,,,499.00,,,,BR,,,,,,,,KACT 091030Z AUTO 33011KT 2 1/2SM BR OVC004 04/03 A3007 RMK T00400030 MADISHF
ACT,2021-02-09 10:35,,,,340.00,11.00,,30.09,,2.50,,OVC,,,,499.00,,,,BR,,,,,,,,KACT 091035Z AUTO 34011KT 2 1/2SM BR OVC004 04/03 A3009 RMK T00400030 MADISHF
ACT,2021-02-09 10:40,,,,340.00,10.00,,30.09,,2.50,,OVC,,,,400.00,,,,BR,,,,,,,,KACT 091040Z AUTO 34010KT 2 1/2SM BR OVC004 04/03 A3009 RMK T00400030 MADISHF
ACT,2021-02-09 10:45,,,,330.00,10.00,,30.09,,2.50,,OVC,,,,400.00,,,,BR,,,,,,,,KACT 091045Z AUTO 33010KT 2 1/2SM BR OVC004 04/03 A3009 RMK T00400030 MADISHF
ACT,2021-02-09 10:50,,,,340.00,9.00,,30.09,,2.50,15.00,OVC,,,,400.00,,,,BR,,,,,,,,KACT 091050Z AUTO 34009G15KT 2 1/2SM BR OVC004 04/03 A3009 RMK T00400030 MADISHF
ACT,2021-02-09 10:51,39.00,37.00,92.45,340.00,11.00,0.00,30.09,1018.60,2.50,,OVC,,,,400.00,,,,BR,,,,,,,31.31,KACT 091051Z AUTO 34011KT 2 1/2SM BR OVC004 04/03 A3009 RMK AO2 SLP186 T00390028
ACT,2021-02-09 10:55,,,,340.00,13.00,,30.09,,2.50,,OVC,,,,400.00,,,,BR,,,,,,,,KACT 091055Z AUTO 34013KT 2 1/2SM BR OVC004 04/03 A3009 RMK T00400030 MADISHF
ACT,2021-02-09 11:00,,,,340.00,14.00,,30.09,,2.50,19.00,OVC,,,,400.00,,,,BR,,,,,,,,KACT 091100Z AUTO 34014G19KT 2 1/2SM BR OVC004 04/02 A3009 RMK T00400020 MADISHF
ACT,2021-02-09 11:05,,,,340.00,13.00,,30.09,,2.50,,OVC,,,,400.00,,,,BR,,,,,,,,KACT 091105Z AUTO 34013KT 2 1/2SM BR OVC004 04/02 A3009 RMK T00400020 MADISHF
ACT,2021-02-09 11:10,,,,340.00,10.00,,30.10,,2.50,,OVC,,,,400.00,,,,BR,,,,,,,,KACT 091110Z AUTO 34010KT 2 1/2SM BR OVC004 04/02 A3010 RMK T00400020 MADISHF
ACT,2021-02-09 11:15,,,,340.00,11.00,,30.10,,3.00,,OVC,,,,400.00,,,,BR,,,,,,,,KACT 091115Z AUTO 34011KT 3SM BR OVC004 04/02 A3010 RMK T00400020 MADISHF
ACT,2021-02-09 11:18,39.00,36.00,88.87,350.00,10.00,0.00,30.10,,3.00,,OVC,,,,400.00,,,,BR,,,,,,,31.75,KACT 091118Z AUTO 35010KT 3SM BR OVC004 04/02 A3010 RMK AO2 T00390022
ACT,2021-02-09 11:20,,,,340.00,9.00,,30.10,,4.00,,OVC,,,,400.00,,,,BR,,,,,,,,KACT 091120Z AUTO 34009KT 4SM BR OVC004 04/02 A3010 RMK T00400020 MADISHF
ACT,2021-02-09 11:25,,,,340.00,11.00,,30.10,,4.00,,OVC,,,,400.00,,,,BR,,,,,,,,KACT 091125Z AUTO 34011KT 4SM BR OVC004 04/02 A3010 RMK T00400020 MADISHF
ACT,2021-02-09 11:30,,,,350.00,11.00,,30.10,,5.00,,OVC,,,,499.00,,,,BR,,,,,,,,KACT 091130Z AUTO 35011KT 5SM BR OVC004 04/02 A3010 RMK T00400020 MADISHF
ACT,2021-02-09 11:34,37.90,36.00,92.78,350.00,11.00,0.00,30.10,,6.00,,OVC,,,,500.00,,,,BR,,,,,,,29.92,KACT 091134Z AUTO 35011KT 6SM BR OVC005 03/02 A3010 RMK AO2 T00330022
ACT,2021-02-09 11:35,,,,350.00,11.00,,30.10,,6.00,,OVC,,,,499.00,,,,BR,,,,,,,,KACT 091135Z AUTO 35011KT 6SM BR OVC004 03/02 A3010 RMK T00300020 MADISHF
ACT,2021-02-09 11:40,,,,350.00,11.00,,30.10,,6.00,,OVC,,,,499.00,,,,BR,,,,,,,,KACT 091140Z AUTO 35011KT 6SM BR OVC004 03/02 A3010 RMK T00300020 MADISHF
ACT,2021-02-09 11:45,,,,350.00,11.00,,30.11,,7.00,,OVC,,,,499.00,,,,,,,,,,,,KACT 091145Z AUTO 35011KT 7SM OVC004 03/02 A3011 RMK T00300020 MADISHF
ACT,2021-02-09 11:50,,,,350.00,10.00,,30.11,,8.00,,OVC,,,,499.00,,,,,,,,,,,,KACT 091150Z AUTO 35010KT 8SM OVC004 03/02 A3011 RMK T00300020 MADISHF
ACT,2021-02-09 11:51,37.90,35.10,89.53,350.00,9.00,0.00,30.11,1019.30,8.00,,OVC,,,,500.00,,,,,,,,,,,30.85,KACT 091151Z 35009KT 8SM OVC005 03/02 A3011 RMK AO2 SLP193 T00330017 10072 20033 53010
ACT,2021-02-09 11:55,,,,350.00,11.00,,30.11,,8.00,,OVC,,,,499.00,,,,,,,,,,,,KACT 091155Z AUTO 35011KT 8SM OVC004 03/02 A3011 RMK T00300020 MADISHF
ACT,2021-02-09 12:00,,,,350.00,11.00,,30.11,,8.00,,OVC,,,,499.00,,,,,,,,,,,,KACT 091200Z AUTO 35011KT 8SM OVC004 03/02 A3011 RMK T00300020 MADISHF
ACT,2021-02-09 12:05,,,,350.00,10.00,,30.11,,8.00,,OVC,,,,600.00,,,,,,,,,,,,KACT 091205Z AUTO 35010KT 8SM OVC006 03/02 A3011 RMK T00300020 MADISHF
ACT,2021-02-09 12:10,,,,340.00,9.00,,30.11,,8.00,,OVC,,,,600.00,,,,,,,,,,,,KACT 091210Z AUTO 34009KT 8SM OVC006 03/02 A3011 RMK T00300020 MADISHF
ACT,2021-02-09 12:15,,,,340.00,13.00,,30.11,,8.00,,OVC,,,,600.00,,,,,,,,,,,,KACT 091215Z AUTO 34013KT 8SM OVC006 04/02 A3011 RMK T00400020 MADISHF
ACT,2021-02-09 12:20,,,,340.00,13.00,,30.11,,8.00,,OVC,,,,600.00,,,,,,,,,,,,KACT 091220Z AUTO 34013KT 8SM OVC006 04/02 A3011 RMK T00400020 MADISHF
ACT,2021-02-09 12:25,,,,340.00,11.00,,30.12,,8.00,,OVC,,,,600.00,,,,,,,,,,,,KACT 091225Z AUTO 34011KT 8SM OVC006 04/02 A3012 RMK T00400020 MADISHF
ACT,2021-02-09 12:30,,,,340.00,11.00,,30.12,,9.00,,OVC,,,,600.00,,,,,,,,,,,,KACT 091230Z AUTO 34011KT 9SM OVC006 04/02 A3012 RMK T00400020 MADISHF
ACT,2021-02-09 12:35,,,,340.00,10.00,,30.12,,9.00,,OVC,,,,600.00,,,,,,,,,,,,KACT 091235Z AUTO 34010KT 9SM OVC006 03/02 A3012 RMK T00300020 CIG 5V9  MADISHF
ACT,2021-02-09 12:40,,,,350.00,11.00,,30.12,,10.00,,OVC,,,,600.00,,,,,,,,,,,,KACT 091240Z AUTO 35011KT 10SM OVC006 03/02 A3012 RMK T00300020 MADISHF
ACT,2021-02-09 12:45,,,,340.00,11.00,,30.12,,10.00,,OVC,,,,800.00,,,,,,,,,,,,KACT 091245Z AUTO 34011KT 10SM OVC008 03/01 A3012 RMK T00300010 MADISHF
ACT,2021-02-09 12:50,,,,350.00,11.00,,30.12,,10.00,,OVC,,,,800.00,,,,,,,,,,,,KACT 091250Z AUTO 35011KT 10SM OVC008 03/02 A3012 RMK T00300020 MADISHF
ACT,2021-02-09 12:51,37.90,34.00,85.69,350.00,11.00,0.00,30.12,1019.90,10.00,,OVC,,,,800.00,,,,,,,,,,,29.92,KACT 091251Z 35011KT 10SM OVC008 03/01 A3012 RMK AO2 CIG 006V011 SLP199 T00330011
ACT,2021-02-09 12:55,,,,340.00,11.00,,30.13,,10.00,,OVC,,,,800.00,,,,,,,,,,,,KACT 091255Z AUTO 34011KT 10SM OVC008 03/01 A3012 RMK T00300010 MADISHF
ACT,2021-02-09 13:00,,,,350.00,10.00,,30.13,,10.00,,OVC,,,,800.00,,,,,,,,,,,,KACT 091300Z AUTO 35010KT 10SM OVC008 03/01 A3012 RMK T00300010 MADISHF
ACT,2021-02-09 13:05,,,,350.00,10.00,,30.13,,10.00,,OVC,,,,800.00,,,,,,,,,,,,KACT 091305Z AUTO 35010KT 10SM OVC008 03/01 A3012 RMK T00300010 MADISHF
ACT,2021-02-09 13:10,,,,350.00,11.00,,30.13,,10.00,,OVC,,,,800.00,,,,,,,,,,,,KACT 091310Z AUTO 35011KT 10SM OVC008 03/01 A3012 RMK T00300010 MADISHF
ACT,2021-02-09 13:15,,,,350.00,11.00,,30.13,,10.00,,OVC,,,,800.00,,,,,,,,,,,,KACT 091315Z AUTO 35011KT 10SM OVC008 03/01 A3012 RMK T00300010 MADISHF
ACT,2021-02-09 13:20,,,,350.00,13.00,,30.13,,10.00,,OVC,,,,900.00,,,,,,,,,,,,KACT 091320Z AUTO 35013KT 10SM OVC009 03/01 A3012 RMK T00300010 MADISHF
ACT,2021-02-09 13:25,,,,340.00,10.00,,30.14,,10.00,,OVC,,,,900.00,,,,,,,,,,,,KACT 091325Z AUTO 34010KT 10SM OVC009 03/01 A3013 RMK T00300010 MADISHF
ACT,2021-02-09 13:30,,,,350.00,9.00,,30.14,,9.00,,OVC,,,,800.00,,,,,,,,,,,,KACT 091330Z AUTO 35009KT 9SM OVC008 03/01 A3013 RMK T00300010 MADISHF
ACT,2021-02-09 13:35,,,,350.00,10.00,,30.14,,9.00,,OVC,,,,800.00,,,,,,,,,,,,KACT 091335Z AUTO 35010KT 9SM OVC008 03/01 A3013 RMK T00300010 MADISHF
ACT,2021-02-09 13:40,,,,350.00,10.00,,30.14,,9.00,,BKN,BKN,OVC,,800.00,1400.00,3500.00,,,,,,,,,,KACT 091340Z AUTO 35010KT 9SM BKN008 BKN014 OVC035 03/01 A3013 RMK T00300010 MADISHF
ACT,2021-02-09 13:45,,,,350.00,11.00,,30.14,,9.00,,BKN,BKN,OVC,,800.00,1400.00,3500.00,,,,,,,,,,KACT 091345Z AUTO 35011KT 9SM BKN008 BKN014 OVC035 04/01 A3013 RMK T00400010 MADISHF
ACT,2021-02-09 13:50,,,,350.00,10.00,,30.15,,9.00,,BKN,OVC,,,800.00,1400.00,,,,,,,,,,,KACT 091350Z AUTO 35010KT 9SM BKN008 OVC014 04/01 A3014 RMK T00400010 CIG 8V12  MADISHF
ACT,2021-02-09 13:51,39.00,34.00,82.08,350.00,10.00,0.00,30.15,1020.70,9.00,,BKN,OVC,,,800.00,1500.00,,,,,,,,,,31.75,KACT 091351Z 35010KT 9SM BKN008 OVC015 04/01 A3015 RMK AO2 CIG 008V012 SLP207 T00390011
ACT,2021-02-09 13:55,,,,350.00,9.00,,30.15,,9.00,,BKN,OVC,,,900.00,1500.00,,,,,,,,,,,KACT 091355Z AUTO 35009KT 9SM BKN009 OVC015 04/01 A3014 RMK T00400010 CIG 8V12  MADISHF
ACT,2021-02-09 14:00,,,,350.00,11.00,,30.15,,9.00,,BKN,OVC,,,900.00,1500.00,,,,,,,,,,,KACT 091400Z AUTO 35011KT 9SM BKN009 OVC015 04/01 A3014 RMK T00400010 MADISHF
ACT,2021-02-09 14:05,,,,350.00,13.00,,30.15,,9.00,,BKN,OVC,,,900.00,1500.00,,,,,,,,,,,KACT 091405Z AUTO 35013KT 9SM BKN009 OVC015 04/01 A3014 RMK T00400010 MADISHF
ACT,2021-02-09 14:10,,,,350.00,11.00,,30.15,,8.00,,OVC,,,,900.00,,,,,,,,,,,,KACT 091410Z AUTO 35011KT 8SM OVC009 04/01 A3014 RMK T00400010 CIG 8V14  MADISHF
ACT,2021-02-09 14:15,,,,350.00,11.00,,30.16,,8.00,,BKN,OVC,,,900.00,1600.00,,,,,,,,,,,KACT 091415Z AUTO 35011KT 8SM BKN009 OVC016 04/01 A3015 RMK T00400010 CIG 8V13  MADISHF
ACT,2021-02-09 14:20,,,,360.00,10.00,,30.16,,8.00,,BKN,OVC,,,900.00,1600.00,,,,,,,,,,,KACT 091420Z AUTO 36010KT 8SM BKN009 OVC016 04/01 A3015 RMK T00400010 MADISHF
ACT,2021-02-09 14:25,,,,350.00,10.00,,30.16,,8.00,,BKN,OVC,,,900.00,1600.00,,,,,,,,,,,KACT 091425Z AUTO 35010KT 8SM BKN009 OVC016 04/01 A3015 RMK T00400010 MADISHF
ACT,2021-02-09 14:30,,,,360.00,11.00,,30.16,,8.00,,BKN,OVC,,,900.00,1600.00,,,,,,,,,,,KACT 091430Z AUTO 36011KT 8SM BKN009 OVC016 04/01 A3015 RMK T00400010 CIG 8V12  MADISHF
ACT,2021-02-09 14:35,,,,350.00,13.00,,30.16,,8.00,,BKN,OVC,,,900.00,1699.00,,,,,,,,,,,KACT 091435Z AUTO 35013KT 8SM BKN009 OVC016 04/01 A3015 RMK T00400010 CIG 8V12  MADISHF
ACT,2021-02-09 14:40,,,,350.00,11.00,,30.16,,8.00,16.00,BKN,OVC,,,900.00,1699.00,,,,,,,,,,,KACT 091440Z AUTO 35011G16KT 8SM BKN009 OVC016 04/01 A3015 RMK T00400010 MADISHF
ACT,2021-02-09 14:45,,,,360.00,11.00,,30.17,,7.00,,BKN,OVC,,,900.00,1699.00,,,,,,,,,,,KACT 091445Z AUTO 36011KT 7SM BKN009 OVC016 03/01 A3017 RMK T00300010 CIG 8V12  MADISHF
ACT,2021-02-09 14:50,,,,340.00,11.00,,30.17,,7.00,,BKN,OVC,,,900.00,1699.00,,,,,,,,,,,KACT 091450Z AUTO 34011KT 7SM BKN009 OVC016 04/01 A3017 RMK T00400010 CIG 8V12  MADISHF
ACT,2021-02-09 14:51,39.00,33.10,79.17,340.00,12.00,0.00,30.17,1021.60,7.00,,BKN,OVC,,,900.00,1700.00,,,,,,,,,,30.91,KACT 091451Z 34012KT 7SM BKN009 OVC017 04/01 A3017 RMK AO2 CIG 008V012 SLP216 T00390006 53021
ACT,2021-02-09 14:55,,,,340.00,11.00,,30.17,,8.00,,BKN,OVC,,,999.00,1699.00,,,,,,,,,,,KACT 091455Z AUTO 34011KT 8SM BKN009 OVC016 03/01 A3017 RMK T00300010 MADISHF
ACT,2021-02-09 15:00,,,,340.00,11.00,,30.17,,7.00,,BKN,OVC,,,900.00,1699.00,,,,,,,,,,,KACT 091500Z AUTO 34011KT 7SM BKN009 OVC016 03/01 A3017 RMK T00300010 MADISHF
ACT,2021-02-09 15:05,,,,350.00,11.00,,30.17,,7.00,,BKN,OVC,,,900.00,1699.00,,,,,,,,,,,KACT 091505Z AUTO 35011KT 7SM BKN009 OVC016 03/01 A3017 RMK T00300010 MADISHF
ACT,2021-02-09 15:10,,,,350.00,11.00,,30.17,,7.00,,BKN,OVC,,,900.00,1699.00,,,,,,,,,,,KACT 091510Z AUTO 35011KT 7SM BKN009 OVC016 03/01 A3017 RMK T00300010 MADISHF
ACT,2021-02-09 15:15,,,,350.00,11.00,,30.18,,7.00,,BKN,OVC,,,900.00,1699.00,,,,,,,,,,,KACT 091515Z AUTO 35011KT 7SM BKN009 OVC016 03/00 A3018 RMK T00300000 MADISHF
ACT,2021-02-09 15:20,,,,350.00,11.00,,30.18,,7.00,,BKN,OVC,,,900.00,1699.00,,,,,,,,,,,KACT 091520Z AUTO 35011KT 7SM BKN009 OVC016 03/00 A3018 RMK T00300000 MADISHF
ACT,2021-02-09 15:25,,,,360.00,13.00,,30.18,,7.00,,BKN,OVC,,,900.00,1699.00,,,,,,,,,,,KACT 091525Z AUTO 36013KT 7SM BKN009 OVC016 03/00 A3018 RMK T00300000 MADISHF
ACT,2021-02-09 15:30,,,,350.00,13.00,,30.18,,7.00,,BKN,OVC,,,900.00,1699.00,,,,,,,,,,,KACT 091530Z AUTO 35013KT 7SM BKN009 OVC016 03/00 A3018 RMK T00300000 MADISHF
ACT,2021-02-09 15:35,,,,350.00,10.00,,30.18,,7.00,15.00,BKN,OVC,,,900.00,1699.00,,,,,,,,,,,KACT 091535Z AUTO 35010G15KT 7SM BKN009 OVC016 04/00 A3018 RMK T00400000 MADISHF
ACT,2021-02-09 15:40,,,,340.00,11.00,,30.18,,8.00,,BKN,OVC,,,900.00,1699.00,,,,,,,,,,,KACT 091540Z AUTO 34011KT 8SM BKN009 OVC016 04/00 A3018 RMK T00400000 MADISHF
ACT,2021-02-09 15:45,,,,350.00,13.00,,30.19,,7.00,,BKN,OVC,,,900.00,1699.00,,,,,,,,,,,KACT 091545Z AUTO 35013KT 7SM BKN009 OVC016 03/00 A3019 RMK T00300000 MADISHF
ACT,2021-02-09 15:50,,,,350.00,11.00,,30.19,,7.00,,BKN,OVC,,,900.00,1699.00,,,,,,,,,,,KACT 091550Z AUTO 35011KT 7SM BKN009 OVC016 04/00 A3019 RMK T00400000 MADISHF
ACT,2021-02-09 15:51,39.00,32.00,75.75,350.00,11.00,0.00,30.19,1022.20,7.00,,BKN,OVC,,,900.00,1700.00,,,,,,,,,,31.31,KACT 091551Z 35011KT 7SM BKN009 OVC017 04/00 A3019 RMK AO2 SLP222 T00390000
ACT,2021-02-09 15:55,,,,360.00,11.00,,30.19,,7.00,,OVC,,,,1100.00,,,,,,,,,,,,KACT 091555Z AUTO 36011KT 7SM OVC011 04/00 A3019 RMK T00400000 MADISHF
ACT,2021-02-09 15:58,39.00,32.00,75.75,340.00,12.00,0.00,30.19,,7.00,,OVC,,,,1100.00,,,,,,,,,,,30.91,KACT 091558Z 34012KT 7SM OVC011 04/00 A3019 RMK AO2 T00390000
ACT,2021-02-09 16:00,,,,340.00,11.00,,30.19,,7.00,,OVC,,,,1100.00,,,,,,,,,,,,KACT 091600Z AUTO 34011KT 7SM OVC011 04/00 A3019 RMK T00400000 MADISHF
ACT,2021-02-09 16:05,,,,340.00,11.00,,30.19,,7.00,,OVC,,,,1100.00,,,,,,,,,,,,KACT 091605Z AUTO 34011KT 7SM OVC011 04/00 A3019 RMK T00400000 MADISHF
ACT,2021-02-09 16:10,,,,350.00,11.00,,30.20,,7.00,,OVC,,,,1100.00,,,,,,,,,,,,KACT 091610Z AUTO 35011KT 7SM OVC011 04/00 A3020 RMK T00400000 MADISHF
ACT,2021-02-09 16:15,,,,330.00,11.00,,30.20,,7.00,,OVC,,,,1100.00,,,,,,,,,,,,KACT 091615Z AUTO 33011KT 7SM OVC011 04/00 A3020 RMK T00400000 MADISHF
ACT,2021-02-09 16:20,,,,330.00,13.00,,30.20,,7.00,,OVC,,,,1100.00,,,,,,,,,,,,KACT 091620Z AUTO 33013KT 7SM OVC011 04/00 A3020 RMK T00400000 MADISHF
ACT,2021-02-09 16:25,,,,350.00,11.00,,30.20,,7.00,,OVC,,,,1200.00,,,,,,,,,,,,KACT 091625Z AUTO 35011KT 7SM OVC012 04/00 A3020 RMK T00400000 MADISHF
ACT,2021-02-09 16:30,,,,350.00,11.00,,30.20,,7.00,,OVC,,,,1200.00,,,,,,,,,,,,KACT 091630Z AUTO 35011KT 7SM OVC012 04/00 A3020 RMK T00400000 MADISHF
ACT,2021-02-09 16:35,,,,350.00,14.00,,30.20,,7.00,,OVC,,,,1200.00,,,,,,,,,,,,KACT 091635Z AUTO 35014KT 7SM OVC012 04/00 A3020 RMK T00400000 MADISHF
ACT,2021-02-09 16:40,,,,350.00,11.00,,30.20,,7.00,,OVC,,,,1200.00,,,,,,,,,,,,KACT 091640Z AUTO 35011KT 7SM OVC012 04/M01 A3020 RMK T00401010 MADISHF
ACT,2021-02-09 16:45,,,,340.00,11.00,,30.21,,7.00,,OVC,,,,1200.00,,,,,,,,,,,,KACT 091645Z AUTO 34011KT 7SM OVC012 04/00 A3020 RMK T00400000 MADISHF
ACT,2021-02-09 16:50,,,,340.00,11.00,,30.21,,7.00,,OVC,,,,1300.00,,,,,,,,,,,,KACT 091650Z AUTO 34011KT 7SM OVC013 04/00 A3020 RMK T00400000 MADISHF
ACT,2021-02-09 16:51,39.00,30.90,72.45,350.00,12.00,0.00,30.21,1022.90,7.00,,OVC,,,,1300.00,,,,,,,,,,,30.91,KACT 091651Z 35012KT 7SM OVC013 04/M01 A3021 RMK AO2 SLP229 T00391006
ACT,2021-02-09 16:55,,,,340.00,13.00,,30.21,,7.00,,OVC,,,,1300.00,,,,,,,,,,,,KACT 091655Z AUTO 34013KT 7SM OVC013 04/M01 A3020 RMK T00401010 MADISHF
ACT,2021-02-09 17:00,,,,340.00,11.00,,30.21,,7.00,,OVC,,,,1300.00,,,,,,,,,,,,KACT 091700Z AUTO 34011KT 7SM OVC013 03/M01 A3020 RMK T00301010 MADISHF
ACT,2021-02-09 17:05,,,,340.00,11.00,,30.21,,7.00,,OVC,,,,1300.00,,,,,,,,,,,,KACT 091705Z AUTO 34011KT 7SM OVC013 04/M01 A3020 RMK T00401010 MADISHF
ACT,2021-02-09 17:10,,,,350.00,13.00,,30.20,,7.00,,OVC,,,,1300.00,,,,,,,,,,,,KACT 091710Z AUTO 35013KT 7SM OVC013 04/M01 A3020 RMK T00401010 MADISHF
ACT,2021-02-09 17:15,,,,350.00,14.00,,30.20,,7.00,,OVC,,,,1300.00,,,,,,,,,,,,KACT 091715Z AUTO 35014KT 7SM OVC013 04/00 A3020 RMK T00400000 MADISHF
ACT,2021-02-09 17:20,,,,350.00,13.00,,30.20,,7.00,,OVC,,,,1300.00,,,,,,,,,,,,KACT 091720Z AUTO 35013KT 7SM OVC013 04/M01 A3020 RMK T00401010 MADISHF
ACT,2021-02-09 17:25,,,,340.00,13.00,,30.20,,7.00,,OVC,,,,1300.00,,,,,,,,,,,,KACT 091725Z AUTO 34013KT 7SM OVC013 04/M01 A3020 RMK T00401010 MADISHF
ACT,2021-02-09 17:30,,,,340.00,11.00,,30.20,,7.00,,OVC,,,,1300.00,,,,,,,,,,,,KACT 091730Z AUTO 34011KT 7SM OVC013 04/M01 A3020 RMK T00401010 MADISHF
ACT,2021-02-09 17:35,,,,340.00,11.00,,30.20,,7.00,,OVC,,,,1300.00,,,,,,,,,,,,KACT 091735Z AUTO 34011KT 7SM OVC013 04/M01 A3020 RMK T00401010 MADISHF
ACT,2021-02-09 17:40,,,,350.00,11.00,,30.20,,7.00,,OVC,,,,1300.00,,,,,,,,,,,,KACT 091740Z AUTO 35011KT 7SM OVC013 04/M01 A3020 RMK T00401010 MADISHF
ACT,2021-02-09 17:45,,,,350.00,11.00,,30.20,,7.00,,OVC,,,,1300.00,,,,,,,,,,,,KACT 091745Z AUTO 35011KT 7SM OVC013 04/M01 A3020 RMK T00401010 MADISHF
ACT,2021-02-09 17:50,,,,340.00,11.00,,30.20,,7.00,,OVC,,,,1400.00,,,,,,,,,,,,KACT 091750Z AUTO 34011KT 7SM OVC014 04/M01 A3020 RMK T00401010 MADISHF
ACT,2021-02-09 17:51,39.90,30.90,69.96,340.00,11.00,0.00,30.20,1022.60,7.00,,OVC,,,,1400.00,,,,,,,,,,,32.45,KACT 091751Z 34011KT 7SM OVC014 04/M01 A3020 RMK AO2 SLP226 T00441006 10044 20033 50009
ACT,2021-02-09 17:55,,,,350.00,11.00,,30.19,,8.00,,OVC,,,,1400.00,,,,,,,,,,,,KACT 091755Z AUTO 35011KT 8SM OVC014 04/M01 A3019 RMK T00401010 MADISHF
ACT,2021-02-09 18:00,,,,10.00,13.00,,30.19,,8.00,,OVC,,,,1400.00,,,,,,,,,,,,KACT 091800Z AUTO 01013KT 8SM OVC014 05/M01 A3019 RMK T00501010 MADISHF
ACT,2021-02-09 18:05,,,,360.00,11.00,,30.19,,8.00,,OVC,,,,1400.00,,,,,,,,,,,,KACT 091805Z AUTO 36011KT 8SM OVC014 04/M01 A3019 RMK T00401010 MADISHF
ACT,2021-02-09 18:10,,,,350.00,11.00,,30.19,,8.00,,OVC,,,,1400.00,,,,,,,,,,,,KACT 091810Z AUTO 35011KT 8SM OVC014 04/M01 A3019 RMK T00401010 MADISHF
ACT,2021-02-09 18:15,,,,340.00,11.00,,30.19,,8.00,,OVC,,,,1400.00,,,,,,,,,,,,KACT 091815Z AUTO 34011KT 8SM OVC014 05/M01 A3019 RMK T00501010 MADISHF
ACT,2021-02-09 18:20,,,,360.00,11.00,,30.18,,9.00,,OVC,,,,1400.00,,,,,,,,,,,,KACT 091820Z AUTO 36011KT 9SM OVC014 05/M01 A3018 RMK T00501010 MADISHF
ACT,2021-02-09 18:25,,,,340.00,10.00,,30.18,,9.00,,OVC,,,,1400.00,,,,,,,,,,,,KACT 091825Z AUTO 34010KT 9SM OVC014 05/M01 A3018 RMK T00501010 MADISHF
ACT,2021-02-09 18:30,,,,360.00,13.00,,30.18,,9.00,,OVC,,,,1400.00,,,,,,,,,,,,KACT 091830Z AUTO 36013KT 9SM OVC014 05/M01 A3018 RMK T00501010 MADISHF
ACT,2021-02-09 18:35,,,,10.00,11.00,,30.18,,9.00,,OVC,,,,1400.00,,,,,,,,,,,,KACT 091835Z AUTO 01011KT 9SM OVC014 05/M01 A3018 RMK T00501010 MADISHF
ACT,2021-02-09 18:40,,,,10.00,9.00,,30.17,,9.00,,OVC,,,,1400.00,,,,,,,,,,,,KACT 091840Z AUTO 01009KT 9SM OVC014 06/M01 A3017 RMK T00601010 MADISHF
ACT,2021-02-09 18:45,,,,350.00,9.00,,30.17,,9.00,,OVC,,,,1400.00,,,,,,,,,,,,KACT 091845Z AUTO 35009KT 9SM OVC014 06/00 A3017 RMK T00600000 MADISHF
ACT,2021-02-09 18:50,,,,350.00,10.00,,30.17,,9.00,,FEW,OVC,,,1699.00,3700.00,,,,,,,,,,,KACT 091850Z AUTO 35010KT 9SM FEW016 OVC037 06/M01 A3017 RMK T00601010 MADISHF
ACT,2021-02-09 18:51,42.10,32.00,67.17,360.00,9.00,0.00,30.17,1021.60,9.00,,FEW,OVC,,,1700.00,3700.00,,,,,,,,,,36.07,KACT 091851Z 36009KT 9SM FEW017 OVC037 06/00 A3017 RMK AO2 SLP216 T00560000
ACT,2021-02-09 18:55,,,,350.00,9.00,,30.17,,9.00,,FEW,OVC,,,1699.00,3700.00,,,,,,,,,,,KACT 091855Z AUTO 35009KT 9SM FEW016 OVC037 06/00 A3017 RMK T00600000 MADISHF
ACT,2021-02-09 19:00,,,,350.00,9.00,,30.16,,9.00,,FEW,OVC,,,1699.00,3700.00,,,,,,,,,,,KACT 091900Z AUTO 35009KT 9SM FEW016 OVC037 06/00 A3015 RMK T00600000 MADISHF
ACT,2021-02-09 19:05,,,,340.00,10.00,,30.16,,9.00,,FEW,OVC,,,1699.00,3700.00,,,,,,,,,,,KACT 091905Z AUTO 34010KT 9SM FEW016 OVC037 06/00 A3015 RMK T00600000 MADISHF
ACT,2021-02-09 19:10,,,,350.00,8.00,,30.16,,9.00,,FEW,OVC,,,1699.00,3700.00,,,,,,,,,,,KACT 091910Z AUTO 35008KT 9SM FEW016 OVC037 06/M01 A3015 RMK T00601010 MADISHF
ACT,2021-02-09 19:15,,,,340.00,10.00,,30.16,,9.00,,FEW,OVC,,,1699.00,3700.00,,,,,,,,,,,KACT 091915Z AUTO 34010KT 9SM FEW016 OVC037 06/00 A3015 RMK T00600000 MADISHF
ACT,2021-02-09 19:20,,,,10.00,10.00,,30.15,,9.00,,FEW,OVC,,,1699.00,3700.00,,,,,,,,,,,KACT 091920Z AUTO 01010KT 9SM FEW016 OVC037 06/00 A3014 RMK T00600000 MADISHF
ACT,2021-02-09 19:25,,,,350.00,8.00,,30.15,,9.00,,FEW,OVC,,,1699.00,3700.00,,,,,,,,,,,KACT 091925Z AUTO 35008KT 9SM FEW016 OVC037 06/00 A3014 RMK T00600000 MADISHF
ACT,2021-02-09 19:30,,,,350.00,11.00,,30.15,,9.00,,FEW,OVC,,,1800.00,3700.00,,,,,,,,,,,KACT 091930Z AUTO 35011KT 9SM FEW018 OVC037 06/00 A3014 RMK T00600000 MADISHF
ACT,2021-02-09 19:35,,,,350.00,10.00,,30.15,,9.00,,OVC,,,,3700.00,,,,,,,,,,,,KACT 091935Z AUTO 35010KT 9SM OVC037 06/00 A3014 RMK T00600000 MADISHF
ACT,2021-02-09 19:40,,,,340.00,10.00,,30.15,,10.00,,OVC,,,,3700.00,,,,,,,,,,,,KACT 091940Z AUTO 34010KT 10SM OVC037 06/00 A3014 RMK T00600000 MADISHF
ACT,2021-02-09 19:45,,,,350.00,8.00,,30.14,,9.00,,OVC,,,,3700.00,,,,,,,,,,,,KACT 091945Z AUTO 35008KT 9SM OVC037 06/00 A3013 RMK T00600000 MADISHF
ACT,2021-02-09 19:50,,,,340.00,11.00,,30.14,,9.00,,OVC,,,,3700.00,,,,,,,,,,,,KACT 091950Z AUTO 34011KT 9SM OVC037 07/00 A3013 RMK T00700000 MADISHF
ACT,2021-02-09 19:51,43.00,32.00,64.88,340.00,11.00,0.00,30.14,1020.70,9.00,,OVC,,,,3700.00,,,,,,,,,,,36.37,KACT 091951Z 34011KT 9SM OVC037 06/00 A3014 RMK AO2 SLP207 T00610000
ACT,2021-02-09 19:55,,,,350.00,10.00,,30.14,,9.00,,OVC,,,,3700.00,,,,,,,,,,,,KACT 091955Z AUTO 35010KT 9SM OVC037 06/00 A3013 RMK T00600000 MADISHF
ACT,2021-02-09 20:00,,,,10.00,10.00,,30.14,,9.00,,OVC,,,,3700.00,,,,,,,,,,,,KACT 092000Z AUTO 01010KT 9SM OVC037 06/00 A3013 RMK T00600000 MADISHF
ACT,2021-02-09 20:05,,,,340.00,10.00,,30.14,,10.00,,OVC,,,,3700.00,,,,,,,,,,,,KACT 092005Z AUTO 34010KT 10SM OVC037 07/00 A3013 RMK T00700000 MADISHF
ACT,2021-02-09 20:10,,,,360.00,10.00,,30.13,,10.00,15.00,OVC,,,,3700.00,,,,,,,,,,,,KACT 092010Z AUTO 36010G15KT 10SM OVC037 07/00 A3012 RMK T00700000 MADISHF
ACT,2021-02-09 20:15,,,,10.00,10.00,,30.13,,10.00,,OVC,,,,3700.00,,,,,,,,,,,,KACT 092015Z AUTO 01010KT 10SM OVC037 07/01 A3012 RMK T00700010 MADISHF
ACT,2021-02-09 20:20,,,,10.00,11.00,,30.13,,10.00,,FEW,OVC,,,1800.00,3700.00,,,,,,,,,,,KACT 092020Z AUTO 01011KT 10SM FEW018 OVC037 07/01 A3012 RMK T00700010 MADISHF
ACT,2021-02-09 20:25,,,,360.00,11.00,,30.13,,10.00,,FEW,OVC,,,1800.00,3700.00,,,,,,,,,,,KACT 092025Z AUTO 36011KT 10SM FEW018 OVC037 07/01 A3012 RMK T00700010 MADISHF
ACT,2021-02-09 20:30,,,,350.00,11.00,,30.13,,10.00,,FEW,OVC,,,1800.00,3700.00,,,,,,,,,,,KACT 092030Z AUTO 35011KT 10SM FEW018 OVC037 07/01 A3012 RMK T00700010 MADISHF
ACT,2021-02-09 20:35,,,,350.00,10.00,,30.13,,10.00,,OVC,,,,3700.00,,,,,,,,,,,,KACT 092035Z AUTO 35010KT 10SM OVC037 07/00 A3012 RMK T00700000 MADISHF
ACT,2021-02-09 20:40,,,,360.00,11.00,,30.13,,10.00,,OVC,,,,3700.00,,,,,,,,,,,,KACT 092040Z AUTO 36011KT 10SM OVC037 07/00 A3012 RMK T00700000 MADISHF
ACT,2021-02-09 20:45,,,,350.00,11.00,,30.12,,10.00,,FEW,OVC,,,1900.00,3700.00,,,,,,,,,,,KACT 092045Z AUTO 35011KT 10SM FEW019 OVC037 07/01 A3012 RMK T00700010 MADISHF
ACT,2021-02-09 20:50,,,,360.00,8.00,,30.12,,10.00,,FEW,OVC,,,1900.00,3700.00,,,,,,,,,,,KACT 092050Z AUTO 36008KT 10SM FEW019 OVC037 07/00 A3012 RMK T00700000 MADISHF
ACT,2021-02-09 20:51,44.10,32.00,62.21,350.00,7.00,0.00,30.12,1020.00,10.00,,FEW,OVC,,,1900.00,3700.00,,,,,,,,,,39.53,KACT 092051Z AUTO 35007KT 10SM FEW019 OVC037 07/00 A3012 RMK AO2 SLP200 T00670000 56025
ACT,2021-02-09 20:55,,,,350.00,10.00,,30.12,,10.00,,OVC,,,,3700.00,,,,,,,,,,,,KACT 092055Z AUTO 35010KT 10SM OVC037 07/01 A3012 RMK T00700010 MADISHF
ACT,2021-02-09 21:00,,,,350.00,7.00,,30.12,,10.00,,OVC,,,,3700.00,,,,,,,,,,,,KACT 092100Z AUTO 35007KT 10SM OVC037 07/01 A3012 RMK T00700010 MADISHF
ACT,2021-02-09 21:05,,,,20.00,10.00,,30.11,,10.00,,OVC,,,,3700.00,,,,,,,,,,,,KACT 092105Z AUTO 02010KT 10SM OVC037 08/01 A3011 RMK T00800010 MADISHF
ACT,2021-02-09 21:10,,,,10.00,11.00,,30.11,,10.00,,OVC,,,,3700.00,,,,,,,,,,,,KACT 092110Z AUTO 01011KT 10SM OVC037 08/01 A3011 RMK T00800010 MADISHF
ACT,2021-02-09 21:15,,,,20.00,11.00,,30.11,,10.00,,OVC,,,,3700.00,,,,,,,,,,,,KACT 092115Z AUTO 02011KT 10SM OVC037 08/01 A3011 RMK T00800010 MADISHF
ACT,2021-02-09 21:20,,,,10.00,10.00,,30.11,,10.00,,OVC,,,,3700.00,,,,,,,,,,,,KACT 092120Z AUTO 01010KT 10SM OVC037 08/01 A3011 RMK T00800010 MADISHF
ACT,2021-02-09 21:25,,,,360.00,10.00,,30.11,,10.00,,OVC,,,,3700.00,,,,,,,,,,,,KACT 092125Z AUTO 36010KT 10SM OVC037 08/01 A3011 RMK T00800010 MADISHF
ACT,2021-02-09 21:30,,,,20.00,11.00,,30.11,,10.00,,OVC,,,,3700.00,,,,,,,,,,,,KACT 092130Z AUTO 02011KT 10SM OVC037 08/01 A3011 RMK T00800010 MADISHF
ACT,2021-02-09 21:35,,,,10.00,10.00,,30.11,,10.00,,BKN,,,,3700.00,,,,,,,,,,,,KACT 092135Z AUTO 01010KT 10SM BKN037 08/01 A3011 RMK T00800010 MADISHF
ACT,2021-02-09 21:40,,,,10.00,10.00,,30.11,,10.00,,BKN,,,,3700.00,,,,,,,,,,,,KACT 092140Z AUTO 01010KT 10SM BKN037 08/01 A3011 RMK T00800010 MADISHF
ACT,2021-02-09 21:45,,,,350.00,11.00,,30.11,,10.00,,BKN,,,,3700.00,,,,,,,,,,,,KACT 092145Z AUTO 35011KT 10SM BKN037 08/01 A3011 RMK T00800010 MADISHF
ACT,2021-02-09 21:50,,,,360.00,11.00,,30.11,,10.00,,BKN,,,,3700.00,,,,,,,,,,,,KACT 092150Z AUTO 36011KT 10SM BKN037 08/01 A3011 RMK T00800010 MADISHF
ACT,2021-02-09 21:51,46.00,33.10,60.49,350.00,11.00,0.00,30.11,1019.60,10.00,,BKN,,,,3700.00,,,,,,,,,,,40.16,KACT 092151Z 35011KT 10SM BKN037 08/01 A3011 RMK AO2 SLP196 T00780006
ACT,2021-02-09 21:55,,,,10.00,9.00,,30.11,,10.00,,BKN,,,,3700.00,,,,,,,,,,,,KACT 092155Z AUTO 01009KT 10SM BKN037 08/01 A3011 RMK T00800010 MADISHF
ACT,2021-02-09 22:00,,,,30.00,11.00,,30.11,,10.00,,FEW,BKN,,,1999.00,3700.00,,,,,,,,,,,KACT 092200Z AUTO 03011KT 10SM FEW019 BKN037 08/01 A3011 RMK T00800010 MADISHF
ACT,2021-02-09 22:05,,,,10.00,11.00,,30.11,,10.00,,SCT,BKN,,,1999.00,3700.00,,,,,,,,,,,KACT 092205Z AUTO 01011KT 10SM SCT019 BKN037 08/01 A3011 RMK T00800010 MADISHF
ACT,2021-02-09 22:10,,,,10.00,11.00,,30.11,,10.00,,BKN,OVC,,,1999.00,3700.00,,,,,,,,,,,KACT 092210Z AUTO 01011KT 10SM BKN019 OVC037 08/01 A3011 RMK T00800010 MADISHF
ACT,2021-02-09 22:15,,,,360.00,11.00,,30.11,,10.00,,BKN,OVC,,,1999.00,3700.00,,,,,,,,,,,KACT 092215Z AUTO 36011KT 10SM BKN019 OVC037 07/01 A3011 RMK T00700010 MADISHF
ACT,2021-02-09 22:20,,,,360.00,10.00,,30.11,,10.00,,BKN,OVC,,,1999.00,3700.00,,,,,,,,,,,KACT 092220Z AUTO 36010KT 10SM BKN019 OVC037 07/01 A3011 RMK T00700010 MADISHF
ACT,2021-02-09 22:25,,,,20.00,11.00,,30.11,,10.00,,OVC,,,,1999.00,,,,,,,,,,,,KACT 092225Z AUTO 02011KT 10SM OVC019 08/01 A3011 RMK T00800010 MADISHF
ACT,2021-02-09 22:30,,,,20.00,10.00,,30.11,,10.00,,OVC,,,,1999.00,,,,,,,,,,,,KACT 092230Z AUTO 02010KT 10SM OVC019 07/01 A3011 RMK T00700010 MADISHF
ACT,2021-02-09 22:35,,,,40.00,7.00,,30.12,,10.00,,OVC,,,,1999.00,,,,,,,,,,,,KACT 092235Z AUTO 04007KT 10SM OVC019 07/01 A3012 RMK T00700010 MADISHF
ACT,2021-02-09 22:40,,,,20.00,9.00,,30.11,,10.00,,OVC,,,,1999.00,,,,,,,,,,,,KACT 092240Z AUTO 02009KT 10SM OVC019 07/01 A3011 RMK T00700010 MADISHF
ACT,2021-02-09 22:45,,,,10.00,10.00,,30.11,,10.00,,OVC,,,,1999.00,,,,,,,,,,,,KACT 092245Z AUTO 01010KT 10SM OVC019 07/01 A3011 RMK T00700010 MADISHF
ACT,2021-02-09 22:50,,,,10.00,9.00,,30.11,,10.00,,OVC,,,,1999.00,,,,,,,,,,,,KACT 092250Z AUTO 01009KT 10SM OVC019 07/01 A3011 RMK T00700010 MADISHF
ACT,2021-02-09 22:51,45.00,34.00,65.13,20.00,8.00,0.00,30.11,1019.70,10.00,,OVC,,,,2000.00,,,,,,,,,,,40.13,KACT 092251Z 02008KT 10SM OVC020 07/01 A3011 RMK AO2 SLP197 T00720011
ACT,2021-02-09 22:55,,,,20.00,9.00,,30.11,,10.00,,OVC,,,,1900.00,,,,,,,,,,,,KACT 092255Z AUTO 02009KT 10SM OVC019 08/01 A3011 RMK T00800010 MADISHF
ACT,2021-02-09 23:00,,,,10.00,7.00,,30.11,,10.00,,OVC,,,,1900.00,,,,,,,,,,,,KACT 092300Z AUTO 01007KT 10SM OVC019 07/01 A3011 RMK T00700010 MADISHF
ACT,2021-02-09 23:05,,,,40.00,8.00,,30.11,,10.00,,OVC,,,,1900.00,,,,,,,,,,,,KACT 092305Z AUTO 04008KT 10SM OVC019 07/01 A3011 RMK T00700010 MADISHF
ACT,2021-02-09 23:10,,,,10.00,8.00,,30.11,,10.00,,OVC,,,,1900.00,,,,,,,,,,,,KACT 092310Z AUTO 01008KT 10SM OVC019 07/01 A3011 RMK T00700010 MADISHF
ACT,2021-02-09 23:15,,,,30.00,7.00,,30.11,,10.00,,OVC,,,,1900.00,,,,,,,,,,,,KACT 092315Z AUTO 03007KT 10SM OVC019 07/01 A3011 RMK T00700010 MADISHF
ACT,2021-02-09 23:20,,,,30.00,8.00,,30.11,,10.00,,OVC,,,,1900.00,,,,,,,,,,,,KACT 092320Z AUTO 03008KT 10SM OVC019 07/01 A3011 RMK T00700010 MADISHF
ACT,2021-02-09 23:25,,,,30.00,9.00,,30.11,,10.00,,OVC,,,,1900.00,,,,,,,,,,,,KACT 092325Z AUTO 03009KT 10SM OVC019 07/01 A3011 RMK T00700010 MADISHF
ACT,2021-02-09 23:30,,,,30.00,8.00,,30.11,,10.00,,OVC,,,,1900.00,,,,,,,,,,,,KACT 092330Z AUTO 03008KT 10SM OVC019 07/01 A3011 RMK T00700010 MADISHF
ACT,2021-02-09 23:35,,,,20.00,8.00,,30.11,,10.00,,OVC,,,,1900.00,,,,,,,,,,,,KACT 092335Z AUTO 02008KT 10SM OVC019 07/01 A3011 RMK T00700010 MADISHF
ACT,2021-02-09 23:40,,,,30.00,9.00,,30.11,,10.00,,OVC,,,,1900.00,,,,,,,,,,,,KACT 092340Z AUTO 03009KT 10SM OVC019 07/01 A3011 RMK T00700010 MADISHF
ACT,2021-02-09 23:45,,,,30.00,9.00,,30.11,,10.00,,OVC,,,,1900.00,,,,,,,,,,,,KACT 092345Z AUTO 03009KT 10SM OVC019 07/01 A3011 RMK T00700010 MADISHF
ACT,2021-02-09 23:50,,,,20.00,9.00,,30.11,,10.00,,OVC,,,,1900.00,,,,,,,,,,,,KACT 092350Z AUTO 02009KT 10SM OVC019 07/01 A3011 RMK T00700010 MADISHF
ACT,2021-02-09 23:51,45.00,34.00,65.13,20.00,8.00,0.00,30.11,1019.70,10.00,,OVC,,,,1900.00,,,,,,,,,,,40.13,KACT 092351Z 02008KT 10SM OVC019 07/01 A3011 RMK AO2 SLP197 T00720011 10083 20044 55003
ACT,2021-02-09 23:55,,,,30.00,9.00,,30.11,,10.00,,OVC,,,,1900.00,,,,,,,,,,,,KACT 092355Z AUTO 03009KT 10SM OVC019 07/01 A3011 RMK T00700010 MADISHF
ACT,2021-02-10 00:00,,,,30.00,7.00,,30.11,,10.00,,OVC,,,,1900.00,,,,,,,,,,,,KACT 100000Z AUTO 03007KT 10SM OVC019 07/01 A3011 RMK T00700010 MADISHF
ACT,2021-02-10 00:05,,,,30.00,10.00,,30.11,,10.00,,OVC,,,,1900.00,,,,,,,,,,,,KACT 100005Z AUTO 03010KT 10SM OVC019 07/01 A3011 RMK T00700010 MADISHF
ACT,2021-02-10 00:10,,,,20.00,9.00,,30.11,,10.00,,OVC,,,,1900.00,,,,,,,,,,,,KACT 100010Z AUTO 02009KT 10SM OVC019 07/01 A3011 RMK T00700010 MADISHF
ACT,2021-02-10 00:15,,,,20.00,7.00,,30.11,,10.00,,OVC,,,,1999.00,,,,,,,,,,,,KACT 100015Z AUTO 02007KT 10SM OVC019 07/01 A3011 RMK T00700010 MADISHF
ACT,2021-02-10 00:20,,,,20.00,8.00,,30.11,,10.00,,OVC,,,,1999.00,,,,,,,,,,,,KACT 100020Z AUTO 02008KT 10SM OVC019 07/01 A3011 RMK T00700010 MADISHF
ACT,2021-02-10 00:25,,,,20.00,8.00,,30.11,,10.00,,OVC,,,,1999.00,,,,,,,,,,,,KACT 100025Z AUTO 02008KT 10SM OVC019 07/01 A3011 RMK T00700010 MADISHF
ACT,2021-02-10 00:30,,,,30.00,9.00,,30.11,,10.00,,OVC,,,,1999.00,,,,,,,,,,,,KACT 100030Z AUTO 03009KT 10SM OVC019 07/01 A3011 RMK T00700010 MADISHF
ACT,2021-02-10 00:35,,,,30.00,9.00,,30.12,,10.00,,OVC,,,,1999.00,,,,,,,,,,,,KACT 100035Z AUTO 03009KT 10SM OVC019 07/01 A3012 RMK T00700010 MADISHF
ACT,2021-02-10 00:40,,,,30.00,9.00,,30.12,,10.00,,OVC,,,,1999.00,,,,,,,,,,,,KACT 100040Z AUTO 03009KT 10SM OVC019 07/01 A3012 RMK T00700010 MADISHF
ACT,2021-02-10 00:45,,,,30.00,8.00,,30.12,,10.00,,OVC,,,,1999.00,,,,,,,,,,,,KACT 100045Z AUTO 03008KT 10SM OVC019 07/01 A3012 RMK T00700010 MADISHF
ACT,2021-02-10 00:50,,,,30.00,9.00,,30.12,,10.00,,OVC,,,,1999.00,,,,,,,,,,,,KACT 100050Z AUTO 03009KT 10SM OVC019 07/01 A3012 RMK T00700010 MADISHF
ACT,2021-02-10 00:51,44.10,33.10,65.02,30.00,9.00,0.00,30.11,1019.80,10.00,,OVC,,,,2000.00,,,,,,,,,,,38.56,KACT 100051Z 03009KT 10SM OVC020 07/01 A3011 RMK AO2 SLP198 T00670006
ACT,2021-02-10 00:55,,,,10.00,9.00,,30.11,,10.00,,BKN,OVC,,,1999.00,3900.00,,,,,,,,,,,KACT 100055Z AUTO 01009KT 10SM BKN019 OVC039 07/01 A3011 RMK T00700010 MADISHF
ACT,2021-02-10 01:00,,,,20.00,10.00,,30.11,,10.00,,BKN,OVC,,,1999.00,3900.00,,,,,,,,,,,KACT 100100Z AUTO 02010KT 10SM BKN019 OVC039 07/01 A3011 RMK T00700010 MADISHF
ACT,2021-02-10 01:05,,,,20.00,11.00,,30.11,,10.00,,SCT,OVC,,,1999.00,3999.00,,,,,,,,,,,KACT 100105Z AUTO 02011KT 10SM SCT019 OVC039 07/01 A3011 RMK T00700010 MADISHF
ACT,2021-02-10 01:08,44.10,33.10,65.02,30.00,11.00,0.00,30.11,,10.00,,SCT,OVC,,,1800.00,4000.00,,,,,,,,,,37.76,KACT 100108Z 03011KT 10SM SCT018 OVC040 07/01 A3011 RMK AO2 T00670006
ACT,2021-02-10 01:10,,,,20.00,11.00,,30.11,,10.00,,SCT,OVC,,,1800.00,3999.00,,,,,,,,,,,KACT 100110Z AUTO 02011KT 10SM SCT018 OVC039 07/01 A3011 RMK T00700010 MADISHF
ACT,2021-02-10 01:15,,,,30.00,10.00,,30.11,,10.00,,SCT,OVC,,,1800.00,3999.00,,,,,,,,,,,KACT 100115Z AUTO 03010KT 10SM SCT018 OVC039 07/01 A3011 RMK T00700010 MADISHF
ACT,2021-02-10 01:20,,,,30.00,8.00,,30.12,,10.00,,SCT,OVC,,,1800.00,3900.00,,,,,,,,,,,KACT 100120Z AUTO 03008KT 10SM SCT018 OVC039 07/01 A3012 RMK T00700010 MADISHF
ACT,2021-02-10 01:25,,,,30.00,10.00,,30.11,,10.00,,SCT,OVC,,,1999.00,3900.00,,,,,,,,,,,KACT 100125Z AUTO 03010KT 10SM SCT019 OVC039 07/01 A3011 RMK T00700010 MADISHF
ACT,2021-02-10 01:30,,,,20.00,10.00,,30.11,,10.00,,BKN,OVC,,,1999.00,3900.00,,,,,,,,,,,KACT 100130Z AUTO 02010KT 10SM BKN019 OVC039 07/01 A3011 RMK T00700010 MADISHF
ACT,2021-02-10 01:33,44.10,33.10,65.02,30.00,11.00,0.00,30.11,,10.00,,BKN,OVC,,,2000.00,3900.00,,,,,,,,,,37.76,KACT 100133Z 03011KT 10SM BKN020 OVC039 07/01 A3011 RMK AO2 T00670006
ACT,2021-02-10 01:35,,,,20.00,11.00,,30.11,,10.00,,BKN,OVC,,,1999.00,3900.00,,,,,,,,,,,KACT 100135Z AUTO 02011KT 10SM BKN019 OVC039 07/01 A3011 RMK T00700010 MADISHF
ACT,2021-02-10 01:40,,,,30.00,11.00,,30.11,,10.00,,BKN,OVC,,,1999.00,3900.00,,,,,,,,,,,KACT 100140Z AUTO 03011KT 10SM BKN019 OVC039 06/01 A3011 RMK T00600010 MADISHF
ACT,2021-02-10 01:45,,,,30.00,11.00,,30.11,,10.00,,BKN,OVC,,,1999.00,3900.00,,,,,,,,,,,KACT 100145Z AUTO 03011KT 10SM BKN019 OVC039 06/01 A3011 RMK T00600010 MADISHF
ACT,2021-02-10 01:50,,,,10.00,11.00,,30.11,,10.00,,OVC,,,,1999.00,,,,,,,,,,,,KACT 100150Z AUTO 01011KT 10SM OVC019 06/01 A3011 RMK T00600010 MADISHF
ACT,2021-02-10 01:51,43.00,33.10,67.82,10.00,11.00,0.00,30.11,1019.70,10.00,,OVC,,,,2000.00,,,,,,,,,,,36.37,KACT 100151Z 01011KT 10SM OVC020 06/01 A3011 RMK AO2 SLP197 T00610006
ACT,2021-02-10 01:55,,,,10.00,11.00,,30.12,,10.00,,OVC,,,,1900.00,,,,,,,,,,,,KACT 100155Z AUTO 01011KT 10SM OVC019 06/00 A3012 RMK T00600000 MADISHF
ACT,2021-02-10 02:00,,,,10.00,11.00,,30.12,,10.00,,OVC,,,,1900.00,,,,,,,,,,,,KACT 100200Z AUTO 01011KT 10SM OVC019 06/00 A3012 RMK T00600000 MADISHF
ACT,2021-02-10 02:05,,,,360.00,11.00,,30.12,,10.00,,OVC,,,,1900.00,,,,,,,,,,,,KACT 100205Z AUTO 36011KT 10SM OVC019 06/00 A3012 RMK T00600000 MADISHF
ACT,2021-02-10 02:10,,,,360.00,11.00,,30.12,,10.00,,OVC,,,,1900.00,,,,,,,,,,,,KACT 100210Z AUTO 36011KT 10SM OVC019 06/00 A3012 RMK T00600000 MADISHF
ACT,2021-02-10 02:15,,,,10.00,10.00,,30.13,,10.00,,OVC,,,,1900.00,,,,,,,,,,,,KACT 100215Z AUTO 01010KT 10SM OVC019 06/00 A3012 RMK T00600000 MADISHF
ACT,2021-02-10 02:20,,,,350.00,11.00,,30.12,,10.00,,OVC,,,,1900.00,,,,,,,,,,,,KACT 100220Z AUTO 35011KT 10SM OVC019 06/00 A3012 RMK T00600000 MADISHF
ACT,2021-02-10 02:25,,,,360.00,10.00,,30.13,,10.00,,OVC,,,,1900.00,,,,,,,,,,,,KACT 100225Z AUTO 36010KT 10SM OVC019 06/00 A3012 RMK T00600000 MADISHF
ACT,2021-02-10 02:30,,,,360.00,9.00,,30.13,,10.00,,OVC,,,,1900.00,,,,,,,,,,,,KACT 100230Z AUTO 36009KT 10SM OVC019 06/00 A3012 RMK T00600000 MADISHF
ACT,2021-02-10 02:35,,,,10.00,8.00,,30.13,,10.00,,OVC,,,,1900.00,,,,,,,,,,,,KACT 100235Z AUTO 01008KT 10SM OVC019 06/00 A3012 RMK T00600000 MADISHF
ACT,2021-02-10 02:40,,,,360.00,10.00,,30.13,,10.00,,OVC,,,,1900.00,,,,,,,,,,,,KACT 100240Z AUTO 36010KT 10SM OVC019 06/00 A3012 RMK T00600000 MADISHF
ACT,2021-02-10 02:45,,,,360.00,8.00,,30.14,,10.00,,OVC,,,,1900.00,,,,,,,,,,,,KACT 100245Z AUTO 36008KT 10SM OVC019 06/00 A3013 RMK T00600000 MADISHF
ACT,2021-02-10 02:50,,,,10.00,9.00,,30.14,,10.00,,OVC,,,,1900.00,,,,,,,,,,,,KACT 100250Z AUTO 01009KT 10SM OVC019 05/00 A3013 RMK T00500000 MADISHF
ACT,2021-02-10 02:51,41.00,32.00,70.08,10.00,8.00,0.00,30.14,1020.50,10.00,,OVC,,,,1900.00,,,,,,,,,,,35.20,KACT 100251Z 01008KT 10SM OVC019 05/00 A3014 RMK AO2 SLP205 T00500000 53008
ACT,2021-02-10 02:55,,,,360.00,11.00,,30.14,,10.00,,OVC,,,,1900.00,,,,,,,,,,,,KACT 100255Z AUTO 36011KT 10SM OVC019 05/00 A3013 RMK T00500000 MADISHF
ACT,2021-02-10 03:00,,,,10.00,11.00,,30.14,,10.00,,OVC,,,,1900.00,,,,,,,,,,,,KACT 100300Z AUTO 01011KT 10SM OVC019 05/00 A3013 RMK T00500000 MADISHF
ACT,2021-02-10 03:05,,,,360.00,9.00,,30.14,,10.00,,OVC,,,,1900.00,,,,,,,,,,,,KACT 100305Z AUTO 36009KT 10SM OVC019 05/00 A3013 RMK T00500000 MADISHF
ACT,2021-02-10 03:10,,,,10.00,10.00,,30.14,,10.00,,OVC,,,,1800.00,,,,,,,,,,,,KACT 100310Z AUTO 01010KT 10SM OVC018 05/M01 A3013 RMK T00501010 MADISHF
ACT,2021-02-10 03:15,,,,360.00,11.00,,30.13,,10.00,,OVC,,,,1800.00,,,,,,,,,,,,KACT 100315Z AUTO 36011KT 10SM OVC018 05/M01 A3012 RMK T00501010 MADISHF
ACT,2021-02-10 03:20,,,,10.00,10.00,,30.14,,10.00,,OVC,,,,1800.00,,,,,,,,,,,,KACT 100320Z AUTO 01010KT 10SM OVC018 04/M01 A3013 RMK T00401010 MADISHF
ACT,2021-02-10 03:25,,,,10.00,11.00,,30.14,,10.00,,OVC,,,,1800.00,,,,,,,,,,,,KACT 100325Z AUTO 01011KT 10SM OVC018 04/M01 A3013 RMK T00401010 MADISHF
ACT,2021-02-10 03:30,,,,10.00,11.00,,30.13,,10.00,,OVC,,,,1699.00,,,,,,,,,,,,KACT 100330Z AUTO 01011KT 10SM OVC016 04/M01 A3012 RMK T00401010 MADISHF
ACT,2021-02-10 03:35,,,,360.00,11.00,,30.13,,10.00,,OVC,,,,1699.00,,,,,,,,,,,,KACT 100335Z AUTO 36011KT 10SM OVC016 04/M01 A3012 RMK T00401010 MADISHF
ACT,2021-02-10 03:40,,,,360.00,11.00,,30.13,,10.00,,OVC,,,,1500.00,,,,,,,,,,,,KACT 100340Z AUTO 36011KT 10SM OVC015 04/M01 A3012 RMK T00401010 MADISHF
ACT,2021-02-10 03:45,,,,360.00,11.00,,30.13,,10.00,,OVC,,,,1500.00,,,,,,,,,,,,KACT 100345Z AUTO 36011KT 10SM OVC015 04/M01 A3012 RMK T00401010 MADISHF
ACT,2021-02-10 03:50,,,,10.00,9.00,,30.14,,10.00,,OVC,,,,1500.00,,,,,,,,,,,,KACT 100350Z AUTO 01009KT 10SM OVC015 04/M01 A3013 RMK T00401010 MADISHF
ACT,2021-02-10 03:51,39.90,30.90,69.96,10.00,9.00,0.00,30.14,1020.50,10.00,,OVC,,,,1500.00,,,,,,,,,,,33.34,KACT 100351Z 01009KT 10SM OVC015 04/M01 A3014 RMK AO2 SLP205 T00441006
ACT,2021-02-10 03:55,,,,360.00,11.00,,30.14,,10.00,,OVC,,,,1500.00,,,,,,,,,,,,KACT 100355Z AUTO 36011KT 10SM OVC015 04/M01 A3013 RMK T00401010 MADISHF
ACT,2021-02-10 04:00,,,,10.00,11.00,,30.14,,10.00,,OVC,,,,1500.00,,,,,,,,,,,,KACT 100400Z AUTO 01011KT 10SM OVC015 04/M01 A3013 RMK T00401010 MADISHF
ACT,2021-02-10 04:05,,,,360.00,11.00,,30.14,,10.00,,OVC,,,,1600.00,,,,,,,,,,,,KACT 100405Z AUTO 36011KT 10SM OVC016 04/M01 A3013 RMK T00401010 MADISHF
ACT,2021-02-10 04:10,,,,10.00,11.00,,30.14,,10.00,,OVC,,,,1600.00,,,,,,,,,,,,KACT 100410Z AUTO 01011KT 10SM OVC016 04/M01 A3013 RMK T00401010 MADISHF
ACT,2021-02-10 04:15,,,,360.00,7.00,,30.14,,10.00,,OVC,,,,1500.00,,,,,,,,,,,,KACT 100415Z AUTO 36007KT 10SM OVC015 04/M01 A3013 RMK T00401010 MADISHF
ACT,2021-02-10 04:20,,,,10.00,10.00,,30.14,,10.00,,OVC,,,,1500.00,,,,,,,,,,,,KACT 100420Z AUTO 01010KT 10SM OVC015 04/M01 A3013 RMK T00401010 MADISHF
ACT,2021-02-10 04:25,,,,360.00,10.00,,30.13,,10.00,,OVC,,,,1500.00,,,,,,,,,,,,KACT 100425Z AUTO 36010KT 10SM OVC015 04/M01 A3012 RMK T00401010 MADISHF
ACT,2021-02-10 04:30,,,,10.00,10.00,,30.14,,10.00,,OVC,,,,1500.00,,,,,,,,,,,,KACT 100430Z AUTO 01010KT 10SM OVC015 04/M01 A3013 RMK T00401010 MADISHF
ACT,2021-02-10 04:35,,,,360.00,11.00,,30.13,,10.00,,OVC,,,,1500.00,,,,,,,,,,,,KACT 100435Z AUTO 36011KT 10SM OVC015 04/M01 A3012 RMK T00401010 MADISHF
ACT,2021-02-10 04:40,,,,10.00,11.00,,30.13,,10.00,,OVC,,,,1500.00,,,,,,,,,,,,KACT 100440Z AUTO 01011KT 10SM OVC015 04/M01 A3012 RMK T00401010 MADISHF
ACT,2021-02-10 04:45,,,,360.00,10.00,,30.14,,10.00,,OVC,,,,1500.00,,,,,,,,,,,,KACT 100445Z AUTO 36010KT 10SM OVC015 04/M01 A3013 RMK T00401010 MADISHF
ACT,2021-02-10 04:50,,,,10.00,10.00,,30.14,,10.00,,OVC,,,,1500.00,,,,,,,,,,,,KACT 100450Z AUTO 01010KT 10SM OVC015 04/M01 A3013 RMK T00401010 MADISHF
ACT,2021-02-10 04:51,39.00,30.90,72.45,10.00,10.00,0.00,30.14,1020.60,10.00,,OVC,,,,1500.00,,,,,,,,,,,31.75,KACT 100451Z 01010KT 10SM OVC015 04/M01 A3014 RMK AO2 SLP206 T00391006
ACT,2021-02-10 04:55,,,,360.00,10.00,,30.14,,10.00,,OVC,,,,1500.00,,,,,,,,,,,,KACT 100455Z AUTO 36010KT 10SM OVC015 04/M01 A3013 RMK T00401010 MADISHF
ACT,2021-02-10 05:00,,,,360.00,11.00,,30.14,,10.00,,OVC,,,,1500.00,,,,,,,,,,,,KACT 100500Z AUTO 36011KT 10SM OVC015 03/M01 A3013 RMK T00301010 MADISHF
ACT,2021-02-10 05:05,,,,10.00,11.00,,30.14,,10.00,,OVC,,,,1500.00,,,,,,,,,,,,KACT 100505Z AUTO 01011KT 10SM OVC015 03/M01 A3013 RMK T00301010 MADISHF
ACT,2021-02-10 05:10,,,,10.00,11.00,,30.13,,10.00,,OVC,,,,1500.00,,,,,,,,,,,,KACT 100510Z AUTO 01011KT 10SM OVC015 03/M01 A3012 RMK T00301010 MADISHF
ACT,2021-02-10 05:15,,,,10.00,10.00,,30.13,,10.00,,OVC,,,,1500.00,,,,,,,,,,,,KACT 100515Z AUTO 01010KT 10SM OVC015 03/M01 A3012 RMK T00301010 MADISHF
ACT,2021-02-10 05:20,,,,350.00,11.00,,30.14,,10.00,,OVC,,,,1500.00,,,,,,,,,,,,KACT 100520Z AUTO 35011KT 10SM OVC015 03/M01 A3013 RMK T00301010 MADISHF
ACT,2021-02-10 05:25,,,,20.00,10.00,,30.14,,9.00,,OVC,,,,1500.00,,,,,,,,,,,,KACT 100525Z AUTO 02010KT 9SM OVC015 03/M01 A3013 RMK T00301010 MADISHF
ACT,2021-02-10 05:30,,,,360.00,11.00,,30.14,,9.00,,OVC,,,,1500.00,,,,,,,,,,,,KACT 100530Z AUTO 36011KT 9SM OVC015 03/M01 A3013 RMK T00301010 MADISHF
ACT,2021-02-10 05:35,,,,10.00,9.00,,30.14,,9.00,,OVC,,,,1400.00,,,,,,,,,,,,KACT 100535Z AUTO 01009KT 9SM OVC014 03/M01 A3013 RMK T00301010 MADISHF
ACT,2021-02-10 05:40,,,,10.00,7.00,,30.14,,8.00,,OVC,,,,1400.00,,,,,,,,,,,,KACT 100540Z AUTO 01007KT 8SM OVC014 03/M01 A3013 RMK T00301010 MADISHF
ACT,2021-02-10 05:41,37.00,30.90,78.37,10.00,8.00,0.00,30.14,,8.00,,OVC,,,,1400.00,,,,,,,,,,,30.27,KACT 100541Z 01008KT 8SM OVC014 03/M01 A3014 RMK AO2 T00281006
ACT,2021-02-10 05:45,,,,10.00,9.00,,30.14,,8.00,,OVC,,,,1400.00,,,,,,,,,,,,KACT 100545Z AUTO 01009KT 8SM OVC014 03/M01 A3013 RMK T00301010 MADISHF
ACT,2021-02-10 05:50,,,,360.00,10.00,,30.14,,8.00,,OVC,,,,1400.00,,,,,,,,,,,,KACT 100550Z AUTO 36010KT 8SM OVC014 03/M01 A3013 RMK T00301010 MADISHF
ACT,2021-02-10 05:51,37.00,30.90,78.37,10.00,10.00,0.00,30.14,1020.70,8.00,,OVC,,,,1400.00,,,,,,,,,,,29.24,KACT 100551Z AUTO 01010KT 8SM OVC014 03/M01 A3014 RMK AO2 SLP207 T00281006 10072 20028 400830028 53001
ACT,2021-02-10 05:55,,,,360.00,9.00,,30.13,,8.00,,OVC,,,,1400.00,,,,,,,,,,,,KACT 100555Z AUTO 36009KT 8SM OVC014 03/M01 A3012 RMK T00301010 MADISHF
ACT,2021-02-10 06:00,,,,360.00,9.00,,30.14,,7.00,,OVC,,,,1300.00,,,,,,,,,,,,KACT 100600Z AUTO 36009KT 7SM OVC013 03/M01 A3013 RMK T00301010 MADISHF
ACT,2021-02-10 06:05,,,,10.00,8.00,,30.14,,7.00,,OVC,,,,1300.00,,,,,,,,,,,,KACT 100605Z AUTO 01008KT 7SM OVC013 03/M01 A3013 RMK T00301010 MADISHF
ACT,2021-02-10 06:10,,,,10.00,9.00,,30.14,,7.00,,OVC,,,,1200.00,,,,,,,,,,,,KACT 100610Z AUTO 01009KT 7SM OVC012 03/M01 A3013 RMK T00301010 MADISHF
ACT,2021-02-10 06:15,,,,10.00,9.00,,30.14,,7.00,,OVC,,,,1200.00,,,,,,,,,,,,KACT 100615Z AUTO 01009KT 7SM OVC012 03/M01 A3013 RMK T00301010 MADISHF
ACT,2021-02-10 06:20,,,,360.00,10.00,,30.13,,7.00,,OVC,,,,1200.00,,,,,,,,,,,,KACT 100620Z AUTO 36010KT 7SM OVC012 03/M01 A3012 RMK T00301010 MADISHF
ACT,2021-02-10 06:25,,,,360.00,7.00,,30.14,,7.00,,OVC,,,,1200.00,,,,,,,,,,,,KACT 100625Z AUTO 36007KT 7SM OVC012 03/M01 A3013 RMK T00301010 MADISHF
ACT,2021-02-10 06:30,,,,350.00,11.00,,30.13,,6.00,,OVC,,,,1200.00,,,,HZ,,,,,,,,KACT 100630Z AUTO 35011KT 6SM HZ OVC012 03/M01 A3012 RMK T00301010 MADISHF
ACT,2021-02-10 06:35,,,,350.00,10.00,,30.14,,6.00,,OVC,,,,1100.00,,,,HZ,,,,,,,,KACT 100635Z AUTO 35010KT 6SM HZ OVC011 03/M01 A3013 RMK T00301010 MADISHF
ACT,2021-02-10 06:40,,,,350.00,9.00,,30.14,,6.00,,OVC,,,,1100.00,,,,HZ,,,,,,,,KACT 100640Z AUTO 35009KT 6SM HZ OVC011 02/M01 A3013 RMK T00201010 MADISHF
ACT,2021-02-10 06:45,,,,350.00,8.00,,30.14,,6.00,,OVC,,,,1100.00,,,,HZ,,,,,,,,KACT 100645Z AUTO 35008KT 6SM HZ OVC011 02/M01 A3013 RMK T00201010 MADISHF
ACT,2021-02-10 06:50,,,,10.00,10.00,,30.13,,6.00,,OVC,,,,999.00,,,,HZ,,,,,,,,KACT 100650Z AUTO 01010KT 6SM HZ OVC009 02/M01 A3012 RMK T00201010 MADISHF
ACT,2021-02-10 06:51,36.00,30.90,81.53,20.00,9.00,0.00,30.13,1020.40,6.00,,OVC,,,,1000.00,,,,HZ,,,,,,,28.49,KACT 100651Z AUTO 02009KT 6SM HZ OVC010 02/M01 A3013 RMK AO2 SLP204 T00221006
ACT,2021-02-10 06:55,,,,10.00,8.00,,30.13,,5.00,,OVC,,,,999.00,,,,HZ,,,,,,,,KACT 100655Z AUTO 01008KT 5SM HZ OVC009 02/M01 A3012 RMK T00201010 MADISHF
ACT,2021-02-10 07:00,,,,360.00,9.00,,30.14,,5.00,,OVC,,,,999.00,,,,HZ,,,,,,,,KACT 100700Z AUTO 36009KT 5SM HZ OVC009 02/M01 A3013 RMK T00201010 MADISHF
ACT,2021-02-10 07:05,,,,360.00,9.00,,30.14,,5.00,,OVC,,,,999.00,,,,HZ,,,,,,,,KACT 100705Z AUTO 36009KT 5SM HZ OVC009 02/M01 A3013 RMK T00201010 MADISHF
ACT,2021-02-10 07:10,,,,360.00,8.00,,30.14,,4.00,,OVC,,,,900.00,,,,BR,,,,,,,,KACT 100710Z AUTO 36008KT 4SM BR OVC009 02/00 A3013 RMK T00200000 MADISHF
ACT,2021-02-10 07:13,36.00,32.00,85.23,10.00,10.00,0.00,30.13,,4.00,,OVC,,,,900.00,,,,BR,,,,,,,27.98,KACT 100713Z AUTO 01010KT 4SM BR OVC009 02/00 A3013 RMK AO2 T00220000
ACT,2021-02-10 07:15,,,,10.00,9.00,,30.14,,3.50,,OVC,,,,900.00,,,,BR,,,,,,,,KACT 100715Z AUTO 01009KT 3SM BR OVC009 02/00 A3013 RMK T00200000 MADISHF
ACT,2021-02-10 07:20,,,,360.00,7.00,,30.13,,4.00,,OVC,,,,800.00,,,,BR,,,,,,,,KACT 100720Z AUTO 36007KT 4SM BR OVC008 02/00 A3012 RMK T00200000 MADISHF
ACT,2021-02-10 07:25,,,,360.00,9.00,,30.14,,4.00,,OVC,,,,800.00,,,,BR,,,,,,,,KACT 100725Z AUTO 36009KT 4SM BR OVC008 02/00 A3013 RMK T00200000 MADISHF
ACT,2021-02-10 07:30,,,,360.00,9.00,,30.13,,3.50,,OVC,,,,800.00,,,,BR,,,,,,,,KACT 100730Z AUTO 36009KT 3SM BR OVC008 02/00 A3012 RMK T00200000 MADISHF
ACT,2021-02-10 07:35,,,,350.00,7.00,,30.14,,4.00,,OVC,,,,800.00,,,,BR,,,,,,,,KACT 100735Z AUTO 35007KT 4SM BR OVC008 02/00 A3013 RMK T00200000 MADISHF
ACT,2021-02-10 07:40,,,,350.00,9.00,,30.14,,4.00,,OVC,,,,700.00,,,,BR,,,,,,,,KACT 100740Z AUTO 35009KT 4SM BR OVC007 02/00 A3013 RMK T00200000 MADISHF
ACT,2021-02-10 07:44,35.10,30.90,84.49,350.00,10.00,0.00,30.14,,4.00,,OVC,,,,700.00,,,,BR,,,,,,,26.86,KACT 100744Z AUTO 35010KT 4SM BR OVC007 02/M01 A3014 RMK AO2 T00171006
ACT,2021-02-10 07:45,,,,350.00,10.00,,30.14,,4.00,,OVC,,,,700.00,,,,BR,,,,,,,,KACT 100745Z AUTO 35010KT 4SM BR OVC007 02/M01 A3013 RMK T00201010 MADISHF
ACT,2021-02-10 07:50,,,,350.00,8.00,,30.13,,4.00,,OVC,,,,700.00,,,,BR,,,,,,,,KACT 100750Z AUTO 35008KT 4SM BR OVC007 02/00 A3012 RMK T00200000 MADISHF
ACT,2021-02-10 07:51,36.00,32.00,85.23,350.00,7.00,0.00,30.13,1020.50,4.00,,OVC,,,,700.00,,,,BR,,,,,,,29.65,KACT 100751Z AUTO 35007KT 4SM BR OVC007 02/00 A3013 RMK AO2 SLP205 T00220000
ACT,2021-02-10 07:55,,,,340.00,8.00,,30.14,,4.00,,OVC,,,,700.00,,,,BR,,,,,,,,KACT 100755Z AUTO 34008KT 4SM BR OVC007 02/00 A3013 RMK T00200000 MADISHF
ACT,2021-02-10 08:00,,,,350.00,9.00,,30.14,,4.00,,OVC,,,,700.00,,,,BR,,,,,,,,KACT 100800Z AUTO 35009KT 4SM BR OVC007 02/00 A3013 RMK T00200000 MADISHF
ACT,2021-02-10 08:05,,,,350.00,10.00,,30.14,,4.00,,OVC,,,,700.00,,,,BR,,,,,,,,KACT 100805Z AUTO 35010KT 4SM BR OVC007 02/M01 A3013 RMK T00201010 MADISHF
ACT,2021-02-10 08:10,,,,350.00,10.00,,30.14,,4.00,,OVC,,,,700.00,,,,BR,,,,,,,,KACT 100810Z AUTO 35010KT 4SM BR OVC007 02/M01 A3013 RMK T00201010 MADISHF
ACT,2021-02-10 08:15,,,,350.00,10.00,,30.13,,3.00,,OVC,,,,700.00,,,,BR,,,,,,,,KACT 100815Z AUTO 35010KT 3SM BR OVC007 02/00 A3012 RMK T00200000 MADISHF
ACT,2021-02-10 08:20,,,,350.00,9.00,,30.13,,3.00,,OVC,,,,700.00,,,,BR,,,,,,,,KACT 100820Z AUTO 35009KT 3SM BR OVC007 02/00 A3012 RMK T00200000 MADISHF
ACT,2021-02-10 08:25,,,,350.00,9.00,,30.14,,2.50,,OVC,,,,600.00,,,,BR,,,,,,,,KACT 100825Z AUTO 35009KT 2 1/2SM BR OVC006 02/00 A3013 RMK T00200000 CIG 4V8  MADISHF
ACT,2021-02-10 08:27,35.10,32.00,88.33,350.00,9.00,0.00,30.14,,2.50,,OVC,,,,600.00,,,,BR,,,,,,,27.37,KACT 100827Z AUTO 35009KT 2 1/2SM BR OVC006 02/00 A3014 RMK AO2 T00170000
ACT,2021-02-10 08:30,,,,340.00,8.00,,30.14,,2.50,,OVC,,,,600.00,,,,BR,,,,,,,,KACT 100830Z AUTO 34008KT 2 1/2SM BR OVC006 02/00 A3013 RMK T00200000 MADISHF
ACT,2021-02-10 08:35,,,,350.00,10.00,,30.14,,2.00,,OVC,,,,499.00,,,,BR,,,,,,,,KACT 100835Z AUTO 35010KT 2SM BR OVC004 02/00 A3013 RMK T00200000 MADISHF
ACT,2021-02-10 08:40,,,,350.00,9.00,,30.13,,2.00,,OVC,,,,499.00,,,,BR,,,,,,,,KACT 100840Z AUTO 35009KT 2SM BR OVC004 02/00 A3012 RMK T00200000 MADISHF
ACT,2021-02-10 08:45,,,,350.00,11.00,,30.13,,1.75,,OVC,,,,499.00,,,,BR,,,,,,,,KACT 100845Z AUTO 35011KT 2SM BR OVC004 02/00 A3012 RMK T00200000 MADISHF
ACT,2021-02-10 08:47,35.60,32.00,86.59,360.00,11.00,0.00,30.13,,1.75,,OVC,,,,500.00,,,,BR,,,,,,,27.02,KACT 100847Z AUTO 36011KT 1 3/4SM BR OVC005 02/00 A3013 RMK AO2
ACT,2021-02-10 08:50,,,,360.00,8.00,,30.13,,1.75,,OVC,,,,499.00,,,,BR,,,,,,,,KACT 100850Z AUTO 36008KT 2SM BR OVC004 02/00 A3012 RMK T00200000 MADISHF
ACT,2021-02-10 08:51,35.10,32.00,88.33,360.00,9.00,0.00,30.13,1020.20,1.75,,OVC,,,,500.00,,,,BR,,,,,,,27.37,KACT 100851Z AUTO 36009KT 1 3/4SM BR OVC005 02/00 A3013 RMK AO2 SLP202 T00170000 58001
ACT,2021-02-10 08:55,,,,360.00,8.00,,30.13,,1.50,,OVC,,,,499.00,,,,BR,,,,,,,,KACT 100855Z AUTO 36008KT 1 1/2SM BR OVC004 02/00 A3012 RMK T00200000 MADISHF
ACT,2021-02-10 09:00,,,,350.00,10.00,,30.13,,1.25,,OVC,,,,300.00,,,,BR,,,,,,,,KACT 100900Z AUTO 35010KT 1 1/2SM BR OVC003 02/00 A3012 RMK T00200000 MADISHF
ACT,2021-02-10 09:05,,,,360.00,8.00,,30.12,,1.25,,OVC,,,,300.00,,,,BR,,,,,,,,KACT 100905Z AUTO 36008KT 1 1/2SM BR OVC003 02/00 A3012 RMK T00200000 MADISHF
ACT,2021-02-10 09:10,,,,350.00,9.00,,30.12,,1.25,,OVC,,,,300.00,,,,BR,,,,,,,,KACT 100910Z AUTO 35009KT 1 1/2SM BR OVC003 02/00 A3012 RMK T00200000 MADISHF
ACT,2021-02-10 09:15,,,,360.00,8.00,,30.12,,1.25,,OVC,,,,300.00,,,,BR,,,,,,,,KACT 100915Z AUTO 36008KT 1 1/2SM BR OVC003 02/01 A3012 RMK T00200010 MADISHF
ACT,2021-02-10 09:20,,,,340.00,8.00,,30.12,,1.50,,OVC,,,,300.00,,,,BR,,,,,,,,KACT 100920Z AUTO 34008KT 1 1/2SM BR OVC003 02/01 A3012 RMK T00200010 MADISHF
ACT,2021-02-10 09:25,,,,340.00,10.00,,30.12,,1.50,,OVC,,,,300.00,,,,BR,,,,,,,,KACT 100925Z AUTO 34010KT 1 1/2SM BR OVC003 02/00 A3012 RMK T00200000 MADISHF
ACT,2021-02-10 09:30,,,,340.00,10.00,,30.12,,1.75,,OVC,,,,300.00,,,,BR,,,,,,,,KACT 100930Z AUTO 34010KT 2SM BR OVC003 01/00 A3012 RMK T00100000 MADISHF
ACT,2021-02-10 09:35,,,,350.00,9.00,,30.12,,1.75,,OVC,,,,300.00,,,,BR,,,,,,,,KACT 100935Z AUTO 35009KT 2SM BR OVC003 01/00 A3012 RMK T00100000 MADISHF
ACT,2021-02-10 09:40,,,,340.00,10.00,,30.12,,1.75,,OVC,,,,300.00,,,,BR,,,,,,,,KACT 100940Z AUTO 34010KT 2SM BR OVC003 01/00 A3012 RMK T00100000 MADISHF
ACT,2021-02-10 09:45,,,,340.00,10.00,,30.12,,1.75,,OVC,,,,300.00,,,,BR,,,,,,,,KACT 100945Z AUTO 34010KT 2SM BR OVC003 01/00 A3012 RMK T00100000 MADISHF
ACT,2021-02-10 09:50,,,,350.00,9.00,,30.11,,1.50,,OVC,,,,300.00,,,,BR,,,,,,,,KACT 100950Z AUTO 35009KT 1 1/2SM BR OVC003 01/00 A3011 RMK T00100000 MADISHF
ACT,2021-02-10 09:51,34.00,32.00,92.29,350.00,9.00,0.00,30.11,1019.70,1.50,,OVC,,,,300.00,,,,BR,,,,,,,26.00,KACT 100951Z AUTO 35009KT 1 1/2SM BR OVC003 01/00 A3011 RMK AO2 SLP197 T00110000
ACT,2021-02-10 09:55,,,,350.00,10.00,,30.11,,1.50,,OVC,,,,300.00,,,,BR,,,,,,,,KACT 100955Z AUTO 35010KT 1 1/2SM BR OVC003 01/00 A3011 RMK T00100000 MADISHF
ACT,2021-02-10 10:00,,,,360.00,10.00,,30.11,,1.50,,OVC,,,,300.00,,,,BR,,,,,,,,KACT 101000Z AUTO 36010KT 1 1/2SM BR OVC003 01/00 A3011 RMK T00100000 MADISHF
ACT,2021-02-10 10:05,,,,350.00,10.00,,30.12,,1.75,,OVC,,,,300.00,,,,BR,,,,,,,,KACT 101005Z AUTO 35010KT 2SM BR OVC003 01/00 A3012 RMK T00100000 MADISHF
ACT,2021-02-10 10:10,,,,350.00,11.00,,30.11,,1.75,,OVC,,,,300.00,,,,BR,,,,,,,,KACT 101010Z AUTO 35011KT 2SM BR OVC003 01/00 A3011 RMK T00100000 MADISHF
ACT,2021-02-10 10:15,,,,360.00,10.00,,30.11,,1.50,,OVC,,,,300.00,,,,BR,,,,,,,,KACT 101015Z AUTO 36010KT 1 1/2SM BR OVC003 01/00 A3011 RMK T00100000 MADISHF
ACT,2021-02-10 10:20,,,,350.00,10.00,,30.11,,1.25,,OVC,,,,300.00,,,,BR,,,,,,,,KACT 101020Z AUTO 35010KT 1 1/2SM BR OVC003 01/00 A3011 RMK T00100000 MADISHF
ACT,2021-02-10 10:25,,,,350.00,10.00,,30.11,,1.25,,OVC,,,,300.00,,,,BR,,,,,,,,KACT 101025Z AUTO 35010KT 1 1/2SM BR OVC003 01/00 A3011 RMK T00100000 MADISHF
ACT,2021-02-10 10:30,,,,350.00,10.00,,30.11,,1.25,,OVC,,,,300.00,,,,BR,,,,,,,,KACT 101030Z AUTO 35010KT 1 1/2SM BR OVC003 01/00 A3011 RMK T00100000 MADISHF
ACT,2021-02-10 10:35,,,,350.00,8.00,,30.11,,1.25,,OVC,,,,300.00,,,,BR,,,,,,,,KACT 101035Z AUTO 35008KT 1 1/2SM BR OVC003 01/00 A3011 RMK T00100000 MADISHF
ACT,2021-02-10 10:40,,,,350.00,11.00,,30.11,,1.25,,OVC,,,,300.00,,,,BR,,,,,,,,KACT 101040Z AUTO 35011KT 1 1/2SM BR OVC003 01/00 A3011 RMK T00100000 MADISHF
ACT,2021-02-10 10:45,,,,350.00,11.00,,30.11,,1.25,,OVC,,,,300.00,,,,BR,,,,,,,,KACT 101045Z AUTO 35011KT 1 1/2SM BR OVC003 01/00 A3011 RMK T00100000 MADISHF
ACT,2021-02-10 10:50,,,,350.00,10.00,,30.12,,1.25,,OVC,,,,300.00,,,,BR,,,,,,,,KACT 101050Z AUTO 35010KT 1 1/2SM BR OVC003 01/00 A3012 RMK T00100000 MADISHF
ACT,2021-02-10 10:51,34.00,32.00,92.29,350.00,9.00,0.00,30.12,1019.90,1.25,,OVC,,,,300.00,,,,BR,,,,,,,26.00,KACT 101051Z AUTO 35009KT 1 1/4SM BR OVC003 01/00 A3012 RMK AO2 SLP199 T00110000
ACT,2021-02-10 10:55,,,,350.00,10.00,,30.12,,1.25,,OVC,,,,300.00,,,,BR,,,,,,,,KACT 101055Z AUTO 35010KT 1 1/2SM BR OVC003 01/00 A3012 RMK T00100000 MADISHF
ACT,2021-02-10 11:00,,,,350.00,10.00,,30.12,,1.25,,OVC,,,,300.00,,,,BR,,,,,,,,KACT 101100Z AUTO 35010KT 1 1/2SM BR OVC003 01/00 A3012 RMK T00100000 MADISHF
ACT,2021-02-10 11:05,,,,350.00,10.00,,30.12,,1.25,,OVC,,,,300.00,,,,BR,,,,,,,,KACT 101105Z AUTO 35010KT 1 1/2SM BR OVC003 01/00 A3012 RMK T00100000 MADISHF
ACT,2021-02-10 11:10,,,,360.00,10.00,,30.12,,1.25,,OVC,,,,300.00,,,,BR,,,,,,,,KACT 101110Z AUTO 36010KT 1 1/2SM BR OVC003 01/00 A3012 RMK T00100000 MADISHF
ACT,2021-02-10 11:15,,,,360.00,10.00,,30.12,,1.50,,OVC,,,,300.00,,,,BR,,,,,,,,KACT 101115Z AUTO 36010KT 1 1/2SM BR OVC003 01/00 A3012 RMK T00100000 MADISHF
ACT,2021-02-10 11:20,,,,10.00,9.00,,30.12,,1.50,,OVC,,,,300.00,,,,BR,,,,,,,,KACT 101120Z AUTO 01009KT 1 1/2SM BR OVC003 01/00 A3012 RMK T00100000 MADISHF
ACT,2021-02-10 11:25,,,,10.00,10.00,,30.12,,1.25,,OVC,,,,300.00,,,,BR,,,,,,,,KACT 101125Z AUTO 01010KT 1 1/2SM BR OVC003 01/00 A3012 RMK T00100000 MADISHF
ACT,2021-02-10 11:30,,,,10.00,10.00,,30.11,,1.25,,OVC,,,,300.00,,,,BR,,,,,,,,KACT 101130Z AUTO 01010KT 1 1/2SM BR OVC003 01/00 A3011 RMK T00100000 MADISHF
ACT,2021-02-10 11:35,,,,20.00,11.00,,30.11,,1.50,,OVC,,,,300.00,,,,BR,,,,,,,,KACT 101135Z AUTO 02011KT 1 1/2SM BR OVC003 01/00 A3011 RMK T00100000 MADISHF
ACT,2021-02-10 11:40,,,,360.00,9.00,,30.12,,1.50,,OVC,,,,300.00,,,,BR,,,,,,,,KACT 101140Z AUTO 36009KT 1 1/2SM BR OVC003 01/M01 A3012 RMK T00101010 MADISHF
ACT,2021-02-10 11:45,,,,10.00,11.00,,30.11,,1.50,,OVC,,,,300.00,,,,BR,,,,,,,,KACT 101145Z AUTO 01011KT 1 1/2SM BR OVC003 01/00 A3011 RMK T00100000 MADISHF
ACT,2021-02-10 11:50,,,,360.00,11.00,,30.12,,1.25,,OVC,,,,300.00,,,,BR,,,,,,,,KACT 101150Z AUTO 36011KT 1 1/2SM BR OVC003 01/M01 A3012 RMK T00101010 MADISHF
ACT,2021-02-10 11:51,33.10,30.90,91.51,10.00,10.00,0.00,30.12,1020.10,1.25,,OVC,,,,300.00,,,,BR,,,,,,,24.35,KACT 101151Z AUTO 01010KT 1 1/4SM BR OVC003 01/M01 A3012 RMK AO2 SLP201 T00061006 10028 20006 55003
ACT,2021-02-10 11:55,,,,10.00,11.00,,30.12,,1.50,,OVC,,,,300.00,,,,BR,,,,,,,,KACT 101155Z AUTO 01011KT 1 1/2SM BR OVC003 01/00 A3012 RMK T00100000 MADISHF
ACT,2021-02-10 12:00,,,,10.00,11.00,,30.12,,1.50,,OVC,,,,300.00,,,,BR,,,,,,,,KACT 101200Z AUTO 01011KT 1 1/2SM BR OVC003 01/M01 A3012 RMK T00101010 MADISHF
ACT,2021-02-10 12:05,,,,10.00,10.00,,30.12,,1.50,,OVC,,,,300.00,,,,BR,,,,,,,,KACT 101205Z AUTO 01010KT 1 1/2SM BR OVC003 01/M01 A3012 RMK T00101010 MADISHF
ACT,2021-02-10 12:10,,,,10.00,9.00,,30.12,,1.50,,OVC,,,,300.00,,,,BR,,,,,,,,KACT 101210Z AUTO 01009KT 1 1/2SM BR OVC003 01/00 A3012 RMK T00100000 MADISHF
ACT,2021-02-10 12:15,,,,10.00,10.00,,30.12,,1.50,,OVC,,,,300.00,,,,BR,,,,,,,,KACT 101215Z AUTO 01010KT 1 1/2SM BR OVC003 01/M01 A3012 RMK T00101010 MADISHF
ACT,2021-02-10 12:20,,,,10.00,11.00,,30.12,,1.25,,OVC,,,,300.00,,,,BR,,,,,,,,KACT 101220Z AUTO 01011KT 1 1/2SM BR OVC003 01/M01 A3012 RMK T00101010 MADISHF
ACT,2021-02-10 12:25,,,,10.00,9.00,,30.12,,1.25,,OVC,,,,300.00,,,,BR,,,,,,,,KACT 101225Z AUTO 01009KT 1 1/2SM BR OVC003 01/M01 A3012 RMK T00101010 MADISHF
ACT,2021-02-10 12:30,,,,10.00,9.00,,30.12,,1.25,,OVC,,,,300.00,,,,BR,,,,,,,,KACT 101230Z AUTO 01009KT 1 1/2SM BR OVC003 01/M01 A3012 RMK T00101010 MADISHF
ACT,2021-02-10 12:35,,,,360.00,8.00,,30.13,,1.50,,OVC,,,,300.00,,,,BR,,,,,,,,KACT 101235Z AUTO 36008KT 1 1/2SM BR OVC003 01/00 A3012 RMK T00100000 MADISHF
ACT,2021-02-10 12:40,,,,350.00,8.00,,30.13,,1.50,,OVC,,,,300.00,,,,BR,,,,,,,,KACT 101240Z AUTO 35008KT 1 1/2SM BR OVC003 01/00 A3012 RMK T00100000 MADISHF
ACT,2021-02-10 12:45,,,,360.00,10.00,,30.13,,1.50,,OVC,,,,300.00,,,,BR,,,,,,,,KACT 101245Z AUTO 36010KT 1 1/2SM BR OVC003 01/00 A3012 RMK T00100000 MADISHF
ACT,2021-02-10 12:50,,,,360.00,10.00,,30.13,,1.75,,OVC,,,,300.00,,,,BR,,,,,,,,KACT 101250Z AUTO 36010KT 2SM BR OVC003 01/M01 A3012 RMK T00101010 MADISHF
ACT,2021-02-10 12:51,33.10,30.90,91.51,360.00,9.00,0.00,30.13,1020.40,1.75,,OVC,,,,300.00,,,,BR,,,,,,,24.88,KACT 101251Z 36009KT 1 3/4SM BR OVC003 01/M01 A3013 RMK AO2 SLP204 T00061006
ACT,2021-02-10 12:55,,,,350.00,9.00,,30.13,,1.75,,OVC,,,,300.00,,,,BR,,,,,,,,KACT 101255Z AUTO 35009KT 2SM BR OVC003 01/M01 A3012 RMK T00101010 MADISHF
ACT,2021-02-10 13:00,,,,360.00,9.00,,30.13,,1.75,,OVC,,,,300.00,,,,BR,,,,,,,,KACT 101300Z AUTO 36009KT 2SM BR OVC003 01/M01 A3012 RMK T00101010 MADISHF
ACT,2021-02-10 13:05,,,,360.00,7.00,,30.13,,1.50,,OVC,,,,300.00,,,,BR,,,,,,,,KACT 101305Z AUTO 36007KT 1 1/2SM BR OVC003 01/00 A3012 RMK T00100000 MADISHF
ACT,2021-02-10 13:10,,,,350.00,9.00,,30.13,,1.50,,OVC,,,,300.00,,,,BR,,,,,,,,KACT 101310Z AUTO 35009KT 1 1/2SM BR OVC003 01/M01 A3012 RMK T00101010 MADISHF
ACT,2021-02-10 13:15,,,,350.00,11.00,,30.14,,1.50,,OVC,,,,300.00,,,,BR,,,,,,,,KACT 101315Z AUTO 35011KT 1 1/2SM BR OVC003 01/M01 A3013 RMK T00101010 MADISHF
ACT,2021-02-10 13:20,,,,350.00,11.00,,30.14,,1.75,,OVC,,,,300.00,,,,BR,,,,,,,,KACT 101320Z AUTO 35011KT 2SM BR OVC003 01/M01 A3013 RMK T00101010 MADISHF
ACT,2021-02-10 13:25,,,,350.00,10.00,,30.14,,1.75,,OVC,,,,300.00,,,,BR,,,,,,,,KACT 101325Z AUTO 35010KT 2SM BR OVC003 01/M01 A3013 RMK T00101010 MADISHF
ACT,2021-02-10 13:30,,,,350.00,10.00,,30.14,,1.75,,OVC,,,,300.00,,,,BR,,,,,,,,KACT 101330Z AUTO 35010KT 2SM BR OVC003 01/M01 A3013 RMK T00101010 MADISHF
ACT,2021-02-10 13:35,,,,360.00,11.00,,30.14,,1.75,,OVC,,,,300.00,,,,BR,,,,,,,,KACT 101335Z AUTO 36011KT 2SM BR OVC003 01/M01 A3013 RMK T00101010 MADISHF
ACT,2021-02-10 13:40,,,,340.00,11.00,,30.15,,1.75,,OVC,,,,300.00,,,,BR,,,,,,,,KACT 101340Z AUTO 34011KT 2SM BR OVC003 01/M01 A3014 RMK T00101010 MADISHF
ACT,2021-02-10 13:45,,,,350.00,11.00,,30.15,,1.50,,OVC,,,,300.00,,,,BR,,,,,,,,KACT 101345Z AUTO 35011KT 1 1/2SM BR OVC003 01/M01 A3014 RMK T00101010 MADISHF
ACT,2021-02-10 13:50,,,,350.00,11.00,,30.15,,1.25,,OVC,,,,300.00,,,,BR,,,,,,,,KACT 101350Z AUTO 35011KT 1 1/2SM BR OVC003 01/M01 A3014 RMK T00101010 MADISHF
ACT,2021-02-10 13:51,33.10,30.90,91.51,350.00,12.00,0.00,30.15,1021.10,1.25,,OVC,,,,300.00,,,,BR,,,,,,,23.40,KACT 101351Z 35012KT 1 1/4SM BR OVC003 01/M01 A3015 RMK AO2 SLP211 T00061006
ACT,2021-02-10 13:55,,,,360.00,14.00,,30.15,,1.25,,OVC,,,,400.00,,,,BR,,,,,,,,KACT 101355Z AUTO 36014KT 1 1/2SM BR OVC004 01/M01 A3014 RMK T00101010 MADISHF
ACT,2021-02-10 14:00,,,,360.00,11.00,,30.15,,1.50,,OVC,,,,400.00,,,,BR,,,,,,,,KACT 101400Z AUTO 36011KT 1 1/2SM BR OVC004 01/M01 A3014 RMK T00101010 MADISHF
ACT,2021-02-10 14:05,,,,360.00,11.00,,30.15,,1.50,,OVC,,,,400.00,,,,BR,,,,,,,,KACT 101405Z AUTO 36011KT 1 1/2SM BR OVC004 01/M01 A3014 RMK T00101010 MADISHF
ACT,2021-02-10 14:10,,,,360.00,11.00,,30.15,,1.50,,OVC,,,,400.00,,,,BR,,,,,,,,KACT 101410Z AUTO 36011KT 1 1/2SM BR OVC004 01/M01 A3014 RMK T00101010 MADISHF
ACT,2021-02-10 14:15,,,,360.00,10.00,,30.15,,1.50,,OVC,,,,400.00,,,,BR,,,,,,,,KACT 101415Z AUTO 36010KT 1 1/2SM BR OVC004 01/M01 A3014 RMK T00101010 MADISHF
ACT,2021-02-10 14:20,,,,360.00,9.00,,30.16,,1.75,,OVC,,,,400.00,,,,BR,,,,,,,,KACT 101420Z AUTO 36009KT 2SM BR OVC004 01/M01 A3015 RMK T00101010 MADISHF
ACT,2021-02-10 14:25,,,,360.00,11.00,,30.16,,1.75,,OVC,,,,400.00,,,,BR,,,,,,,,KACT 101425Z AUTO 36011KT 2SM BR OVC004 01/M01 A3015 RMK T00101010 MADISHF
ACT,2021-02-10 14:30,,,,360.00,10.00,,30.15,,1.50,,OVC,,,,400.00,,,,BR,,,,,,,,KACT 101430Z AUTO 36010KT 1 1/2SM BR OVC004 01/M01 A3014 RMK T00101010 MADISHF
ACT,2021-02-10 14:35,,,,360.00,11.00,,30.16,,1.75,,OVC,,,,400.00,,,,BR,,,,,,,,KACT 101435Z AUTO 36011KT 2SM BR OVC004 01/M01 A3015 RMK T00101010 MADISHF
ACT,2021-02-10 14:40,,,,360.00,11.00,,30.15,,2.50,,OVC,,,,400.00,,,,BR,,,,,,,,KACT 101440Z AUTO 36011KT 2 1/2SM BR OVC004 01/M01 A3014 RMK T00101010 MADISHF
ACT,2021-02-10 14:42,33.10,30.90,91.51,10.00,13.00,0.00,30.15,,2.50,,OVC,,,,400.00,,,,BR,,,,,,,22.98,KACT 101442Z 01013KT 2 1/2SM BR OVC004 01/M01 A3015 RMK AO2 T00061006
ACT,2021-02-10 14:45,,,,360.00,11.00,,30.15,,3.00,,OVC,,,,400.00,,,,BR,,,,,,,,KACT 101445Z AUTO 36011KT 3SM BR OVC004 01/M01 A3014 RMK T00101010 CIG 3V8  MADISHF
ACT,2021-02-10 14:50,,,,360.00,11.00,,30.15,,2.50,,OVC,,,,400.00,,,,BR,,,,,,,,KACT 101450Z AUTO 36011KT 2 1/2SM BR OVC004 01/M01 A3014 RMK T00101010 MADISHF
ACT,2021-02-10 14:51,33.10,30.90,91.51,10.00,12.00,0.00,30.15,1021.00,2.50,,OVC,,,,400.00,,,,BR,,,,,,,23.40,KACT 101451Z 01012KT 2 1/2SM BR OVC004 01/M01 A3015 RMK AO2 SLP210 T00061006 50009
ACT,2021-02-10 14:55,,,,360.00,11.00,,30.15,,2.00,,OVC,,,,400.00,,,,BR,,,,,,,,KACT 101455Z AUTO 36011KT 2SM BR OVC004 01/M01 A3014 RMK T00101010 MADISHF
ACT,2021-02-10 15:00,,,,20.00,10.00,,30.15,,2.00,,OVC,,,,400.00,,,,BR,,,,,,,,KACT 101500Z AUTO 02010KT 2SM BR OVC004 01/M01 A3014 RMK T00101010 MADISHF
ACT,2021-02-10 15:05,,,,10.00,9.00,,30.15,,1.75,,OVC,,,,400.00,,,,BR,,,,,,,,KACT 101505Z AUTO 01009KT 2SM BR OVC004 01/M01 A3014 RMK T00101010 MADISHF
ACT,2021-02-10 15:10,,,,360.00,9.00,,30.15,,1.75,,OVC,,,,400.00,,,,BR,,,,,,,,KACT 101510Z AUTO 36009KT 2SM BR OVC004 01/M01 A3014 RMK T00101010 MADISHF
ACT,2021-02-10 15:11,33.10,30.90,91.51,360.00,9.00,0.00,30.16,,1.75,,OVC,,,,400.00,,,,BR,,,,,,,24.88,KACT 101511Z 36009KT 1 3/4SM BR OVC004 01/M01 A3016 RMK AO2 T00061006
ACT,2021-02-10 15:15,,,,10.00,7.00,,30.15,,1.75,,OVC,,,,400.00,,,,BR,,,,,,,,KACT 101515Z AUTO 01007KT 2SM BR OVC004 01/M01 A3014 RMK T00101010 MADISHF
ACT,2021-02-10 15:20,,,,10.00,9.00,,30.15,,1.75,,OVC,,,,400.00,,,,BR,,,,,,,,KACT 101520Z AUTO 01009KT 2SM BR OVC004 01/M01 A3014 RMK T00101010 MADISHF
ACT,2021-02-10 15:25,,,,360.00,10.00,,30.15,,1.75,,OVC,,,,400.00,,,,BR,,,,,,,,KACT 101525Z AUTO 36010KT 2SM BR OVC004 01/M01 A3014 RMK T00101010 MADISHF
ACT,2021-02-10 15:30,,,,10.00,10.00,,30.15,,1.75,,OVC,,,,400.00,,,,BR,,,,,,,,KACT 101530Z AUTO 01010KT 2SM BR OVC004 01/00 A3014 RMK T00100000 MADISHF
ACT,2021-02-10 15:35,,,,350.00,9.00,,30.16,,1.75,,OVC,,,,400.00,,,,BR,,,,,,,,KACT 101535Z AUTO 35009KT 2SM BR OVC004 01/00 A3015 RMK T00100000 MADISHF
ACT,2021-02-10 15:40,,,,10.00,8.00,,30.15,,2.00,,OVC,,,,400.00,,,,BR,,,,,,,,KACT 101540Z AUTO 01008KT 2SM BR OVC004 01/00 A3014 RMK T00100000 MADISHF
ACT,2021-02-10 15:45,,,,10.00,8.00,,30.16,,2.50,,OVC,,,,400.00,,,,BR,,,,,,,,KACT 101545Z AUTO 01008KT 2 1/2SM BR OVC004 01/00 A3015 RMK T00100000 MADISHF
ACT,2021-02-10 15:50,,,,360.00,9.00,,30.15,,2.50,,OVC,,,,400.00,,,,BR,,,,,,,,KACT 101550Z AUTO 36009KT 2 1/2SM BR OVC004 01/00 A3014 RMK T00100000 MADISHF
ACT,2021-02-10 15:51,34.00,32.00,92.29,360.00,9.00,0.00,30.15,1021.20,2.50,,OVC,,,,400.00,,,,BR,,,,,,,26.00,KACT 101551Z 36009KT 2 1/2SM BR OVC004 01/00 A3015 RMK AO2 SLP212 T00110000
ACT,2021-02-10 15:55,,,,350.00,9.00,,30.16,,2.00,,OVC,,,,400.00,,,,BR,,,,,,,,KACT 101555Z AUTO 35009KT 2SM BR OVC004 01/00 A3015 RMK T00100000 MADISHF
ACT,2021-02-10 16:00,,,,350.00,11.00,,30.16,,2.00,,OVC,,,,400.00,,,,BR,,,,,,,,KACT 101600Z AUTO 35011KT 2SM BR OVC004 01/00 A3015 RMK T00100000 MADISHF
ACT,2021-02-10 16:05,,,,360.00,10.00,,30.17,,2.00,,OVC,,,,400.00,,,,BR,,,,,,,,KACT 101605Z AUTO 36010KT 2SM BR OVC004 01/00 A3017 RMK T00100000 MADISHF
ACT,2021-02-10 16:10,,,,360.00,9.00,,30.17,,2.00,,OVC,,,,400.00,,,,BR,,,,,,,,KACT 101610Z AUTO 36009KT 2SM BR OVC004 01/00 A3017 RMK T00100000 CIG 3V7  MADISHF
ACT,2021-02-10 16:15,,,,360.00,11.00,,30.16,,2.00,,OVC,,,,400.00,,,,BR,,,,,,,,KACT 101615Z AUTO 36011KT 2SM BR OVC004 01/M01 A3015 RMK T00101010 CIG 4V7  MADISHF
ACT,2021-02-10 16:20,,,,350.00,13.00,,30.17,,2.00,,OVC,,,,400.00,,,,BR,,,,,,,,KACT 101620Z AUTO 35013KT 2SM BR OVC004 01/M01 A3017 RMK T00101010 MADISHF
ACT,2021-02-10 16:25,,,,360.00,11.00,,30.17,,2.00,,OVC,,,,400.00,,,,BR,,,,,,,,KACT 101625Z AUTO 36011KT 2SM BR OVC004 02/00 A3017 RMK T00200000 MADISHF
ACT,2021-02-10 16:30,,,,360.00,11.00,,30.16,,2.00,,OVC,,,,400.00,,,,BR,,,,,,,,KACT 101630Z AUTO 36011KT 2SM BR OVC004 02/00 A3015 RMK T00200000 MADISHF
ACT,2021-02-10 16:35,,,,350.00,10.00,,30.16,,2.00,15.00,OVC,,,,400.00,,,,BR,,,,,,,,KACT 101635Z AUTO 35010G15KT 2SM BR OVC004 02/00 A3015 RMK T00200000 MADISHF
ACT,2021-02-10 16:40,,,,340.00,11.00,,30.17,,2.00,,OVC,,,,400.00,,,,BR,,,,,,,,KACT 101640Z AUTO 34011KT 2SM BR OVC004 02/00 A3017 RMK T00200000 MADISHF
ACT,2021-02-10 16:45,,,,360.00,11.00,,30.17,,2.00,,OVC,,,,400.00,,,,BR,,,,,,,,KACT 101645Z AUTO 36011KT 2SM BR OVC004 02/00 A3017 RMK T00200000 MADISHF
ACT,2021-02-10 16:50,,,,360.00,11.00,,30.16,,5.00,,OVC,,,,700.00,,,,BR,,,,,,,,KACT 101650Z AUTO 36011KT 5SM BR OVC007 02/00 A3015 RMK T00200000 MADISHF
ACT,2021-02-10 16:51,35.10,32.00,88.33,360.00,13.00,0.00,30.16,1021.40,5.00,,OVC,,,,700.00,,,,BR,,,,,,,25.54,KACT 101651Z 36013KT 5SM BR OVC007 02/00 A3016 RMK AO2 SLP214 T00170000
ACT,2021-02-10 16:55,,,,360.00,10.00,,30.17,,4.00,,OVC,,,,700.00,,,,BR,,,,,,,,KACT 101655Z AUTO 36010KT 4SM BR OVC007 02/00 A3017 RMK T00200000 MADISHF
ACT,2021-02-10 17:00,,,,340.00,9.00,,30.16,,4.00,,OVC,,,,700.00,,,,BR,,,,,,,,KACT 101700Z AUTO 34009KT 4SM BR OVC007 02/00 A3015 RMK T00200000 MADISHF
ACT,2021-02-10 17:05,,,,340.00,10.00,,30.16,,4.00,,OVC,,,,600.00,,,,BR,,,,,,,,KACT 101705Z AUTO 34010KT 4SM BR OVC006 02/00 A3015 RMK T00200000 MADISHF
ACT,2021-02-10 17:10,,,,360.00,9.00,,30.16,,4.00,,OVC,,,,600.00,,,,BR,,,,,,,,KACT 101710Z AUTO 36009KT 4SM BR OVC006 02/01 A3015 RMK T00200010 MADISHF
ACT,2021-02-10 17:15,,,,340.00,11.00,,30.16,,4.00,,OVC,,,,600.00,,,,BR,,,,,,,,KACT 101715Z AUTO 34011KT 4SM BR OVC006 02/00 A3015 RMK T00200000 MADISHF
ACT,2021-02-10 17:20,,,,340.00,13.00,,30.16,,4.00,,OVC,,,,600.00,,,,BR,,,,,,,,KACT 101720Z AUTO 34013KT 4SM BR OVC006 02/00 A3015 RMK T00200000 MADISHF
ACT,2021-02-10 17:25,,,,340.00,11.00,,30.17,,4.00,,OVC,,,,600.00,,,,BR,,,,,,,,KACT 101725Z AUTO 34011KT 4SM BR OVC006 02/00 A3017 RMK T00200000 MADISHF
ACT,2021-02-10 17:30,,,,360.00,10.00,,30.16,,5.00,,OVC,,,,600.00,,,,BR,,,,,,,,KACT 101730Z AUTO 36010KT 5SM BR OVC006 02/00 A3015 RMK T00200000 MADISHF
ACT,2021-02-10 17:35,,,,340.00,11.00,,30.16,,5.00,,OVC,,,,600.00,,,,BR,,,,,,,,KACT 101735Z AUTO 34011KT 5SM BR OVC006 02/00 A3015 RMK T00200000 MADISHF
ACT,2021-02-10 17:40,,,,350.00,11.00,,30.16,,5.00,,OVC,,,,600.00,,,,BR,,,,,,,,KACT 101740Z AUTO 35011KT 5SM BR OVC006 02/00 A3015 RMK T00200000 MADISHF
ACT,2021-02-10 17:45,,,,350.00,14.00,,30.15,,5.00,,OVC,,,,600.00,,,,BR,,,,,,,,KACT 101745Z AUTO 35014KT 5SM BR OVC006 02/00 A3014 RMK T00200000 MADISHF
ACT,2021-02-10 17:50,,,,350.00,14.00,,30.15,,5.00,,OVC,,,,600.00,,,,BR,,,,,,,,KACT 101750Z AUTO 35014KT 5SM BR OVC006 02/00 A3014 RMK T00200000 MADISHF
ACT,2021-02-10 17:51,35.10,32.00,88.33,360.00,12.00,0.00,30.15,1021.10,5.00,,OVC,,,,600.00,,,,BR,,,,,,,25.95,KACT 101751Z 36012KT 5SM BR OVC006 02/00 A3015 RMK AO2 SLP211 T00170000 10022 20006 50000
ACT,2021-02-10 17:55,,,,350.00,13.00,,30.14,,5.00,,OVC,,,,600.00,,,,BR,,,,,,,,KACT 101755Z AUTO 35013KT 5SM BR OVC006 02/00 A3013 RMK T00200000 MADISHF
ACT,2021-02-10 18:00,,,,360.00,14.00,,30.14,,5.00,,OVC,,,,600.00,,,,BR,,,,,,,,KACT 101800Z AUTO 36014KT 5SM BR OVC006 02/00 A3013 RMK T00200000 MADISHF
ACT,2021-02-10 18:05,,,,360.00,14.00,,30.14,,5.00,,OVC,,,,600.00,,,,BR,,,,,,,,KACT 101805Z AUTO 36014KT 5SM BR OVC006 02/00 A3013 RMK T00200000 MADISHF
ACT,2021-02-10 18:10,,,,360.00,13.00,,30.14,,5.00,19.00,OVC,,,,600.00,,,,BR,,,,,,,,KACT 101810Z AUTO 36013G19KT 5SM BR OVC006 02/00 A3013 RMK T00200000 MADISHF
ACT,2021-02-10 18:15,,,,340.00,9.00,,30.15,,5.00,,OVC,,,,600.00,,,,BR,,,,,,,,KACT 101815Z AUTO 34009KT 5SM BR OVC006 02/00 A3014 RMK T00200000 MADISHF
ACT,2021-02-10 18:20,,,,340.00,14.00,,30.14,,5.00,,OVC,,,,600.00,,,,BR,,,,,,,,KACT 101820Z AUTO 34014KT 5SM BR OVC006 02/00 A3013 RMK T00200000 MADISHF
ACT,2021-02-10 18:25,,,,350.00,11.00,,30.14,,5.00,,OVC,,,,600.00,,,,BR,,,,,,,,KACT 101825Z AUTO 35011KT 5SM BR OVC006 02/M01 A3013 RMK T00201010 MADISHF
ACT,2021-02-10 18:30,,,,340.00,13.00,,30.14,,5.00,,OVC,,,,700.00,,,,BR,,,,,,,,KACT 101830Z AUTO 34013KT 5SM BR OVC007 02/M01 A3013 RMK T00201010 MADISHF
ACT,2021-02-10 18:35,,,,350.00,11.00,,30.13,,5.00,,OVC,,,,700.00,,,,BR,,,,,,,,KACT 101835Z AUTO 35011KT 5SM BR OVC007 02/M01 A3012 RMK T00201010 MADISHF
ACT,2021-02-10 18:40,,,,350.00,13.00,,30.13,,5.00,,OVC,,,,700.00,,,,BR,,,,,,,,KACT 101840Z AUTO 35013KT 5SM BR OVC007 02/M01 A3012 RMK T00201010 MADISHF
ACT,2021-02-10 18:45,,,,340.00,13.00,,30.13,,5.00,,OVC,,,,700.00,,,,BR,,,,,,,,KACT 101845Z AUTO 34013KT 5SM BR OVC007 02/M01 A3012 RMK T00201010 MADISHF
ACT,2021-02-10 18:50,,,,340.00,13.00,,30.13,,5.00,,OVC,,,,700.00,,,,BR,,,,,,,,KACT 101850Z AUTO 34013KT 5SM BR OVC007 02/M01 A3012 RMK T00201010 MADISHF
ACT,2021-02-10 18:51,35.10,30.90,84.49,340.00,13.00,0.00,30.13,1020.40,5.00,,OVC,,,,700.00,,,,BR,,,,,,,25.54,KACT 101851Z 34013KT 5SM BR OVC007 02/M01 A3013 RMK AO2 SLP204 T00171006
ACT,2021-02-10 18:55,,,,340.00,13.00,,30.13,,5.00,,OVC,,,,700.00,,,,BR,,,,,,,,KACT 101855Z AUTO 34013KT 5SM BR OVC007 02/M01 A3012 RMK T00201010 MADISHF
ACT,2021-02-10 19:00,,,,340.00,11.00,,30.13,,5.00,,OVC,,,,700.00,,,,BR,,,,,,,,KACT 101900Z AUTO 34011KT 5SM BR OVC007 02/M01 A3012 RMK T00201010 MADISHF
ACT,2021-02-10 19:05,,,,360.00,13.00,,30.12,,5.00,,OVC,,,,700.00,,,,BR,,,,,,,,KACT 101905Z AUTO 36013KT 5SM BR OVC007 02/M01 A3012 RMK T00201010 MADISHF
ACT,2021-02-10 19:10,,,,360.00,13.00,,30.12,,4.00,,OVC,,,,700.00,,,,BR,,,,,,,,KACT 101910Z AUTO 36013KT 4SM BR OVC007 02/M01 A3012 RMK T00201010 MADISHF
ACT,2021-02-10 19:15,,,,350.00,13.00,,30.12,,4.00,,OVC,,,,600.00,,,,BR,,,,,,,,KACT 101915Z AUTO 35013KT 4SM BR OVC006 02/M01 A3012 RMK T00201010 MADISHF
ACT,2021-02-10 19:20,,,,360.00,11.00,,30.12,,4.00,,OVC,,,,600.00,,,,HZ,,,,,,,,KACT 101920Z AUTO 36011KT 4SM HZ OVC006 02/M01 A3012 RMK T00201010 MADISHF
ACT,2021-02-10 19:25,,,,350.00,11.00,,30.12,,5.00,,OVC,,,,600.00,,,,BR,,,,,,,,KACT 101925Z AUTO 35011KT 5SM BR OVC006 02/M01 A3012 RMK T00201010 MADISHF
ACT,2021-02-10 19:30,,,,350.00,11.00,,30.12,,5.00,,OVC,,,,700.00,,,,HZ,,,,,,,,KACT 101930Z AUTO 35011KT 5SM HZ OVC007 02/M01 A3012 RMK T00201010 MADISHF
ACT,2021-02-10 19:35,,,,360.00,11.00,,30.11,,5.00,,OVC,,,,700.00,,,,HZ,,,,,,,,KACT 101935Z AUTO 36011KT 5SM HZ OVC007 02/M01 A3011 RMK T00201010 MADISHF
ACT,2021-02-10 19:40,,,,360.00,14.00,,30.11,,5.00,,OVC,,,,700.00,,,,HZ,,,,,,,,KACT 101940Z AUTO 36014KT 5SM HZ OVC007 02/M01 A3011 RMK T00201010 MADISHF
ACT,2021-02-10 19:45,,,,360.00,13.00,,30.11,,5.00,,OVC,,,,700.00,,,,HZ,,,,,,,,KACT 101945Z AUTO 36013KT 5SM HZ OVC007 02/M01 A3011 RMK T00201010 MADISHF
ACT,2021-02-10 19:50,,,,350.00,9.00,,30.11,,5.00,,OVC,,,,700.00,,,,BR,,,,,,,,KACT 101950Z AUTO 35009KT 5SM BR OVC007 02/M01 A3011 RMK T00201010 MADISHF
ACT,2021-02-10 19:51,35.10,30.90,84.49,350.00,10.00,0.00,30.10,1019.60,5.00,,OVC,,,,700.00,,,,BR,,,,,,,26.86,KACT 101951Z 35010KT 5SM BR OVC007 02/M01 A3010 RMK AO2 SLP196 T00171006
ACT,2021-02-10 19:55,,,,340.00,11.00,,30.10,,5.00,17.00,OVC,,,,700.00,,,,-RA,,,,,,,,KACT 101955Z AUTO 34011G17KT 5SM -RA OVC007 02/M01 A3010 RMK T00201010 MADISHF
ACT,2021-02-10 20:00,,,,340.00,15.00,T,30.10,,5.00,,OVC,,,,700.00,,,,UP BR,,,,,,,,KACT 102000Z AUTO 34015KT 5SM UP BR OVC007 02/M01 A3010 RMK P0000 T00201010 MADISHF
ACT,2021-02-10 20:05,,,,350.00,11.00,,30.11,,5.00,,OVC,,,,700.00,,,,BR,,,,,,,,KACT 102005Z AUTO 35011KT 5SM BR OVC007 02/M01 A3011 RMK T00201010 MADISHF
ACT,2021-02-10 20:10,,,,340.00,14.00,,30.10,,4.00,,OVC,,,,700.00,,,,BR,,,,,,,,KACT 102010Z AUTO 34014KT 4SM BR OVC007 02/M01 A3010 RMK T00201010 MADISHF
ACT,2021-02-10 20:15,,,,340.00,14.00,,30.09,,4.00,,OVC,,,,700.00,,,,BR,,,,,,,,KACT 102015Z AUTO 34014KT 4SM BR OVC007 02/M01 A3009 RMK T00201010 MADISHF
ACT,2021-02-10 20:20,,,,350.00,13.00,,30.09,,3.50,,OVC,,,,700.00,,,,BR,,,,,,,,KACT 102020Z AUTO 35013KT 3SM BR OVC007 02/00 A3009 RMK T00200000 MADISHF
ACT,2021-02-10 20:25,,,,340.00,16.00,,30.09,,3.00,,OVC,,,,700.00,,,,BR,,,,,,,,KACT 102025Z AUTO 34016KT 3SM BR OVC007 02/00 A3009 RMK T00200000 MADISHF
ACT,2021-02-10 20:30,,,,340.00,13.00,,30.09,,2.50,,OVC,,,,700.00,,,,BR,,,,,,,,KACT 102030Z AUTO 34013KT 2 1/2SM BR OVC007 02/M01 A3009 RMK T00201010 MADISHF
ACT,2021-02-10 20:34,35.10,32.00,88.33,350.00,12.00,T,30.09,,2.50,23.00,OVC,,,,700.00,,,,BR,,,,,,,25.95,KACT 102034Z 35012G23KT 2 1/2SM BR OVC007 02/00 A3009 RMK AO2 RAB1955E05UPB1956E04 P0000 T00170000
ACT,2021-02-10 20:35,,,,350.00,13.00,,30.09,,2.50,,OVC,,,,700.00,,,,BR,,,,,,,,KACT 102035Z AUTO 35013KT 2 1/2SM BR OVC007 02/00 A3009 RMK T00200000 MADISHF
ACT,2021-02-10 20:40,,,,350.00,14.00,,30.08,,2.50,,OVC,,,,700.00,,,,BR,,,,,,,,KACT 102040Z AUTO 35014KT 2 1/2SM BR OVC007 02/00 A3007 RMK T00200000 MADISHF
ACT,2021-02-10 20:45,,,,340.00,11.00,,30.09,,2.50,,OVC,,,,700.00,,,,BR,,,,,,,,KACT 102045Z AUTO 34011KT 2 1/2SM BR OVC007 02/00 A3009 RMK T00200000 MADISHF
ACT,2021-02-10 20:50,,,,340.00,11.00,,30.08,,2.50,,OVC,,,,600.00,,,,BR,,,,,,,,KACT 102050Z AUTO 34011KT 2 1/2SM BR OVC006 02/00 A3007 RMK T00200000 MADISHF
ACT,2021-02-10 20:51,35.10,32.00,88.33,350.00,10.00,T,30.08,1018.70,3.00,,OVC,,,,600.00,,,,BR,,,,,,,26.86,KACT 102051Z 35010KT 3SM BR OVC006 02/00 A3008 RMK AO2 RAB1955E05UPB1956E04 SLP187 P0000 60000 T00170000 58023
ACT,2021-02-10 20:55,,,,350.00,11.00,,30.08,,3.00,,OVC,,,,600.00,,,,BR,,,,,,,,KACT 102055Z AUTO 35011KT 3SM BR OVC006 02/00 A3007 RMK T00200000 MADISHF
ACT,2021-02-10 21:00,,,,350.00,11.00,,30.08,,4.00,,OVC,,,,600.00,,,,BR,,,,,,,,KACT 102100Z AUTO 35011KT 4SM BR OVC006 02/00 A3007 RMK T00200000 MADISHF
ACT,2021-02-10 21:05,,,,350.00,11.00,,30.08,,4.00,,OVC,,,,600.00,,,,BR,,,,,,,,KACT 102105Z AUTO 35011KT 4SM BR OVC006 02/00 A3007 RMK T00200000 MADISHF
ACT,2021-02-10 21:10,,,,350.00,11.00,,30.07,,4.00,,OVC,,,,700.00,,,,BR,,,,,,,,KACT 102110Z AUTO 35011KT 4SM BR OVC007 02/00 A3006 RMK T00200000 MADISHF
ACT,2021-02-10 21:15,,,,340.00,11.00,,30.08,,5.00,17.00,OVC,,,,700.00,,,,BR,,,,,,,,KACT 102115Z AUTO 34011G17KT 5SM BR OVC007 02/00 A3007 RMK T00200000 MADISHF
ACT,2021-02-10 21:20,,,,340.00,11.00,,30.08,,5.00,,OVC,,,,700.00,,,,BR,,,,,,,,KACT 102120Z AUTO 34011KT 5SM BR OVC007 02/00 A3007 RMK T00200000 MADISHF
ACT,2021-02-10 21:25,,,,350.00,13.00,,30.07,,4.00,,OVC,,,,700.00,,,,BR,,,,,,,,KACT 102125Z AUTO 35013KT 4SM BR OVC007 02/00 A3006 RMK T00200000 MADISHF
ACT,2021-02-10 21:30,,,,350.00,9.00,,30.08,,4.00,,OVC,,,,700.00,,,,BR,,,,,,,,KACT 102130Z AUTO 35009KT 4SM BR OVC007 02/00 A3007 RMK T00200000 MADISHF
ACT,2021-02-10 21:35,,,,350.00,11.00,,30.08,,4.00,,OVC,,,,700.00,,,,BR,,,,,,,,KACT 102135Z AUTO 35011KT 4SM BR OVC007 02/00 A3007 RMK T00200000 MADISHF
ACT,2021-02-10 21:40,,,,360.00,11.00,,30.09,,4.00,,OVC,,,,700.00,,,,BR,,,,,,,,KACT 102140Z AUTO 36011KT 4SM BR OVC007 02/00 A3009 RMK T00200000 MADISHF
ACT,2021-02-10 21:45,,,,360.00,11.00,,30.08,,4.00,,OVC,,,,700.00,,,,BR,,,,,,,,KACT 102145Z AUTO 36011KT 4SM BR OVC007 02/00 A3007 RMK T00200000 MADISHF
ACT,2021-02-10 21:50,,,,340.00,11.00,,30.09,,4.00,,OVC,,,,700.00,,,,BR,,,,,,,,KACT 102150Z AUTO 34011KT 4SM BR OVC007 02/00 A3009 RMK T00200000 MADISHF
ACT,2021-02-10 21:51,36.00,32.00,85.23,330.00,11.00,0.00,30.09,1018.90,4.00,,OVC,,,,700.00,,,,BR,,,,,,,27.52,KACT 102151Z 33011KT 4SM BR OVC007 02/00 A3009 RMK AO2 SLP189 T00220000
ACT,2021-02-10 21:55,,,,340.00,10.00,,30.09,,4.00,,OVC,,,,700.00,,,,BR,,,,,,,,KACT 102155Z AUTO 34010KT 4SM BR OVC007 02/00 A3009 RMK T00200000 MADISHF
ACT,2021-02-10 22:00,,,,340.00,8.00,,30.09,,3.00,,OVC,,,,700.00,,,,BR,,,,,,,,KACT 102200Z AUTO 34008KT 3SM BR OVC007 02/00 A3009 RMK T00200000 MADISHF
ACT,2021-02-10 22:05,,,,340.00,10.00,,30.09,,3.00,,OVC,,,,600.00,,,,BR,,,,,,,,KACT 102205Z AUTO 34010KT 3SM BR OVC006 02/00 A3009 RMK T00200000 MADISHF
ACT,2021-02-10 22:10,,,,340.00,7.00,,30.09,,3.00,,OVC,,,,600.00,,,,BR,,,,,,,,KACT 102210Z AUTO 34007KT 3SM BR OVC006 02/00 A3009 RMK T00200000 MADISHF
ACT,2021-02-10 22:15,,,,350.00,10.00,T,30.08,,2.50,,OVC,,,,600.00,,,,UP BR,,,,,,,,KACT 102215Z AUTO 35010KT 2 1/2SM UP BR OVC006 02/00 A3007 RMK P0000 T00200000 MADISHF
ACT,2021-02-10 22:20,,,,340.00,11.00,,30.08,,2.00,,OVC,,,,600.00,,,,-RA BR,,,,,,,,KACT 102220Z AUTO 34011KT 2SM -RA BR OVC006 02/00 A3007 RMK T00200000 MADISHF
ACT,2021-02-10 22:25,,,,340.00,9.00,,30.08,,2.00,,OVC,,,,600.00,,,,-RA BR,,,,,,,,KACT 102225Z AUTO 34009KT 2SM -RA BR OVC006 02/00 A3007 RMK T00200000 MADISHF
ACT,2021-02-10 22:30,,,,340.00,9.00,,30.08,,2.00,,OVC,,,,600.00,,,,BR,,,,,,,,KACT 102230Z AUTO 34009KT 2SM BR OVC006 02/00 A3007 RMK T00200000 MADISHF
ACT,2021-02-10 22:35,,,,330.00,10.00,,30.08,,1.75,,OVC,,,,600.00,,,,BR,,,,,,,,KACT 102235Z AUTO 33010KT 2SM BR OVC006 02/00 A3007 RMK T00200000 MADISHF
ACT,2021-02-10 22:38,35.10,32.00,88.33,340.00,11.00,T,30.08,,1.50,,OVC,,,,600.00,,,,BR,,,,,,,26.38,KACT 102238Z 34011KT 1 1/2SM BR OVC006 02/00 A3008 RMK AO2 UPB13E16B27E29RAB16E27 P0000 T00170000
ACT,2021-02-10 22:40,,,,340.00,11.00,,30.08,,1.50,,OVC,,,,600.00,,,,BR,,,,,,,,KACT 102240Z AUTO 34011KT 1 1/2SM BR OVC006 02/00 A3007 RMK T00200000 MADISHF
ACT,2021-02-10 22:45,,,,340.00,9.00,,30.09,,1.50,,OVC,,,,600.00,,,,BR,,,,,,,,KACT 102245Z AUTO 34009KT 1 1/2SM BR OVC006 02/00 A3009 RMK T00200000 MADISHF
ACT,2021-02-10 22:50,,,,340.00,10.00,0.01,30.09,,1.25,,OVC,,,,600.00,,,,RA BR,,,,,,,,KACT 102250Z AUTO 34010KT 1 1/2SM RA BR OVC006 02/01 A3009 RMK P0000 T00200010 MADISHF
ACT,2021-02-10 22:51,35.10,33.10,92.32,340.00,11.00,0.01,30.08,1018.90,1.25,,OVC,,,,600.00,,,,RA BR,,,,,,,26.38,KACT 102251Z 34011KT 1 1/4SM RA BR OVC006 02/01 A3008 RMK AO2 UPB13E16B27E29RAB16E27B46 SLP189 P0001 T00170006
ACT,2021-02-10 22:55,,,,340.00,9.00,0.01,30.09,,1.25,,OVC,,,,499.00,,,,-RA BR,,,,,,,,KACT 102255Z AUTO 34009KT 1 1/2SM -RA BR OVC004 02/01 A3009 RMK P0000 T00200010 MADISHF
ACT,2021-02-10 23:00,,,,350.00,11.00,0.01,30.09,,1.75,,OVC,,,,499.00,,,,-RA BR,,,,,,,,KACT 102300Z AUTO 35011KT 2SM -RA BR OVC004 02/00 A3009 RMK P0000 T00200000 MADISHF
ACT,2021-02-10 23:05,,,,360.00,11.00,0.01,30.08,,2.00,,OVC,,,,499.00,,,,UP BR,,,,,,,,KACT 102305Z AUTO 36011KT 2SM UP BR OVC004 02/01 A3007 RMK P0000 T00200010 MADISHF
ACT,2021-02-10 23:09,35.10,33.10,92.32,10.00,10.00,0.01,30.09,,2.50,,OVC,,,,500.00,,,,BR,,,,,,,26.86,KACT 102309Z 01010KT 2 1/2SM BR OVC005 02/01 A3009 RMK AO2 RAE04UPB04E06 P0001 T00170006
ACT,2021-02-10 23:10,,,,360.00,11.00,0.01,30.09,,2.50,,OVC,,,,499.00,,,,BR,,,,,,,,KACT 102310Z AUTO 36011KT 2 1/2SM BR OVC004 02/01 A3009 RMK P0000 T00200010 MADISHF
ACT,2021-02-10 23:15,,,,350.00,9.00,0.01,30.09,,2.00,,OVC,,,,499.00,,,,-RA BR,,,,,,,,KACT 102315Z AUTO 35009KT 2SM -RA BR OVC004 02/01 A3009 RMK P0000 T00200010 MADISHF
ACT,2021-02-10 23:20,,,,340.00,9.00,0.01,30.09,,2.00,14.00,OVC,,,,499.00,,,,-RA BR,,,,,,,,KACT 102320Z AUTO 34009G14KT 2SM -RA BR OVC004 02/01 A3009 RMK P0000 T00200010 CIG 4V9  MADISHF
ACT,2021-02-10 23:25,,,,340.00,10.00,0.01,30.09,,2.50,,OVC,,,,499.00,,,,-RA BR,,,,,,,,KACT 102325Z AUTO 34010KT 2 1/2SM -RA BR OVC004 02/01 A3009 RMK P0000 T00200010 CIG 4V9  MADISHF
ACT,2021-02-10 23:30,,,,350.00,9.00,0.01,30.09,,2.00,,OVC,,,,499.00,,,,BR,,,,,,,,KACT 102330Z AUTO 35009KT 2SM BR OVC004 02/00 A3009 RMK P0000 T00200000 MADISHF
ACT,2021-02-10 23:35,,,,360.00,11.00,0.01,30.09,,2.00,,OVC,,,,499.00,,,,BR,,,,,,,,KACT 102335Z AUTO 36011KT 2SM BR OVC004 02/00 A3009 RMK P0000 T00200000 CIG 4V8  MADISHF
ACT,2021-02-10 23:40,,,,10.00,11.00,0.01,30.09,,2.50,,OVC,,,,499.00,,,,BR,,,,,,,,KACT 102340Z AUTO 01011KT 2 1/2SM BR OVC004 02/00 A3009 RMK P0000 T00200000 CIG 4V9  MADISHF
ACT,2021-02-10 23:45,,,,360.00,11.00,0.01,30.09,,2.50,,BKN,OVC,,,499.00,999.00,,,BR,,,,,,,,KACT 102345Z AUTO 36011KT 2 1/2SM BR BKN004 OVC009 02/00 A3009 RMK P0000 T00200000 CIG 4V8  MADISHF
ACT,2021-02-10 23:50,,,,10.00,11.00,0.01,30.09,,2.50,,BKN,OVC,,,499.00,999.00,,,BR,,,,,,,,KACT 102350Z AUTO 01011KT 2 1/2SM BR BKN004 OVC009 02/00 A3009 RMK P0000 T00200000 CIG 4V8  MADISHF
ACT,2021-02-10 23:51,35.10,32.00,88.33,10.00,12.00,0.01,30.09,1019.30,3.00,,BKN,OVC,,,500.00,1000.00,,,BR,,,,,,,25.95,KACT 102351Z 01012KT 3SM BR BKN005 OVC010 02/00 A3009 RMK AO2 RAE04B11E26UPB04E06 CIG 004V008 SLP193 P0001 60002 T00170000 10022 20017 53005
ACT,2021-02-10 23:55,,,,360.00,11.00,,30.10,,3.00,,OVC,,,,499.00,,,,BR,,,,,,,,KACT 102355Z AUTO 36011KT 3SM BR OVC004 02/00 A3010 RMK T00200000 MADISHF
ACT,2021-02-11 00:00,,,,360.00,11.00,,30.10,,2.50,,OVC,,,,600.00,,,,BR,,,,,,,,KACT 110000Z AUTO 36011KT 2 1/2SM BR OVC006 02/00 A3010 RMK T00200000 CIG 4V9  MADISHF
ACT,2021-02-11 00:02,35.10,32.00,88.33,360.00,9.00,0.00,30.10,,2.50,,OVC,,,,600.00,,,,BR,,,,,,,27.37,KACT 110002Z 36009KT 2 1/2SM BR OVC006 02/00 A3010 RMK AO2 CIG 004V009 T00170000
ACT,2021-02-11 00:05,,,,10.00,11.00,,30.10,,2.50,,OVC,,,,600.00,,,,BR,,,,,,,,KACT 110005Z AUTO 01011KT 2 1/2SM BR OVC006 02/00 A3010 RMK T00200000 MADISHF
ACT,2021-02-11 00:10,,,,360.00,11.00,,30.10,,3.00,,OVC,,,,600.00,,,,BR,,,,,,,,KACT 110010Z AUTO 36011KT 3SM BR OVC006 02/00 A3010 RMK T00200000 MADISHF
ACT,2021-02-11 00:14,35.10,32.00,88.33,360.00,11.00,0.00,30.11,,3.00,,OVC,,,,500.00,,,,BR,,,,,,,26.38,KACT 110014Z 36011KT 3SM BR OVC005 02/00 A3011 RMK AO2 T00170000
ACT,2021-02-11 00:15,,,,360.00,10.00,,30.11,,3.50,,OVC,,,,499.00,,,,BR,,,,,,,,KACT 110015Z AUTO 36010KT 3SM BR OVC004 02/00 A3011 RMK T00200000 MADISHF
ACT,2021-02-11 00:20,,,,350.00,10.00,,30.11,,3.50,,OVC,,,,499.00,,,,BR,,,,,,,,KACT 110020Z AUTO 35010KT 3SM BR OVC004 02/00 A3011 RMK T00200000 MADISHF
ACT,2021-02-11 00:25,,,,360.00,11.00,,30.11,,4.00,,OVC,,,,499.00,,,,BR,,,,,,,,KACT 110025Z AUTO 36011KT 4SM BR OVC004 02/00 A3011 RMK T00200000 CIG 4V9  MADISHF
ACT,2021-02-11 00:30,,,,360.00,11.00,,30.11,,4.00,17.00,OVC,,,,499.00,,,,BR,,,,,,,,KACT 110030Z AUTO 36011G17KT 4SM BR OVC004 02/00 A3011 RMK T00200000 CIG 4V9  MADISHF
ACT,2021-02-11 00:35,,,,360.00,13.00,,30.11,,4.00,,OVC,,,,499.00,,,,BR,,,,,,,,KACT 110035Z AUTO 36013KT 4SM BR OVC004 02/00 A3011 RMK T00200000 CIG 4V9  MADISHF
ACT,2021-02-11 00:40,,,,360.00,11.00,T,30.11,,4.00,,OVC,,,,600.00,,,,UP BR,,,,,,,,KACT 110040Z AUTO 36011KT 4SM UP BR OVC006 02/00 A3011 RMK P0000 T00200000 CIG 4V9  MADISHF
ACT,2021-02-11 00:45,,,,360.00,11.00,T,30.11,,4.00,,OVC,,,,600.00,,,,UP BR,,,,,,,,KACT 110045Z AUTO 36011KT 4SM UP BR OVC006 02/00 A3011 RMK P0000 T00200000 CIG 4V9  MADISHF
ACT,2021-02-11 00:50,,,,360.00,11.00,T,30.11,,4.00,,OVC,,,,600.00,,,,UP BR,,,,,,,,KACT 110050Z AUTO 36011KT 4SM UP BR OVC006 02/00 A3011 RMK P0000 T00200000 CIG 4V9  MADISHF
ACT,2021-02-11 00:51,35.10,32.00,88.33,360.00,11.00,T,30.11,1019.80,3.00,,OVC,,,,600.00,,,,UP BR,,,,,,,26.38,KACT 110051Z 36011KT 3SM UP BR OVC006 02/00 A3011 RMK AO2 UPB39 CIG 004V009 SLP198 P0000 T00170000
ACT,2021-02-11 00:55,,,,360.00,10.00,T,30.11,,3.00,,OVC,,,,600.00,,,,UP BR,,,,,,,,KACT 110055Z AUTO 36010KT 3SM UP BR OVC006 01/00 A3011 RMK P0000 T00100000 CIG 4V9  MADISHF
ACT,2021-02-11 01:00,,,,360.00,10.00,T,30.11,,3.00,,OVC,,,,600.00,,,,UP BR,,,,,,,,KACT 110100Z AUTO 36010KT 3SM UP BR OVC006 02/00 A3011 RMK P0000 T00200000 CIG 4V7  MADISHF
ACT,2021-02-11 01:05,,,,350.00,10.00,,30.11,,3.00,,OVC,,,,400.00,,,,BR,,,,,,,,KACT 110105Z AUTO 35010KT 3SM BR OVC004 01/00 A3011 RMK T00100000 CIG 3V7  MADISHF
ACT,2021-02-11 01:10,,,,360.00,10.00,,30.11,,3.00,,OVC,,,,600.00,,,,BR,,,,,,,,KACT 110110Z AUTO 36010KT 3SM BR OVC006 01/00 A3011 RMK T00100000 MADISHF
ACT,2021-02-11 01:15,,,,360.00,11.00,,30.12,,3.00,,OVC,,,,600.00,,,,BR,,,,,,,,KACT 110115Z AUTO 36011KT 3SM BR OVC006 01/00 A3012 RMK T00100000 MADISHF
ACT,2021-02-11 01:20,,,,10.00,11.00,,30.12,,4.00,,OVC,,,,600.00,,,,BR,,,,,,,,KACT 110120Z AUTO 01011KT 4SM BR OVC006 01/00 A3012 RMK T00100000 MADISHF
ACT,2021-02-11 01:25,,,,360.00,11.00,,30.12,,4.00,,OVC,,,,600.00,,,,BR,,,,,,,,KACT 110125Z AUTO 36011KT 4SM BR OVC006 01/00 A3012 RMK T00100000 MADISHF
ACT,2021-02-11 01:30,,,,10.00,11.00,,30.12,,5.00,,OVC,,,,600.00,,,,BR,,,,,,,,KACT 110130Z AUTO 01011KT 5SM BR OVC006 01/00 A3012 RMK T00100000 MADISHF
ACT,2021-02-11 01:35,,,,360.00,15.00,,30.12,,7.00,,OVC,,,,600.00,,,,,,,,,,,,KACT 110135Z AUTO 36015KT 7SM OVC006 01/M01 A3012 RMK T00101010 MADISHF
ACT,2021-02-11 01:40,,,,10.00,14.00,,30.13,,7.00,19.00,OVC,,,,600.00,,,,,,,,,,,,KACT 110140Z AUTO 01014G19KT 7SM OVC006 01/M01 A3012 RMK T00101010 MADISHF
ACT,2021-02-11 01:45,,,,10.00,14.00,,30.13,,7.00,,OVC,,,,600.00,,,,,,,,,,,,KACT 110145Z AUTO 01014KT 7SM OVC006 01/M01 A3012 RMK T00101010 MADISHF
ACT,2021-02-11 01:50,,,,10.00,11.00,,30.14,,6.00,,OVC,,,,600.00,,,,BR,,,,,,,,KACT 110150Z AUTO 01011KT 6SM BR OVC006 01/M01 A3013 RMK T00101010 MADISHF
ACT,2021-02-11 01:51,34.00,30.90,88.27,360.00,12.00,T,30.14,1020.70,6.00,,OVC,,,,600.00,,,,BR,,,,,,,24.55,KACT 110151Z 36012KT 6SM BR OVC006 01/M01 A3014 RMK AO2 UPE03RAB03E04 SLP207 P0000 T00111006
ACT,2021-02-11 01:55,,,,10.00,16.00,,30.14,,6.00,,OVC,,,,900.00,,,,BR,,,,,,,,KACT 110155Z AUTO 01016KT 6SM BR OVC009 01/M01 A3013 RMK T00101010 CIG 7V13  MADISHF
ACT,2021-02-11 02:00,,,,10.00,14.00,,30.14,,5.00,,OVC,,,,900.00,,,,BR,,,,,,,,KACT 110200Z AUTO 01014KT 5SM BR OVC009 01/M01 A3013 RMK T00101010 CIG 7V13  MADISHF
ACT,2021-02-11 02:05,,,,360.00,15.00,,30.14,,5.00,,OVC,,,,900.00,,,,BR,,,,,,,,KACT 110205Z AUTO 36015KT 5SM BR OVC009 01/M01 A3013 RMK T00101010 CIG 7V13  MADISHF
ACT,2021-02-11 02:10,,,,360.00,14.00,,30.14,,5.00,,OVC,,,,900.00,,,,BR,,,,,,,,KACT 110210Z AUTO 36014KT 5SM BR OVC009 01/M01 A3013 RMK T00101010 CIG 7V13  MADISHF
ACT,2021-02-11 02:15,,,,360.00,13.00,,30.14,,4.00,18.00,OVC,,,,900.00,,,,BR,,,,,,,,KACT 110215Z AUTO 36013G18KT 4SM BR OVC009 01/M01 A3013 RMK T00101010 CIG 7V13  MADISHF
ACT,2021-02-11 02:20,,,,360.00,14.00,,30.14,,4.00,,OVC,,,,900.00,,,,BR,,,,,,,,KACT 110220Z AUTO 36014KT 4SM BR OVC009 01/M01 A3013 RMK T00101010 CIG 7V13  MADISHF
ACT,2021-02-11 02:25,,,,360.00,10.00,,30.14,,3.50,,OVC,,,,900.00,,,,BR,,,,,,,,KACT 110225Z AUTO 36010KT 3SM BR OVC009 01/M01 A3013 RMK T00101010 CIG 6V13  MADISHF
ACT,2021-02-11 02:30,,,,360.00,13.00,,30.14,,3.50,,OVC,,,,800.00,,,,BR,,,,,,,,KACT 110230Z AUTO 36013KT 3SM BR OVC008 01/M01 A3013 RMK T00101010 MADISHF
ACT,2021-02-11 02:35,,,,360.00,14.00,,30.14,,3.00,,OVC,,,,800.00,,,,BR,,,,,,,,KACT 110235Z AUTO 36014KT 3SM BR OVC008 01/M01 A3013 RMK T00101010 MADISHF
ACT,2021-02-11 02:40,,,,360.00,14.00,,30.15,,3.00,,OVC,,,,800.00,,,,BR,,,,,,,,KACT 110240Z AUTO 36014KT 3SM BR OVC008 01/M01 A3014 RMK T00101010 MADISHF
ACT,2021-02-11 02:45,,,,350.00,14.00,,30.15,,3.00,,OVC,,,,800.00,,,,BR,,,,,,,,KACT 110245Z AUTO 35014KT 3SM BR OVC008 01/M01 A3014 RMK T00101010 MADISHF
ACT,2021-02-11 02:50,,,,350.00,11.00,,30.15,,3.00,17.00,OVC,,,,800.00,,,,BR,,,,,,,,KACT 110250Z AUTO 35011G17KT 3SM BR OVC008 01/M01 A3014 RMK T00101010 CIG 5V10  MADISHF
ACT,2021-02-11 02:51,33.10,30.90,91.51,350.00,13.00,0.00,30.15,1021.20,3.00,,OVC,,,,800.00,,,,BR,,,,,,,22.98,KACT 110251Z 35013KT 3SM BR OVC008 01/M01 A3015 RMK AO2 CIG 005V010 SLP212 60000 T00061006 51018
ACT,2021-02-11 02:55,,,,360.00,13.00,,30.15,,3.00,,OVC,,,,800.00,,,,BR,,,,,,,,KACT 110255Z AUTO 36013KT 3SM BR OVC008 01/M01 A3014 RMK T00101010 MADISHF
ACT,2021-02-11 03:00,,,,360.00,13.00,,30.15,,2.50,,OVC,,,,800.00,,,,BR,,,,,,,,KACT 110300Z AUTO 36013KT 2 1/2SM BR OVC008 01/M01 A3014 RMK T00101010 MADISHF
ACT,2021-02-11 03:05,,,,360.00,13.00,,30.15,,3.00,,OVC,,,,800.00,,,,BR,,,,,,,,KACT 110305Z AUTO 36013KT 3SM BR OVC008 01/M01 A3014 RMK T00101010 MADISHF
ACT,2021-02-11 03:10,,,,360.00,11.00,,30.15,,3.00,,OVC,,,,800.00,,,,BR,,,,,,,,KACT 110310Z AUTO 36011KT 3SM BR OVC008 01/M01 A3014 RMK T00101010 MADISHF
ACT,2021-02-11 03:15,,,,360.00,13.00,,30.15,,3.00,,OVC,,,,800.00,,,,BR,,,,,,,,KACT 110315Z AUTO 36013KT 3SM BR OVC008 01/M01 A3014 RMK T00101010 MADISHF
ACT,2021-02-11 03:20,,,,350.00,11.00,,30.15,,3.00,,OVC,,,,800.00,,,,BR,,,,,,,,KACT 110320Z AUTO 35011KT 3SM BR OVC008 01/M01 A3014 RMK T00101010 MADISHF
ACT,2021-02-11 03:25,,,,350.00,14.00,,30.15,,3.00,,OVC,,,,800.00,,,,BR,,,,,,,,KACT 110325Z AUTO 35014KT 3SM BR OVC008 01/M01 A3014 RMK T00101010 MADISHF
ACT,2021-02-11 03:30,,,,350.00,13.00,,30.15,,3.00,,OVC,,,,800.00,,,,BR,,,,,,,,KACT 110330Z AUTO 35013KT 3SM BR OVC008 01/M01 A3014 RMK T00101010 MADISHF
ACT,2021-02-11 03:35,,,,360.00,14.00,,30.15,,3.00,,OVC,,,,800.00,,,,BR,,,,,,,,KACT 110335Z AUTO 36014KT 3SM BR OVC008 01/M01 A3014 RMK T00101010 MADISHF
ACT,2021-02-11 03:40,,,,350.00,13.00,,30.15,,3.00,,OVC,,,,800.00,,,,BR,,,,,,,,KACT 110340Z AUTO 35013KT 3SM BR OVC008 00/M01 A3014 RMK T00001010 MADISHF
ACT,2021-02-11 03:45,,,,360.00,14.00,,30.15,,3.00,,OVC,,,,800.00,,,,BR,,,,,,,,KACT 110345Z AUTO 36014KT 3SM BR OVC008 01/M01 A3014 RMK T00101010 MADISHF
ACT,2021-02-11 03:50,,,,350.00,13.00,,30.15,,3.00,,OVC,,,,800.00,,,,BR,,,,,,,,KACT 110350Z AUTO 35013KT 3SM BR OVC008 00/M01 A3014 RMK T00001010 MADISHF
ACT,2021-02-11 03:51,32.00,30.00,92.22,360.00,12.00,0.00,30.15,1021.10,3.00,,OVC,,,,800.00,,,,BR,,,,,,,22.00,KACT 110351Z 36012KT 3SM BR OVC008 00/M01 A3015 RMK AO2 SLP211 T00001011
ACT,2021-02-11 03:55,,,,350.00,11.00,,30.15,,3.00,,OVC,,,,600.00,,,,BR,,,,,,,,KACT 110355Z AUTO 35011KT 3SM BR OVC006 00/M01 A3014 RMK T00001010 CIG 4V9  MADISHF
ACT,2021-02-11 03:58,32.00,30.00,92.22,350.00,13.00,0.00,30.15,,3.00,,OVC,,,,600.00,,,,BR,,,,,,,21.57,KACT 110358Z 35013KT 3SM BR OVC006 00/M01 A3015 RMK AO2 CIG 004V009 T00001011
ACT,2021-02-11 04:00,,,,360.00,11.00,,30.15,,2.50,,OVC,,,,600.00,,,,BR,,,,,,,,KACT 110400Z AUTO 36011KT 2 1/2SM BR OVC006 00/M01 A3014 RMK T00001010 CIG 4V9  MADISHF
ACT,2021-02-11 04:05,,,,350.00,13.00,,30.16,,2.50,,OVC,,,,600.00,,,,BR,,,,,,,,KACT 110405Z AUTO 35013KT 2 1/2SM BR OVC006 00/M01 A3015 RMK T00001010 MADISHF
ACT,2021-02-11 04:06,32.00,30.00,92.22,350.00,13.00,0.00,30.16,,2.50,,OVC,,,,600.00,,,,BR,,,,,,,21.57,KACT 110406Z 35013KT 2 1/2SM BR OVC006 00/M01 A3016 RMK AO2 T00001011
ACT,2021-02-11 04:10,,,,350.00,11.00,,30.16,,2.50,,OVC,,,,600.00,,,,BR,,,,,,,,KACT 110410Z AUTO 35011KT 2 1/2SM BR OVC006 00/M01 A3015 RMK T00001010 MADISHF
ACT,2021-02-11 04:15,,,,350.00,10.00,,30.16,,2.50,,OVC,,,,499.00,,,,BR,,,,,,,,KACT 110415Z AUTO 35010KT 2 1/2SM BR OVC004 00/M01 A3015 RMK T00001010 MADISHF
ACT,2021-02-11 04:20,,,,350.00,14.00,,30.16,,2.50,,OVC,,,,499.00,,,,BR,,,,,,,,KACT 110420Z AUTO 35014KT 2 1/2SM BR OVC004 00/M01 A3015 RMK T00001010 MADISHF
ACT,2021-02-11 04:25,,,,350.00,11.00,,30.16,,2.50,,OVC,,,,499.00,,,,BR,,,,,,,,KACT 110425Z AUTO 35011KT 2 1/2SM BR OVC004 00/M01 A3015 RMK T00001010 MADISHF
ACT,2021-02-11 04:30,,,,350.00,11.00,,30.16,,2.50,17.00,OVC,,,,499.00,,,,BR,,,,,,,,KACT 110430Z AUTO 35011G17KT 2 1/2SM BR OVC004 00/M01 A3015 RMK T00001010 MADISHF
ACT,2021-02-11 04:35,,,,350.00,13.00,,30.17,,3.00,,OVC,,,,499.00,,,,BR,,,,,,,,KACT 110435Z AUTO 35013KT 3SM BR OVC004 00/M01 A3017 RMK T00001010 MADISHF
ACT,2021-02-11 04:39,32.00,28.90,88.17,350.00,16.00,0.00,30.16,,3.00,,OVC,,,,500.00,,,,BR,,,,,,,20.42,KACT 110439Z 35016KT 3SM BR OVC005 00/M02 A3016 RMK AO2 T00001017
ACT,2021-02-11 04:40,,,,350.00,14.00,,30.16,,3.50,,OVC,,,,499.00,,,,BR,,,,,,,,KACT 110440Z AUTO 35014KT 3SM BR OVC004 00/M02 A3015 RMK T00001020 MADISHF
ACT,2021-02-11 04:45,,,,360.00,13.00,,30.16,,4.00,,BKN,OVC,,,499.00,900.00,,,BR,,,,,,,,KACT 110445Z AUTO 36013KT 4SM BR BKN004 OVC009 00/M02 A3015 RMK T00001020 CIG 4V8  MADISHF
ACT,2021-02-11 04:50,,,,350.00,10.00,,30.17,,3.00,,OVC,,,,700.00,,,,BR,,,,,,,,KACT 110450Z AUTO 35010KT 3SM BR OVC007 00/M02 A3017 RMK T00001020 CIG 4V10  MADISHF
ACT,2021-02-11 04:51,32.00,30.00,92.22,350.00,10.00,0.00,30.17,1021.80,3.00,,OVC,,,,700.00,,,,BR,,,,,,,22.97,KACT 110451Z 35010KT 3SM BR OVC007 00/M01 A3017 RMK AO2 CIG 005V010 SLP218 T00001011
ACT,2021-02-11 04:55,,,,360.00,11.00,,30.17,,2.50,,OVC,,,,700.00,,,,BR,,,,,,,,KACT 110455Z AUTO 36011KT 2 1/2SM BR OVC007 00/M02 A3017 RMK T00001020 CIG 5V10  MADISHF
ACT,2021-02-11 05:00,,,,350.00,11.00,T,30.17,,2.50,,OVC,,,,700.00,,,,UP BR,,,,,,,,KACT 110500Z AUTO 35011KT 2 1/2SM UP BR OVC007 00/M01 A3017 RMK P0000 T00001010 CIG 5V10  MADISHF
ACT,2021-02-11 05:05,,,,340.00,11.00,T,30.16,,2.00,,OVC,,,,700.00,,,,UP BR,,,,,,,,KACT 110505Z AUTO 34011KT 2SM UP BR OVC007 00/M01 A3015 RMK P0000 T00001010 CIG 4V10  MADISHF
ACT,2021-02-11 05:10,,,,360.00,13.00,T,30.16,,2.00,,BKN,OVC,,,499.00,900.00,,,UP BR,,,,,,,,KACT 110510Z AUTO 36013KT 2SM UP BR BKN004 OVC009 00/M02 A3015 RMK P0000 T00001020 CIG 4V7  MADISHF
ACT,2021-02-11 05:15,,,,350.00,10.00,T,30.16,,2.00,,OVC,,,,499.00,,,,UP BR,,,,,,,,KACT 110515Z AUTO 35010KT 2SM UP BR OVC004 00/M02 A3015 RMK P0000 T00001020 CIG 4V10  MADISHF
ACT,2021-02-11 05:20,,,,340.00,11.00,T,30.17,,2.00,,OVC,,,,499.00,,,,UP BR,,,,,,,,KACT 110520Z AUTO 34011KT 2SM UP BR OVC004 00/M01 A3017 RMK P0000 T00001010 CIG 4V10  MADISHF
ACT,2021-02-11 05:25,,,,350.00,11.00,T,30.17,,2.00,,OVC,,,,499.00,,,,UP BR,,,,,,,,KACT 110525Z AUTO 35011KT 2SM UP BR OVC004 00/M01 A3017 RMK P0000 T00001010 CIG 4V10  MADISHF
ACT,2021-02-11 05:30,,,,350.00,11.00,T,30.17,,2.00,,OVC,,,,499.00,,,,UP BR,,,,,,,,KACT 110530Z AUTO 35011KT 2SM UP BR OVC004 00/M01 A3017 RMK P0000 T00001010 CIG 4V8  MADISHF
ACT,2021-02-11 05:35,,,,350.00,11.00,,30.17,,2.50,,OVC,,,,499.00,,,,BR,,,,,,,,KACT 110535Z AUTO 35011KT 2 1/2SM BR OVC004 00/M02 A3017 RMK T00001020 CIG 4V9  MADISHF
ACT,2021-02-11 05:40,,,,360.00,11.00,,30.17,,2.50,,OVC,,,,499.00,,,,-FZRA BR,,,,,,,,KACT 110540Z AUTO 36011KT 2 1/2SM -FZRA BR OVC004 00/M02 A3017 RMK T00001020 CIG 4V9  MADISHF
ACT,2021-02-11 05:45,,,,350.00,8.00,,30.17,,2.50,,BKN,OVC,,,600.00,900.00,,,-FZRA BR,,,,,,,,KACT 110545Z AUTO 35008KT 2 1/2SM -FZRA BR BKN006 OVC009 M01/M02 A3017 RMK T10101020 CIG 4V7  MADISHF
ACT,2021-02-11 05:46,30.20,28.40,92.92,350.00,8.00,T,30.17,,2.50,,BKN,OVC,,,600.00,900.00,,,-FZRA BR,0.01,,,,,,21.90,KACT 110546Z 35008KT 2 1/2SM -FZRA BR BKN006 OVC009 M01/M02 A3017 RMK AO2 UPB0458E33FZRAB40 CIG 004V007 P0000 I1001
ACT,2021-02-11 05:50,,,,350.00,11.00,,30.16,,2.50,,BKN,OVC,,,600.00,900.00,,,-FZRA BR,,,,,,,,KACT 110550Z AUTO 35011KT 2 1/2SM -FZRA BR BKN006 OVC009 M01/M02 A3015 RMK T10101020 MADISHF
ACT,2021-02-11 05:51,30.90,28.90,92.18,350.00,12.00,T,30.16,1021.60,2.50,,BKN,OVC,,,600.00,900.00,,,-FZRA BR,0.01,,0.01,,,,20.60,KACT 110551Z AUTO 35012KT 2 1/2SM -FZRA BR BKN006 OVC009 M01/M02 A3016 RMK AO2 UPB0458E33FZRAB40 SLP216 P0000 60000 I1001 I6001 T10061017 10017 21006 400281006 50004
ACT,2021-02-11 05:55,,,,360.00,13.00,,30.16,,2.50,,BKN,OVC,,,600.00,999.00,,,BR,,,,,,,,KACT 110555Z AUTO 36013KT 2 1/2SM BR BKN006 OVC009 M01/M02 A3015 RMK T10101020 MADISHF
ACT,2021-02-11 05:58,30.90,28.90,92.18,360.00,13.00,T,30.16,,2.50,,BKN,OVC,,,600.00,1000.00,,,BR,T,,,,,,20.16,KACT 110558Z AUTO 36013KT 2 1/2SM BR BKN006 OVC010 M01/M02 A3016 RMK AO2 FZRAE52 CIG 004V007 P0000 I1000 T10061017
ACT,2021-02-11 06:00,,,,350.00,11.00,,30.16,,2.50,,BKN,OVC,,,600.00,999.00,,,BR,,,,,,,,KACT 110600Z AUTO 35011KT 2 1/2SM BR BKN006 OVC009 M01/M02 A3015 RMK T10101020 CIG 4V9  MADISHF
ACT,2021-02-11 06:05,,,,360.00,11.00,0.01,30.16,,2.50,,BKN,OVC,,,499.00,999.00,,,-FZRA BR,,,,,,,,KACT 110605Z AUTO 36011KT 2 1/2SM -FZRA BR BKN004 OVC009 M01/M02 A3015 RMK P0000 T10101020 CIG 4V7  MADISHF
ACT,2021-02-11 06:10,,,,350.00,11.00,0.01,30.15,,2.50,,BKN,OVC,,,499.00,999.00,,,UP BR,,,,,,,,KACT 110610Z AUTO 35011KT 2 1/2SM UP BR BKN004 OVC009 M01/M02 A3014 RMK P0000 T10101020 CIG 4V7  MADISHF
ACT,2021-02-11 06:15,,,,350.00,10.00,0.01,30.16,,2.00,15.00,BKN,OVC,,,499.00,999.00,,,BR,,,,,,,,KACT 110615Z AUTO 35010G15KT 2SM BR BKN004 OVC009 M01/M02 A3015 RMK P0000 T10101020 MADISHF
ACT,2021-02-11 06:20,,,,340.00,13.00,0.01,30.16,,2.00,,BKN,OVC,,,400.00,999.00,,,BR,,,,,,,,KACT 110620Z AUTO 34013KT 2SM BR BKN004 OVC009 M01/M02 A3015 RMK P0000 T10101020 MADISHF
ACT,2021-02-11 06:24,30.90,28.90,92.18,340.00,14.00,0.01,30.16,,2.50,,OVC,,,,400.00,,,,BR,T,,,,,,19.74,KACT 110624Z AUTO 34014KT 2 1/2SM BR OVC004 M01/M02 A3016 RMK AO2 UPB06E15FZRAE06 P0001 I1000 T10061017
ACT,2021-02-11 06:25,,,,340.00,14.00,0.01,30.16,,2.50,,OVC,,,,400.00,,,,BR,,,,,,,,KACT 110625Z AUTO 34014KT 2 1/2SM BR OVC004 M01/M02 A3015 RMK P0000 T10101020 MADISHF
ACT,2021-02-11 06:30,,,,340.00,13.00,0.01,30.15,,2.50,,OVC,,,,400.00,,,,BR,,,,,,,,KACT 110630Z AUTO 34013KT 2 1/2SM BR OVC004 M01/M02 A3014 RMK P0000 T10101020 MADISHF
ACT,2021-02-11 06:35,,,,340.00,13.00,0.01,30.15,,2.50,,OVC,,,,499.00,,,,BR,,,,,,,,KACT 110635Z AUTO 34013KT 2 1/2SM BR OVC004 M01/M02 A3014 RMK P0000 T10101020 MADISHF
ACT,2021-02-11 06:37,30.90,28.90,92.18,340.00,12.00,0.01,30.16,,3.00,,OVC,,,,500.00,,,,BR,T,,,,,,20.60,KACT 110637Z AUTO 34012KT 3SM BR OVC005 M01/M02 A3016 RMK AO2 UPB06E15FZRAE06 CIG 004V008 P0001 I1000 T10061017
ACT,2021-02-11 06:40,,,,350.00,11.00,0.01,30.16,,3.00,,OVC,,,,499.00,,,,BR,,,,,,,,KACT 110640Z AUTO 35011KT 3SM BR OVC004 M01/M02 A3015 RMK P0000 T10101020 MADISHF
ACT,2021-02-11 06:45,,,,340.00,11.00,0.01,30.16,,3.00,17.00,OVC,,,,499.00,,,,BR,,,,,,,,KACT 110645Z AUTO 34011G17KT 3SM BR OVC004 M01/M02 A3015 RMK P0000 T10101020 CIG 4V8  MADISHF
ACT,2021-02-11 06:50,,,,350.00,13.00,0.01,30.16,,3.00,,OVC,,,,499.00,,,,BR,,,,,,,,KACT 110650Z AUTO 35013KT 3SM BR OVC004 M01/M02 A3015 RMK P0000 T10101020 CIG 4V9  MADISHF
ACT,2021-02-11 06:51,30.90,28.90,92.18,350.00,13.00,0.01,30.16,1021.40,3.00,,OVC,,,,500.00,,,,BR,T,,,,,,20.16,KACT 110651Z AUTO 35013KT 3SM BR OVC005 M01/M02 A3016 RMK AO2 UPB06E15FZRAE06 CIG 004V009 SLP214 P0001 I1000 T10061017
ACT,2021-02-11 06:55,,,,350.00,11.00,,30.16,,3.50,,OVC,,,,600.00,,,,BR,,,,,,,,KACT 110655Z AUTO 35011KT 3SM BR OVC006 M01/M02 A3015 RMK T10101020 CIG 4V9  MADISHF
ACT,2021-02-11 07:00,,,,330.00,11.00,,30.16,,3.00,,OVC,,,,600.00,,,,BR,,,,,,,,KACT 110700Z AUTO 33011KT 3SM BR OVC006 M01/M02 A3015 RMK T10101020 CIG 4V9  MADISHF
ACT,2021-02-11 07:05,,,,340.00,14.00,,30.15,,2.50,,OVC,,,,600.00,,,,BR,,,,,,,,KACT 110705Z AUTO 34014KT 2 1/2SM BR OVC006 M01/M02 A3014 RMK T10101020 CIG 4V9  MADISHF
ACT,2021-02-11 07:10,,,,340.00,14.00,,30.16,,2.50,,OVC,,,,499.00,,,,BR,,,,,,,,KACT 110710Z AUTO 34014KT 2 1/2SM BR OVC004 M01/M02 A3015 RMK T10101020 CIG 4V9  MADISHF
ACT,2021-02-11 07:15,,,,350.00,14.00,,30.15,,2.50,,OVC,,,,499.00,,,,BR,,,,,,,,KACT 110715Z AUTO 35014KT 2 1/2SM BR OVC004 M01/M02 A3014 RMK T10101020 CIG 4V9  MADISHF
ACT,2021-02-11 07:20,,,,350.00,11.00,,30.15,,2.50,,OVC,,,,499.00,,,,BR,,,,,,,,KACT 110720Z AUTO 35011KT 2 1/2SM BR OVC004 M01/M02 A3014 RMK T10101020 CIG 4V9  MADISHF
ACT,2021-02-11 07:25,,,,350.00,15.00,,30.15,,2.50,,OVC,,,,499.00,,,,BR,,,,,,,,KACT 110725Z AUTO 35015KT 2 1/2SM BR OVC004 M01/M02 A3014 RMK T10101020 CIG 4V9  MADISHF
ACT,2021-02-11 07:30,,,,350.00,14.00,,30.16,,2.50,,OVC,,,,499.00,,,,BR,,,,,,,,KACT 110730Z AUTO 35014KT 2 1/2SM BR OVC004 M01/M02 A3015 RMK T10101020 CIG 4V8  MADISHF
ACT,2021-02-11 07:35,,,,350.00,13.00,,30.16,,2.50,,OVC,,,,499.00,,,,BR,,,,,,,,KACT 110735Z AUTO 35013KT 2 1/2SM BR OVC004 M01/M02 A3015 RMK T10101020 CIG 5V9  MADISHF
ACT,2021-02-11 07:40,,,,350.00,11.00,,30.16,,2.50,,OVC,,,,600.00,,,,BR,,,,,,,,KACT 110740Z AUTO 35011KT 2 1/2SM BR OVC006 M01/M02 A3015 RMK T10101020 CIG 5V9  MADISHF
ACT,2021-02-11 07:45,,,,350.00,10.00,,30.16,,2.50,,OVC,,,,600.00,,,,BR,,,,,,,,KACT 110745Z AUTO 35010KT 2 1/2SM BR OVC006 M01/M02 A3015 RMK T10101020 MADISHF
ACT,2021-02-11 07:50,,,,350.00,13.00,,30.16,,2.50,,OVC,,,,600.00,,,,BR,,,,,,,,KACT 110750Z AUTO 35013KT 2 1/2SM BR OVC006 M01/M02 A3015 RMK T10101020 CIG 4V9  MADISHF
ACT,2021-02-11 07:51,30.90,28.00,88.84,350.00,15.00,0.00,30.15,1021.30,2.50,21.00,OVC,,,,600.00,,,,BR,0.01,,,,,,19.35,KACT 110751Z AUTO 35015G21KT 2 1/2SM BR OVC006 M01/M02 A3015 RMK AO2 SLP213 I1001 T10061022
ACT,2021-02-11 07:55,,,,350.00,14.00,,30.15,,2.50,,OVC,,,,600.00,,,,BR,,,,,,,,KACT 110755Z AUTO 35014KT 2 1/2SM BR OVC006 M01/M02 A3014 RMK T10101020 MADISHF
ACT,2021-02-11 08:00,,,,340.00,15.00,,30.16,,2.50,,OVC,,,,600.00,,,,BR,,,,,,,,KACT 110800Z AUTO 34015KT 2 1/2SM BR OVC006 M01/M02 A3015 RMK T10101020 MADISHF
ACT,2021-02-11 08:05,,,,350.00,15.00,,30.15,,2.50,,OVC,,,,600.00,,,,BR,,,,,,,,KACT 110805Z AUTO 35015KT 2 1/2SM BR OVC006 M01/M02 A3014 RMK T10101020 MADISHF
ACT,2021-02-11 08:10,,,,340.00,14.00,,30.15,,2.50,,OVC,,,,600.00,,,,BR,,,,,,,,KACT 110810Z AUTO 34014KT 2 1/2SM BR OVC006 M01/M02 A3014 RMK T10101020 MADISHF
ACT,2021-02-11 08:15,,,,350.00,17.00,,30.15,,2.50,,OVC,,,,600.00,,,,BR,,,,,,,,KACT 110815Z AUTO 35017KT 2 1/2SM BR OVC006 M01/M02 A3014 RMK T10101020 MADISHF
ACT,2021-02-11 08:20,,,,350.00,15.00,,30.15,,3.00,,OVC,,,,600.00,,,,BR,,,,,,,,KACT 110820Z AUTO 35015KT 3SM BR OVC006 M01/M03 A3014 RMK T10101030 MADISHF
ACT,2021-02-11 08:23,30.00,27.00,88.44,350.00,15.00,0.00,30.15,,3.00,,OVC,,,,600.00,,,,BR,,,,,,,18.19,KACT 110823Z AUTO 35015KT 3SM BR OVC006 M01/M03 A3015 RMK AO2 T10111028
ACT,2021-02-11 08:25,,,,350.00,15.00,,30.15,,3.00,,OVC,,,,600.00,,,,BR,,,,,,,,KACT 110825Z AUTO 35015KT 3SM BR OVC006 M01/M03 A3014 RMK T10101030 MADISHF
ACT,2021-02-11 08:30,,,,350.00,17.00,,30.14,,3.00,,OVC,,,,700.00,,,,BR,,,,,,,,KACT 110830Z AUTO 35017KT 3SM BR OVC007 M01/M03 A3013 RMK T10101030 MADISHF
ACT,2021-02-11 08:35,,,,350.00,14.00,,30.14,,3.00,,OVC,,,,700.00,,,,BR,,,,,,,,KACT 110835Z AUTO 35014KT 3SM BR OVC007 M01/M03 A3013 RMK T10101030 CIG 5V9  MADISHF
ACT,2021-02-11 08:40,,,,360.00,15.00,,30.14,,2.50,,OVC,,,,700.00,,,,BR,,,,,,,,KACT 110840Z AUTO 36015KT 2 1/2SM BR OVC007 M01/M03 A3013 RMK T10101030 CIG 5V10  MADISHF
ACT,2021-02-11 08:45,,,,350.00,14.00,,30.14,,2.50,19.00,OVC,,,,700.00,,,,BR,,,,,,,,KACT 110845Z AUTO 35014G19KT 2 1/2SM BR OVC007 M01/M03 A3013 RMK T10101030 CIG 5V10  MADISHF
ACT,2021-02-11 08:46,30.20,26.60,86.28,360.00,15.00,0.00,30.14,,2.50,,OVC,,,,700.00,,,,BR,,,,,,,18.45,KACT 110846Z AUTO 36015KT 2 1/2SM BR OVC007 M01/M03 A3014 RMK AO2 CIG 005V010
ACT,2021-02-11 08:50,,,,350.00,14.00,,30.15,,2.50,19.00,OVC,,,,700.00,,,,BR,,,,,,,,KACT 110850Z AUTO 35014G19KT 2 1/2SM BR OVC007 M01/M03 A3014 RMK T10101030 CIG 5V10  MADISHF
ACT,2021-02-11 08:51,30.00,27.00,88.44,350.00,15.00,0.00,30.15,1021.00,2.50,,OVC,,,,700.00,,,,BR,,0.01,,,,,18.19,KACT 110851Z AUTO 35015KT 2 1/2SM BR OVC007 M01/M03 A3015 RMK AO2 CIG 005V010 SLP210 60001 I3001 T10111028 55004
ACT,2021-02-11 08:55,,,,360.00,11.00,,30.14,,3.00,,OVC,,,,700.00,,,,BR,,,,,,,,KACT 110855Z AUTO 36011KT 3SM BR OVC007 M01/M03 A3013 RMK T10101030 CIG 5V10  MADISHF
ACT,2021-02-11 08:58,30.00,27.00,88.44,360.00,14.00,0.00,30.14,,3.00,21.00,OVC,,,,700.00,,,,BR,,,,,,,18.58,KACT 110858Z AUTO 36014G21KT 3SM BR OVC007 M01/M03 A3014 RMK AO2 CIG 005V010 T10111028
ACT,2021-02-11 09:00,,,,360.00,14.00,,30.14,,3.00,,OVC,,,,700.00,,,,BR,,,,,,,,KACT 110900Z AUTO 36014KT 3SM BR OVC007 M01/M03 A3013 RMK T10101030 CIG 5V10  MADISHF
ACT,2021-02-11 09:05,,,,360.00,13.00,,30.15,,3.00,,OVC,,,,700.00,,,,BR,,,,,,,,KACT 110905Z AUTO 36013KT 3SM BR OVC007 M01/M03 A3014 RMK T10101030 CIG 5V10  MADISHF
ACT,2021-02-11 09:10,,,,360.00,13.00,,30.15,,3.00,,OVC,,,,700.00,,,,BR,,,,,,,,KACT 110910Z AUTO 36013KT 3SM BR OVC007 M01/M03 A3014 RMK T10101030 CIG 5V10  MADISHF
ACT,2021-02-11 09:15,,,,360.00,13.00,,30.15,,3.00,,OVC,,,,700.00,,,,BR,,,,,,,,KACT 110915Z AUTO 36013KT 3SM BR OVC007 M01/M03 A3014 RMK T10101030 MADISHF
ACT,2021-02-11 09:20,,,,360.00,13.00,,30.14,,3.00,,OVC,,,,700.00,,,,BR,,,,,,,,KACT 110920Z AUTO 36013KT 3SM BR OVC007 M01/M03 A3013 RMK T10101030 MADISHF
ACT,2021-02-11 09:25,,,,350.00,14.00,,30.14,,3.50,,OVC,,,,700.00,,,,BR,,,,,,,,KACT 110925Z AUTO 35014KT 3SM BR OVC007 M01/M03 A3013 RMK T10101030 CIG 6V10  MADISHF
ACT,2021-02-11 09:30,,,,350.00,14.00,,30.14,,4.00,19.00,OVC,,,,700.00,,,,BR,,,,,,,,KACT 110930Z AUTO 35014G19KT 4SM BR OVC007 M01/M03 A3013 RMK T10101030 CIG 6V11  MADISHF
ACT,2021-02-11 09:35,,,,350.00,15.00,,30.14,,4.00,,OVC,,,,700.00,,,,BR,,,,,,,,KACT 110935Z AUTO 35015KT 4SM BR OVC007 M01/M03 A3013 RMK T10101030 CIG 6V11  MADISHF
ACT,2021-02-11 09:40,,,,360.00,17.00,,30.14,,4.00,,OVC,,,,700.00,,,,BR,,,,,,,,KACT 110940Z AUTO 36017KT 4SM BR OVC007 M01/M03 A3013 RMK T10101030 CIG 6V11  MADISHF
ACT,2021-02-11 09:45,,,,350.00,14.00,,30.15,,4.00,,OVC,,,,700.00,,,,BR,,,,,,,,KACT 110945Z AUTO 35014KT 4SM BR OVC007 M01/M03 A3014 RMK T10101030 CIG 6V11  MADISHF
ACT,2021-02-11 09:50,,,,350.00,11.00,,30.16,,3.50,,OVC,,,,700.00,,,,BR,,,,,,,,KACT 110950Z AUTO 35011KT 3SM BR OVC007 M01/M03 A3015 RMK T10101030 CIG 5V11  MADISHF
ACT,2021-02-11 09:51,30.00,27.00,88.44,350.00,12.00,0.00,30.16,1021.40,3.00,,OVC,,,,700.00,,,,BR,,,,,,,19.46,KACT 110951Z AUTO 35012KT 3SM BR OVC007 M01/M03 A3016 RMK AO2 CIG 005V011 SLP214 T10111028
ACT,2021-02-11 09:55,,,,350.00,11.00,,30.16,,3.00,,BKN,OVC,,,499.00,900.00,,,BR,,,,,,,,KACT 110955Z AUTO 35011KT 3SM BR BKN004 OVC009 M01/M03 A3015 RMK T10101030 CIG 4V8  MADISHF
ACT,2021-02-11 10:00,,,,340.00,11.00,,30.16,,2.50,18.00,BKN,OVC,,,499.00,900.00,,,BR,,,,,,,,KACT 111000Z AUTO 34011G18KT 2 1/2SM BR BKN004 OVC009 M01/M03 A3015 RMK T10101030 MADISHF
ACT,2021-02-11 10:05,,,,340.00,11.00,,30.16,,3.00,,OVC,,,,499.00,,,,BR,,,,,,,,KACT 111005Z AUTO 34011KT 3SM BR OVC004 M01/M03 A3015 RMK T10101030 CIG 4V10  MADISHF
ACT,2021-02-11 10:10,,,,350.00,13.00,,30.17,,3.00,,OVC,,,,499.00,,,,BR,,,,,,,,KACT 111010Z AUTO 35013KT 3SM BR OVC004 M01/M03 A3017 RMK T10101030 MADISHF
ACT,2021-02-11 10:15,,,,350.00,16.00,,30.16,,3.00,,OVC,,,,499.00,,,,BR,,,,,,,,KACT 111015Z AUTO 35016KT 3SM BR OVC004 M01/M03 A3015 RMK T10101030 MADISHF
ACT,2021-02-11 10:20,,,,350.00,15.00,,30.16,,3.50,,OVC,,,,499.00,,,,BR,,,,,,,,KACT 111020Z AUTO 35015KT 3SM BR OVC004 M01/M03 A3015 RMK T10101030 CIG 4V8  MADISHF
ACT,2021-02-11 10:25,,,,350.00,16.00,,30.15,,4.00,,OVC,,,,700.00,,,,BR,,,,,,,,KACT 111025Z AUTO 35016KT 4SM BR OVC007 M01/M03 A3014 RMK T10101030 CIG 4V9  MADISHF
ACT,2021-02-11 10:30,,,,350.00,16.00,,30.15,,4.00,22.00,OVC,,,,700.00,,,,BR,,,,,,,,KACT 111030Z AUTO 35016G22KT 4SM BR OVC007 M02/M03 A3014 RMK T10201030 CIG 5V9  MADISHF
ACT,2021-02-11 10:35,,,,350.00,16.00,,30.15,,3.50,,OVC,,,,700.00,,,,BR,,,,,,,,KACT 111035Z AUTO 35016KT 3SM BR OVC007 M02/M03 A3014 RMK T10201030 CIG 5V9  MADISHF
ACT,2021-02-11 10:40,,,,350.00,17.00,,30.15,,3.50,22.00,OVC,,,,700.00,,,,BR,,,,,,,,KACT 111040Z AUTO 35017G22KT 3SM BR OVC007 M02/M03 A3014 RMK T10201030 CIG 5V10  MADISHF
ACT,2021-02-11 10:45,,,,350.00,15.00,,30.15,,3.50,21.00,OVC,,,,700.00,,,,BR,,,,,,,,KACT 111045Z AUTO 35015G21KT 3SM BR OVC007 M02/M03 A3014 RMK T10201030 MADISHF
ACT,2021-02-11 10:50,,,,360.00,17.00,,30.15,,3.00,22.00,OVC,,,,700.00,,,,BR,,,,,,,,KACT 111050Z AUTO 36017G22KT 3SM BR OVC007 M02/M03 A3014 RMK T10201030 MADISHF
ACT,2021-02-11 10:51,28.90,26.10,89.12,360.00,17.00,0.00,30.15,1021.20,3.00,24.00,OVC,,,,700.00,,,,BR,T,,,,,,16.01,KACT 111051Z AUTO 36017G24KT 3SM BR OVC007 M02/M03 A3015 RMK AO2 SLP212 I1000 T10171033
ACT,2021-02-11 10:55,,,,360.00,15.00,,30.15,,3.00,,OVC,,,,700.00,,,,-FZRA BR,,,,,,,,KACT 111055Z AUTO 36015KT 3SM -FZRA BR OVC007 M02/M03 A3014 RMK T10201030 MADISHF
ACT,2021-02-11 10:59,28.90,26.10,89.12,350.00,17.00,T,30.15,,2.50,23.00,OVC,,,,700.00,,,,-FZRA BR,T,,,,,,16.01,KACT 111059Z AUTO 35017G23KT 2 1/2SM -FZRA BR OVC007 M02/M03 A3015 RMK AO2 FZRAB54 P0000 I1000 T10171033
ACT,2021-02-11 11:00,,,,360.00,18.00,,30.15,,2.50,,OVC,,,,700.00,,,,-FZRA BR,,,,,,,,KACT 111100Z AUTO 36018KT 2 1/2SM -FZRA BR OVC007 M02/M03 A3014 RMK T10201030 MADISHF
ACT,2021-02-11 11:05,,,,360.00,17.00,,30.15,,3.00,,OVC,,,,700.00,,,,BR,,,,,,,,KACT 111105Z AUTO 36017KT 3SM BR OVC007 M02/M03 A3014 RMK T10201030 MADISHF
ACT,2021-02-11 11:10,,,,360.00,17.00,,30.14,,3.00,,OVC,,,,700.00,,,,BR,,,,,,,,KACT 111110Z AUTO 36017KT 3SM BR OVC007 M02/M03 A3013 RMK T10201030 MADISHF
ACT,2021-02-11 11:15,,,,350.00,15.00,,30.15,,3.50,,OVC,,,,700.00,,,,BR,,,,,,,,KACT 111115Z AUTO 35015KT 3SM BR OVC007 M02/M03 A3014 RMK T10201030 CIG 7V11  MADISHF
ACT,2021-02-11 11:20,,,,360.00,16.00,,30.16,,4.00,21.00,OVC,,,,700.00,,,,BR,,,,,,,,KACT 111120Z AUTO 36016G21KT 4SM BR OVC007 M02/M03 A3015 RMK T10201030 CIG 6V11  MADISHF
ACT,2021-02-11 11:25,,,,350.00,16.00,,30.16,,3.50,,OVC,,,,700.00,,,,BR,,,,,,,,KACT 111125Z AUTO 35016KT 3SM BR OVC007 M02/M03 A3015 RMK T10201030 CIG 6V11  MADISHF
ACT,2021-02-11 11:30,,,,360.00,15.00,,30.17,,3.00,,OVC,,,,700.00,,,,BR,,,,,,,,KACT 111130Z AUTO 36015KT 3SM BR OVC007 M02/M03 A3017 RMK T10201030 CIG 5V9  MADISHF
ACT,2021-02-11 11:35,,,,350.00,14.00,,30.17,,3.00,,OVC,,,,700.00,,,,BR,,,,,,,,KACT 111135Z AUTO 35014KT 3SM BR OVC007 M02/M03 A3017 RMK T10201030 CIG 5V11  MADISHF
ACT,2021-02-11 11:40,,,,360.00,13.00,,30.17,,3.50,,OVC,,,,700.00,,,,BR,,,,,,,,KACT 111140Z AUTO 36013KT 3SM BR OVC007 M02/M03 A3017 RMK T10201030 CIG 5V11  MADISHF
ACT,2021-02-11 11:45,,,,350.00,15.00,,30.17,,4.00,,OVC,,,,700.00,,,,BR,,,,,,,,KACT 111145Z AUTO 35015KT 4SM BR OVC007 M02/M03 A3017 RMK T10201030 MADISHF
ACT,2021-02-11 11:50,,,,350.00,18.00,,30.17,,4.00,22.00,OVC,,,,600.00,,,,BR,,,,,,,,KACT 111150Z AUTO 35018G22KT 4SM BR OVC006 M02/M03 A3017 RMK T10201030 MADISHF
ACT,2021-02-11 11:51,28.90,26.10,89.12,350.00,18.00,T,30.17,1021.90,4.00,23.00,OVC,,,,600.00,,,,BR,0.01,,0.02,,,,15.67,KACT 111151Z AUTO 35018G23KT 4SM BR OVC006 M02/M03 A3017 RMK AO2 FZRAB1054E04 SLP219 P0000 60001 70003 I1001 I6002 T10171033 11006 21017 53008
ACT,2021-02-11 11:55,,,,350.00,15.00,,30.17,,4.00,,OVC,,,,600.00,,,,BR,,,,,,,,KACT 111155Z AUTO 35015KT 4SM BR OVC006 M02/M03 A3017 RMK T10201030 MADISHF
ACT,2021-02-11 12:00,,,,350.00,13.00,,30.17,,4.00,,OVC,,,,600.00,,,,BR,,,,,,,,KACT 111200Z AUTO 35013KT 4SM BR OVC006 M02/M03 A3017 RMK T10201030 MADISHF
ACT,2021-02-11 12:05,,,,350.00,14.00,,30.17,,4.00,,OVC,,,,700.00,,,,BR,,,,,,,,KACT 111205Z AUTO 35014KT 4SM BR OVC007 M02/M03 A3017 RMK T10201030 MADISHF
ACT,2021-02-11 12:10,,,,350.00,13.00,,30.17,,4.00,,OVC,,,,700.00,,,,BR,,,,,,,,KACT 111210Z AUTO 35013KT 4SM BR OVC007 M02/M03 A3017 RMK T10201030 MADISHF
ACT,2021-02-11 12:15,,,,350.00,17.00,,30.16,,4.00,,OVC,,,,600.00,,,,BR,,,,,,,,KACT 111215Z AUTO 35017KT 4SM BR OVC006 M02/M03 A3015 RMK T10201030 MADISHF
ACT,2021-02-11 12:20,,,,350.00,17.00,,30.16,,4.00,,OVC,,,,600.00,,,,BR,,,,,,,,KACT 111220Z AUTO 35017KT 4SM BR OVC006 M02/M03 A3015 RMK T10201030 MADISHF
ACT,2021-02-11 12:25,,,,350.00,14.00,,30.16,,4.00,19.00,OVC,,,,600.00,,,,BR,,,,,,,,KACT 111225Z AUTO 35014G19KT 4SM BR OVC006 M02/M04 A3015 RMK T10201040 MADISHF
ACT,2021-02-11 12:30,,,,350.00,16.00,,30.16,,4.00,21.00,OVC,,,,600.00,,,,BR,,,,,,,,KACT 111230Z AUTO 35016G21KT 4SM BR OVC006 M02/M03 A3015 RMK T10201030 MADISHF
ACT,2021-02-11 12:35,,,,350.00,15.00,,30.16,,4.00,,OVC,,,,600.00,,,,BR,,,,,,,,KACT 111235Z AUTO 35015KT 4SM BR OVC006 M02/M04 A3015 RMK T10201040 MADISHF
ACT,2021-02-11 12:40,,,,350.00,18.00,,30.16,,5.00,,OVC,,,,700.00,,,,BR,,,,,,,,KACT 111240Z AUTO 35018KT 5SM BR OVC007 M02/M04 A3015 RMK T10201040 MADISHF
ACT,2021-02-11 12:45,,,,360.00,15.00,,30.16,,5.00,,OVC,,,,700.00,,,,BR,,,,,,,,KACT 111245Z AUTO 36015KT 5SM BR OVC007 M02/M04 A3015 RMK T10201040 MADISHF
ACT,2021-02-11 12:50,,,,350.00,17.00,,30.17,,5.00,,OVC,,,,700.00,,,,BR,,,,,,,,KACT 111250Z AUTO 35017KT 5SM BR OVC007 M02/M04 A3017 RMK T10201040 CIG 6V10  MADISHF
ACT,2021-02-11 12:51,28.00,25.00,88.33,350.00,16.00,0.00,30.17,1021.80,5.00,23.00,OVC,,,,700.00,,,,BR,,,,,,,15.20,KACT 111251Z 35016G23KT 5SM BR OVC007 M02/M04 A3017 RMK AO2 CIG 006V010 SLP218 T10221039
ACT,2021-02-11 12:55,,,,350.00,15.00,,30.17,,5.00,22.00,OVC,,,,700.00,,,,BR,,,,,,,,KACT 111255Z AUTO 35015G22KT 5SM BR OVC007 M02/M04 A3017 RMK T10201040 MADISHF
ACT,2021-02-11 13:00,,,,360.00,18.00,,30.16,,5.00,22.00,OVC,,,,700.00,,,,BR,,,,,,,,KACT 111300Z AUTO 36018G22KT 5SM BR OVC007 M02/M04 A3015 RMK T10201040 MADISHF
ACT,2021-02-11 13:05,,,,350.00,16.00,,30.17,,5.00,22.00,OVC,,,,700.00,,,,BR,,,,,,,,KACT 111305Z AUTO 35016G22KT 5SM BR OVC007 M02/M04 A3017 RMK T10201040 MADISHF
ACT,2021-02-11 13:10,,,,360.00,16.00,,30.17,,5.00,23.00,OVC,,,,800.00,,,,BR,,,,,,,,KACT 111310Z AUTO 36016G23KT 5SM BR OVC008 M02/M04 A3017 RMK T10201040 MADISHF
ACT,2021-02-11 13:15,,,,350.00,17.00,,30.18,,5.00,22.00,OVC,,,,800.00,,,,BR,,,,,,,,KACT 111315Z AUTO 35017G22KT 5SM BR OVC008 M02/M04 A3018 RMK T10201040 MADISHF
ACT,2021-02-11 13:20,,,,350.00,14.00,,30.19,,6.00,,OVC,,,,800.00,,,,BR,,,,,,,,KACT 111320Z AUTO 35014KT 6SM BR OVC008 M02/M04 A3019 RMK T10201040 MADISHF
ACT,2021-02-11 13:25,,,,350.00,15.00,,30.18,,6.00,21.00,OVC,,,,800.00,,,,BR,,,,,,,,KACT 111325Z AUTO 35015G21KT 6SM BR OVC008 M02/M04 A3018 RMK T10201040 MADISHF
ACT,2021-02-11 13:30,,,,340.00,14.00,,30.19,,5.00,19.00,OVC,,,,800.00,,,,BR,,,,,,,,KACT 111330Z AUTO 34014G19KT 5SM BR OVC008 M02/M04 A3019 RMK T10201040 MADISHF
ACT,2021-02-11 13:35,,,,350.00,14.00,,30.19,,4.00,,OVC,,,,800.00,,,,BR,,,,,,,,KACT 111335Z AUTO 35014KT 4SM BR OVC008 M02/M04 A3019 RMK T10201040 MADISHF
ACT,2021-02-11 13:40,,,,350.00,13.00,,30.19,,4.00,19.00,OVC,,,,800.00,,,,BR,,,,,,,,KACT 111340Z AUTO 35013G19KT 4SM BR OVC008 M02/M04 A3019 RMK T10201040 MADISHF
ACT,2021-02-11 13:45,,,,350.00,14.00,,30.19,,4.00,,OVC,,,,800.00,,,,BR,,,,,,,,KACT 111345Z AUTO 35014KT 4SM BR OVC008 M02/M04 A3019 RMK T10201040 MADISHF
ACT,2021-02-11 13:50,,,,350.00,15.00,,30.19,,4.00,,OVC,,,,800.00,,,,BR,,,,,,,,KACT 111350Z AUTO 35015KT 4SM BR OVC008 M02/M04 A3019 RMK T10201040 MADISHF
ACT,2021-02-11 13:51,28.00,25.00,88.33,350.00,15.00,0.00,30.19,1022.50,4.00,,OVC,,,,800.00,,,,BR,,,,,,,15.59,KACT 111351Z 35015KT 4SM BR OVC008 M02/M04 A3019 RMK AO2 SLP225 T10221039
ACT,2021-02-11 13:55,,,,350.00,16.00,,30.19,,4.00,,OVC,,,,800.00,,,,BR,,,,,,,,KACT 111355Z AUTO 35016KT 4SM BR OVC008 M02/M04 A3019 RMK T10201040 MADISHF
ACT,2021-02-11 14:00,,,,350.00,14.00,,30.19,,4.00,,OVC,,,,800.00,,,,BR,,,,,,,,KACT 111400Z AUTO 35014KT 4SM BR OVC008 M02/M04 A3019 RMK T10201040 MADISHF
ACT,2021-02-11 14:05,,,,360.00,16.00,,30.19,,4.00,,OVC,,,,800.00,,,,BR,,,,,,,,KACT 111405Z AUTO 36016KT 4SM BR OVC008 M02/M04 A3019 RMK T10201040 MADISHF
ACT,2021-02-11 14:10,,,,360.00,14.00,,30.19,,3.50,,OVC,,,,800.00,,,,BR,,,,,,,,KACT 111410Z AUTO 36014KT 3SM BR OVC008 M02/M04 A3019 RMK T10201040 MADISHF
ACT,2021-02-11 14:15,,,,350.00,14.00,,30.19,,3.00,,OVC,,,,800.00,,,,BR,,,,,,,,KACT 111415Z AUTO 35014KT 3SM BR OVC008 M02/M04 A3019 RMK T10201040 MADISHF
ACT,2021-02-11 14:20,,,,350.00,15.00,,30.19,,3.00,,OVC,,,,800.00,,,,BR,,,,,,,,KACT 111420Z AUTO 35015KT 3SM BR OVC008 M02/M04 A3019 RMK T10201040 MADISHF
ACT,2021-02-11 14:25,,,,350.00,16.00,,30.19,,2.50,,OVC,,,,800.00,,,,BR,,,,,,,,KACT 111425Z AUTO 35016KT 2 1/2SM BR OVC008 M02/M04 A3019 RMK T10201040 MADISHF
ACT,2021-02-11 14:29,28.00,25.00,88.33,350.00,14.00,0.00,30.20,,2.50,,OVC,,,,700.00,,,,BR,,,,,,,16.01,KACT 111429Z 35014KT 2 1/2SM BR OVC007 M02/M04 A3020 RMK AO2 T10221039
ACT,2021-02-11 14:30,,,,350.00,13.00,,30.20,,2.50,,OVC,,,,700.00,,,,BR,,,,,,,,KACT 111430Z AUTO 35013KT 2 1/2SM BR OVC007 M02/M04 A3020 RMK T10201040 MADISHF
ACT,2021-02-11 14:35,,,,360.00,11.00,,30.20,,2.50,,OVC,,,,700.00,,,,BR,,,,,,,,KACT 111435Z AUTO 36011KT 2 1/2SM BR OVC007 M02/M04 A3020 RMK T10201040 MADISHF
ACT,2021-02-11 14:40,,,,360.00,14.00,,30.20,,2.50,,OVC,,,,700.00,,,,BR,,,,,,,,KACT 111440Z AUTO 36014KT 2 1/2SM BR OVC007 M02/M03 A3020 RMK T10201030 MADISHF
ACT,2021-02-11 14:45,,,,350.00,13.00,,30.20,,2.50,,OVC,,,,700.00,,,,BR,,,,,,,,KACT 111445Z AUTO 35013KT 2 1/2SM BR OVC007 M02/M04 A3020 RMK T10201040 CIG 5V10  MADISHF
ACT,2021-02-11 14:50,,,,350.00,13.00,,30.19,,2.50,18.00,OVC,,,,700.00,,,,BR,,,,,,,,KACT 111450Z AUTO 35013G18KT 2 1/2SM BR OVC007 M02/M04 A3019 RMK T10201040 CIG 5V10  MADISHF
ACT,2021-02-11 14:51,28.00,25.00,88.33,350.00,15.00,0.00,30.20,1022.70,2.50,,OVC,,,,700.00,,,,BR,,,,,,,15.59,KACT 111451Z 35015KT 2 1/2SM BR OVC007 M02/M04 A3020 RMK AO2 CIG 005V009 SLP227 T10221039 53008
ACT,2021-02-11 14:55,,,,360.00,15.00,,30.20,,2.50,,OVC,,,,700.00,,,,BR,,,,,,,,KACT 111455Z AUTO 36015KT 2 1/2SM BR OVC007 M02/M04 A3020 RMK T10201040 CIG 5V11  MADISHF
ACT,2021-02-11 15:00,,,,360.00,15.00,,30.20,,2.50,,OVC,,,,700.00,,,,BR,,,,,,,,KACT 111500Z AUTO 36015KT 2 1/2SM BR OVC007 M02/M04 A3020 RMK T10201040 CIG 5V11  MADISHF
ACT,2021-02-11 15:05,,,,360.00,15.00,,30.20,,2.50,,OVC,,,,700.00,,,,BR,,,,,,,,KACT 111505Z AUTO 36015KT 2 1/2SM BR OVC007 M02/M04 A3020 RMK T10201040 CIG 5V11  MADISHF
ACT,2021-02-11 15:10,,,,360.00,15.00,,30.20,,2.50,,OVC,,,,900.00,,,,BR,,,,,,,,KACT 111510Z AUTO 36015KT 2 1/2SM BR OVC009 M02/M04 A3020 RMK T10201040 CIG 5V11  MADISHF
ACT,2021-02-11 15:15,,,,350.00,11.00,,30.21,,2.50,,OVC,,,,900.00,,,,BR,,,,,,,,KACT 111515Z AUTO 35011KT 2 1/2SM BR OVC009 M02/M04 A3020 RMK T10201040 CIG 5V11  MADISHF
ACT,2021-02-11 15:20,,,,350.00,14.00,,30.22,,2.50,21.00,OVC,,,,700.00,,,,BR,,,,,,,,KACT 111520Z AUTO 35014G21KT 2 1/2SM BR OVC007 M02/M04 A3021 RMK T10201040 CIG 5V11  MADISHF
ACT,2021-02-11 15:25,,,,360.00,16.00,,30.22,,2.50,,OVC,,,,900.00,,,,BR,,,,,,,,KACT 111525Z AUTO 36016KT 2 1/2SM BR OVC009 M02/M04 A3021 RMK T10201040 CIG 5V11  MADISHF
ACT,2021-02-11 15:30,,,,360.00,14.00,,30.21,,2.50,,OVC,,,,900.00,,,,BR,,,,,,,,KACT 111530Z AUTO 36014KT 2 1/2SM BR OVC009 M02/M04 A3020 RMK T10201040 CIG 5V11  MADISHF
ACT,2021-02-11 15:35,,,,10.00,14.00,,30.21,,2.50,,OVC,,,,900.00,,,,BR,,,,,,,,KACT 111535Z AUTO 01014KT 2 1/2SM BR OVC009 M02/M04 A3020 RMK T10201040 CIG 5V11  MADISHF
ACT,2021-02-11 15:40,,,,360.00,15.00,,30.22,,2.50,,OVC,,,,900.00,,,,BR,,,,,,,,KACT 111540Z AUTO 36015KT 2 1/2SM BR OVC009 M02/M04 A3021 RMK T10201040 CIG 5V11  MADISHF
ACT,2021-02-11 15:45,,,,350.00,13.00,,30.23,,2.50,,OVC,,,,900.00,,,,BR,,,,,,,,KACT 111545Z AUTO 35013KT 2 1/2SM BR OVC009 M02/M04 A3022 RMK T10201040 CIG 5V11  MADISHF
ACT,2021-02-11 15:50,,,,350.00,11.00,,30.23,,5.00,,OVC,,,,900.00,,,,BR,,,,,,,,KACT 111550Z AUTO 35011KT 5SM BR OVC009 M02/M04 A3022 RMK T10201040 CIG 6V11  MADISHF
ACT,2021-02-11 15:51,28.00,24.10,85.08,350.00,11.00,0.00,30.23,1024.00,5.00,,OVC,,,,900.00,,,,BR,,,,26.00,10.00,2021-02-11 15:01,17.41,KACT 111551Z 35011KT 5SM BR OVC009 M02/M04 A3023 RMK AO2 PK WND 01026/1501 LTG DSNT S CIG 006V011 SLP240 T10221044
ACT,2021-02-11 15:55,,,,350.00,14.00,,30.23,,5.00,,OVC,,,,900.00,,,,BR,,,,,,,,KACT 111555Z AUTO 35014KT 5SM BR OVC009 M02/M04 A3022 RMK T10201040  LTG DSNT S! MADISHF
ACT,2021-02-11 16:00,,,,350.00,11.00,,30.25,,5.00,,OVC,,,,900.00,,,,BR,,,,,,,,KACT 111600Z AUTO 35011KT 5SM BR OVC009 M02/M04 A3025 RMK T10201040  LTG DSNT SE AND S! MADISHF
ACT,2021-02-11 16:05,,,,340.00,11.00,,30.25,,6.00,,OVC,,,,900.00,,,,BR,,,,,,,,KACT 111605Z AUTO 34011KT 6SM BR OVC009 M02/M04 A3025 RMK T10201040  LTG DSNT SE AND S! MADISHF
ACT,2021-02-11 16:10,,,,350.00,11.00,T,30.24,,5.00,,OVC,,,,900.00,,,,UP BR,,,,,,,,KACT 111610Z AUTO 35011KT 5SM UP BR OVC009 M02/M04 A3023 RMK P0000 T10201040  LTG DSNT SE! MADISHF
ACT,2021-02-11 16:15,,,,340.00,11.00,,30.24,,5.00,,OVC,,,,900.00,,,,-FZRA BR,,,,,,,,KACT 111615Z AUTO 34011KT 5SM -FZRA BR OVC009 M02/M04 A3023 RMK T10201040  LTG DSNT SE! MADISHF
ACT,2021-02-11 16:20,,,,350.00,13.00,,30.24,,4.00,,OVC,,,,900.00,,,,-FZRA BR,,,,,,,,KACT 111620Z AUTO 35013KT 4SM -FZRA BR OVC009 M02/M04 A3023 RMK T10201040  LTG DSNT SE! MADISHF
ACT,2021-02-11 16:25,,,,360.00,13.00,0.01,30.23,,4.00,,OVC,,,,900.00,,,,-FZRA BR,,,,,,,,KACT 111625Z AUTO 36013KT 4SM -FZRA BR OVC009 M02/M04 A3022 RMK P0000 T10201040  LTG DSNT NE AND SE! MADISHF
ACT,2021-02-11 16:28,28.00,25.00,88.33,360.00,14.00,0.01,30.23,,3.00,,OVC,,,,1000.00,,,,VCTS FZRA BR,0.01,,,,,,16.01,KACT 111628Z 36014KT 3SM VCTS FZRA BR OVC010 M02/M04 A3023 RMK AO2 LTG DSNT NE-SE UPB10E14FZRAB14 P0001 I1001 T10221039
ACT,2021-02-11 16:30,,,,360.00,13.00,0.01,30.23,,2.50,,OVC,,,,999.00,,,,FZRA BR,,,,,,,,KACT 111630Z AUTO 36013KT 2 1/2SM FZRA BR OVC009 M02/M04 A3022 RMK P0000 T10201040  LTG DSNT NE-SE! MADISHF
ACT,2021-02-11 16:33,28.90,26.10,89.12,10.00,14.00,0.04,30.22,,1.75,,OVC,,,,1000.00,,,,VCTS FZRA BR,0.03,,,,,,17.17,KACT 111633Z 01014KT 1 3/4SM VCTS FZRA BR OVC010 M02/M03 A3022 RMK AO2 LTG DSNT NE-SE UPB10E14FZRAB14 PRESFR P0004 I1003 T10171033
ACT,2021-02-11 16:35,,,,360.00,16.00,0.05,30.22,,1.75,,OVC,,,,999.00,,,,FZRA BR,,,,,,,,KACT 111635Z AUTO 36016KT 2SM FZRA BR OVC009 M02/M03 A3021 RMK P0005 T10201030  LTG DSNT NE-SE! MADISHF
ACT,2021-02-11 16:40,,,,350.00,13.00,0.06,30.23,,2.00,,OVC,,,,999.00,,,,-FZRA BR,,,,,,,,KACT 111640Z AUTO 35013KT 2SM -FZRA BR OVC009 M02/M03 A3022 RMK P0005 T10201030  LTG DSNT NE-SE! MADISHF
ACT,2021-02-11 16:45,,,,360.00,16.00,0.06,30.22,,3.00,,OVC,,,,999.00,,,,-FZRA BR,,,,,,,,KACT 111645Z AUTO 36016KT 3SM -FZRA BR OVC009 M02/M03 A3021 RMK P0005 T10201030  LTG DSNT NE AND SE! MADISHF
ACT,2021-02-11 16:50,,,,360.00,15.00,0.06,30.23,,3.50,,OVC,,,,999.00,,,,-FZRA BR,,,,,,,,KACT 111650Z AUTO 36015KT 3SM -FZRA BR OVC009 M02/M04 A3022 RMK P0005 T10201040  LTG DSNT SE! MADISHF
ACT,2021-02-11 16:51,28.00,25.00,88.33,10.00,16.00,0.06,30.23,1023.90,4.00,,OVC,,,,1000.00,,,,-FZRA BR,0.03,,,,,,15.20,KACT 111651Z 01016KT 4SM -FZRA BR OVC010 M02/M04 A3023 RMK AO2 LTG DSNT SE UPB10E14FZRAB14 SLP239 P0006 I1003 T10221039
ACT,2021-02-11 16:55,,,,10.00,13.00,,30.22,,4.00,,OVC,,,,999.00,,,,-FZRA BR,,,,,,,,KACT 111655Z AUTO 01013KT 4SM -FZRA BR OVC009 M02/M04 A3021 RMK T10201040  LTG DSNT SE! MADISHF
ACT,2021-02-11 17:00,,,,20.00,11.00,,30.23,,4.00,16.00,OVC,,,,999.00,,,,BR,,,,,,,,KACT 111700Z AUTO 02011G16KT 4SM BR OVC009 M02/M04 A3022 RMK T10201040 CIG 8V12  MADISHF
ACT,2021-02-11 17:05,,,,10.00,14.00,,30.23,,4.00,,OVC,,,,999.00,,,,BR,,,,,,,,KACT 111705Z AUTO 01014KT 4SM BR OVC009 M02/M04 A3022 RMK T10201040 CIG 8V12  MADISHF
ACT,2021-02-11 17:10,,,,360.00,13.00,,30.23,,3.00,18.00,OVC,,,,999.00,,,,BR,,,,,,,,KACT 111710Z AUTO 36013G18KT 3SM BR OVC009 M02/M04 A3022 RMK T10201040 CIG 8V12  MADISHF
ACT,2021-02-11 17:15,,,,350.00,14.00,,30.23,,3.00,,OVC,,,,999.00,,,,BR,,,,,,,,KACT 111715Z AUTO 35014KT 3SM BR OVC009 M02/M04 A3022 RMK T10201040 CIG 7V12  MADISHF
ACT,2021-02-11 17:20,,,,350.00,11.00,T,30.23,,2.50,,OVC,,,,900.00,,,,UP BR,,,,,,,,KACT 111720Z AUTO 35011KT 2 1/2SM UP BR OVC009 M02/M04 A3022 RMK P0000 T10201040 CIG 7V12  MADISHF
ACT,2021-02-11 17:23,28.00,25.00,88.33,350.00,15.00,T,30.23,,2.50,20.00,OVC,,,,900.00,,,,-FZRA BR,0.01,,,,,,15.59,KACT 111723Z 35015G20KT 2 1/2SM -FZRA BR OVC009 M02/M04 A3023 RMK AO2 UPB17E23FZRAE1659B23 CIG 006V012 P0000 I1001 T10221039
ACT,2021-02-11 17:25,,,,350.00,15.00,,30.23,,2.00,,OVC,,,,900.00,,,,-FZRA BR,,,,,,,,KACT 111725Z AUTO 35015KT 2SM -FZRA BR OVC009 M02/M04 A3022 RMK T10201040 CIG 6V12  MADISHF
ACT,2021-02-11 17:30,,,,360.00,14.00,0.01,30.23,,2.00,,OVC,,,,900.00,,,,-FZRA BR,,,,,,,,KACT 111730Z AUTO 36014KT 2SM -FZRA BR OVC009 M02/M04 A3022 RMK P0000 T10201040 CIG 6V12  MADISHF
ACT,2021-02-11 17:35,,,,350.00,11.00,0.01,30.23,,2.50,,OVC,,,,900.00,,,,-FZRA BR,,,,,,,,KACT 111735Z AUTO 35011KT 2 1/2SM -FZRA BR OVC009 M02/M04 A3022 RMK P0000 T10201040 CIG 6V12  MADISHF
ACT,2021-02-11 17:40,,,,350.00,14.00,0.01,30.24,,2.50,19.00,OVC,,,,900.00,,,,-FZRA BR,,,,,,,,KACT 111740Z AUTO 35014G19KT 2 1/2SM -FZRA BR OVC009 M02/M04 A3023 RMK P0000 T10201040 CIG 6V12  MADISHF
ACT,2021-02-11 17:45,,,,350.00,14.00,0.01,30.23,,2.50,,OVC,,,,900.00,,,,FZRA BR,,,,,,,,KACT 111745Z AUTO 35014KT 2 1/2SM FZRA BR OVC009 M02/M04 A3022 RMK P0000 T10201040 CIG 6V13  MADISHF
ACT,2021-02-11 17:50,,,,350.00,13.00,0.02,30.23,,2.00,18.00,OVC,,,,900.00,,,,FZRA BR,,,,,,,,KACT 111750Z AUTO 35013G18KT 2SM FZRA BR OVC009 M02/M03 A3022 RMK P0001 T10201030 CIG 6V13  MADISHF
ACT,2021-02-11 17:51,28.90,26.10,89.12,350.00,14.00,0.03,30.23,1023.90,2.00,,OVC,,,,900.00,,,,FZRA BR,0.03,,0.06,,,,17.17,KACT 111751Z 35014KT 2SM FZRA BR OVC009 M02/M03 A3023 RMK AO2 UPB17E23FZRAE1659B23 CIG 006V013 SLP239 P0003 60009 I1003 I6006 T10171033 11017 21022 51010
ACT,2021-02-11 17:55,,,,350.00,10.00,0.01,30.23,,1.50,,OVC,,,,900.00,,,,FZRA BR,,,,,,,,KACT 111755Z AUTO 35010KT 1 1/2SM FZRA BR OVC009 M02/M04 A3022 RMK P0000 T10201040 CIG 6V13  MADISHF
ACT,2021-02-11 17:59,28.90,26.10,89.12,340.00,12.00,0.02,30.23,,1.50,,BKN,OVC,,,700.00,1100.00,,,FZRA BR,0.01,,,,,,18.06,KACT 111759Z 34012KT 1 1/2SM FZRA BR BKN007 OVC011 M02/M03 A3023 RMK AO2 LTG DSNT W CIG 006V010 P0002 I1001 T10171033
ACT,2021-02-11 18:00,,,,340.00,11.00,0.03,30.23,,1.50,,OVC,,,,900.00,,,,FZRA BR,,,,,,,,KACT 111800Z AUTO 34011KT 1 1/2SM FZRA BR OVC009 M02/M03 A3022 RMK P0002 T10201030 CIG 6V13  MADISHF
ACT,2021-02-11 18:05,,,,340.00,14.00,0.03,30.23,,2.00,,BKN,OVC,,,700.00,1100.00,,,FZRA BR,,,,,,,,KACT 111805Z AUTO 34014KT 2SM FZRA BR BKN007 OVC011 M02/M03 A3022 RMK P0002 T10201030  LTG DSNT W! MADISHF
ACT,2021-02-11 18:10,,,,350.00,10.00,0.04,30.23,,2.50,15.00,BKN,OVC,,,700.00,1100.00,,,-FZRA BR,,,,,,,,KACT 111810Z AUTO 35010G15KT 2 1/2SM -FZRA BR BKN007 OVC011 M02/M04 A3022 RMK P0003 T10201040  LTG DSNT W! MADISHF
ACT,2021-02-11 18:15,,,,340.00,11.00,0.04,30.24,,3.00,,BKN,OVC,,,700.00,1100.00,,,FZRA BR,,,,,,,,KACT 111815Z AUTO 34011KT 3SM FZRA BR BKN007 OVC011 M02/M04 A3023 RMK P0003 T10201040 MADISHF
ACT,2021-02-11 18:20,,,,350.00,9.00,0.05,30.23,,2.50,,BKN,OVC,,,700.00,1100.00,,,FZRA BR,,,,,,,,KACT 111820Z AUTO 35009KT 2 1/2SM FZRA BR BKN007 OVC011 M02/M04 A3022 RMK P0005 T10201040 MADISHF
ACT,2021-02-11 18:25,,,,350.00,11.00,0.05,30.23,,2.00,,BKN,OVC,,,700.00,1100.00,,,FZRA BR,,,,,,,,KACT 111825Z AUTO 35011KT 2SM FZRA BR BKN007 OVC011 M02/M04 A3022 RMK P0005 T10201040 MADISHF
ACT,2021-02-11 18:30,,,,340.00,9.00,0.05,30.23,,2.00,,BKN,OVC,,,700.00,1100.00,,,FZRA BR,,,,,,,,KACT 111830Z AUTO 34009KT 2SM FZRA BR BKN007 OVC011 M02/M04 A3022 RMK P0005 T10201040  LTG DSNT NW! MADISHF
ACT,2021-02-11 18:35,,,,350.00,10.00,0.05,30.23,,2.00,,BKN,OVC,,,700.00,1100.00,,,FZRA BR,,,,,,,,KACT 111835Z AUTO 35010KT 2SM FZRA BR BKN007 OVC011 M02/M04 A3022 RMK P0005 T10201040  LTG DSNT NW! MADISHF
ACT,2021-02-11 18:40,,,,340.00,11.00,0.06,30.23,,2.00,,BKN,OVC,,,700.00,1100.00,,,FZRA BR,,,,,,,,KACT 111840Z AUTO 34011KT 2SM FZRA BR BKN007 OVC011 M02/M04 A3022 RMK P0005 T10201040  LTG DSNT NW! MADISHF
ACT,2021-02-11 18:45,,,,340.00,9.00,0.06,30.22,,2.00,,BKN,OVC,,,700.00,1100.00,,,FZRA BR,,,,,,,,KACT 111845Z AUTO 34009KT 2SM FZRA BR BKN007 OVC011 M02/M04 A3021 RMK P0005 T10201040  LTG DSNT NW! MADISHF
ACT,2021-02-11 18:50,,,,340.00,11.00,0.06,30.22,,2.00,,BKN,OVC,,,700.00,1100.00,,,FZRA BR,,,,,,,,KACT 111850Z AUTO 34011KT 2SM FZRA BR BKN007 OVC011 M02/M04 A3021 RMK P0005 T10201040 MADISHF
ACT,2021-02-11 18:51,28.90,25.00,85.14,350.00,14.00,0.07,30.22,1023.50,2.00,,BKN,OVC,,,700.00,1100.00,,,FZRA BR,0.05,,,,,,17.17,KACT 111851Z 35014KT 2SM FZRA BR BKN007 OVC011 M02/M04 A3022 RMK AO2 SLP235 P0007 I1005 T10171039
ACT,2021-02-11 18:53,28.90,25.00,85.14,350.00,12.00,T,30.21,,1.75,,OVC,,,,1100.00,,,,FZRA BR,T,,,,,,18.06,KACT 111853Z 35012KT 1 3/4SM FZRA BR OVC011 M02/M04 A3021 RMK AO2 P0000 I1000 T10171039
ACT,2021-02-11 18:55,,,,350.00,13.00,0.01,30.21,,1.50,,BKN,OVC,,,1100.00,1400.00,,,FZRA BR,,,,,,,,KACT 111855Z AUTO 35013KT 1 1/2SM FZRA BR BKN011 OVC014 M02/M04 A3020 RMK P0000 T10201040 CIG 7V12  MADISHF
ACT,2021-02-11 19:00,,,,350.00,13.00,0.03,30.20,,1.00,,BKN,OVC,,,700.00,1100.00,,,FZRA BR,,,,,,,,KACT 111900Z AUTO 35013KT 1SM FZRA BR BKN007 OVC011 M02/M04 A3020 RMK P0002 T10201040 MADISHF
ACT,2021-02-11 19:02,28.00,25.00,88.33,350.00,12.00,0.04,30.20,,1.00,,BKN,OVC,,,700.00,1100.00,,,FZRA BR,T,,,,,,16.91,KACT 111902Z 35012KT 1SM FZRA BR BKN007 OVC011 M02/M04 A3020 RMK AO2 PRESFR P0004 I1000 T10221039
ACT,2021-02-11 19:05,,,,350.00,15.00,0.05,30.19,,1.25,,BKN,OVC,,,700.00,1100.00,,,FZRA BR,,,,,,,,KACT 111905Z AUTO 35015KT 1 1/2SM FZRA BR BKN007 OVC011 M02/M03 A3019 RMK P0005 T10201030 MADISHF
ACT,2021-02-11 19:10,,,,340.00,15.00,0.06,30.18,,1.50,,BKN,OVC,,,700.00,1100.00,,,FZRA BR,,,,,,,,KACT 111910Z AUTO 34015KT 1 1/2SM FZRA BR BKN007 OVC011 M02/M04 A3018 RMK P0005 T10201040 MADISHF
ACT,2021-02-11 19:15,,,,350.00,15.00,0.07,30.17,,1.50,22.00,BKN,OVC,,,700.00,1100.00,,,FZRA BR,,,,,,,,KACT 111915Z AUTO 35015G22KT 1 1/2SM FZRA BR BKN007 OVC011 M02/M04 A3017 RMK P0007 T10201040 MADISHF
ACT,2021-02-11 19:20,,,,360.00,14.00,0.08,30.16,,1.75,19.00,BKN,OVC,,,700.00,1100.00,,,FZRA BR,,,,,,,,KACT 111920Z AUTO 36014G19KT 2SM FZRA BR BKN007 OVC011 M02/M04 A3015 RMK P0007 T10201040 MADISHF
ACT,2021-02-11 19:22,28.90,26.10,89.12,350.00,13.00,0.08,30.16,,2.00,22.00,BKN,OVC,,,700.00,1100.00,,,-SN BR,0.01,,,,,,17.60,KACT 111922Z 35013G22KT 2SM -SN BR BKN007 OVC011 M02/M03 A3016 RMK AO2 FZRAE22SNB22 PRESFR P0008 I1001 T10171033
ACT,2021-02-11 19:25,,,,350.00,14.00,0.09,30.15,,2.50,,BKN,OVC,,,700.00,1100.00,,,-SN BR,,,,,,,,KACT 111925Z AUTO 35014KT 2 1/2SM -SN BR BKN007 OVC011 M02/M03 A3014 RMK P0009 T10201030 MADISHF
ACT,2021-02-11 19:30,,,,340.00,16.00,0.09,30.15,,2.50,21.00,BKN,OVC,,,700.00,1100.00,,,-SN BR,,,,,,,,KACT 111930Z AUTO 34016G21KT 2 1/2SM -SN BR BKN007 OVC011 M02/M04 A3014 RMK P0009 T10201040 MADISHF
ACT,2021-02-11 19:35,,,,350.00,16.00,0.09,30.16,,3.00,,BKN,OVC,,,700.00,1100.00,,,UP BR,,,,,,,,KACT 111935Z AUTO 35016KT 3SM UP BR BKN007 OVC011 M02/M04 A3015 RMK P0009 T10201040 MADISHF
ACT,2021-02-11 19:40,,,,350.00,17.00,0.10,30.14,,3.00,23.00,BKN,OVC,,,700.00,1100.00,,,UP BR,,,,,,,,KACT 111940Z AUTO 35017G23KT 3SM UP BR BKN007 OVC011 M02/M03 A3013 RMK P0010 T10201030 MADISHF
ACT,2021-02-11 19:45,,,,350.00,15.00,0.11,30.14,,3.00,,BKN,OVC,,,700.00,1100.00,,,UP BR,,,,,,,,KACT 111945Z AUTO 35015KT 3SM UP BR BKN007 OVC011 M02/M03 A3013 RMK P0010 T10201030 MADISHF
ACT,2021-02-11 19:50,,,,340.00,16.00,0.11,30.14,,3.00,,BKN,OVC,,,700.00,1100.00,,,UP BR,,,,,,,,KACT 111950Z AUTO 34016KT 3SM UP BR BKN007 OVC011 M02/M03 A3013 RMK P0010 T10201030 MADISHF
ACT,2021-02-11 19:51,28.90,26.10,89.12,340.00,16.00,0.11,30.14,1021.10,3.00,,BKN,OVC,,,700.00,1100.00,,,UP BR,0.01,,,,,,16.38,KACT 111951Z 34016KT 3SM UP BR BKN007 OVC011 M02/M03 A3014 RMK AO2 UPB32FZRAE22SNB22E32 SLP211 P0011 I1001 T10171033
ACT,2021-02-11 19:55,,,,340.00,16.00,0.01,30.15,,3.00,,BKN,OVC,,,900.00,1300.00,,,-FZRA BR,,,,,,,,KACT 111955Z AUTO 34016KT 3SM -FZRA BR BKN009 OVC013 M02/M03 A3014 RMK P0000 T10201030 MADISHF
ACT,2021-02-11 20:00,,,,340.00,14.00,0.02,30.15,,3.00,,BKN,OVC,,,900.00,1300.00,,,-FZRA BR,,,,,,,,KACT 112000Z AUTO 34014KT 3SM -FZRA BR BKN009 OVC013 M02/M03 A3014 RMK P0001 T10201030 CIG 7V11  MADISHF
ACT,2021-02-11 20:01,28.90,26.10,89.12,350.00,14.00,0.02,30.15,,3.00,,BKN,OVC,,,900.00,1300.00,,,-FZRA BR,T,,,,,,17.17,KACT 112001Z 35014KT 3SM -FZRA BR BKN009 OVC013 M02/M03 A3015 RMK AO2 UPE1955FZRAB1955 CIG 007V011 P0002 I1000 T10171033
ACT,2021-02-11 20:05,,,,350.00,11.00,0.02,30.15,,3.00,16.00,OVC,,,,1100.00,,,,-FZRA BR,,,,,,,,KACT 112005Z AUTO 35011G16KT 3SM -FZRA BR OVC011 M02/M03 A3014 RMK P0001 T10201030 MADISHF
ACT,2021-02-11 20:10,,,,350.00,13.00,0.02,30.15,,3.00,,BKN,OVC,,,900.00,1300.00,,,-FZRA BR,,,,,,,,KACT 112010Z AUTO 35013KT 3SM -FZRA BR BKN009 OVC013 M02/M03 A3014 RMK P0001 T10201030 CIG 7V12  MADISHF
ACT,2021-02-11 20:15,,,,350.00,14.00,0.03,30.15,,3.00,,OVC,,,,900.00,,,,-FZRA BR,,,,,,,,KACT 112015Z AUTO 35014KT 3SM -FZRA BR OVC009 M02/M03 A3014 RMK P0002 T10201030 CIG 7V14  MADISHF
ACT,2021-02-11 20:20,,,,360.00,11.00,0.03,30.15,,3.50,,OVC,,,,1100.00,,,,-FZRA BR,,,,,,,,KACT 112020Z AUTO 36011KT 3SM -FZRA BR OVC011 M02/M03 A3014 RMK P0002 T10201030 MADISHF
ACT,2021-02-11 20:25,,,,360.00,11.00,0.03,30.15,,4.00,,OVC,,,,1100.00,,,,-FZRA BR,,,,,,,,KACT 112025Z AUTO 36011KT 4SM -FZRA BR OVC011 M02/M03 A3014 RMK P0002 T10201030 MADISHF
ACT,2021-02-11 20:26,28.90,26.10,89.12,360.00,11.00,0.03,30.15,,4.00,,OVC,,,,1100.00,,,,-FZRA BR,0.01,,,,,,18.55,KACT 112026Z 36011KT 4SM -FZRA BR OVC011 M02/M03 A3015 RMK AO2 UPE1955FZRAB1955 P0003 I1001 T10171033
ACT,2021-02-11 20:30,,,,350.00,11.00,0.04,30.15,,4.00,,OVC,,,,1100.00,,,,-FZRA BR,,,,,,,,KACT 112030Z AUTO 35011KT 4SM -FZRA BR OVC011 M01/M03 A3014 RMK P0003 T10101030 MADISHF
ACT,2021-02-11 20:35,,,,340.00,11.00,0.04,30.15,,3.50,18.00,OVC,,,,1100.00,,,,-FZRA BR,,,,,,,,KACT 112035Z AUTO 34011G18KT 3SM -FZRA BR OVC011 M01/M03 A3014 RMK P0003 T10101030 CIG 8V13  MADISHF
ACT,2021-02-11 20:40,,,,350.00,13.00,0.04,30.15,,4.00,,OVC,,,,1100.00,,,,-FZRA BR,,,,,,,,KACT 112040Z AUTO 35013KT 4SM -FZRA BR OVC011 M02/M03 A3014 RMK P0003 T10201030 MADISHF
ACT,2021-02-11 20:45,,,,340.00,11.00,0.04,30.15,,4.00,,OVC,,,,1100.00,,,,-FZRA BR,,,,,,,,KACT 112045Z AUTO 34011KT 4SM -FZRA BR OVC011 M02/M03 A3014 RMK P0003 T10201030 MADISHF
ACT,2021-02-11 20:50,,,,340.00,11.00,0.04,30.15,,4.00,,OVC,,,,1100.00,,,,-FZRA BR,,,,,,,,KACT 112050Z AUTO 34011KT 4SM -FZRA BR OVC011 M02/M03 A3014 RMK P0003 T10201030 MADISHF
ACT,2021-02-11 20:51,28.90,26.10,89.12,340.00,12.00,0.04,30.15,1021.40,4.00,,OVC,,,,1100.00,,,,-FZRA BR,0.02,0.08,,,,,18.06,KACT 112051Z 34012KT 4SM -FZRA BR OVC011 M02/M03 A3015 RMK AO2 UPE1955FZRAB1955 SLP214 P0004 60022 I1002 I3008 T10171033 55024
ACT,2021-02-11 20:55,,,,340.00,11.00,,30.16,,5.00,,OVC,,,,1100.00,,,,-FZRA BR,,,,,,,,KACT 112055Z AUTO 34011KT 5SM -FZRA BR OVC011 M02/M03 A3015 RMK T10201030 MADISHF
ACT,2021-02-11 21:00,,,,340.00,10.00,T,30.16,,5.00,,BKN,OVC,,,1100.00,1900.00,,,UP BR,,,,,,,,KACT 112100Z AUTO 34010KT 5SM UP BR BKN011 OVC019 M02/M04 A3015 RMK P0000 T10201040 MADISHF
ACT,2021-02-11 21:05,,,,360.00,11.00,,30.16,,5.00,,BKN,OVC,,,1100.00,1900.00,,,-FZRA,,,,,,,,KACT 112105Z AUTO 36011KT 5SM -FZRA BKN011 OVC019 M02/M03 A3015 RMK T10201030 MADISHF
ACT,2021-02-11 21:10,,,,350.00,9.00,,30.16,,5.00,,OVC,,,,1200.00,,,,-FZRA,,,,,,,,KACT 112110Z AUTO 35009KT 5SM -FZRA OVC012 M01/M03 A3015 RMK T10101030 MADISHF
ACT,2021-02-11 21:15,,,,350.00,10.00,,30.16,,5.00,,OVC,,,,1200.00,,,,-FZRA,,,,,,,,KACT 112115Z AUTO 35010KT 5SM -FZRA OVC012 M01/M03 A3015 RMK T10101030 MADISHF
ACT,2021-02-11 21:20,,,,340.00,10.00,,30.16,,5.00,,OVC,,,,1200.00,,,,-FZRA,,,,,,,,KACT 112120Z AUTO 34010KT 5SM -FZRA OVC012 M02/M03 A3015 RMK T10201030 MADISHF
ACT,2021-02-11 21:25,,,,350.00,11.00,,30.16,,5.00,17.00,OVC,,,,1200.00,,,,-FZRA,,,,,,,,KACT 112125Z AUTO 35011G17KT 5SM -FZRA OVC012 M01/M03 A3015 RMK T10101030 MADISHF
ACT,2021-02-11 21:30,,,,350.00,14.00,,30.16,,4.00,,OVC,,,,1400.00,,,,-FZRA,,,,,,,,KACT 112130Z AUTO 35014KT 4SM -FZRA OVC014 M01/M03 A3015 RMK T10101030 MADISHF
ACT,2021-02-11 21:35,,,,360.00,13.00,,30.16,,4.00,,OVC,,,,1400.00,,,,-FZRA,,,,,,,,KACT 112135Z AUTO 36013KT 4SM -FZRA OVC014 M01/M03 A3015 RMK T10101030 MADISHF
ACT,2021-02-11 21:40,,,,350.00,10.00,,30.16,,4.00,,OVC,,,,1400.00,,,,-FZRA,,,,,,,,KACT 112140Z AUTO 35010KT 4SM -FZRA OVC014 M01/M03 A3015 RMK T10101030 MADISHF
ACT,2021-02-11 21:45,,,,350.00,10.00,,30.15,,4.00,,OVC,,,,1400.00,,,,-FZRA,,,,,,,,KACT 112145Z AUTO 35010KT 4SM -FZRA OVC014 M01/M03 A3014 RMK T10101030 MADISHF
ACT,2021-02-11 21:50,,,,350.00,11.00,,30.15,,5.00,,OVC,,,,1300.00,,,,-FZRA,,,,,,,,KACT 112150Z AUTO 35011KT 5SM -FZRA OVC013 M01/M03 A3014 RMK T10101030 MADISHF
ACT,2021-02-11 21:51,30.00,26.10,85.21,350.00,10.00,T,30.15,1021.30,5.00,,OVC,,,,1300.00,,,,-FZRA,T,,,,,,20.46,KACT 112151Z AUTO 35010KT 5SM -FZRA OVC013 M01/M03 A3015 RMK AO2 UPB00E02FZRAE00B02 SLP213 P0000 I1000 T10111033
ACT,2021-02-11 21:55,,,,350.00,10.00,T,30.15,,5.00,15.00,OVC,,,,1300.00,,,,UP BR,,,,,,,,KACT 112155Z AUTO 35010G15KT 5SM UP BR OVC013 M01/M03 A3014 RMK P0000 T10101030 MADISHF
ACT,2021-02-11 22:00,,,,340.00,11.00,T,30.15,,5.00,,OVC,,,,1300.00,,,,UP BR,,,,,,,,KACT 112200Z AUTO 34011KT 5SM UP BR OVC013 M02/M03 A3014 RMK P0000 T10201030 MADISHF
ACT,2021-02-11 22:05,,,,350.00,11.00,,30.15,,5.00,,OVC,,,,1100.00,,,,BR,,,,,,,,KACT 112205Z AUTO 35011KT 5SM BR OVC011 M02/M03 A3014 RMK T10201030 MADISHF
ACT,2021-02-11 22:10,,,,340.00,11.00,,30.15,,5.00,,OVC,,,,1100.00,,,,BR,,,,,,,,KACT 112210Z AUTO 34011KT 5SM BR OVC011 M02/M03 A3014 RMK T10201030 MADISHF
ACT,2021-02-11 22:15,,,,340.00,13.00,,30.16,,5.00,,OVC,,,,1100.00,,,,BR,,,,,,,,KACT 112215Z AUTO 34013KT 5SM BR OVC011 M02/M04 A3015 RMK T10201040 MADISHF
ACT,2021-02-11 22:20,,,,340.00,11.00,,30.16,,5.00,,OVC,,,,1300.00,,,,BR,,,,,,,,KACT 112220Z AUTO 34011KT 5SM BR OVC013 M02/M04 A3015 RMK T10201040 MADISHF
ACT,2021-02-11 22:25,,,,340.00,11.00,,30.16,,5.00,,OVC,,,,1300.00,,,,BR,,,,,,,,KACT 112225Z AUTO 34011KT 5SM BR OVC013 M02/M03 A3015 RMK T10201030 MADISHF
ACT,2021-02-11 22:30,,,,340.00,11.00,,30.17,,5.00,,OVC,,,,1300.00,,,,BR,,,,,,,,KACT 112230Z AUTO 34011KT 5SM BR OVC013 M02/M03 A3017 RMK T10201030 MADISHF
ACT,2021-02-11 22:35,,,,340.00,11.00,,30.17,,5.00,,OVC,,,,1300.00,,,,BR,,,,,,,,KACT 112235Z AUTO 34011KT 5SM BR OVC013 M02/M03 A3017 RMK T10201030 MADISHF
ACT,2021-02-11 22:40,,,,350.00,11.00,,30.17,,5.00,16.00,OVC,,,,1300.00,,,,BR,,,,,,,,KACT 112240Z AUTO 35011G16KT 5SM BR OVC013 M02/M03 A3017 RMK T10201030 MADISHF
ACT,2021-02-11 22:45,,,,340.00,14.00,,30.18,,5.00,,OVC,,,,1300.00,,,,BR,,,,,,,,KACT 112245Z AUTO 34014KT 5SM BR OVC013 M02/M04 A3018 RMK T10201040 MADISHF
ACT,2021-02-11 22:50,,,,330.00,11.00,,30.18,,5.00,,OVC,,,,1300.00,,,,BR,,,,,,,,KACT 112250Z AUTO 33011KT 5SM BR OVC013 M02/M04 A3018 RMK T10201040 MADISHF
ACT,2021-02-11 22:51,28.90,25.00,85.14,340.00,13.00,T,30.18,1022.30,5.00,,OVC,,,,1300.00,,,,BR,T,,,,,,17.60,KACT 112251Z 34013KT 5SM BR OVC013 M02/M04 A3018 RMK AO2 UPB2154E01FZRAE2154 SLP223 P0000 I1000 T10171039
ACT,2021-02-11 22:55,,,,340.00,13.00,,30.18,,5.00,,OVC,,,,1300.00,,,,BR,,,,,,,,KACT 112255Z AUTO 34013KT 5SM BR OVC013 M02/M04 A3018 RMK T10201040 MADISHF
ACT,2021-02-11 23:00,,,,340.00,14.00,,30.18,,5.00,,OVC,,,,1300.00,,,,BR,,,,,,,,KACT 112300Z AUTO 34014KT 5SM BR OVC013 M02/M04 A3018 RMK T10201040 MADISHF
ACT,2021-02-11 23:05,,,,340.00,11.00,,30.18,,5.00,,OVC,,,,1200.00,,,,BR,,,,,,,,KACT 112305Z AUTO 34011KT 5SM BR OVC012 M02/M04 A3018 RMK T10201040 MADISHF
ACT,2021-02-11 23:10,,,,340.00,10.00,,30.18,,5.00,,OVC,,,,1200.00,,,,BR,,,,,,,,KACT 112310Z AUTO 34010KT 5SM BR OVC012 M02/M04 A3018 RMK T10201040 MADISHF
ACT,2021-02-11 23:15,,,,350.00,13.00,,30.18,,5.00,,OVC,,,,1300.00,,,,BR,,,,,,,,KACT 112315Z AUTO 35013KT 5SM BR OVC013 M02/M04 A3018 RMK T10201040 MADISHF
ACT,2021-02-11 23:20,,,,350.00,10.00,,30.18,,5.00,,BKN,OVC,,,1300.00,1999.00,,,BR,,,,,,,,KACT 112320Z AUTO 35010KT 5SM BR BKN013 OVC019 M02/M04 A3018 RMK T10201040 MADISHF
ACT,2021-02-11 23:25,,,,350.00,11.00,,30.18,,5.00,,BKN,OVC,,,1500.00,1999.00,,,BR,,,,,,,,KACT 112325Z AUTO 35011KT 5SM BR BKN015 OVC019 M02/M04 A3018 RMK T10201040 MADISHF
ACT,2021-02-11 23:30,,,,350.00,11.00,,30.18,,5.00,,BKN,OVC,,,1500.00,1999.00,,,BR,,,,,,,,KACT 112330Z AUTO 35011KT 5SM BR BKN015 OVC019 M02/M04 A3018 RMK T10201040 MADISHF
ACT,2021-02-11 23:31,28.90,25.00,85.14,340.00,12.00,0.00,30.18,,5.00,,BKN,OVC,,,1500.00,2000.00,,,BR,,,,,,,18.06,KACT 112331Z 34012KT 5SM BR BKN015 OVC020 M02/M04 A3018 RMK AO2 T10171039
ACT,2021-02-11 23:35,,,,350.00,11.00,,30.18,,5.00,,BKN,OVC,,,1500.00,1999.00,,,BR,,,,,,,,KACT 112335Z AUTO 35011KT 5SM BR BKN015 OVC019 M02/M04 A3018 RMK T10201040 MADISHF
ACT,2021-02-11 23:40,,,,360.00,11.00,,30.18,,5.00,,BKN,OVC,,,1999.00,2600.00,,,BR,,,,,,,,KACT 112340Z AUTO 36011KT 5SM BR BKN019 OVC026 M02/M04 A3018 RMK T10201040 MADISHF
ACT,2021-02-11 23:45,,,,350.00,11.00,,30.18,,5.00,,BKN,OVC,,,1800.00,2600.00,,,BR,,,,,,,,KACT 112345Z AUTO 35011KT 5SM BR BKN018 OVC026 M02/M04 A3018 RMK T10201040 MADISHF
ACT,2021-02-11 23:50,,,,350.00,8.00,,30.18,,5.00,,SCT,OVC,,,1800.00,2800.00,,,BR,,,,,,,,KACT 112350Z AUTO 35008KT 5SM BR SCT018 OVC028 M02/M04 A3018 RMK T10201040 MADISHF
ACT,2021-02-11 23:51,28.90,25.00,85.14,350.00,8.00,0.00,30.18,1022.40,5.00,,SCT,OVC,,,1800.00,2800.00,,,BR,,,0.08,,,,20.29,KACT 112351Z 35008KT 5SM BR SCT018 OVC028 M02/M04 A3018 RMK AO2 SLP224 60022 I6008 T10171039 11011 21022 53009
ACT,2021-02-11 23:55,,,,350.00,11.00,,30.18,,5.00,,SCT,OVC,,,1800.00,2800.00,,,BR,,,,,,,,KACT 112355Z AUTO 35011KT 5SM BR SCT018 OVC028 M02/M03 A3018 RMK T10201030 MADISHF
ACT,2021-02-12 00:00,,,,340.00,11.00,,30.18,,6.00,,FEW,OVC,,,1999.00,2800.00,,,BR,,,,,,,,KACT 120000Z AUTO 34011KT 6SM BR FEW019 OVC028 M02/M04 A3018 RMK T10201040 MADISHF
ACT,2021-02-12 00:05,,,,350.00,10.00,,30.18,,7.00,,OVC,,,,2700.00,,,,,,,,,,,,KACT 120005Z AUTO 35010KT 7SM OVC027 M02/M04 A3018 RMK T10201040 MADISHF
ACT,2021-02-12 00:10,,,,350.00,10.00,,30.19,,7.00,,OVC,,,,2700.00,,,,,,,,,,,,KACT 120010Z AUTO 35010KT 7SM OVC027 M02/M04 A3019 RMK T10201040 MADISHF
ACT,2021-02-12 00:15,,,,340.00,10.00,,30.19,,7.00,,OVC,,,,2700.00,,,,,,,,,,,,KACT 120015Z AUTO 34010KT 7SM OVC027 M02/M04 A3019 RMK T10201040 MADISHF
ACT,2021-02-12 00:20,,,,340.00,10.00,,30.19,,7.00,15.00,OVC,,,,2700.00,,,,,,,,,,,,KACT 120020Z AUTO 34010G15KT 7SM OVC027 M01/M04 A3019 RMK T10101040 MADISHF
ACT,2021-02-12 00:25,,,,340.00,9.00,,30.19,,7.00,,FEW,OVC,,,1800.00,2700.00,,,,,,,,,,,KACT 120025Z AUTO 34009KT 7SM FEW018 OVC027 M01/M04 A3019 RMK T10101040 MADISHF
ACT,2021-02-12 00:30,,,,350.00,10.00,,30.18,,7.00,,FEW,OVC,,,1800.00,2500.00,,,,,,,,,,,KACT 120030Z AUTO 35010KT 7SM FEW018 OVC025 M02/M04 A3018 RMK T10201040 MADISHF
ACT,2021-02-12 00:35,,,,350.00,10.00,,30.18,,7.00,,FEW,SCT,OVC,,1400.00,2200.00,2700.00,,,,,,,,,,KACT 120035Z AUTO 35010KT 7SM FEW014 SCT022 OVC027 M02/M04 A3018 RMK T10201040 MADISHF
ACT,2021-02-12 00:40,,,,350.00,9.00,,30.17,,7.00,,FEW,OVC,,,1800.00,2500.00,,,,,,,,,,,KACT 120040Z AUTO 35009KT 7SM FEW018 OVC025 M02/M04 A3017 RMK T10201040 MADISHF
ACT,2021-02-12 00:45,,,,350.00,11.00,,30.17,,7.00,16.00,FEW,OVC,,,1900.00,2500.00,,,,,,,,,,,KACT 120045Z AUTO 35011G16KT 7SM FEW019 OVC025 M02/M04 A3017 RMK T10201040 MADISHF
ACT,2021-02-12 00:50,,,,360.00,10.00,,30.17,,7.00,,FEW,OVC,,,2100.00,2500.00,,,,,,,,,,,KACT 120050Z AUTO 36010KT 7SM FEW021 OVC025 M02/M04 A3017 RMK T10201040 MADISHF
ACT,2021-02-12 00:51,28.90,25.00,85.14,360.00,10.00,0.00,30.17,1021.90,7.00,,OVC,,,,2500.00,,,,,,,,,,,19.08,KACT 120051Z 36010KT 7SM OVC025 M02/M04 A3017 RMK AO2 SLP219 T10171039
ACT,2021-02-12 00:55,,,,360.00,11.00,,30.17,,7.00,,FEW,OVC,,,2200.00,2700.00,,,,,,,,,,,KACT 120055Z AUTO 36011KT 7SM FEW022 OVC027 M01/M04 A3017 RMK T10101040 MADISHF
ACT,2021-02-12 01:00,,,,360.00,11.00,,30.17,,7.00,,OVC,,,,2700.00,,,,,,,,,,,,KACT 120100Z AUTO 36011KT 7SM OVC027 M01/M04 A3017 RMK T10101040 MADISHF
ACT,2021-02-12 01:05,,,,360.00,11.00,,30.17,,7.00,,OVC,,,,2700.00,,,,,,,,,,,,KACT 120105Z AUTO 36011KT 7SM OVC027 M01/M04 A3017 RMK T10101040 MADISHF
ACT,2021-02-12 01:10,,,,360.00,11.00,,30.16,,7.00,,FEW,OVC,,,1699.00,2700.00,,,,,,,,,,,KACT 120110Z AUTO 36011KT 7SM FEW016 OVC027 M01/M04 A3015 RMK T10101040 MADISHF
ACT,2021-02-12 01:15,,,,360.00,11.00,,30.16,,7.00,,FEW,OVC,,,1699.00,2700.00,,,,,,,,,,,KACT 120115Z AUTO 36011KT 7SM FEW016 OVC027 M01/M04 A3015 RMK T10101040 MADISHF
ACT,2021-02-12 01:20,,,,20.00,13.00,,30.14,,7.00,,FEW,OVC,,,1699.00,2700.00,,,,,,,,,,,KACT 120120Z AUTO 02013KT 7SM FEW016 OVC027 M01/M03 A3013 RMK T10101030 MADISHF
ACT,2021-02-12 01:25,,,,20.00,15.00,,30.14,,7.00,,FEW,BKN,BKN,,1699.00,2700.00,12000.00,,,,,,,,,,KACT 120125Z AUTO 02015KT 7SM FEW016 BKN027 BKN120 M01/M03 A3013 RMK T10101030 MADISHF
ACT,2021-02-12 01:30,,,,10.00,10.00,,30.15,,7.00,,FEW,BKN,BKN,,1699.00,2700.00,3999.00,,,,,,,,,,KACT 120130Z AUTO 01010KT 7SM FEW016 BKN027 BKN039 M01/M04 A3014 RMK T10101040 MADISHF
ACT,2021-02-12 01:35,,,,360.00,11.00,,30.16,,8.00,17.00,FEW,BKN,BKN,,1699.00,2700.00,3999.00,,,,,,,,,,KACT 120135Z AUTO 36011G17KT 8SM FEW016 BKN027 BKN039 M01/M04 A3015 RMK T10101040 MADISHF
ACT,2021-02-12 01:40,,,,360.00,11.00,,30.17,,8.00,,BKN,BKN,,,2700.00,4100.00,,,,,,,,,,,KACT 120140Z AUTO 36011KT 8SM BKN027 BKN041 M01/M04 A3017 RMK T10101040 MADISHF
ACT,2021-02-12 01:45,,,,10.00,11.00,,30.17,,8.00,,BKN,BKN,,,2800.00,4100.00,,,,,,,,,,,KACT 120145Z AUTO 01011KT 8SM BKN028 BKN041 M01/M04 A3017 RMK T10101040 MADISHF
ACT,2021-02-12 01:50,,,,10.00,10.00,,30.17,,9.00,,BKN,OVC,,,2800.00,4100.00,,,,,,,,,,,KACT 120150Z AUTO 01010KT 9SM BKN028 OVC041 M01/M04 A3017 RMK T10101040 MADISHF
ACT,2021-02-12 01:51,30.00,25.00,81.40,360.00,10.00,0.00,30.17,1022.10,9.00,,BKN,OVC,,,2800.00,4100.00,,,,,,,,,,20.46,KACT 120151Z 36010KT 9SM BKN028 OVC041 M01/M04 A3017 RMK AO2 SLP221 T10111039
ACT,2021-02-12 01:55,,,,360.00,11.00,,30.17,,9.00,,BKN,OVC,,,2700.00,4100.00,,,,,,,,,,,KACT 120155Z AUTO 36011KT 9SM BKN027 OVC041 M01/M04 A3017 RMK T10101040 MADISHF
ACT,2021-02-12 02:00,,,,360.00,11.00,,30.18,,9.00,,OVC,,,,2700.00,,,,,,,,,,,,KACT 120200Z AUTO 36011KT 9SM OVC027 M01/M04 A3018 RMK T10101040 MADISHF
ACT,2021-02-12 02:05,,,,360.00,11.00,,30.18,,9.00,,OVC,,,,2700.00,,,,,,,,,,,,KACT 120205Z AUTO 36011KT 9SM OVC027 M01/M04 A3018 RMK T10101040 MADISHF
ACT,2021-02-12 02:10,,,,10.00,14.00,,30.16,,9.00,,OVC,,,,2700.00,,,,,,,,,,,,KACT 120210Z AUTO 01014KT 9SM OVC027 M01/M04 A3015 RMK T10101040 MADISHF
ACT,2021-02-12 02:15,,,,10.00,13.00,,30.16,,9.00,,OVC,,,,2700.00,,,,,,,,,,,,KACT 120215Z AUTO 01013KT 9SM OVC027 M01/M04 A3015 RMK T10101040 MADISHF
ACT,2021-02-12 02:20,,,,360.00,10.00,,30.17,,8.00,,OVC,,,,2700.00,,,,,,,,,,,,KACT 120220Z AUTO 36010KT 8SM OVC027 M01/M04 A3017 RMK T10101040 MADISHF
ACT,2021-02-12 02:25,,,,360.00,13.00,,30.17,,8.00,,OVC,,,,2700.00,,,,,,,,,,,,KACT 120225Z AUTO 36013KT 8SM OVC027 M01/M04 A3017 RMK T10101040 MADISHF
ACT,2021-02-12 02:30,,,,360.00,10.00,,30.18,,8.00,,OVC,,,,2700.00,,,,,,,,,,,,KACT 120230Z AUTO 36010KT 8SM OVC027 M01/M04 A3018 RMK T10101040 MADISHF
ACT,2021-02-12 02:35,,,,360.00,11.00,,30.18,,8.00,19.00,OVC,,,,2700.00,,,,,,,,,,,,KACT 120235Z AUTO 36011G19KT 8SM OVC027 M01/M04 A3018 RMK T10101040 MADISHF
ACT,2021-02-12 02:40,,,,360.00,10.00,,30.18,,8.00,,OVC,,,,2700.00,,,,,,,,,,,,KACT 120240Z AUTO 36010KT 8SM OVC027 M01/M04 A3018 RMK T10101040 MADISHF
ACT,2021-02-12 02:45,,,,360.00,9.00,,30.19,,8.00,,OVC,,,,2600.00,,,,,,,,,,,,KACT 120245Z AUTO 36009KT 8SM OVC026 M01/M04 A3019 RMK T10101040 MADISHF
ACT,2021-02-12 02:50,,,,10.00,10.00,,30.18,,8.00,,OVC,,,,2600.00,,,,,,,,,,,,KACT 120250Z AUTO 01010KT 8SM OVC026 M01/M04 A3018 RMK T10101040 MADISHF
ACT,2021-02-12 02:51,30.00,25.00,81.40,360.00,10.00,0.00,30.19,1022.50,8.00,,OVC,,,,2600.00,,,,,,,,,,,20.46,KACT 120251Z 36010KT 8SM OVC026 M01/M04 A3019 RMK AO2 SLP225 T10111039 53001 $
ACT,2021-02-12 02:55,,,,360.00,10.00,,30.19,,8.00,,OVC,,,,2600.00,,,,,,,,,,,,KACT 120255Z AUTO 36010KT 8SM OVC026 M01/M04 A3019 RMK T10101040 MADISHF
ACT,2021-02-12 03:00,,,,360.00,11.00,,30.19,,8.00,,OVC,,,,2600.00,,,,,,,,,,,,KACT 120300Z AUTO 36011KT 8SM OVC026 M01/M04 A3019 RMK T10101040 MADISHF
ACT,2021-02-12 03:05,,,,350.00,9.00,,30.19,,8.00,,OVC,,,,2600.00,,,,,,,,,,,,KACT 120305Z AUTO 35009KT 8SM OVC026 M01/M04 A3019 RMK T10101040 MADISHF
ACT,2021-02-12 03:10,,,,350.00,10.00,,30.20,,8.00,,OVC,,,,2600.00,,,,,,,,,,,,KACT 120310Z AUTO 35010KT 8SM OVC026 M01/M04 A3020 RMK T10101040 MADISHF
ACT,2021-02-12 03:15,,,,350.00,8.00,,30.19,,8.00,,OVC,,,,2600.00,,,,,,,,,,,,KACT 120315Z AUTO 35008KT 8SM OVC026 M01/M04 A3019 RMK T10101040 MADISHF
ACT,2021-02-12 03:20,,,,360.00,9.00,,30.19,,8.00,,OVC,,,,2600.00,,,,,,,,,,,,KACT 120320Z AUTO 36009KT 8SM OVC026 M01/M04 A3019 RMK T10101040 MADISHF
ACT,2021-02-12 03:25,,,,360.00,11.00,,30.19,,8.00,,OVC,,,,2500.00,,,,,,,,,,,,KACT 120325Z AUTO 36011KT 8SM OVC025 M01/M04 A3019 RMK T10101040 MADISHF
ACT,2021-02-12 03:30,,,,360.00,10.00,,30.19,,8.00,,OVC,,,,2500.00,,,,,,,,,,,,KACT 120330Z AUTO 36010KT 8SM OVC025 M01/M04 A3019 RMK T10101040 MADISHF
ACT,2021-02-12 03:35,,,,360.00,14.00,,30.20,,8.00,19.00,OVC,,,,2500.00,,,,,,,,,,,,KACT 120335Z AUTO 36014G19KT 8SM OVC025 M01/M04 A3020 RMK T10101040 MADISHF
ACT,2021-02-12 03:40,,,,360.00,14.00,,30.20,,9.00,,OVC,,,,2500.00,,,,,,,,,,,,KACT 120340Z AUTO 36014KT 9SM OVC025 M01/M04 A3020 RMK T10101040 MADISHF
ACT,2021-02-12 03:45,,,,360.00,11.00,,30.19,,9.00,,OVC,,,,2500.00,,,,,,,,,,,,KACT 120345Z AUTO 36011KT 9SM OVC025 M02/M04 A3019 RMK T10201040 MADISHF
ACT,2021-02-12 03:50,,,,360.00,11.00,,30.19,,9.00,,OVC,,,,2500.00,,,,,,,,,,,,KACT 120350Z AUTO 36011KT 9SM OVC025 M02/M05 A3019 RMK T10201050 MADISHF
ACT,2021-02-12 03:51,28.90,23.00,78.30,360.00,13.00,0.00,30.20,1022.90,9.00,,OVC,,,,2500.00,,,,,,,,,,,17.60,KACT 120351Z 36013KT 9SM OVC025 M02/M05 A3020 RMK AO2 SLP229 T10171050 $
ACT,2021-02-12 03:55,,,,350.00,11.00,,30.20,,9.00,,OVC,,,,2500.00,,,,,,,,,,,,KACT 120355Z AUTO 35011KT 9SM OVC025 M02/M05 A3020 RMK T10201050 MADISHF
ACT,2021-02-12 04:00,,,,360.00,11.00,,30.20,,9.00,,OVC,,,,2500.00,,,,,,,,,,,,KACT 120400Z AUTO 36011KT 9SM OVC025 M02/M04 A3020 RMK T10201040 MADISHF
ACT,2021-02-12 04:05,,,,360.00,11.00,,30.20,,9.00,,OVC,,,,2500.00,,,,,,,,,,,,KACT 120405Z AUTO 36011KT 9SM OVC025 M02/M05 A3020 RMK T10201050 MADISHF
ACT,2021-02-12 04:10,,,,10.00,13.00,,30.20,,9.00,,OVC,,,,2500.00,,,,,,,,,,,,KACT 120410Z AUTO 01013KT 9SM OVC025 M02/M05 A3020 RMK T10201050 MADISHF
ACT,2021-02-12 04:15,,,,360.00,13.00,,30.20,,9.00,,OVC,,,,2500.00,,,,,,,,,,,,KACT 120415Z AUTO 36013KT 9SM OVC025 M02/M05 A3020 RMK T10201050 MADISHF
ACT,2021-02-12 04:20,,,,360.00,11.00,,30.20,,9.00,,OVC,,,,2500.00,,,,,,,,,,,,KACT 120420Z AUTO 36011KT 9SM OVC025 M02/M05 A3020 RMK T10201050 MADISHF
ACT,2021-02-12 04:25,,,,360.00,11.00,,30.20,,9.00,,OVC,,,,2400.00,,,,,,,,,,,,KACT 120425Z AUTO 36011KT 9SM OVC024 M02/M04 A3020 RMK T10201040 MADISHF
ACT,2021-02-12 04:30,,,,360.00,11.00,,30.20,,9.00,,OVC,,,,2400.00,,,,,,,,,,,,KACT 120430Z AUTO 36011KT 9SM OVC024 M02/M05 A3020 RMK T10201050 MADISHF
ACT,2021-02-12 04:35,,,,350.00,11.00,,30.20,,9.00,,OVC,,,,2400.00,,,,,,,,,,,,KACT 120435Z AUTO 35011KT 9SM OVC024 M02/M05 A3020 RMK T10201050 MADISHF
ACT,2021-02-12 04:40,,,,360.00,11.00,,30.20,,8.00,,OVC,,,,2400.00,,,,,,,,,,,,KACT 120440Z AUTO 36011KT 8SM OVC024 M02/M05 A3020 RMK T10201050 MADISHF
ACT,2021-02-12 04:45,,,,360.00,11.00,,30.20,,8.00,,OVC,,,,2400.00,,,,,,,,,,,,KACT 120445Z AUTO 36011KT 8SM OVC024 M02/M05 A3020 RMK T10201050 MADISHF
ACT,2021-02-12 04:50,,,,350.00,10.00,,30.21,,8.00,,OVC,,,,2400.00,,,,,,,,,,,,KACT 120450Z AUTO 35010KT 8SM OVC024 M02/M05 A3020 RMK T10201050 MADISHF
ACT,2021-02-12 04:51,28.90,23.00,78.30,350.00,10.00,0.00,30.21,1023.20,8.00,,OVC,,,,2400.00,,,,,,,,,,,19.08,KACT 120451Z 35010KT 8SM OVC024 M02/M05 A3021 RMK AO2 SLP232 T10171050 $
ACT,2021-02-12 04:55,,,,350.00,11.00,,30.21,,8.00,,OVC,,,,2400.00,,,,,,,,,,,,KACT 120455Z AUTO 35011KT 8SM OVC024 M02/M04 A3020 RMK T10201040 MADISHF
ACT,2021-02-12 05:00,,,,350.00,11.00,,30.21,,8.00,17.00,OVC,,,,2400.00,,,,,,,,,,,,KACT 120500Z AUTO 35011G17KT 8SM OVC024 M02/M04 A3020 RMK T10201040 MADISHF
ACT,2021-02-12 05:05,,,,350.00,11.00,,30.21,,8.00,,OVC,,,,2400.00,,,,,,,,,,,,KACT 120505Z AUTO 35011KT 8SM OVC024 M02/M05 A3020 RMK T10201050 MADISHF
ACT,2021-02-12 05:10,,,,360.00,11.00,,30.20,,8.00,,OVC,,,,2300.00,,,,,,,,,,,,KACT 120510Z AUTO 36011KT 8SM OVC023 M02/M04 A3020 RMK T10201040 MADISHF
ACT,2021-02-12 05:15,,,,360.00,10.00,,30.20,,8.00,,OVC,,,,2300.00,,,,,,,,,,,,KACT 120515Z AUTO 36010KT 8SM OVC023 M02/M04 A3020 RMK T10201040 MADISHF
ACT,2021-02-12 05:20,,,,360.00,11.00,,30.20,,8.00,,OVC,,,,2300.00,,,,,,,,,,,,KACT 120520Z AUTO 36011KT 8SM OVC023 M02/M04 A3020 RMK T10201040 MADISHF
ACT,2021-02-12 05:25,,,,360.00,13.00,,30.20,,8.00,,OVC,,,,2300.00,,,,,,,,,,,,KACT 120525Z AUTO 36013KT 8SM OVC023 M02/M05 A3020 RMK T10201050 MADISHF
ACT,2021-02-12 05:30,,,,360.00,11.00,,30.20,,8.00,,OVC,,,,2100.00,,,,,,,,,,,,KACT 120530Z AUTO 36011KT 8SM OVC021 M02/M05 A3020 RMK T10201050 MADISHF
ACT,2021-02-12 05:35,,,,350.00,10.00,,30.21,,8.00,,OVC,,,,2100.00,,,,,,,,,,,,KACT 120535Z AUTO 35010KT 8SM OVC021 M02/M05 A3020 RMK T10201050 MADISHF
ACT,2021-02-12 05:40,,,,340.00,8.00,,30.22,,8.00,,OVC,,,,2100.00,,,,,,,,,,,,KACT 120540Z AUTO 34008KT 8SM OVC021 M02/M04 A3021 RMK T10201040 MADISHF
ACT,2021-02-12 05:45,,,,340.00,8.00,,30.22,,8.00,,OVC,,,,1800.00,,,,,,,,,,,,KACT 120545Z AUTO 34008KT 8SM OVC018 M02/M04 A3021 RMK T10201040 MADISHF
ACT,2021-02-12 05:50,,,,350.00,10.00,,30.22,,8.00,15.00,OVC,,,,1800.00,,,,,,,,,,,,KACT 120550Z AUTO 35010G15KT 8SM OVC018 M02/M04 A3021 RMK T10201040 MADISHF
ACT,2021-02-12 05:51,28.90,24.10,82.00,350.00,10.00,0.00,30.22,1023.80,8.00,,OVC,,,,1800.00,,,,,,,,,,,19.08,KACT 120551Z 35010KT 8SM OVC018 M02/M04 A3022 RMK AO2 SLP238 T10171044 11011 21017 410061022 53013 $
ACT,2021-02-12 05:55,,,,350.00,9.00,,30.22,,8.00,,OVC,,,,1800.00,,,,,,,,,,,,KACT 120555Z AUTO 35009KT 8SM OVC018 M02/M05 A3021 RMK T10201050 MADISHF
ACT,2021-02-12 06:00,,,,340.00,9.00,,30.22,,8.00,,OVC,,,,1800.00,,,,,,,,,,,,KACT 120600Z AUTO 34009KT 8SM OVC018 M02/M04 A3021 RMK T10201040 MADISHF
ACT,2021-02-12 06:05,,,,350.00,10.00,,30.22,,8.00,,OVC,,,,1800.00,,,,,,,,,,,,KACT 120605Z AUTO 35010KT 8SM OVC018 M02/M04 A3021 RMK T10201040 MADISHF
ACT,2021-02-12 06:10,,,,350.00,11.00,,30.22,,8.00,,OVC,,,,1800.00,,,,,,,,,,,,KACT 120610Z AUTO 35011KT 8SM OVC018 M02/M05 A3021 RMK T10201050 MADISHF
ACT,2021-02-12 06:15,,,,350.00,11.00,,30.22,,8.00,,OVC,,,,1800.00,,,,,,,,,,,,KACT 120615Z AUTO 35011KT 8SM OVC018 M02/M05 A3021 RMK T10201050 MADISHF
ACT,2021-02-12 06:20,,,,350.00,10.00,,30.22,,8.00,,OVC,,,,1800.00,,,,,,,,,,,,KACT 120620Z AUTO 35010KT 8SM OVC018 M02/M05 A3021 RMK T10201050 MADISHF
ACT,2021-02-12 06:25,,,,350.00,9.00,,30.22,,8.00,,OVC,,,,1800.00,,,,,,,,,,,,KACT 120625Z AUTO 35009KT 8SM OVC018 M02/M05 A3021 RMK T10201050 MADISHF
ACT,2021-02-12 06:30,,,,350.00,10.00,,30.22,,8.00,,OVC,,,,1999.00,,,,,,,,,,,,KACT 120630Z AUTO 35010KT 8SM OVC019 M02/M05 A3021 RMK T10201050 MADISHF
ACT,2021-02-12 06:35,,,,350.00,10.00,,30.21,,8.00,,OVC,,,,1999.00,,,,,,,,,,,,KACT 120635Z AUTO 35010KT 8SM OVC019 M02/M05 A3020 RMK T10201050 MADISHF
ACT,2021-02-12 06:40,,,,350.00,9.00,,30.21,,8.00,,OVC,,,,1999.00,,,,,,,,,,,,KACT 120640Z AUTO 35009KT 8SM OVC019 M02/M05 A3020 RMK T10201050 MADISHF
ACT,2021-02-12 06:45,,,,350.00,8.00,,30.21,,8.00,,OVC,,,,1999.00,,,,,,,,,,,,KACT 120645Z AUTO 35008KT 8SM OVC019 M02/M04 A3020 RMK T10201040 MADISHF
ACT,2021-02-12 06:50,,,,350.00,10.00,,30.21,,8.00,16.00,OVC,,,,1999.00,,,,,,,,,,,,KACT 120650Z AUTO 35010G16KT 8SM OVC019 M02/M04 A3020 RMK T10201040 MADISHF
ACT,2021-02-12 06:51,28.90,24.10,82.00,350.00,12.00,0.00,30.21,1023.30,8.00,,OVC,,,,2000.00,,,,,,,,,,,18.06,KACT 120651Z AUTO 35012KT 8SM OVC020 M02/M04 A3021 RMK AO2 SLP233 T10171044 $
ACT,2021-02-12 06:55,,,,350.00,11.00,,30.21,,8.00,17.00,OVC,,,,1999.00,,,,,,,,,,,,KACT 120655Z AUTO 35011G17KT 8SM OVC019 M02/M05 A3020 RMK T10201050 MADISHF
ACT,2021-02-12 07:00,,,,350.00,14.00,,30.21,,8.00,,OVC,,,,1900.00,,,,,,,,,,,,KACT 120700Z AUTO 35014KT 8SM OVC019 M02/M05 A3020 RMK T10201050 MADISHF
ACT,2021-02-12 07:05,,,,350.00,13.00,,30.21,,8.00,18.00,OVC,,,,1900.00,,,,,,,,,,,,KACT 120705Z AUTO 35013G18KT 8SM OVC019 M02/M05 A3020 RMK T10201050 MADISHF
ACT,2021-02-12 07:10,,,,350.00,14.00,,30.21,,7.00,,OVC,,,,1900.00,,,,,,,,,,,,KACT 120710Z AUTO 35014KT 7SM OVC019 M02/M05 A3020 RMK T10201050 MADISHF
ACT,2021-02-12 07:15,,,,350.00,13.00,,30.21,,7.00,,OVC,,,,1800.00,,,,,,,,,,,,KACT 120715Z AUTO 35013KT 7SM OVC018 M02/M05 A3020 RMK T10201050 MADISHF
ACT,2021-02-12 07:20,,,,350.00,13.00,,30.21,,7.00,,OVC,,,,1800.00,,,,,,,,,,,,KACT 120720Z AUTO 35013KT 7SM OVC018 M02/M05 A3020 RMK T10201050 MADISHF
ACT,2021-02-12 07:25,,,,350.00,11.00,,30.21,,7.00,,OVC,,,,1600.00,,,,,,,,,,,,KACT 120725Z AUTO 35011KT 7SM OVC016 M02/M05 A3020 RMK T10201050 MADISHF
ACT,2021-02-12 07:30,,,,350.00,11.00,,30.21,,7.00,16.00,OVC,,,,1600.00,,,,,,,,,,,,KACT 120730Z AUTO 35011G16KT 7SM OVC016 M02/M05 A3020 RMK T10201050 MADISHF
ACT,2021-02-12 07:35,,,,350.00,13.00,,30.21,,6.00,18.00,OVC,,,,1400.00,,,,HZ,,,,,,,,KACT 120735Z AUTO 35013G18KT 6SM HZ OVC014 M02/M05 A3020 RMK T10201050 MADISHF
ACT,2021-02-12 07:40,,,,350.00,15.00,,30.22,,6.00,,OVC,,,,1400.00,,,,HZ,,,,,,,,KACT 120740Z AUTO 35015KT 6SM HZ OVC014 M02/M05 A3021 RMK T10201050 MADISHF
ACT,2021-02-12 07:45,,,,350.00,14.00,,30.21,,6.00,,OVC,,,,1200.00,,,,HZ,,,,,,,,KACT 120745Z AUTO 35014KT 6SM HZ OVC012 M02/M05 A3020 RMK T10201050 MADISHF
ACT,2021-02-12 07:50,,,,350.00,11.00,,30.21,,6.00,,OVC,,,,1200.00,,,,HZ,,,,,,,,KACT 120750Z AUTO 35011KT 6SM HZ OVC012 M02/M05 A3020 RMK T10201050 MADISHF
ACT,2021-02-12 07:51,28.00,23.00,81.25,360.00,12.00,0.00,30.21,1023.50,6.00,21.00,OVC,,,,1200.00,,,,HZ,,,,,,,16.91,KACT 120751Z AUTO 36012G21KT 6SM HZ OVC012 M02/M05 A3021 RMK AO2 SLP235 T10221050 $
ACT,2021-02-12 07:55,,,,350.00,11.00,,30.21,,6.00,17.00,OVC,,,,1200.00,,,,HZ,,,,,,,,KACT 120755Z AUTO 35011G17KT 6SM HZ OVC012 M02/M05 A3020 RMK T10201050 MADISHF
ACT,2021-02-12 08:00,,,,350.00,11.00,,30.21,,6.00,,OVC,,,,1200.00,,,,HZ,,,,,,,,KACT 120800Z AUTO 35011KT 6SM HZ OVC012 M02/M05 A3020 RMK T10201050 MADISHF
ACT,2021-02-12 08:05,,,,350.00,11.00,,30.21,,6.00,18.00,OVC,,,,1200.00,,,,HZ,,,,,,,,KACT 120805Z AUTO 35011G18KT 6SM HZ OVC012 M02/M05 A3020 RMK T10201050 MADISHF
ACT,2021-02-12 08:10,,,,360.00,13.00,,30.21,,6.00,,OVC,,,,1300.00,,,,HZ,,,,,,,,KACT 120810Z AUTO 36013KT 6SM HZ OVC013 M02/M05 A3020 RMK T10201050 MADISHF
ACT,2021-02-12 08:15,,,,360.00,13.00,,30.21,,7.00,,OVC,,,,1300.00,,,,,,,,,,,,KACT 120815Z AUTO 36013KT 7SM OVC013 M02/M05 A3020 RMK T10201050 MADISHF
ACT,2021-02-12 08:20,,,,350.00,11.00,,30.21,,7.00,,OVC,,,,1300.00,,,,,,,,,,,,KACT 120820Z AUTO 35011KT 7SM OVC013 M02/M05 A3020 RMK T10201050 MADISHF
ACT,2021-02-12 08:25,,,,360.00,11.00,,30.22,,6.00,,OVC,,,,1300.00,,,,HZ,,,,,,,,KACT 120825Z AUTO 36011KT 6SM HZ OVC013 M02/M05 A3021 RMK T10201050 MADISHF
ACT,2021-02-12 08:30,,,,10.00,15.00,,30.22,,6.00,,OVC,,,,1300.00,,,,HZ,,,,,,,,KACT 120830Z AUTO 01015KT 6SM HZ OVC013 M02/M05 A3021 RMK T10201050 MADISHF
ACT,2021-02-12 08:35,,,,360.00,16.00,,30.22,,7.00,,OVC,,,,1300.00,,,,,,,,,,,,KACT 120835Z AUTO 36016KT 7SM OVC013 M02/M05 A3021 RMK T10201050 MADISHF
ACT,2021-02-12 08:40,,,,10.00,15.00,,30.22,,7.00,,OVC,,,,1400.00,,,,,,,,,,,,KACT 120840Z AUTO 01015KT 7SM OVC014 M02/M05 A3021 RMK T10201050 MADISHF
ACT,2021-02-12 08:45,,,,360.00,14.00,,30.22,,7.00,21.00,OVC,,,,1400.00,,,,,,,,,,,,KACT 120845Z AUTO 36014G21KT 7SM OVC014 M02/M05 A3021 RMK T10201050 MADISHF
ACT,2021-02-12 08:50,,,,350.00,13.00,,30.22,,7.00,,OVC,,,,1400.00,,,,,,,,,,,,KACT 120850Z AUTO 35013KT 7SM OVC014 M03/M05 A3021 RMK T10301050 MADISHF
ACT,2021-02-12 08:51,27.00,23.00,84.66,360.00,12.00,0.00,30.22,1023.70,7.00,22.00,OVC,,,,1400.00,,,,,,,,,,,15.64,KACT 120851Z AUTO 36012G22KT 7SM OVC014 M03/M05 A3022 RMK AO2 SLP237 T10281050 55002 $
ACT,2021-02-12 08:55,,,,360.00,14.00,,30.22,,7.00,,OVC,,,,1400.00,,,,,,,,,,,,KACT 120855Z AUTO 36014KT 7SM OVC014 M03/M05 A3021 RMK T10301050 MADISHF
ACT,2021-02-12 09:00,,,,360.00,11.00,,30.23,,7.00,,OVC,,,,1400.00,,,,,,,,,,,,KACT 120900Z AUTO 36011KT 7SM OVC014 M03/M05 A3022 RMK T10301050 MADISHF
ACT,2021-02-12 09:05,,,,10.00,11.00,,30.22,,6.00,,OVC,,,,1400.00,,,,BR,,,,,,,,KACT 120905Z AUTO 01011KT 6SM BR OVC014 M03/M05 A3021 RMK T10301050 MADISHF
ACT,2021-02-12 09:10,,,,360.00,11.00,,30.22,,6.00,,OVC,,,,1300.00,,,,BR,,,,,,,,KACT 120910Z AUTO 36011KT 6SM BR OVC013 M03/M05 A3021 RMK T10301050 MADISHF
ACT,2021-02-12 09:15,,,,10.00,13.00,,30.22,,6.00,18.00,OVC,,,,1300.00,,,,BR,,,,,,,,KACT 120915Z AUTO 01013G18KT 6SM BR OVC013 M03/M05 A3021 RMK T10301050 MADISHF
ACT,2021-02-12 09:20,,,,360.00,13.00,,30.22,,6.00,,OVC,,,,1300.00,,,,BR,,,,,,,,KACT 120920Z AUTO 36013KT 6SM BR OVC013 M03/M05 A3021 RMK T10301050 MADISHF
ACT,2021-02-12 09:25,,,,360.00,11.00,,30.22,,6.00,,OVC,,,,1300.00,,,,BR,,,,,,,,KACT 120925Z AUTO 36011KT 6SM BR OVC013 M03/M05 A3021 RMK T10301050 MADISHF
ACT,2021-02-12 09:30,,,,360.00,11.00,,30.22,,6.00,,OVC,,,,1300.00,,,,BR,,,,,,,,KACT 120930Z AUTO 36011KT 6SM BR OVC013 M03/M05 A3021 RMK T10301050 MADISHF
ACT,2021-02-12 09:35,,,,10.00,14.00,,30.22,,6.00,,OVC,,,,1300.00,,,,BR,,,,,,,,KACT 120935Z AUTO 01014KT 6SM BR OVC013 M03/M05 A3021 RMK T10301050 MADISHF
ACT,2021-02-12 09:40,,,,10.00,15.00,,30.22,,6.00,,OVC,,,,1300.00,,,,BR,,,,,,,,KACT 120940Z AUTO 01015KT 6SM BR OVC013 M03/M05 A3021 RMK T10301050 MADISHF
ACT,2021-02-12 09:45,,,,360.00,13.00,,30.23,,6.00,,OVC,,,,1400.00,,,,BR,,,,,,,,KACT 120945Z AUTO 36013KT 6SM BR OVC014 M03/M05 A3022 RMK T10301050 MADISHF
ACT,2021-02-12 09:50,,,,360.00,14.00,,30.23,,6.00,,OVC,,,,1400.00,,,,HZ,,,,,,,,KACT 120950Z AUTO 36014KT 6SM HZ OVC014 M03/M06 A3022 RMK T10301060 MADISHF
ACT,2021-02-12 09:51,27.00,21.90,80.83,360.00,14.00,0.00,30.23,1024.00,6.00,,OVC,,,,1400.00,,,,HZ,,,,,,,14.72,KACT 120951Z AUTO 36014KT 6SM HZ OVC014 M03/M06 A3023 RMK AO2 SLP240 T10281056 $
ACT,2021-02-12 09:55,,,,,15.00,,30.23,,5.00,,OVC,,,,1400.00,,,,HZ,,,,,,,,KACT 120955Z AUTO ///15KT 5SM HZ OVC014 M03/M06 A3022 RMK T10301060 MADISHF
ACT,2021-02-12 10:00,,,,360.00,16.00,,30.23,,6.00,,OVC,,,,1300.00,,,,BR,,,,,,,,KACT 121000Z AUTO 36016KT 6SM BR OVC013 M03/M05 A3022 RMK T10301050 MADISHF
ACT,2021-02-12 10:05,,,,360.00,14.00,,30.23,,6.00,,OVC,,,,1300.00,,,,BR,,,,,,,,KACT 121005Z AUTO 36014KT 6SM BR OVC013 M03/M05 A3022 RMK T10301050 MADISHF
ACT,2021-02-12 10:10,,,,360.00,9.00,,30.23,,6.00,,OVC,,,,1100.00,,,,BR,,,,,,,,KACT 121010Z AUTO 36009KT 6SM BR OVC011 M03/M05 A3022 RMK T10301050 MADISHF
ACT,2021-02-12 10:15,,,,360.00,11.00,,30.23,,5.00,,OVC,,,,1100.00,,,,BR,,,,,,,,KACT 121015Z AUTO 36011KT 5SM BR OVC011 M03/M05 A3022 RMK T10301050 MADISHF
ACT,2021-02-12 10:20,,,,360.00,10.00,,30.24,,5.00,,OVC,,,,1100.00,,,,BR,,,,,,,,KACT 121020Z AUTO 36010KT 5SM BR OVC011 M03/M05 A3023 RMK T10301050 MADISHF
ACT,2021-02-12 10:25,,,,360.00,10.00,,30.24,,6.00,15.00,OVC,,,,1100.00,,,,BR,,,,,,,,KACT 121025Z AUTO 36010G15KT 6SM BR OVC011 M03/M05 A3023 RMK T10301050 MADISHF
ACT,2021-02-12 10:30,,,,360.00,11.00,,30.24,,6.00,,OVC,,,,1100.00,,,,BR,,,,,,,,KACT 121030Z AUTO 36011KT 6SM BR OVC011 M03/M05 A3023 RMK T10301050 MADISHF
ACT,2021-02-12 10:35,,,,350.00,11.00,,30.23,,6.00,,OVC,,,,1100.00,,,,BR,,,,,,,,KACT 121035Z AUTO 35011KT 6SM BR OVC011 M03/M05 A3022 RMK T10301050 MADISHF
ACT,2021-02-12 10:40,,,,360.00,13.00,,30.23,,5.00,,OVC,,,,1100.00,,,,BR,,,,,,,,KACT 121040Z AUTO 36013KT 5SM BR OVC011 M03/M05 A3022 RMK T10301050 MADISHF
ACT,2021-02-12 10:45,,,,360.00,11.00,,30.23,,5.00,,OVC,,,,1100.00,,,,BR,,,,,,,,KACT 121045Z AUTO 36011KT 5SM BR OVC011 M03/M05 A3022 RMK T10301050 MADISHF
ACT,2021-02-12 10:50,,,,350.00,11.00,,30.23,,5.00,18.00,OVC,,,,1100.00,,,,BR,,,,,,,,KACT 121050Z AUTO 35011G18KT 5SM BR OVC011 M03/M05 A3022 RMK T10301050 MADISHF
ACT,2021-02-12 10:51,27.00,23.00,84.66,350.00,12.00,0.00,30.23,1024.10,5.00,,OVC,,,,1100.00,,,,BR,,,,,,,15.64,KACT 121051Z AUTO 35012KT 5SM BR OVC011 M03/M05 A3023 RMK AO2 SLP241 T10281050 $
ACT,2021-02-12 10:55,,,,360.00,14.00,,30.23,,5.00,,OVC,,,,1100.00,,,,BR,,,,,,,,KACT 121055Z AUTO 36014KT 5SM BR OVC011 M03/M05 A3022 RMK T10301050 MADISHF
ACT,2021-02-12 11:00,,,,360.00,15.00,,30.23,,5.00,21.00,OVC,,,,1100.00,,,,BR,,,,,,,,KACT 121100Z AUTO 36015G21KT 5SM BR OVC011 M03/M05 A3022 RMK T10301050 MADISHF
ACT,2021-02-12 11:05,,,,360.00,11.00,,30.23,,5.00,,OVC,,,,1100.00,,,,HZ,,,,,,,,KACT 121105Z AUTO 36011KT 5SM HZ OVC011 M03/M06 A3022 RMK T10301060 MADISHF
ACT,2021-02-12 11:10,,,,360.00,11.00,,30.24,,6.00,,OVC,,,,1100.00,,,,BR,,,,,,,,KACT 121110Z AUTO 36011KT 6SM BR OVC011 M03/M05 A3023 RMK T10301050 MADISHF
ACT,2021-02-12 11:15,,,,10.00,14.00,,30.24,,6.00,19.00,OVC,,,,1100.00,,,,BR,,,,,,,,KACT 121115Z AUTO 01014G19KT 6SM BR OVC011 M03/M05 A3023 RMK T10301050 MADISHF
ACT,2021-02-12 11:20,,,,10.00,11.00,,30.25,,6.00,,OVC,,,,1100.00,,,,HZ,,,,,,,,KACT 121120Z AUTO 01011KT 6SM HZ OVC011 M03/M06 A3025 RMK T10301060 MADISHF
ACT,2021-02-12 11:25,,,,360.00,11.00,,30.25,,5.00,,OVC,,,,1100.00,,,,HZ,,,,,,,,KACT 121125Z AUTO 36011KT 5SM HZ OVC011 M03/M06 A3025 RMK T10301060 MADISHF
ACT,2021-02-12 11:30,,,,360.00,11.00,,30.25,,5.00,,OVC,,,,1100.00,,,,HZ,,,,,,,,KACT 121130Z AUTO 36011KT 5SM HZ OVC011 M03/M06 A3025 RMK T10301060 MADISHF
ACT,2021-02-12 11:35,,,,10.00,15.00,,30.25,,6.00,,OVC,,,,1100.00,,,,HZ,,,,,,,,KACT 121135Z AUTO 01015KT 6SM HZ OVC011 M03/M06 A3025 RMK T10301060 MADISHF
ACT,2021-02-12 11:40,,,,360.00,14.00,,30.25,,6.00,,OVC,,,,1100.00,,,,BR,,,,,,,,KACT 121140Z AUTO 36014KT 6SM BR OVC011 M03/M06 A3025 RMK T10301060 MADISHF
ACT,2021-02-12 11:45,,,,360.00,10.00,,30.25,,6.00,,OVC,,,,1100.00,,,,HZ,,,,,,,,KACT 121145Z AUTO 36010KT 6SM HZ OVC011 M03/M06 A3025 RMK T10301060 MADISHF
ACT,2021-02-12 11:50,,,,360.00,11.00,,30.25,,6.00,,OVC,,,,1300.00,,,,HZ,,,,,,,,KACT 121150Z AUTO 36011KT 6SM HZ OVC013 M03/M06 A3025 RMK T10301060 MADISHF
ACT,2021-02-12 11:51,27.00,21.90,80.83,360.00,12.00,0.00,30.24,1024.50,6.00,,OVC,,,,1300.00,,,,HZ,,,,,,,15.64,KACT 121151Z AUTO 36012KT 6SM HZ OVC013 M03/M06 A3024 RMK AO2 SLP245 70031 T10281056 11017 21033 51008 $
ACT,2021-02-12 11:55,,,,360.00,13.00,,30.24,,6.00,,OVC,,,,1300.00,,,,HZ,,,,,,,,KACT 121155Z AUTO 36013KT 6SM HZ OVC013 M03/M06 A3023 RMK T10301060 MADISHF
ACT,2021-02-12 12:00,,,,360.00,11.00,,30.24,,6.00,,OVC,,,,1300.00,,,,HZ,,,,,,,,KACT 121200Z AUTO 36011KT 6SM HZ OVC013 M03/M06 A3023 RMK T10301060 MADISHF
ACT,2021-02-12 12:05,,,,350.00,13.00,,30.25,,6.00,,OVC,,,,1300.00,,,,HZ,,,,,,,,KACT 121205Z AUTO 35013KT 6SM HZ OVC013 M03/M06 A3025 RMK T10301060 MADISHF
ACT,2021-02-12 12:10,,,,360.00,13.00,,30.25,,7.00,,OVC,,,,1300.00,,,,,,,,,,,,KACT 121210Z AUTO 36013KT 7SM OVC013 M03/M06 A3025 RMK T10301060 MADISHF
ACT,2021-02-12 12:15,,,,360.00,11.00,,30.25,,7.00,,OVC,,,,1300.00,,,,,,,,,,,,KACT 121215Z AUTO 36011KT 7SM OVC013 M03/M06 A3025 RMK T10301060 MADISHF
ACT,2021-02-12 12:20,,,,360.00,11.00,,30.25,,7.00,,OVC,,,,1400.00,,,,,,,,,,,,KACT 121220Z AUTO 36011KT 7SM OVC014 M03/M06 A3025 RMK T10301060 MADISHF
ACT,2021-02-12 12:25,,,,350.00,11.00,,30.25,,7.00,,OVC,,,,1400.00,,,,,,,,,,,,KACT 121225Z AUTO 35011KT 7SM OVC014 M03/M06 A3025 RMK T10301060 MADISHF
ACT,2021-02-12 12:30,,,,350.00,11.00,,30.25,,7.00,19.00,OVC,,,,1300.00,,,,,,,,,,,,KACT 121230Z AUTO 35011G19KT 7SM OVC013 M03/M06 A3025 RMK T10301060 MADISHF
ACT,2021-02-12 12:35,,,,360.00,13.00,,30.25,,7.00,,OVC,,,,1300.00,,,,,,,,,,,,KACT 121235Z AUTO 36013KT 7SM OVC013 M03/M06 A3025 RMK T10301060 MADISHF
ACT,2021-02-12 12:40,,,,360.00,14.00,,30.26,,6.00,,OVC,,,,1300.00,,,,BR,,,,,,,,KACT 121240Z AUTO 36014KT 6SM BR OVC013 M03/M06 A3026 RMK T10301060 MADISHF
ACT,2021-02-12 12:45,,,,350.00,15.00,,30.26,,6.00,,OVC,,,,1200.00,,,,BR,,,,,,,,KACT 121245Z AUTO 35015KT 6SM BR OVC012 M03/M06 A3026 RMK T10301060 MADISHF
ACT,2021-02-12 12:50,,,,350.00,16.00,,30.25,,6.00,,OVC,,,,1200.00,,,,BR,,,,,,,,KACT 121250Z AUTO 35016KT 6SM BR OVC012 M03/M06 A3025 RMK T10301060 MADISHF
ACT,2021-02-12 12:51,26.10,21.90,83.89,350.00,15.00,0.00,30.25,1024.70,6.00,19.00,OVC,,,,1200.00,,,,BR,,,,,,,13.13,KACT 121251Z 35015G19KT 6SM BR OVC012 M03/M06 A3025 RMK AO2 SLP247 T10331056 $
ACT,2021-02-12 12:55,,,,350.00,16.00,,30.25,,7.00,,OVC,,,,1200.00,,,,,,,,,,,,KACT 121255Z AUTO 35016KT 7SM OVC012 M03/M06 A3025 RMK T10301060 MADISHF
ACT,2021-02-12 13:00,,,,350.00,14.00,,30.25,,7.00,,OVC,,,,1100.00,,,,,,,,,,,,KACT 121300Z AUTO 35014KT 7SM OVC011 M03/M06 A3025 RMK T10301060 MADISHF
ACT,2021-02-12 13:05,,,,360.00,13.00,,30.26,,7.00,,OVC,,,,1100.00,,,,,,,,,,,,KACT 121305Z AUTO 36013KT 7SM OVC011 M03/M06 A3026 RMK T10301060 MADISHF
ACT,2021-02-12 13:10,,,,350.00,14.00,,30.26,,7.00,,OVC,,,,1100.00,,,,,,,,,,,,KACT 121310Z AUTO 35014KT 7SM OVC011 M03/M06 A3026 RMK T10301060 MADISHF
ACT,2021-02-12 13:15,,,,350.00,10.00,,30.27,,7.00,,OVC,,,,1100.00,,,,,,,,,,,,KACT 121315Z AUTO 35010KT 7SM OVC011 M03/M06 A3027 RMK T10301060 MADISHF
ACT,2021-02-12 13:20,,,,350.00,14.00,,30.27,,7.00,,OVC,,,,1100.00,,,,,,,,,,,,KACT 121320Z AUTO 35014KT 7SM OVC011 M03/M06 A3027 RMK T10301060 MADISHF
ACT,2021-02-12 13:25,,,,350.00,11.00,,30.27,,7.00,,OVC,,,,1200.00,,,,,,,,,,,,KACT 121325Z AUTO 35011KT 7SM OVC012 M03/M06 A3027 RMK T10301060 MADISHF
ACT,2021-02-12 13:30,,,,350.00,13.00,,30.27,,7.00,,OVC,,,,1200.00,,,,,,,,,,,,KACT 121330Z AUTO 35013KT 7SM OVC012 M03/M06 A3027 RMK T10301060 MADISHF
ACT,2021-02-12 13:35,,,,360.00,11.00,,30.27,,7.00,18.00,OVC,,,,1300.00,,,,,,,,,,,,KACT 121335Z AUTO 36011G18KT 7SM OVC013 M03/M06 A3027 RMK T10301060 MADISHF
ACT,2021-02-12 13:40,,,,350.00,11.00,,30.27,,6.00,,OVC,,,,1300.00,,,,BR,,,,,,,,KACT 121340Z AUTO 35011KT 6SM BR OVC013 M03/M06 A3027 RMK T10301060 MADISHF
ACT,2021-02-12 13:45,,,,350.00,11.00,,30.28,,6.00,17.00,OVC,,,,1300.00,,,,BR,,,,,,,,KACT 121345Z AUTO 35011G17KT 6SM BR OVC013 M03/M06 A3028 RMK T10301060 MADISHF
ACT,2021-02-12 13:50,,,,350.00,13.00,,30.28,,6.00,,OVC,,,,1300.00,,,,BR,,,,,,,,KACT 121350Z AUTO 35013KT 6SM BR OVC013 M03/M06 A3028 RMK T10301060 MADISHF
ACT,2021-02-12 13:51,26.10,21.90,83.89,350.00,13.00,0.00,30.28,1025.70,6.00,,OVC,,,,1400.00,,,,BR,,,,,,,14.01,KACT 121351Z 35013KT 6SM BR OVC014 M03/M06 A3028 RMK AO2 SLP257 T10331056 $
ACT,2021-02-12 13:55,,,,350.00,11.00,,30.28,,6.00,,OVC,,,,1400.00,,,,BR,,,,,,,,KACT 121355Z AUTO 35011KT 6SM BR OVC014 M03/M06 A3028 RMK T10301060 MADISHF
ACT,2021-02-12 14:00,,,,360.00,13.00,,30.28,,6.00,,OVC,,,,1400.00,,,,BR,,,,,,,,KACT 121400Z AUTO 36013KT 6SM BR OVC014 M03/M06 A3028 RMK T10301060 MADISHF
ACT,2021-02-12 14:05,,,,350.00,11.00,,30.28,,6.00,,OVC,,,,1400.00,,,,BR,,,,,,,,KACT 121405Z AUTO 35011KT 6SM BR OVC014 M03/M06 A3028 RMK T10301060 MADISHF
ACT,2021-02-12 14:10,,,,350.00,14.00,,30.28,,6.00,,OVC,,,,1400.00,,,,BR,,,,,,,,KACT 121410Z AUTO 35014KT 6SM BR OVC014 M03/M06 A3028 RMK T10301060 MADISHF
ACT,2021-02-12 14:15,,,,350.00,11.00,,30.27,,6.00,,OVC,,,,1400.00,,,,HZ,,,,,,,,KACT 121415Z AUTO 35011KT 6SM HZ OVC014 M03/M06 A3027 RMK T10301060 MADISHF
ACT,2021-02-12 14:20,,,,350.00,11.00,,30.27,,6.00,,OVC,,,,1500.00,,,,HZ,,,,,,,,KACT 121420Z AUTO 35011KT 6SM HZ OVC015 M03/M06 A3027 RMK T10301060 MADISHF
ACT,2021-02-12 14:24,27.00,21.90,80.83,350.00,13.00,0.00,30.27,,6.00,,OVC,,,,1500.00,,,,HZ,,,,,,,15.16,KACT 121424Z 35013KT 6SM HZ OVC015 M03/M06 A3027 RMK AO2 T10281056
ACT,2021-02-12 14:25,,,,350.00,11.00,,30.27,,6.00,,OVC,,,,1500.00,,,,HZ,,,,,,,,KACT 121425Z AUTO 35011KT 6SM HZ OVC015 M03/M06 A3027 RMK T10301060 MADISHF
ACT,2021-02-12 14:30,,,,350.00,11.00,,30.28,,6.00,,OVC,,,,1500.00,,,,HZ,,,,,,,,KACT 121430Z AUTO 35011KT 6SM HZ OVC015 M03/M06 A3028 RMK T10301060 MADISHF
ACT,2021-02-12 14:35,,,,350.00,15.00,,30.27,,6.00,,OVC,,,,1500.00,,,,HZ,,,,,,,,KACT 121435Z AUTO 35015KT 6SM HZ OVC015 M03/M06 A3027 RMK T10301060 MADISHF
ACT,2021-02-12 14:40,,,,350.00,15.00,,30.27,,6.00,,OVC,,,,1500.00,,,,HZ,,,,,,,,KACT 121440Z AUTO 35015KT 6SM HZ OVC015 M03/M06 A3027 RMK T10301060 MADISHF
ACT,2021-02-12 14:45,,,,350.00,15.00,,30.27,,6.00,,OVC,,,,1500.00,,,,HZ,,,,,,,,KACT 121445Z AUTO 35015KT 6SM HZ OVC015 M03/M06 A3027 RMK T10301060 MADISHF
ACT,2021-02-12 14:50,,,,350.00,15.00,,30.27,,6.00,,BKN,OVC,,,1500.00,5000.00,,,HZ,,,,,,,,KACT 121450Z AUTO 35015KT 6SM HZ BKN015 OVC050 M03/M06 A3027 RMK T10301060 MADISHF
ACT,2021-02-12 14:51,27.00,21.90,80.83,350.00,15.00,0.00,30.27,1025.40,6.00,,BKN,OVC,,,1500.00,5000.00,,,HZ,,,,,,,14.30,KACT 121451Z 35015KT 6SM HZ BKN015 OVC050 M03/M06 A3027 RMK AO2 SLP254 T10281056 50008
ACT,2021-02-12 14:55,,,,350.00,14.00,,30.27,,6.00,,BKN,OVC,,,1500.00,5000.00,,,HZ,,,,,,,,KACT 121455Z AUTO 35014KT 6SM HZ BKN015 OVC050 M03/M06 A3027 RMK T10301060 MADISHF
ACT,2021-02-12 15:00,,,,350.00,14.00,,30.27,,6.00,,BKN,OVC,,,1500.00,5000.00,,,HZ,,,,,,,,KACT 121500Z AUTO 35014KT 6SM HZ BKN015 OVC050 M03/M06 A3027 RMK T10301060 MADISHF
ACT,2021-02-12 15:05,,,,340.00,10.00,,30.28,,6.00,,BKN,OVC,,,1500.00,5000.00,,,BR,,,,,,,,KACT 121505Z AUTO 34010KT 6SM BR BKN015 OVC050 M03/M05 A3028 RMK T10301050 MADISHF
ACT,2021-02-12 15:10,,,,340.00,13.00,,30.28,,6.00,,BKN,OVC,,,1500.00,5000.00,,,BR,,,,,,,,KACT 121510Z AUTO 34013KT 6SM BR BKN015 OVC050 M03/M05 A3028 RMK T10301050 MADISHF
ACT,2021-02-12 15:15,,,,340.00,10.00,,30.28,,6.00,,OVC,,,,1500.00,,,,BR,,,,,,,,KACT 121515Z AUTO 34010KT 6SM BR OVC015 M03/M05 A3028 RMK T10301050 MADISHF
ACT,2021-02-12 15:20,,,,340.00,13.00,,30.28,,6.00,,OVC,,,,1500.00,,,,HZ,,,,,,,,KACT 121520Z AUTO 34013KT 6SM HZ OVC015 M03/M06 A3028 RMK T10301060 MADISHF
ACT,2021-02-12 15:25,,,,340.00,14.00,,30.28,,6.00,,OVC,,,,1400.00,,,,HZ,,,,,,,,KACT 121525Z AUTO 34014KT 6SM HZ OVC014 M03/M06 A3028 RMK T10301060 MADISHF
ACT,2021-02-12 15:30,,,,330.00,13.00,,30.28,,6.00,,OVC,,,,1400.00,,,,BR,,,,,,,,KACT 121530Z AUTO 33013KT 6SM BR OVC014 M03/M05 A3028 RMK T10301050 MADISHF
ACT,2021-02-12 15:35,,,,340.00,14.00,,30.28,,5.00,,OVC,,,,1400.00,,,,BR,,,,,,,,KACT 121535Z AUTO 34014KT 5SM BR OVC014 M03/M05 A3028 RMK T10301050 MADISHF
ACT,2021-02-12 15:40,,,,340.00,13.00,,30.28,,5.00,,OVC,,,,1400.00,,,,BR,,,,,,,,KACT 121540Z AUTO 34013KT 5SM BR OVC014 M03/M05 A3028 RMK T10301050 MADISHF
ACT,2021-02-12 15:45,,,,350.00,11.00,,30.28,,5.00,,OVC,,,,1400.00,,,,BR,,,,,,,,KACT 121545Z AUTO 35011KT 5SM BR OVC014 M03/M05 A3028 RMK T10301050 MADISHF
ACT,2021-02-12 15:50,,,,350.00,11.00,,30.28,,5.00,,OVC,,,,1400.00,,,,HZ,,,,,,,,KACT 121550Z AUTO 35011KT 5SM HZ OVC014 M02/M05 A3028 RMK T10201050 MADISHF
ACT,2021-02-12 15:51,28.00,23.00,81.25,350.00,12.00,0.00,30.29,1025.90,5.00,,OVC,,,,1400.00,,,,HZ,,,,,,,16.91,KACT 121551Z 35012KT 5SM HZ OVC014 M02/M05 A3029 RMK AO2 SLP259 T10221050
ACT,2021-02-12 15:55,,,,350.00,11.00,,30.29,,5.00,,OVC,,,,1400.00,,,,HZ,,,,,,,,KACT 121555Z AUTO 35011KT 5SM HZ OVC014 M02/M05 A3029 RMK T10201050 MADISHF
ACT,2021-02-12 16:00,,,,340.00,13.00,,30.29,,5.00,18.00,OVC,,,,1400.00,,,,HZ,,,,,,,,KACT 121600Z AUTO 34013G18KT 5SM HZ OVC014 M02/M05 A3029 RMK T10201050 MADISHF
ACT,2021-02-12 16:05,,,,350.00,14.00,,30.29,,5.00,,OVC,,,,1400.00,,,,HZ,,,,,,,,KACT 121605Z AUTO 35014KT 5SM HZ OVC014 M02/M05 A3029 RMK T10201050 MADISHF
ACT,2021-02-12 16:10,,,,360.00,13.00,,30.29,,5.00,,OVC,,,,1400.00,,,,HZ,,,,,,,,KACT 121610Z AUTO 36013KT 5SM HZ OVC014 M02/M05 A3029 RMK T10201050 MADISHF
ACT,2021-02-12 16:15,,,,350.00,11.00,,30.29,,5.00,17.00,OVC,,,,1400.00,,,,HZ,,,,,,,,KACT 121615Z AUTO 35011G17KT 5SM HZ OVC014 M02/M05 A3029 RMK T10201050 MADISHF
ACT,2021-02-12 16:20,,,,350.00,11.00,,30.29,,5.00,,OVC,,,,1500.00,,,,HZ,,,,,,,,KACT 121620Z AUTO 35011KT 5SM HZ OVC015 M02/M05 A3029 RMK T10201050 MADISHF
ACT,2021-02-12 16:25,,,,360.00,13.00,,30.29,,6.00,,OVC,,,,1400.00,,,,HZ,,,,,,,,KACT 121625Z AUTO 36013KT 6SM HZ OVC014 M02/M05 A3029 RMK T10201050 MADISHF
ACT,2021-02-12 16:30,,,,360.00,11.00,,30.29,,6.00,,OVC,,,,1400.00,,,,HZ,,,,,,,,KACT 121630Z AUTO 36011KT 6SM HZ OVC014 M02/M05 A3029 RMK T10201050 MADISHF
ACT,2021-02-12 16:35,,,,350.00,13.00,,30.28,,6.00,18.00,OVC,,,,1400.00,,,,HZ,,,,,,,,KACT 121635Z AUTO 35013G18KT 6SM HZ OVC014 M02/M05 A3028 RMK T10201050 MADISHF
ACT,2021-02-12 16:40,,,,350.00,13.00,,30.28,,6.00,18.00,OVC,,,,1400.00,,,,HZ,,,,,,,,KACT 121640Z AUTO 35013G18KT 6SM HZ OVC014 M02/M05 A3028 RMK T10201050 MADISHF
ACT,2021-02-12 16:45,,,,350.00,16.00,,30.28,,6.00,,OVC,,,,1400.00,,,,HZ,,,,,,,,KACT 121645Z AUTO 35016KT 6SM HZ OVC014 M02/M05 A3028 RMK T10201050 MADISHF
ACT,2021-02-12 16:50,,,,350.00,15.00,,30.28,,6.00,,OVC,,,,1400.00,,,,HZ,,,,,,,,KACT 121650Z AUTO 35015KT 6SM HZ OVC014 M02/M05 A3028 RMK T10201050 MADISHF
ACT,2021-02-12 16:51,28.00,23.00,81.25,350.00,14.00,0.00,30.28,1025.60,6.00,20.00,OVC,,,,1400.00,,,,HZ,,,,,,,16.01,KACT 121651Z 35014G20KT 6SM HZ OVC014 M02/M05 A3028 RMK AO2 SLP256 T10221050
ACT,2021-02-12 16:55,,,,360.00,14.00,,30.28,,6.00,19.00,OVC,,,,1400.00,,,,HZ,,,,,,,,KACT 121655Z AUTO 36014G19KT 6SM HZ OVC014 M02/M05 A3028 RMK T10201050 MADISHF
ACT,2021-02-12 17:00,,,,350.00,14.00,,30.28,,5.00,,OVC,,,,1400.00,,,,HZ,,,,,,,,KACT 121700Z AUTO 35014KT 5SM HZ OVC014 M02/M05 A3028 RMK T10201050 MADISHF
ACT,2021-02-12 17:05,,,,350.00,14.00,,30.28,,6.00,19.00,OVC,,,,1400.00,,,,HZ,,,,,,,,KACT 121705Z AUTO 35014G19KT 6SM HZ OVC014 M02/M05 A3028 RMK T10201050 MADISHF
ACT,2021-02-12 17:10,,,,350.00,15.00,,30.28,,6.00,,OVC,,,,1400.00,,,,HZ,,,,,,,,KACT 121710Z AUTO 35015KT 6SM HZ OVC014 M02/M05 A3028 RMK T10201050 MADISHF
ACT,2021-02-12 17:15,,,,350.00,16.00,,30.28,,6.00,,OVC,,,,1400.00,,,,HZ,,,,,,,,KACT 121715Z AUTO 35016KT 6SM HZ OVC014 M02/M05 A3028 RMK T10201050 MADISHF
ACT,2021-02-12 17:20,,,,350.00,15.00,,30.28,,6.00,,OVC,,,,1400.00,,,,HZ,,,,,,,,KACT 121720Z AUTO 35015KT 6SM HZ OVC014 M02/M05 A3028 RMK T10201050 MADISHF
ACT,2021-02-12 17:25,,,,350.00,15.00,,30.27,,6.00,,OVC,,,,1400.00,,,,HZ,,,,,,,,KACT 121725Z AUTO 35015KT 6SM HZ OVC014 M02/M05 A3027 RMK T10201050 MADISHF
ACT,2021-02-12 17:30,,,,350.00,16.00,,30.27,,6.00,21.00,OVC,,,,1400.00,,,,HZ,,,,,,,,KACT 121730Z AUTO 35016G21KT 6SM HZ OVC014 M02/M05 A3027 RMK T10201050 MADISHF
ACT,2021-02-12 17:35,,,,360.00,11.00,,30.28,,6.00,,OVC,,,,1400.00,,,,HZ,,,,,,,,KACT 121735Z AUTO 36011KT 6SM HZ OVC014 M02/M05 A3028 RMK T10201050 MADISHF
ACT,2021-02-12 17:40,,,,360.00,17.00,,30.28,,6.00,,OVC,,,,1400.00,,,,HZ,,,,,,,,KACT 121740Z AUTO 36017KT 6SM HZ OVC014 M02/M04 A3028 RMK T10201040 MADISHF
ACT,2021-02-12 17:45,,,,350.00,15.00,,30.28,,6.00,,OVC,,,,1400.00,,,,HZ,,,,,,,,KACT 121745Z AUTO 35015KT 6SM HZ OVC014 M02/M05 A3028 RMK T10201050 MADISHF
ACT,2021-02-12 17:50,,,,350.00,14.00,,30.28,,6.00,,OVC,,,,1400.00,,,,HZ,,,,,,,,KACT 121750Z AUTO 35014KT 6SM HZ OVC014 M02/M05 A3028 RMK T10201050 MADISHF
ACT,2021-02-12 17:51,28.90,23.00,78.30,360.00,15.00,0.00,30.28,1025.60,6.00,,OVC,,,,1400.00,,,,HZ,,,,,,,16.76,KACT 121751Z 36015KT 6SM HZ OVC014 M02/M05 A3028 RMK AO2 SLP256 T10171050 11017 21033 50002
ACT,2021-02-12 17:55,,,,350.00,15.00,,30.27,,6.00,,OVC,,,,1600.00,,,,HZ,,,,,,,,KACT 121755Z AUTO 35015KT 6SM HZ OVC016 M02/M05 A3027 RMK T10201050 MADISHF
ACT,2021-02-12 17:58,28.90,23.00,78.30,350.00,15.00,0.00,30.28,,6.00,,OVC,,,,1600.00,,,,HZ,,,,,,,16.76,KACT 121758Z 35015KT 6SM HZ OVC016 M02/M05 A3028 RMK AO2 T10171050
ACT,2021-02-12 18:00,,,,350.00,14.00,,30.28,,6.00,,OVC,,,,1600.00,,,,HZ,,,,,,,,KACT 121800Z AUTO 35014KT 6SM HZ OVC016 M02/M05 A3028 RMK T10201050 MADISHF
ACT,2021-02-12 18:05,,,,350.00,15.00,,30.27,,6.00,,OVC,,,,1600.00,,,,HZ,,,,,,,,KACT 121805Z AUTO 35015KT 6SM HZ OVC016 M02/M05 A3027 RMK T10201050 MADISHF
ACT,2021-02-12 18:10,,,,350.00,14.00,,30.27,,6.00,,OVC,,,,1600.00,,,,HZ,,,,,,,,KACT 121810Z AUTO 35014KT 6SM HZ OVC016 M02/M05 A3027 RMK T10201050 MADISHF
ACT,2021-02-12 18:15,,,,350.00,15.00,,30.26,,6.00,21.00,OVC,,,,1600.00,,,,HZ,,,,,,,,KACT 121815Z AUTO 35015G21KT 6SM HZ OVC016 M02/M05 A3026 RMK T10201050 MADISHF
ACT,2021-02-12 18:20,,,,350.00,14.00,,30.26,,6.00,,OVC,,,,1600.00,,,,HZ,,,,,,,,KACT 121820Z AUTO 35014KT 6SM HZ OVC016 M02/M05 A3026 RMK T10201050 MADISHF
ACT,2021-02-12 18:25,,,,350.00,14.00,,30.27,,6.00,,OVC,,,,1600.00,,,,HZ,,,,,,,,KACT 121825Z AUTO 35014KT 6SM HZ OVC016 M02/M05 A3027 RMK T10201050 MADISHF
ACT,2021-02-12 18:30,,,,350.00,14.00,,30.26,,6.00,19.00,OVC,,,,1600.00,,,,HZ,,,,,,,,KACT 121830Z AUTO 35014G19KT 6SM HZ OVC016 M02/M05 A3026 RMK T10201050 MADISHF
ACT,2021-02-12 18:35,,,,350.00,14.00,,30.26,,6.00,,OVC,,,,1600.00,,,,HZ,,,,,,,,KACT 121835Z AUTO 35014KT 6SM HZ OVC016 M02/M05 A3026 RMK T10201050 MADISHF
ACT,2021-02-12 18:40,,,,360.00,16.00,,30.25,,6.00,21.00,OVC,,,,1600.00,,,,HZ,,,,,,,,KACT 121840Z AUTO 36016G21KT 6SM HZ OVC016 M02/M05 A3025 RMK T10201050 MADISHF
ACT,2021-02-12 18:45,,,,360.00,15.00,,30.25,,6.00,,OVC,,,,1600.00,,,,HZ,,,,,,,,KACT 121845Z AUTO 36015KT 6SM HZ OVC016 M02/M05 A3025 RMK T10201050 MADISHF
ACT,2021-02-12 18:50,,,,350.00,15.00,,30.25,,6.00,,OVC,,,,1600.00,,,,HZ,,,,,,,,KACT 121850Z AUTO 35015KT 6SM HZ OVC016 M02/M05 A3025 RMK T10201050 MADISHF
ACT,2021-02-12 18:51,28.90,23.00,78.30,350.00,17.00,0.00,30.25,1024.60,6.00,22.00,OVC,,,,1600.00,,,,HZ,,,,,,,16.01,KACT 121851Z 35017G22KT 6SM HZ OVC016 M02/M05 A3025 RMK AO2 SLP246 T10171050
ACT,2021-02-12 18:55,,,,350.00,16.00,,30.24,,6.00,21.00,OVC,,,,1600.00,,,,HZ,,,,,,,,KACT 121855Z AUTO 35016G21KT 6SM HZ OVC016 M02/M05 A3023 RMK T10201050 MADISHF
ACT,2021-02-12 19:00,,,,350.00,14.00,,30.25,,5.00,,OVC,,,,1600.00,,,,HZ,,,,,,,,KACT 121900Z AUTO 35014KT 5SM HZ OVC016 M02/M05 A3025 RMK T10201050 MADISHF
ACT,2021-02-12 19:05,,,,360.00,13.00,,30.25,,5.00,18.00,OVC,,,,1500.00,,,,HZ,,,,,,,,KACT 121905Z AUTO 36013G18KT 5SM HZ OVC015 M02/M05 A3025 RMK T10201050 MADISHF
ACT,2021-02-12 19:10,,,,10.00,14.00,,30.25,,5.00,,OVC,,,,1500.00,,,,HZ,,,,,,,,KACT 121910Z AUTO 01014KT 5SM HZ OVC015 M02/M05 A3025 RMK T10201050 MADISHF
ACT,2021-02-12 19:15,,,,10.00,14.00,,30.25,,5.00,,OVC,,,,1500.00,,,,HZ,,,,,,,,KACT 121915Z AUTO 01014KT 5SM HZ OVC015 M02/M05 A3025 RMK T10201050 MADISHF
ACT,2021-02-12 19:20,,,,360.00,16.00,,30.24,,5.00,,OVC,,,,1500.00,,,,HZ,,,,,,,,KACT 121920Z AUTO 36016KT 5SM HZ OVC015 M02/M05 A3023 RMK T10201050 MADISHF
ACT,2021-02-12 19:25,,,,360.00,17.00,,30.24,,5.00,,OVC,,,,1500.00,,,,HZ,,,,,,,,KACT 121925Z AUTO 36017KT 5SM HZ OVC015 M02/M05 A3023 RMK T10201050 MADISHF
ACT,2021-02-12 19:30,,,,350.00,16.00,,30.23,,5.00,,OVC,,,,1500.00,,,,HZ,,,,,,,,KACT 121930Z AUTO 35016KT 5SM HZ OVC015 M02/M05 A3022 RMK T10201050 MADISHF
ACT,2021-02-12 19:35,,,,360.00,15.00,,30.23,,5.00,22.00,OVC,,,,1500.00,,,,HZ,,,,,,,,KACT 121935Z AUTO 36015G22KT 5SM HZ OVC015 M02/M05 A3022 RMK T10201050 MADISHF
ACT,2021-02-12 19:40,,,,10.00,17.00,,30.23,,5.00,,OVC,,,,1500.00,,,,HZ,,,,,,,,KACT 121940Z AUTO 01017KT 5SM HZ OVC015 M02/M05 A3022 RMK T10201050 MADISHF
ACT,2021-02-12 19:45,,,,10.00,16.00,,30.23,,5.00,,OVC,,,,1500.00,,,,HZ,,,,,,,,KACT 121945Z AUTO 01016KT 5SM HZ OVC015 M02/M05 A3022 RMK T10201050 MADISHF
ACT,2021-02-12 19:50,,,,10.00,15.00,,30.24,,5.00,,OVC,,,,1500.00,,,,HZ,,,,,,,,KACT 121950Z AUTO 01015KT 5SM HZ OVC015 M02/M05 A3023 RMK T10201050 MADISHF
ACT,2021-02-12 19:51,28.00,23.00,81.25,10.00,16.00,0.00,30.24,1024.30,5.00,23.00,OVC,,,,1500.00,,,,HZ,,,,,,,15.20,KACT 121951Z 01016G23KT 5SM HZ OVC015 M02/M05 A3024 RMK AO2 SLP243 T10221050
ACT,2021-02-12 19:55,,,,10.00,17.00,,30.24,,5.00,22.00,OVC,,,,1699.00,,,,HZ,,,,,,,,KACT 121955Z AUTO 01017G22KT 5SM HZ OVC016 M02/M05 A3023 RMK T10201050 MADISHF
ACT,2021-02-12 20:00,,,,360.00,15.00,,30.24,,5.00,,OVC,,,,1699.00,,,,HZ,,,,,,,,KACT 122000Z AUTO 36015KT 5SM HZ OVC016 M02/M05 A3023 RMK T10201050 MADISHF
ACT,2021-02-12 20:05,,,,350.00,13.00,,30.24,,5.00,19.00,OVC,,,,1600.00,,,,HZ,,,,,,,,KACT 122005Z AUTO 35013G19KT 5SM HZ OVC016 M02/M06 A3023 RMK T10201060 MADISHF
ACT,2021-02-12 20:10,,,,360.00,17.00,,30.23,,5.00,,OVC,,,,1600.00,,,,HZ,,,,,,,,KACT 122010Z AUTO 36017KT 5SM HZ OVC016 M02/M05 A3022 RMK T10201050 MADISHF
ACT,2021-02-12 20:15,,,,350.00,17.00,,30.23,,5.00,,OVC,,,,1400.00,,,,HZ,,,,,,,,KACT 122015Z AUTO 35017KT 5SM HZ OVC014 M02/M05 A3022 RMK T10201050 MADISHF
ACT,2021-02-12 20:17,28.00,23.00,81.25,360.00,16.00,0.00,30.23,,5.00,,OVC,,,,1400.00,,,,HZ,,,,,,,15.20,KACT 122017Z 36016KT 5SM HZ OVC014 M02/M05 A3023 RMK AO2 T10221050
ACT,2021-02-12 20:20,,,,360.00,13.00,,30.23,,5.00,,OVC,,,,1400.00,,,,HZ,,,,,,,,KACT 122020Z AUTO 36013KT 5SM HZ OVC014 M02/M05 A3022 RMK T10201050 MADISHF
ACT,2021-02-12 20:25,,,,360.00,14.00,,30.23,,5.00,19.00,OVC,,,,1400.00,,,,HZ,,,,,,,,KACT 122025Z AUTO 36014G19KT 5SM HZ OVC014 M02/M05 A3022 RMK T10201050 MADISHF
ACT,2021-02-12 20:30,,,,10.00,14.00,,30.23,,5.00,19.00,OVC,,,,1400.00,,,,HZ,,,,,,,,KACT 122030Z AUTO 01014G19KT 5SM HZ OVC014 M02/M05 A3022 RMK T10201050 MADISHF
ACT,2021-02-12 20:35,,,,10.00,14.00,,30.22,,5.00,,OVC,,,,1400.00,,,,HZ,,,,,,,,KACT 122035Z AUTO 01014KT 5SM HZ OVC014 M02/M05 A3021 RMK T10201050 MADISHF
ACT,2021-02-12 20:40,,,,10.00,15.00,,30.22,,5.00,,OVC,,,,1400.00,,,,HZ,,,,,,,,KACT 122040Z AUTO 01015KT 5SM HZ OVC014 M02/M05 A3021 RMK T10201050 MADISHF
ACT,2021-02-12 20:45,,,,10.00,14.00,,30.22,,5.00,19.00,OVC,,,,1400.00,,,,HZ,,,,,,,,KACT 122045Z AUTO 01014G19KT 5SM HZ OVC014 M02/M05 A3021 RMK T10201050 MADISHF
ACT,2021-02-12 20:50,,,,10.00,17.00,,30.21,,6.00,,OVC,,,,1600.00,,,,HZ,,,,,,,,KACT 122050Z AUTO 01017KT 6SM HZ OVC016 M02/M05 A3020 RMK T10201050 MADISHF
ACT,2021-02-12 20:51,28.00,23.00,81.25,10.00,17.00,0.00,30.21,1023.50,6.00,23.00,OVC,,,,1600.00,,,,HZ,,,,,,,14.83,KACT 122051Z 01017G23KT 6SM HZ OVC016 M02/M05 A3021 RMK AO2 SLP235 T10221050 56021
ACT,2021-02-12 20:55,,,,10.00,17.00,,30.21,,6.00,,OVC,,,,1600.00,,,,HZ,,,,,,,,KACT 122055Z AUTO 01017KT 6SM HZ OVC016 M02/M05 A3020 RMK T10201050 MADISHF
ACT,2021-02-12 21:00,,,,10.00,16.00,,30.21,,6.00,,OVC,,,,1600.00,,,,HZ,,,,,,,,KACT 122100Z AUTO 01016KT 6SM HZ OVC016 M02/M05 A3020 RMK T10201050 MADISHF
ACT,2021-02-12 21:05,,,,10.00,15.00,,30.21,,6.00,,OVC,,,,1600.00,,,,HZ,,,,,,,,KACT 122105Z AUTO 01015KT 6SM HZ OVC016 M02/M05 A3020 RMK T10201050 MADISHF
ACT,2021-02-12 21:10,,,,10.00,18.00,,30.20,,6.00,,OVC,,,,1600.00,,,,HZ,,,,,,,,KACT 122110Z AUTO 01018KT 6SM HZ OVC016 M02/M05 A3020 RMK T10201050 MADISHF
ACT,2021-02-12 21:15,,,,10.00,16.00,,30.20,,6.00,,OVC,,,,1699.00,,,,HZ,,,,,,,,KACT 122115Z AUTO 01016KT 6SM HZ OVC016 M02/M05 A3020 RMK T10201050 MADISHF
ACT,2021-02-12 21:20,,,,10.00,15.00,,30.20,,6.00,,OVC,,,,1699.00,,,,HZ,,,,,,,,KACT 122120Z AUTO 01015KT 6SM HZ OVC016 M02/M05 A3020 RMK T10201050 MADISHF
ACT,2021-02-12 21:25,,,,10.00,14.00,,30.21,,6.00,,OVC,,,,1699.00,,,,HZ,,,,,,,,KACT 122125Z AUTO 01014KT 6SM HZ OVC016 M02/M05 A3020 RMK T10201050 MADISHF
ACT,2021-02-12 21:30,,,,360.00,14.00,,30.21,,6.00,,OVC,,,,1699.00,,,,HZ,,,,,,,,KACT 122130Z AUTO 36014KT 6SM HZ OVC016 M02/M05 A3020 RMK T10201050 MADISHF
ACT,2021-02-12 21:35,,,,10.00,11.00,,30.21,,6.00,17.00,OVC,,,,1699.00,,,,HZ,,,,,,,,KACT 122135Z AUTO 01011G17KT 6SM HZ OVC016 M02/M05 A3020 RMK T10201050 MADISHF
ACT,2021-02-12 21:40,,,,20.00,14.00,,30.21,,6.00,,OVC,,,,1699.00,,,,HZ,,,,,,,,KACT 122140Z AUTO 02014KT 6SM HZ OVC016 M02/M06 A3020 RMK T10201060 MADISHF
ACT,2021-02-12 21:45,,,,10.00,11.00,,30.20,,6.00,,OVC,,,,1600.00,,,,HZ,,,,,,,,KACT 122145Z AUTO 01011KT 6SM HZ OVC016 M02/M06 A3020 RMK T10201060 MADISHF
ACT,2021-02-12 21:50,,,,10.00,13.00,,30.20,,6.00,,OVC,,,,1600.00,,,,HZ,,,,,,,,KACT 122150Z AUTO 01013KT 6SM HZ OVC016 M02/M05 A3020 RMK T10201050 MADISHF
ACT,2021-02-12 21:51,28.00,23.00,81.25,10.00,12.00,0.00,30.20,1023.10,6.00,,OVC,,,,1600.00,,,,HZ,,,,,,,16.91,KACT 122151Z 01012KT 6SM HZ OVC016 M02/M05 A3020 RMK AO2 SLP231 T10221050
ACT,2021-02-12 21:55,,,,10.00,11.00,,30.21,,6.00,,OVC,,,,1600.00,,,,HZ,,,,,,,,KACT 122155Z AUTO 01011KT 6SM HZ OVC016 M02/M05 A3020 RMK T10201050 MADISHF
ACT,2021-02-12 22:00,,,,10.00,11.00,,30.21,,6.00,,OVC,,,,1500.00,,,,HZ,,,,,,,,KACT 122200Z AUTO 01011KT 6SM HZ OVC015 M02/M05 A3020 RMK T10201050 MADISHF
ACT,2021-02-12 22:05,,,,10.00,10.00,,30.21,,6.00,,OVC,,,,1699.00,,,,HZ,,,,,,,,KACT 122205Z AUTO 01010KT 6SM HZ OVC016 M02/M05 A3020 RMK T10201050 MADISHF
ACT,2021-02-12 22:10,,,,10.00,10.00,,30.21,,6.00,,OVC,,,,1699.00,,,,HZ,,,,,,,,KACT 122210Z AUTO 01010KT 6SM HZ OVC016 M02/M05 A3020 RMK T10201050 MADISHF
ACT,2021-02-12 22:15,,,,360.00,11.00,,30.21,,6.00,,OVC,,,,1699.00,,,,HZ,,,,,,,,KACT 122215Z AUTO 36011KT 6SM HZ OVC016 M02/M05 A3020 RMK T10201050 MADISHF
ACT,2021-02-12 22:20,,,,360.00,10.00,,30.21,,6.00,,OVC,,,,1699.00,,,,HZ,,,,,,,,KACT 122220Z AUTO 36010KT 6SM HZ OVC016 M02/M05 A3020 RMK T10201050 MADISHF
ACT,2021-02-12 22:25,,,,350.00,9.00,,30.21,,6.00,,OVC,,,,1699.00,,,,HZ,,,,,,,,KACT 122225Z AUTO 35009KT 6SM HZ OVC016 M02/M05 A3020 RMK T10201050 MADISHF
ACT,2021-02-12 22:30,,,,360.00,10.00,,30.21,,6.00,,OVC,,,,1699.00,,,,HZ,,,,,,,,KACT 122230Z AUTO 36010KT 6SM HZ OVC016 M02/M05 A3020 RMK T10201050 MADISHF
ACT,2021-02-12 22:35,,,,10.00,11.00,,30.22,,6.00,,OVC,,,,1699.00,,,,HZ,,,,,,,,KACT 122235Z AUTO 01011KT 6SM HZ OVC016 M02/M05 A3021 RMK T10201050 MADISHF
ACT,2021-02-12 22:40,,,,360.00,11.00,,30.22,,6.00,,OVC,,,,1699.00,,,,HZ,,,,,,,,KACT 122240Z AUTO 36011KT 6SM HZ OVC016 M02/M06 A3021 RMK T10201060 MADISHF
ACT,2021-02-12 22:45,,,,360.00,10.00,,30.21,,6.00,,OVC,,,,1699.00,,,,HZ,,,,,,,,KACT 122245Z AUTO 36010KT 6SM HZ OVC016 M02/M05 A3020 RMK T10201050 MADISHF
ACT,2021-02-12 22:50,,,,360.00,11.00,,30.21,,6.00,,OVC,,,,1699.00,,,,HZ,,,,,,,,KACT 122250Z AUTO 36011KT 6SM HZ OVC016 M02/M06 A3020 RMK T10201060 MADISHF
ACT,2021-02-12 22:51,28.00,21.90,77.57,10.00,12.00,0.00,30.21,1023.50,6.00,,OVC,,,,1900.00,,,,HZ,,,,,,,16.91,KACT 122251Z 01012KT 6SM HZ OVC019 M02/M06 A3021 RMK AO2 SLP235 T10221056
ACT,2021-02-12 22:55,,,,10.00,10.00,,30.21,,6.00,,OVC,,,,1900.00,,,,HZ,,,,,,,,KACT 122255Z AUTO 01010KT 6SM HZ OVC019 M02/M05 A3020 RMK T10201050 MADISHF
ACT,2021-02-12 23:00,,,,350.00,11.00,,30.21,,6.00,,OVC,,,,1900.00,,,,HZ,,,,,,,,KACT 122300Z AUTO 35011KT 6SM HZ OVC019 M02/M05 A3020 RMK T10201050 MADISHF
ACT,2021-02-12 23:05,,,,360.00,10.00,,30.21,,6.00,,OVC,,,,1900.00,,,,HZ,,,,,,,,KACT 122305Z AUTO 36010KT 6SM HZ OVC019 M02/M05 A3020 RMK T10201050 MADISHF
ACT,2021-02-12 23:10,,,,360.00,11.00,,30.21,,6.00,,OVC,,,,1900.00,,,,HZ,,,,,,,,KACT 122310Z AUTO 36011KT 6SM HZ OVC019 M02/M05 A3020 RMK T10201050 MADISHF
ACT,2021-02-12 23:15,,,,350.00,10.00,,30.22,,6.00,,BKN,OVC,,,1800.00,3500.00,,,HZ,,,,,,,,KACT 122315Z AUTO 35010KT 6SM HZ BKN018 OVC035 M02/M06 A3021 RMK T10201060 MADISHF
ACT,2021-02-12 23:20,,,,360.00,8.00,,30.22,,6.00,,BKN,OVC,,,1800.00,3500.00,,,HZ,,,,,,,,KACT 122320Z AUTO 36008KT 6SM HZ BKN018 OVC035 M02/M06 A3021 RMK T10201060 MADISHF
ACT,2021-02-12 23:25,,,,350.00,10.00,,30.22,,6.00,,BKN,OVC,,,1800.00,3500.00,,,HZ,,,,,,,,KACT 122325Z AUTO 35010KT 6SM HZ BKN018 OVC035 M02/M05 A3021 RMK T10201050 MADISHF
ACT,2021-02-12 23:30,,,,350.00,9.00,,30.21,,6.00,,BKN,OVC,,,1800.00,3500.00,,,HZ,,,,,,,,KACT 122330Z AUTO 35009KT 6SM HZ BKN018 OVC035 M02/M06 A3020 RMK T10201060 MADISHF
ACT,2021-02-12 23:35,,,,350.00,10.00,,30.21,,6.00,,BKN,OVC,,,1800.00,3500.00,,,HZ,,,,,,,,KACT 122335Z AUTO 35010KT 6SM HZ BKN018 OVC035 M02/M06 A3020 RMK T10201060 MADISHF
ACT,2021-02-12 23:40,,,,360.00,11.00,,30.21,,6.00,,BKN,OVC,,,1800.00,3700.00,,,HZ,,,,,,,,KACT 122340Z AUTO 36011KT 6SM HZ BKN018 OVC037 M02/M06 A3020 RMK T10201060 MADISHF
ACT,2021-02-12 23:45,,,,360.00,8.00,,30.22,,6.00,,BKN,OVC,,,1800.00,3700.00,,,HZ,,,,,,,,KACT 122345Z AUTO 36008KT 6SM HZ BKN018 OVC037 M02/M06 A3021 RMK T10201060 MADISHF
ACT,2021-02-12 23:50,,,,350.00,9.00,,30.22,,6.00,,BKN,OVC,,,1900.00,3500.00,,,HZ,,,,,,,,KACT 122350Z AUTO 35009KT 6SM HZ BKN019 OVC035 M02/M06 A3021 RMK T10201060 MADISHF
ACT,2021-02-12 23:51,28.90,21.90,74.76,350.00,9.00,0.00,30.22,1023.50,6.00,,BKN,OVC,,,1900.00,3500.00,,,HZ,,,,,,,19.66,KACT 122351Z 35009KT 6SM HZ BKN019 OVC035 M02/M06 A3022 RMK AO2 SLP235 T10171056 11017 21022 53001
ACT,2021-02-12 23:55,,,,360.00,11.00,,30.22,,6.00,,BKN,OVC,,,1900.00,3500.00,,,HZ,,,,,,,,KACT 122355Z AUTO 36011KT 6SM HZ BKN019 OVC035 M02/M06 A3021 RMK T10201060 MADISHF
ACT,2021-02-13 00:00,,,,10.00,10.00,,30.21,,6.00,,BKN,OVC,,,1900.00,3700.00,,,HZ,,,,,,,,KACT 130000Z AUTO 01010KT 6SM HZ BKN019 OVC037 M02/M06 A3020 RMK T10201060 MADISHF
ACT,2021-02-13 00:05,,,,360.00,9.00,,30.21,,6.00,,BKN,OVC,,,1900.00,3700.00,,,HZ,,,,,,,,KACT 130005Z AUTO 36009KT 6SM HZ BKN019 OVC037 M02/M06 A3020 RMK T10201060 MADISHF
ACT,2021-02-13 00:10,,,,10.00,11.00,,30.21,,6.00,,BKN,OVC,,,1900.00,3700.00,,,HZ,,,,,,,,KACT 130010Z AUTO 01011KT 6SM HZ BKN019 OVC037 M02/M06 A3020 RMK T10201060 MADISHF
ACT,2021-02-13 00:15,,,,360.00,10.00,,30.21,,7.00,,BKN,OVC,,,1900.00,3700.00,,,,,,,,,,,KACT 130015Z AUTO 36010KT 7SM BKN019 OVC037 M02/M06 A3020 RMK T10201060 MADISHF
ACT,2021-02-13 00:20,,,,360.00,11.00,,30.21,,8.00,,BKN,OVC,,,1900.00,3700.00,,,,,,,,,,,KACT 130020Z AUTO 36011KT 8SM BKN019 OVC037 M02/M06 A3020 RMK T10201060 MADISHF
ACT,2021-02-13 00:25,,,,10.00,11.00,,30.21,,8.00,,BKN,OVC,,,1900.00,3700.00,,,,,,,,,,,KACT 130025Z AUTO 01011KT 8SM BKN019 OVC037 M02/M06 A3020 RMK T10201060 MADISHF
ACT,2021-02-13 00:30,,,,360.00,11.00,,30.21,,8.00,,BKN,OVC,,,1900.00,3700.00,,,,,,,,,,,KACT 130030Z AUTO 36011KT 8SM BKN019 OVC037 M02/M06 A3020 RMK T10201060 MADISHF
ACT,2021-02-13 00:35,,,,10.00,11.00,,30.21,,8.00,,BKN,OVC,,,1900.00,3700.00,,,,,,,,,,,KACT 130035Z AUTO 01011KT 8SM BKN019 OVC037 M02/M06 A3020 RMK T10201060 MADISHF
ACT,2021-02-13 00:40,,,,360.00,11.00,,30.21,,8.00,,BKN,OVC,,,1900.00,3700.00,,,,,,,,,,,KACT 130040Z AUTO 36011KT 8SM BKN019 OVC037 M02/M06 A3020 RMK T10201060 MADISHF
ACT,2021-02-13 00:45,,,,10.00,11.00,,30.21,,8.00,,BKN,OVC,,,1900.00,3700.00,,,,,,,,,,,KACT 130045Z AUTO 01011KT 8SM BKN019 OVC037 M02/M06 A3020 RMK T10201060 MADISHF
ACT,2021-02-13 00:50,,,,360.00,11.00,,30.21,,8.00,,OVC,,,,6000.00,,,,,,,,,,,,KACT 130050Z AUTO 36011KT 8SM OVC060 M02/M06 A3020 RMK T10201060 MADISHF
ACT,2021-02-13 00:51,28.00,21.00,74.67,10.00,12.00,0.00,30.21,1023.30,8.00,,OVC,,,,6000.00,,,,,,,,,,,16.91,KACT 130051Z 01012KT 8SM OVC060 M02/M06 A3021 RMK AO2 SLP233 T10221061
ACT,2021-02-13 00:55,,,,360.00,11.00,,30.21,,8.00,,FEW,OVC,,,3399.00,6000.00,,,,,,,,,,,KACT 130055Z AUTO 36011KT 8SM FEW033 OVC060 M02/M06 A3020 RMK T10201060 MADISHF
ACT,2021-02-13 01:00,,,,360.00,11.00,,30.21,,8.00,,FEW,OVC,,,3399.00,6000.00,,,,,,,,,,,KACT 130100Z AUTO 36011KT 8SM FEW033 OVC060 M02/M06 A3020 RMK T10201060 MADISHF
ACT,2021-02-13 01:05,,,,,13.00,,30.21,,8.00,,SCT,OVC,,,3399.00,6000.00,,,,,,,,,,,KACT 130105Z AUTO ///13KT 8SM SCT033 OVC060 M02/M06 A3020 RMK T10201060 MADISHF
ACT,2021-02-13 01:10,,,,10.00,10.00,,30.22,,8.00,,SCT,OVC,,,3399.00,6000.00,,,,,,,,,,,KACT 130110Z AUTO 01010KT 8SM SCT033 OVC060 M02/M06 A3021 RMK T10201060 MADISHF
ACT,2021-02-13 01:15,,,,10.00,10.00,,30.22,,8.00,,BKN,OVC,,,3399.00,6000.00,,,,,,,,,,,KACT 130115Z AUTO 01010KT 8SM BKN033 OVC060 M02/M06 A3021 RMK T10201060 MADISHF
ACT,2021-02-13 01:20,,,,20.00,7.00,,30.22,,8.00,,BKN,OVC,,,3399.00,6000.00,,,,,,,,,,,KACT 130120Z AUTO 02007KT 8SM BKN033 OVC060 M02/M06 A3021 RMK T10201060 MADISHF
ACT,2021-02-13 01:25,,,,20.00,8.00,,30.21,,8.00,,BKN,OVC,,,3399.00,6000.00,,,,,,,,,,,KACT 130125Z AUTO 02008KT 8SM BKN033 OVC060 M02/M06 A3020 RMK T10201060 MADISHF
ACT,2021-02-13 01:30,,,,20.00,9.00,,30.21,,8.00,,OVC,,,,3399.00,,,,,,,,,,,,KACT 130130Z AUTO 02009KT 8SM OVC033 M02/M06 A3020 RMK T10201060 MADISHF
ACT,2021-02-13 01:35,,,,20.00,8.00,,30.21,,8.00,,OVC,,,,3399.00,,,,,,,,,,,,KACT 130135Z AUTO 02008KT 8SM OVC033 M02/M06 A3020 RMK T10201060 MADISHF
ACT,2021-02-13 01:40,,,,20.00,9.00,,30.21,,8.00,,BKN,OVC,,,3399.00,9000.00,,,,,,,,,,,KACT 130140Z AUTO 02009KT 8SM BKN033 OVC090 M02/M06 A3020 RMK T10201060 MADISHF
ACT,2021-02-13 01:45,,,,20.00,9.00,,30.21,,8.00,,SCT,OVC,,,3399.00,9000.00,,,,,,,,,,,KACT 130145Z AUTO 02009KT 8SM SCT033 OVC090 M02/M06 A3020 RMK T10201060 MADISHF
ACT,2021-02-13 01:50,,,,20.00,10.00,,30.21,,8.00,,SCT,OVC,,,3399.00,9000.00,,,,,,,,,,,KACT 130150Z AUTO 02010KT 8SM SCT033 OVC090 M02/M06 A3020 RMK T10201060 MADISHF
ACT,2021-02-13 01:51,28.00,21.90,77.57,20.00,9.00,0.00,30.21,1023.20,8.00,,SCT,OVC,,,3400.00,9000.00,,,,,,,,,,18.54,KACT 130151Z 02009KT 8SM SCT034 OVC090 M02/M06 A3021 RMK AO2 SLP232 T10221056
ACT,2021-02-13 01:55,,,,20.00,10.00,,30.20,,8.00,,FEW,OVC,,,3500.00,9000.00,,,,,,,,,,,KACT 130155Z AUTO 02010KT 8SM FEW035 OVC090 M02/M06 A3020 RMK T10201060 MADISHF
ACT,2021-02-13 02:00,,,,10.00,8.00,,30.21,,8.00,,FEW,OVC,,,3500.00,9000.00,,,,,,,,,,,KACT 130200Z AUTO 01008KT 8SM FEW035 OVC090 M02/M06 A3020 RMK T10201060 MADISHF
ACT,2021-02-13 02:05,,,,10.00,11.00,,30.21,,8.00,16.00,OVC,,,,9000.00,,,,,,,,,,,,KACT 130205Z AUTO 01011G16KT 8SM OVC090 M02/M06 A3020 RMK T10201060 MADISHF
ACT,2021-02-13 02:10,,,,10.00,11.00,,30.21,,8.00,,OVC,,,,9000.00,,,,,,,,,,,,KACT 130210Z AUTO 01011KT 8SM OVC090 M02/M06 A3020 RMK T10201060 MADISHF
ACT,2021-02-13 02:15,,,,10.00,11.00,,30.21,,8.00,,OVC,,,,9000.00,,,,,,,,,,,,KACT 130215Z AUTO 01011KT 8SM OVC090 M02/M06 A3020 RMK T10201060 MADISHF
ACT,2021-02-13 02:20,,,,360.00,11.00,,30.21,,8.00,,BKN,,,,9000.00,,,,,,,,,,,,KACT 130220Z AUTO 36011KT 8SM BKN090 M02/M06 A3020 RMK T10201060 MADISHF
ACT,2021-02-13 02:25,,,,350.00,11.00,,30.21,,8.00,,BKN,,,,9000.00,,,,,,,,,,,,KACT 130225Z AUTO 35011KT 8SM BKN090 M03/M06 A3020 RMK T10301060 MADISHF
ACT,2021-02-13 02:30,,,,360.00,14.00,,30.21,,8.00,,FEW,BKN,,,4400.00,9000.00,,,,,,,,,,,KACT 130230Z AUTO 36014KT 8SM FEW044 BKN090 M03/M06 A3020 RMK T10301060 MADISHF
ACT,2021-02-13 02:35,,,,360.00,11.00,,30.21,,8.00,,FEW,BKN,,,4400.00,9000.00,,,,,,,,,,,KACT 130235Z AUTO 36011KT 8SM FEW044 BKN090 M03/M07 A3020 RMK T10301070 MADISHF
ACT,2021-02-13 02:40,,,,360.00,11.00,,30.21,,8.00,,FEW,BKN,,,4400.00,8500.00,,,,,,,,,,,KACT 130240Z AUTO 36011KT 8SM FEW044 BKN085 M03/M06 A3020 RMK T10301060 MADISHF
ACT,2021-02-13 02:45,,,,360.00,11.00,,30.21,,8.00,,FEW,BKN,,,4400.00,8500.00,,,,,,,,,,,KACT 130245Z AUTO 36011KT 8SM FEW044 BKN085 M03/M06 A3020 RMK T10301060 MADISHF
ACT,2021-02-13 02:50,,,,360.00,11.00,,30.21,,8.00,,FEW,BKN,,,4200.00,8500.00,,,,,,,,,,,KACT 130250Z AUTO 36011KT 8SM FEW042 BKN085 M03/M06 A3020 RMK T10301060 MADISHF
ACT,2021-02-13 02:51,27.00,21.00,77.80,360.00,11.00,0.00,30.21,1023.40,8.00,,FEW,BKN,,,4200.00,8500.00,,,,,,,,,,16.15,KACT 130251Z 36011KT 8SM FEW042 BKN085 M03/M06 A3021 RMK AO2 SLP234 T10281061 55001
ACT,2021-02-13 02:55,,,,360.00,11.00,,30.21,,8.00,,FEW,OVC,,,4200.00,8500.00,,,,,,,,,,,KACT 130255Z AUTO 36011KT 8SM FEW042 OVC085 M03/M06 A3020 RMK T10301060 MADISHF
ACT,2021-02-13 03:00,,,,350.00,11.00,,30.21,,8.00,,FEW,OVC,,,4200.00,8500.00,,,,,,,,,,,KACT 130300Z AUTO 35011KT 8SM FEW042 OVC085 M03/M06 A3020 RMK T10301060 MADISHF
ACT,2021-02-13 03:05,,,,360.00,11.00,,30.21,,8.00,,SCT,OVC,,,4200.00,8500.00,,,,,,,,,,,KACT 130305Z AUTO 36011KT 8SM SCT042 OVC085 M03/M06 A3020 RMK T10301060 MADISHF
ACT,2021-02-13 03:10,,,,10.00,11.00,,30.21,,8.00,,BKN,OVC,,,4100.00,7999.00,,,,,,,,,,,KACT 130310Z AUTO 01011KT 8SM BKN041 OVC079 M03/M06 A3020 RMK T10301060 MADISHF
ACT,2021-02-13 03:15,,,,360.00,10.00,,30.21,,8.00,,BKN,OVC,,,4100.00,7999.00,,,,,,,,,,,KACT 130315Z AUTO 36010KT 8SM BKN041 OVC079 M03/M06 A3020 RMK T10301060 MADISHF
ACT,2021-02-13 03:20,,,,360.00,10.00,,30.21,,7.00,,BKN,OVC,,,4100.00,7999.00,,,,,,,,,,,KACT 130320Z AUTO 36010KT 7SM BKN041 OVC079 M03/M06 A3020 RMK T10301060 MADISHF
ACT,2021-02-13 03:25,,,,350.00,10.00,,30.21,,7.00,,OVC,,,,4100.00,,,,,,,,,,,,KACT 130325Z AUTO 35010KT 7SM OVC041 M03/M06 A3020 RMK T10301060 MADISHF
ACT,2021-02-13 03:30,,,,360.00,11.00,,30.21,,7.00,,OVC,,,,4100.00,,,,,,,,,,,,KACT 130330Z AUTO 36011KT 7SM OVC041 M03/M06 A3020 RMK T10301060 MADISHF
ACT,2021-02-13 03:35,,,,350.00,13.00,,30.21,,8.00,,OVC,,,,4100.00,,,,,,,,,,,,KACT 130335Z AUTO 35013KT 8SM OVC041 M03/M06 A3020 RMK T10301060 MADISHF
ACT,2021-02-13 03:40,,,,360.00,14.00,,30.21,,8.00,,OVC,,,,4100.00,,,,,,,,,,,,KACT 130340Z AUTO 36014KT 8SM OVC041 M03/M07 A3020 RMK T10301070 MADISHF
ACT,2021-02-13 03:45,,,,350.00,10.00,,30.21,,8.00,,OVC,,,,4100.00,,,,,,,,,,,,KACT 130345Z AUTO 35010KT 8SM OVC041 M03/M07 A3020 RMK T10301070 MADISHF
ACT,2021-02-13 03:50,,,,350.00,13.00,,30.22,,8.00,,OVC,,,,4200.00,,,,,,,,,,,,KACT 130350Z AUTO 35013KT 8SM OVC042 M03/M06 A3021 RMK T10301060 MADISHF
ACT,2021-02-13 03:51,27.00,21.00,77.80,360.00,12.00,0.00,30.21,1023.50,8.00,,OVC,,,,4200.00,,,,,,,,,,,15.64,KACT 130351Z 36012KT 8SM OVC042 M03/M06 A3021 RMK AO2 SLP235 T10281061
ACT,2021-02-13 03:55,,,,360.00,14.00,,30.21,,8.00,,OVC,,,,4200.00,,,,,,,,,,,,KACT 130355Z AUTO 36014KT 8SM OVC042 M03/M06 A3020 RMK T10301060 MADISHF
ACT,2021-02-13 04:00,,,,360.00,15.00,,30.21,,8.00,,OVC,,,,4200.00,,,,,,,,,,,,KACT 130400Z AUTO 36015KT 8SM OVC042 M03/M07 A3020 RMK T10301070 MADISHF
ACT,2021-02-13 04:05,,,,10.00,15.00,,30.21,,8.00,,OVC,,,,4200.00,,,,,,,,,,,,KACT 130405Z AUTO 01015KT 8SM OVC042 M03/M07 A3020 RMK T10301070 MADISHF
ACT,2021-02-13 04:10,,,,360.00,11.00,,30.21,,8.00,,OVC,,,,4100.00,,,,,,,,,,,,KACT 130410Z AUTO 36011KT 8SM OVC041 M03/M07 A3020 RMK T10301070 MADISHF
ACT,2021-02-13 04:15,,,,10.00,17.00,,30.21,,8.00,,OVC,,,,4100.00,,,,,,,,,,,,KACT 130415Z AUTO 01017KT 8SM OVC041 M03/M07 A3020 RMK T10301070 MADISHF
ACT,2021-02-13 04:20,,,,10.00,14.00,,30.21,,8.00,19.00,OVC,,,,4100.00,,,,,,,,,,,,KACT 130420Z AUTO 01014G19KT 8SM OVC041 M03/M07 A3020 RMK T10301070 MADISHF
ACT,2021-02-13 04:25,,,,360.00,13.00,,30.21,,8.00,,OVC,,,,3999.00,,,,,,,,,,,,KACT 130425Z AUTO 36013KT 8SM OVC039 M03/M07 A3020 RMK T10301070 MADISHF
ACT,2021-02-13 04:30,,,,360.00,13.00,,30.21,,8.00,,OVC,,,,3999.00,,,,,,,,,,,,KACT 130430Z AUTO 36013KT 8SM OVC039 M03/M07 A3020 RMK T10301070 MADISHF
ACT,2021-02-13 04:35,,,,10.00,14.00,,30.21,,8.00,,OVC,,,,3900.00,,,,,,,,,,,,KACT 130435Z AUTO 01014KT 8SM OVC039 M03/M07 A3020 RMK T10301070 MADISHF
ACT,2021-02-13 04:40,,,,10.00,11.00,,30.21,,8.00,,OVC,,,,3900.00,,,,,,,,,,,,KACT 130440Z AUTO 01011KT 8SM OVC039 M03/M07 A3020 RMK T10301070 MADISHF
ACT,2021-02-13 04:45,,,,10.00,11.00,,30.21,,8.00,,OVC,,,,3900.00,,,,,,,,,,,,KACT 130445Z AUTO 01011KT 8SM OVC039 M03/M07 A3020 RMK T10301070 MADISHF
ACT,2021-02-13 04:50,,,,10.00,11.00,,30.21,,8.00,,OVC,,,,3900.00,,,,,,,,,,,,KACT 130450Z AUTO 01011KT 8SM OVC039 M03/M07 A3020 RMK T10301070 MADISHF
ACT,2021-02-13 04:51,27.00,19.90,74.25,10.00,11.00,0.00,30.21,1023.50,8.00,,OVC,,,,3900.00,,,,,,,,,,,16.15,KACT 130451Z 01011KT 8SM OVC039 M03/M07 A3021 RMK AO2 SLP235 T10281067
ACT,2021-02-13 04:55,,,,360.00,10.00,,30.22,,8.00,,FEW,OVC,,,1699.00,3900.00,,,,,,,,,,,KACT 130455Z AUTO 36010KT 8SM FEW016 OVC039 M03/M06 A3021 RMK T10301060 MADISHF
ACT,2021-02-13 05:00,,,,360.00,11.00,,30.22,,8.00,,FEW,OVC,,,1699.00,3900.00,,,,,,,,,,,KACT 130500Z AUTO 36011KT 8SM FEW016 OVC039 M03/M06 A3021 RMK T10301060 MADISHF
ACT,2021-02-13 05:05,,,,360.00,13.00,,30.22,,8.00,,OVC,,,,3900.00,,,,,,,,,,,,KACT 130505Z AUTO 36013KT 8SM OVC039 M03/M07 A3021 RMK T10301070 MADISHF
ACT,2021-02-13 05:10,,,,360.00,14.00,,30.22,,8.00,,OVC,,,,3900.00,,,,,,,,,,,,KACT 130510Z AUTO 36014KT 8SM OVC039 M03/M07 A3021 RMK T10301070 MADISHF
ACT,2021-02-13 05:15,,,,350.00,10.00,,30.22,,8.00,,FEW,OVC,,,1800.00,3800.00,,,,,,,,,,,KACT 130515Z AUTO 35010KT 8SM FEW018 OVC038 M03/M07 A3021 RMK T10301070 MADISHF
ACT,2021-02-13 05:20,,,,350.00,10.00,,30.22,,8.00,,FEW,OVC,,,1800.00,3800.00,,,,,,,,,,,KACT 130520Z AUTO 35010KT 8SM FEW018 OVC038 M03/M07 A3021 RMK T10301070 MADISHF
ACT,2021-02-13 05:25,,,,10.00,10.00,,30.22,,8.00,,OVC,,,,3800.00,,,,,,,,,,,,KACT 130525Z AUTO 01010KT 8SM OVC038 M03/M06 A3021 RMK T10301060 MADISHF
ACT,2021-02-13 05:30,,,,20.00,11.00,,30.22,,7.00,,FEW,OVC,,,1999.00,3700.00,,,,,,,,,,,KACT 130530Z AUTO 02011KT 7SM FEW019 OVC037 M03/M07 A3021 RMK T10301070 MADISHF
ACT,2021-02-13 05:35,,,,20.00,11.00,,30.22,,7.00,,FEW,OVC,,,1999.00,3700.00,,,,,,,,,,,KACT 130535Z AUTO 02011KT 7SM FEW019 OVC037 M03/M07 A3021 RMK T10301070 MADISHF
ACT,2021-02-13 05:40,,,,20.00,11.00,,30.22,,7.00,,SCT,OVC,,,1999.00,3700.00,,,,,,,,,,,KACT 130540Z AUTO 02011KT 7SM SCT019 OVC037 M03/M07 A3021 RMK T10301070 MADISHF
ACT,2021-02-13 05:45,,,,10.00,10.00,,30.22,,7.00,,SCT,OVC,,,1900.00,3700.00,,,,,,,,,,,KACT 130545Z AUTO 01010KT 7SM SCT019 OVC037 M03/M07 A3021 RMK T10301070 MADISHF
ACT,2021-02-13 05:50,,,,10.00,9.00,,30.22,,7.00,,BKN,OVC,,,1900.00,3700.00,,,,,,,,,,,KACT 130550Z AUTO 01009KT 7SM BKN019 OVC037 M03/M06 A3021 RMK T10301060 MADISHF
ACT,2021-02-13 05:51,27.00,21.00,77.80,10.00,9.00,0.00,30.22,1023.50,7.00,,BKN,OVC,,,1900.00,3700.00,,,,,,,,,,17.30,KACT 130551Z AUTO 01009KT 7SM BKN019 OVC037 M03/M06 A3022 RMK AO2 SLP235 T10281061 11017 21028 410171033 51001
ACT,2021-02-13 05:55,,,,10.00,11.00,,30.21,,7.00,,BKN,OVC,,,1900.00,3700.00,,,,,,,,,,,KACT 130555Z AUTO 01011KT 7SM BKN019 OVC037 M03/M06 A3020 RMK T10301060 MADISHF
ACT,2021-02-13 06:00,,,,20.00,11.00,,30.21,,7.00,,BKN,OVC,,,1900.00,3900.00,,,,,,,,,,,KACT 130600Z AUTO 02011KT 7SM BKN019 OVC039 M03/M07 A3020 RMK T10301070 MADISHF
ACT,2021-02-13 06:05,,,,10.00,13.00,,30.21,,7.00,,BKN,OVC,,,1900.00,4100.00,,,,,,,,,,,KACT 130605Z AUTO 01013KT 7SM BKN019 OVC041 M03/M06 A3020 RMK T10301060 MADISHF
ACT,2021-02-13 06:10,,,,10.00,14.00,,30.21,,7.00,,BKN,BKN,OVC,,1900.00,3600.00,4300.00,,,,,,,,,,KACT 130610Z AUTO 01014KT 7SM BKN019 BKN036 OVC043 M03/M07 A3020 RMK T10301070 MADISHF
ACT,2021-02-13 06:15,,,,360.00,11.00,,30.21,,7.00,,BKN,BKN,OVC,,1900.00,3600.00,4400.00,,,,,,,,,,KACT 130615Z AUTO 36011KT 7SM BKN019 BKN036 OVC044 M03/M07 A3020 RMK T10301070 MADISHF
ACT,2021-02-13 06:20,,,,360.00,13.00,,30.21,,7.00,,BKN,BKN,OVC,,1900.00,3600.00,4400.00,,,,,,,,,,KACT 130620Z AUTO 36013KT 7SM BKN019 BKN036 OVC044 M03/M07 A3020 RMK T10301070 MADISHF
ACT,2021-02-13 06:25,,,,360.00,14.00,,30.21,,7.00,,BKN,BKN,OVC,,1900.00,3600.00,4400.00,,,,,,,,,,KACT 130625Z AUTO 36014KT 7SM BKN019 BKN036 OVC044 M03/M07 A3020 RMK T10301070 MADISHF
ACT,2021-02-13 06:30,,,,10.00,13.00,,30.21,,7.00,,BKN,OVC,,,1900.00,3600.00,,,,,,,,,,,KACT 130630Z AUTO 01013KT 7SM BKN019 OVC036 M03/M07 A3020 RMK T10301070 MADISHF
ACT,2021-02-13 06:35,,,,10.00,13.00,,30.21,,7.00,,BKN,OVC,,,1900.00,3600.00,,,,,,,,,,,KACT 130635Z AUTO 01013KT 7SM BKN019 OVC036 M03/M07 A3020 RMK T10301070 MADISHF
ACT,2021-02-13 06:40,,,,360.00,11.00,,30.21,,7.00,,OVC,,,,1900.00,,,,,,,,,,,,KACT 130640Z AUTO 36011KT 7SM OVC019 M03/M07 A3020 RMK T10301070 MADISHF
ACT,2021-02-13 06:45,,,,350.00,13.00,,30.21,,7.00,,OVC,,,,1900.00,,,,,,,,,,,,KACT 130645Z AUTO 35013KT 7SM OVC019 M03/M07 A3020 RMK T10301070 MADISHF
ACT,2021-02-13 06:50,,,,350.00,13.00,,30.21,,7.00,,OVC,,,,1900.00,,,,,,,,,,,,KACT 130650Z AUTO 35013KT 7SM OVC019 M03/M07 A3020 RMK T10301070 MADISHF
ACT,2021-02-13 06:51,26.10,19.90,77.06,360.00,12.00,0.00,30.21,1023.40,7.00,,OVC,,,,1900.00,,,,,,,,,,,14.49,KACT 130651Z AUTO 36012KT 7SM OVC019 M03/M07 A3021 RMK AO2 SLP234 T10331067
ACT,2021-02-13 06:55,,,,360.00,11.00,,30.21,,7.00,,OVC,,,,1900.00,,,,,,,,,,,,KACT 130655Z AUTO 36011KT 7SM OVC019 M03/M07 A3020 RMK T10301070 MADISHF
ACT,2021-02-13 07:00,,,,360.00,14.00,,30.21,,7.00,,BKN,OVC,,,1699.00,2200.00,,,,,,,,,,,KACT 130700Z AUTO 36014KT 7SM BKN016 OVC022 M03/M07 A3020 RMK T10301070 MADISHF
ACT,2021-02-13 07:05,,,,10.00,14.00,,30.21,,6.00,,OVC,,,,1699.00,,,,HZ,,,,,,,,KACT 130705Z AUTO 01014KT 6SM HZ OVC016 M03/M07 A3020 RMK T10301070 MADISHF
ACT,2021-02-13 07:10,,,,360.00,15.00,,30.21,,6.00,,OVC,,,,1500.00,,,,HZ,,,,,,,,KACT 130710Z AUTO 36015KT 6SM HZ OVC015 M03/M07 A3020 RMK T10301070 MADISHF
ACT,2021-02-13 07:15,,,,360.00,15.00,,30.21,,5.00,,OVC,,,,1500.00,,,,HZ,,,,,,,,KACT 130715Z AUTO 36015KT 5SM HZ OVC015 M03/M07 A3020 RMK T10301070 MADISHF
ACT,2021-02-13 07:20,,,,350.00,10.00,,30.22,,4.00,,OVC,,,,1500.00,,,,HZ,,,,,,,,KACT 130720Z AUTO 35010KT 4SM HZ OVC015 M03/M07 A3021 RMK T10301070 MADISHF
ACT,2021-02-13 07:25,,,,360.00,13.00,,30.21,,4.00,19.00,OVC,,,,1500.00,,,,HZ,,,,,,,,KACT 130725Z AUTO 36013G19KT 4SM HZ OVC015 M03/M06 A3020 RMK T10301060 MADISHF
ACT,2021-02-13 07:30,,,,340.00,11.00,,30.21,,4.00,,OVC,,,,1500.00,,,,BR,,,,,,,,KACT 130730Z AUTO 34011KT 4SM BR OVC015 M04/M06 A3020 RMK T10401060 MADISHF
ACT,2021-02-13 07:35,,,,350.00,13.00,,30.21,,3.50,,OVC,,,,1400.00,,,,BR,,,,,,,,KACT 130735Z AUTO 35013KT 3SM BR OVC014 M04/M06 A3020 RMK T10401060 MADISHF
ACT,2021-02-13 07:37,25.00,21.00,84.53,350.00,12.00,0.00,30.21,,3.00,,OVC,,,,1400.00,,,,BR,T,,,,,,13.09,KACT 130737Z AUTO 35012KT 3SM BR OVC014 M04/M06 A3021 RMK AO2 I1000 T10391061
ACT,2021-02-13 07:40,,,,340.00,11.00,,30.21,,3.00,,OVC,,,,1400.00,,,,BR,,,,,,,,KACT 130740Z AUTO 34011KT 3SM BR OVC014 M04/M06 A3020 RMK T10401060 MADISHF
ACT,2021-02-13 07:45,,,,340.00,10.00,,30.21,,2.50,,SCT,OVC,,,800.00,1400.00,,,BR,,,,,,,,KACT 130745Z AUTO 34010KT 2 1/2SM BR SCT008 OVC014 M04/M06 A3020 RMK T10401060 MADISHF
ACT,2021-02-13 07:48,24.80,21.20,85.96,350.00,12.00,T,30.21,,2.50,,BKN,OVC,,,800.00,1400.00,,,-FZRA BR,0.01,,,,,,12.84,KACT 130748Z AUTO 35012KT 2 1/2SM -FZRA BR BKN008 OVC014 M04/M06 A3021 RMK AO2 UPB46E48FZRAB48 CIG 006V011 P0000 I1001
ACT,2021-02-13 07:50,,,,340.00,11.00,,30.21,,2.50,,BKN,OVC,,,999.00,1400.00,,,-FZRA BR,,,,,,,,KACT 130750Z AUTO 34011KT 2 1/2SM -FZRA BR BKN009 OVC014 M04/M06 A3020 RMK T10401060 CIG 6V13  MADISHF
ACT,2021-02-13 07:51,25.00,21.90,87.81,350.00,11.00,T,30.21,1023.30,2.50,,BKN,OVC,,,800.00,1400.00,,,-FZRA BR,0.01,,,,,,13.62,KACT 130751Z AUTO 35011KT 2 1/2SM -FZRA BR BKN008 OVC014 M04/M06 A3021 RMK AO2 UPB46E48FZRAB48 CIG 006V011 SLP233 P0000 I1001 T10391056
ACT,2021-02-13 07:55,,,,350.00,13.00,,30.21,,2.50,,BKN,OVC,,,800.00,1400.00,,,-FZRA BR,,,,,,,,KACT 130755Z AUTO 35013KT 2 1/2SM -FZRA BR BKN008 OVC014 M04/M06 A3020 RMK T10401060 CIG 6V10  MADISHF
ACT,2021-02-13 08:00,,,,340.00,14.00,,30.21,,2.50,,OVC,,,,999.00,,,,-FZRA BR,,,,,,,,KACT 130800Z AUTO 34014KT 2 1/2SM -FZRA BR OVC009 M04/M06 A3020 RMK T10401060 CIG 6V15  MADISHF
ACT,2021-02-13 08:03,25.00,21.90,87.81,350.00,11.00,T,30.21,,3.00,,OVC,,,,1000.00,,,,-FZRA BR,T,,,,,,13.62,KACT 130803Z AUTO 35011KT 3SM -FZRA BR OVC010 M04/M06 A3021 RMK AO2 CIG 006V012 P0000 I1000 T10391056
ACT,2021-02-13 08:05,,,,350.00,13.00,,30.21,,3.00,,BKN,OVC,,,700.00,1200.00,,,-FZRA BR,,,,,,,,KACT 130805Z AUTO 35013KT 3SM -FZRA BR BKN007 OVC012 M04/M06 A3020 RMK T10401060 MADISHF
ACT,2021-02-13 08:06,25.00,21.90,87.81,350.00,12.00,T,30.21,,2.50,,BKN,OVC,,,700.00,1200.00,,,-FZRA BR,T,,,,,,13.09,KACT 130806Z AUTO 35012KT 2 1/2SM -FZRA BR BKN007 OVC012 M04/M06 A3021 RMK AO2 P0000 I1000 T10391056
ACT,2021-02-13 08:10,,,,350.00,11.00,,30.21,,2.50,,BKN,OVC,,,700.00,1200.00,,,-FZRA BR,,,,,,,,KACT 130810Z AUTO 35011KT 2 1/2SM -FZRA BR BKN007 OVC012 M04/M06 A3020 RMK T10401060 MADISHF
ACT,2021-02-13 08:15,,,,350.00,14.00,,30.20,,2.50,,BKN,OVC,,,700.00,1200.00,,,-FZRA BR,,,,,,,,KACT 130815Z AUTO 35014KT 2 1/2SM -FZRA BR BKN007 OVC012 M04/M06 A3020 RMK T10401060 MADISHF
ACT,2021-02-13 08:20,,,,350.00,14.00,,30.20,,2.50,,OVC,,,,700.00,,,,-FZRA BR,,,,,,,,KACT 130820Z AUTO 35014KT 2 1/2SM -FZRA BR OVC007 M04/M06 A3020 RMK T10401060 CIG 6V11  MADISHF
ACT,2021-02-13 08:25,,,,340.00,14.00,,30.20,,3.00,,OVC,,,,900.00,,,,-FZRA BR,,,,,,,,KACT 130825Z AUTO 34014KT 3SM -FZRA BR OVC009 M04/M06 A3020 RMK T10401060 CIG 6V13  MADISHF
ACT,2021-02-13 08:28,25.00,21.00,84.53,340.00,13.00,T,30.20,,3.00,,OVC,,,,900.00,,,,-FZRA BR,T,,,,,,12.60,KACT 130828Z AUTO 34013KT 3SM -FZRA BR OVC009 M04/M06 A3020 RMK AO2 CIG 006V013 P0000 I1000 T10391061
ACT,2021-02-13 08:30,,,,350.00,13.00,,30.20,,3.00,18.00,OVC,,,,900.00,,,,-FZRA BR,,,,,,,,KACT 130830Z AUTO 35013G18KT 3SM -FZRA BR OVC009 M04/M06 A3020 RMK T10401060 CIG 6V13  MADISHF
ACT,2021-02-13 08:35,,,,350.00,10.00,,30.20,,3.00,,OVC,,,,700.00,,,,-FZRA BR,,,,,,,,KACT 130835Z AUTO 35010KT 3SM -FZRA BR OVC007 M04/M06 A3020 RMK T10401060 CIG 5V10  MADISHF
ACT,2021-02-13 08:37,25.00,21.90,87.81,340.00,11.00,T,30.20,,3.00,19.00,OVC,,,,700.00,,,,BR,0.01,,,,,,13.62,KACT 130837Z AUTO 34011G19KT 3SM BR OVC007 M04/M06 A3020 RMK AO2 FZRAE37 CIG 005V010 P0000 I1001 T10391056
ACT,2021-02-13 08:40,,,,340.00,11.00,,30.20,,3.00,,OVC,,,,700.00,,,,BR,,,,,,,,KACT 130840Z AUTO 34011KT 3SM BR OVC007 M04/M06 A3020 RMK T10401060 CIG 5V12  MADISHF
ACT,2021-02-13 08:45,,,,350.00,11.00,,30.20,,3.00,,OVC,,,,700.00,,,,BR,,,,,,,,KACT 130845Z AUTO 35011KT 3SM BR OVC007 M04/M06 A3020 RMK T10401060 CIG 5V12  MADISHF
ACT,2021-02-13 08:50,,,,350.00,11.00,,30.19,,3.00,,OVC,,,,800.00,,,,BR,,,,,,,,KACT 130850Z AUTO 35011KT 3SM BR OVC008 M04/M06 A3019 RMK T10401060 CIG 5V12  MADISHF
ACT,2021-02-13 08:51,24.10,21.00,87.76,350.00,13.00,T,30.19,1022.80,3.00,20.00,OVC,,,,800.00,,,,BR,0.01,0.02,,,,,11.45,KACT 130851Z AUTO 35013G20KT 3SM BR OVC008 M04/M06 A3019 RMK AO2 FZRAE37 CIG 005V012 SLP228 P0000 60000 I1001 I3002 T10441061 58008
ACT,2021-02-13 08:55,,,,350.00,14.00,T,30.19,,3.00,,BKN,OVC,,,800.00,1100.00,,,UP BR,,,,,,,,KACT 130855Z AUTO 35014KT 3SM UP BR BKN008 OVC011 M04/M06 A3019 RMK P0000 T10401060 MADISHF
ACT,2021-02-13 08:57,24.10,21.00,87.76,350.00,14.00,T,30.19,,3.00,,OVC,,,,700.00,,,,-FZRA BR,T,,,,,,10.98,KACT 130857Z AUTO 35014KT 3SM -FZRA BR OVC007 M04/M06 A3019 RMK AO2 UPB55E56FZRAB56 CIG 005V011 P0000 I1000 T10441061
ACT,2021-02-13 09:00,,,,350.00,14.00,,30.19,,3.00,,OVC,,,,700.00,,,,-FZRA BR,,,,,,,,KACT 130900Z AUTO 35014KT 3SM -FZRA BR OVC007 M04/M06 A3019 RMK T10401060 CIG 5V12  MADISHF
ACT,2021-02-13 09:05,,,,350.00,13.00,,30.19,,3.00,,OVC,,,,700.00,,,,-FZRA BR,,,,,,,,KACT 130905Z AUTO 35013KT 3SM -FZRA BR OVC007 M04/M06 A3019 RMK T10401060 CIG 6V12  MADISHF
ACT,2021-02-13 09:10,,,,350.00,11.00,,30.19,,3.50,,OVC,,,,700.00,,,,BR,,,,,,,,KACT 130910Z AUTO 35011KT 3SM BR OVC007 M04/M06 A3019 RMK T10401060 CIG 6V12  MADISHF
ACT,2021-02-13 09:12,24.10,21.00,87.76,350.00,12.00,T,30.19,,4.00,,OVC,,,,700.00,,,,BR,T,,,,,,11.95,KACT 130912Z AUTO 35012KT 4SM BR OVC007 M04/M06 A3019 RMK AO2 UPB0855E0856FZRAB0856E06 CIG 006V012 P0000 I1000 T10441061
ACT,2021-02-13 09:15,,,,350.00,13.00,,30.19,,4.00,,OVC,,,,700.00,,,,BR,,,,,,,,KACT 130915Z AUTO 35013KT 4SM BR OVC007 M04/M06 A3019 RMK T10401060 CIG 6V12  MADISHF
ACT,2021-02-13 09:20,,,,350.00,15.00,,30.19,,4.00,,OVC,,,,800.00,,,,BR,,,,,,,,KACT 130920Z AUTO 35015KT 4SM BR OVC008 M04/M06 A3019 RMK T10401060 CIG 7V10  MADISHF
ACT,2021-02-13 09:25,,,,360.00,14.00,,30.19,,4.00,,OVC,,,,800.00,,,,BR,,,,,,,,KACT 130925Z AUTO 36014KT 4SM BR OVC008 M04/M06 A3019 RMK T10401060 CIG 7V11  MADISHF
ACT,2021-02-13 09:30,,,,340.00,11.00,,30.19,,5.00,,OVC,,,,900.00,,,,BR,,,,,,,,KACT 130930Z AUTO 34011KT 5SM BR OVC009 M04/M06 A3019 RMK T10401060 CIG 7V11  MADISHF
ACT,2021-02-13 09:35,,,,340.00,13.00,,30.20,,4.00,,OVC,,,,900.00,,,,BR,,,,,,,,KACT 130935Z AUTO 34013KT 4SM BR OVC009 M04/M06 A3020 RMK T10401060 CIG 6V11  MADISHF
ACT,2021-02-13 09:40,,,,350.00,13.00,,30.19,,4.00,,OVC,,,,900.00,,,,BR,,,,,,,,KACT 130940Z AUTO 35013KT 4SM BR OVC009 M04/M06 A3019 RMK T10401060 CIG 6V11  MADISHF
ACT,2021-02-13 09:45,,,,350.00,11.00,,30.19,,4.00,,OVC,,,,800.00,,,,BR,,,,,,,,KACT 130945Z AUTO 35011KT 4SM BR OVC008 M04/M06 A3019 RMK T10401060 CIG 6V11  MADISHF
ACT,2021-02-13 09:50,,,,350.00,13.00,,30.19,,4.00,,OVC,,,,800.00,,,,BR,,,,,,,,KACT 130950Z AUTO 35013KT 4SM BR OVC008 M04/M06 A3019 RMK T10401060 CIG 6V11  MADISHF
ACT,2021-02-13 09:51,24.10,21.00,87.76,350.00,12.00,T,30.19,1022.60,4.00,,OVC,,,,800.00,,,,BR,T,,,,,,11.95,KACT 130951Z AUTO 35012KT 4SM BR OVC008 M04/M06 A3019 RMK AO2 UPB0855E0856FZRAB0856E06 CIG 006V011 SLP226 P0000 I1000 T10441061
ACT,2021-02-13 09:55,,,,350.00,13.00,,30.19,,3.50,,OVC,,,,800.00,,,,BR,,,,,,,,KACT 130955Z AUTO 35013KT 3SM BR OVC008 M04/M06 A3019 RMK T10401060 CIG 6V11  MADISHF
ACT,2021-02-13 09:58,24.10,21.00,87.76,350.00,12.00,T,30.19,,3.00,,OVC,,,,700.00,,,,-FZRA BR,T,,,,,,11.95,KACT 130958Z AUTO 35012KT 3SM -FZRA BR OVC007 M04/M06 A3019 RMK AO2 FZRAB57 CIG 006V011 P0000 I1000 T10441061
ACT,2021-02-13 10:00,,,,350.00,11.00,,30.18,,3.00,,OVC,,,,700.00,,,,-FZRA BR,,,,,,,,KACT 131000Z AUTO 35011KT 3SM -FZRA BR OVC007 M04/M06 A3018 RMK T10401060 CIG 5V11  MADISHF
ACT,2021-02-13 10:05,,,,350.00,13.00,,30.18,,3.00,,OVC,,,,700.00,,,,-FZRA BR,,,,,,,,KACT 131005Z AUTO 35013KT 3SM -FZRA BR OVC007 M04/M06 A3018 RMK T10401060 CIG 5V11  MADISHF
ACT,2021-02-13 10:10,,,,350.00,13.00,,30.19,,3.00,,OVC,,,,700.00,,,,-FZRA BR,,,,,,,,KACT 131010Z AUTO 35013KT 3SM -FZRA BR OVC007 M04/M06 A3019 RMK T10401060 CIG 5V11  MADISHF
ACT,2021-02-13 10:15,,,,350.00,14.00,,30.19,,3.00,,OVC,,,,700.00,,,,-FZRA BR,,,,,,,,KACT 131015Z AUTO 35014KT 3SM -FZRA BR OVC007 M04/M06 A3019 RMK T10401060 CIG 5V11  MADISHF
ACT,2021-02-13 10:20,,,,350.00,11.00,,30.19,,3.00,17.00,OVC,,,,700.00,,,,-FZRA BR,,,,,,,,KACT 131020Z AUTO 35011G17KT 3SM -FZRA BR OVC007 M04/M06 A3019 RMK T10401060 CIG 5V10  MADISHF
ACT,2021-02-13 10:25,,,,350.00,11.00,,30.19,,3.50,,OVC,,,,700.00,,,,BR,,,,,,,,KACT 131025Z AUTO 35011KT 3SM BR OVC007 M04/M06 A3019 RMK T10401060 CIG 5V10  MADISHF
ACT,2021-02-13 10:30,,,,350.00,11.00,,30.19,,3.50,,OVC,,,,700.00,,,,BR,,,,,,,,KACT 131030Z AUTO 35011KT 3SM BR OVC007 M04/M06 A3019 RMK T10401060 CIG 5V10  MADISHF
ACT,2021-02-13 10:31,24.10,21.00,87.76,350.00,11.00,T,30.19,,3.00,19.00,OVC,,,,700.00,,,,BR,0.01,,,,,,12.48,KACT 131031Z AUTO 35011G19KT 3SM BR OVC007 M04/M06 A3019 RMK AO2 FZRAB0957E25 CIG 005V012 P0000 I1001 T10441061
ACT,2021-02-13 10:35,,,,350.00,11.00,,30.19,,3.00,,OVC,,,,700.00,,,,BR,,,,,,,,KACT 131035Z AUTO 35011KT 3SM BR OVC007 M04/M06 A3019 RMK T10401060 CIG 5V12  MADISHF
ACT,2021-02-13 10:40,,,,340.00,11.00,,30.20,,3.00,,OVC,,,,700.00,,,,BR,,,,,,,,KACT 131040Z AUTO 34011KT 3SM BR OVC007 M04/M06 A3020 RMK T10401060 CIG 5V12  MADISHF
ACT,2021-02-13 10:45,,,,350.00,14.00,,30.20,,3.00,,OVC,,,,700.00,,,,BR,,,,,,,,KACT 131045Z AUTO 35014KT 3SM BR OVC007 M04/M06 A3020 RMK T10401060 CIG 5V10  MADISHF
ACT,2021-02-13 10:50,,,,350.00,11.00,,30.20,,3.00,,OVC,,,,700.00,,,,BR,,,,,,,,KACT 131050Z AUTO 35011KT 3SM BR OVC007 M04/M06 A3020 RMK T10401060 CIG 5V10  MADISHF
ACT,2021-02-13 10:51,24.10,21.00,87.76,350.00,11.00,T,30.20,1022.90,3.00,19.00,OVC,,,,700.00,,,,BR,0.01,,,,,,12.48,KACT 131051Z AUTO 35011G19KT 3SM BR OVC007 M04/M06 A3020 RMK AO2 FZRAB0957E25 CIG 005V010 SLP229 P0000 I1001 T10441061
ACT,2021-02-13 10:55,,,,360.00,14.00,,30.20,,3.50,,OVC,,,,700.00,,,,BR,,,,,,,,KACT 131055Z AUTO 36014KT 3SM BR OVC007 M04/M06 A3020 RMK T10401060 CIG 5V12  MADISHF
ACT,2021-02-13 11:00,,,,350.00,11.00,,30.20,,3.50,16.00,OVC,,,,700.00,,,,BR,,,,,,,,KACT 131100Z AUTO 35011G16KT 3SM BR OVC007 M04/M06 A3020 RMK T10401060 CIG 5V12  MADISHF
ACT,2021-02-13 11:05,,,,340.00,13.00,,30.20,,4.00,,OVC,,,,800.00,,,,BR,,,,,,,,KACT 131105Z AUTO 34013KT 4SM BR OVC008 M04/M06 A3020 RMK T10401060 CIG 5V12  MADISHF
ACT,2021-02-13 11:10,,,,350.00,13.00,,30.20,,4.00,,OVC,,,,800.00,,,,BR,,,,,,,,KACT 131110Z AUTO 35013KT 4SM BR OVC008 M04/M07 A3020 RMK T10401070 CIG 6V12  MADISHF
ACT,2021-02-13 11:15,,,,350.00,14.00,,30.20,,4.00,,OVC,,,,800.00,,,,BR,,,,,,,,KACT 131115Z AUTO 35014KT 4SM BR OVC008 M04/M06 A3020 RMK T10401060 CIG 6V11  MADISHF
ACT,2021-02-13 11:20,,,,350.00,13.00,,30.20,,4.00,,OVC,,,,800.00,,,,BR,,,,,,,,KACT 131120Z AUTO 35013KT 4SM BR OVC008 M04/M07 A3020 RMK T10401070 MADISHF
ACT,2021-02-13 11:25,,,,350.00,11.00,,30.21,,4.00,,OVC,,,,800.00,,,,BR,,,,,,,,KACT 131125Z AUTO 35011KT 4SM BR OVC008 M04/M07 A3020 RMK T10401070 MADISHF
ACT,2021-02-13 11:30,,,,340.00,13.00,,30.21,,4.00,,OVC,,,,800.00,,,,BR,,,,,,,,KACT 131130Z AUTO 34013KT 4SM BR OVC008 M04/M07 A3020 RMK T10401070 MADISHF
ACT,2021-02-13 11:35,,,,350.00,14.00,,30.21,,4.00,19.00,OVC,,,,800.00,,,,BR,,,,,,,,KACT 131135Z AUTO 35014G19KT 4SM BR OVC008 M04/M07 A3020 RMK T10401070 MADISHF
ACT,2021-02-13 11:40,,,,350.00,13.00,,30.21,,4.00,,OVC,,,,800.00,,,,BR,,,,,,,,KACT 131140Z AUTO 35013KT 4SM BR OVC008 M05/M07 A3020 RMK T10501070 MADISHF
ACT,2021-02-13 11:45,,,,350.00,13.00,,30.21,,4.00,,OVC,,,,800.00,,,,BR,,,,,,,,KACT 131145Z AUTO 35013KT 4SM BR OVC008 M04/M07 A3020 RMK T10401070 MADISHF
ACT,2021-02-13 11:50,,,,350.00,13.00,,30.21,,4.00,,OVC,,,,800.00,,,,BR,,,,,,,,KACT 131150Z AUTO 35013KT 4SM BR OVC008 M05/M07 A3020 RMK T10501070 MADISHF
ACT,2021-02-13 11:51,23.00,19.90,87.70,350.00,14.00,0.00,30.21,1023.40,4.00,,OVC,,,,800.00,,,,BR,0.01,,0.04,,,,9.56,KACT 131151Z AUTO 35014KT 4SM BR OVC008 M05/M07 A3021 RMK AO2 SLP234 60000 I1001 I6004 T10501067 11028 21050 53006
ACT,2021-02-13 11:55,,,,350.00,13.00,,30.21,,4.00,,OVC,,,,800.00,,,,BR,,,,,,,,KACT 131155Z AUTO 35013KT 4SM BR OVC008 M05/M07 A3020 RMK T10501070 MADISHF
ACT,2021-02-13 12:00,,,,350.00,13.00,,30.22,,4.00,,OVC,,,,800.00,,,,BR,,,,,,,,KACT 131200Z AUTO 35013KT 4SM BR OVC008 M05/M07 A3021 RMK T10501070 MADISHF
ACT,2021-02-13 12:05,,,,340.00,10.00,,30.22,,4.00,,OVC,,,,800.00,,,,BR,,,,,,,,KACT 131205Z AUTO 34010KT 4SM BR OVC008 M05/M07 A3021 RMK T10501070 MADISHF
ACT,2021-02-13 12:10,,,,350.00,11.00,,30.22,,4.00,,OVC,,,,800.00,,,,BR,,,,,,,,KACT 131210Z AUTO 35011KT 4SM BR OVC008 M04/M07 A3021 RMK T10401070 MADISHF
ACT,2021-02-13 12:15,,,,350.00,11.00,,30.22,,4.00,,OVC,,,,800.00,,,,BR,,,,,,,,KACT 131215Z AUTO 35011KT 4SM BR OVC008 M05/M07 A3021 RMK T10501070 MADISHF
ACT,2021-02-13 12:20,,,,350.00,11.00,,30.22,,4.00,,OVC,,,,800.00,,,,BR,,,,,,,,KACT 131220Z AUTO 35011KT 4SM BR OVC008 M05/M07 A3021 RMK T10501070 CIG 7V11  MADISHF
ACT,2021-02-13 12:25,,,,350.00,10.00,T,30.22,,4.00,,OVC,,,,800.00,,,,UP BR,,,,,,,,KACT 131225Z AUTO 35010KT 4SM UP BR OVC008 M04/M07 A3021 RMK P0000 T10401070 CIG 7V12  MADISHF
ACT,2021-02-13 12:30,,,,350.00,13.00,,30.22,,3.50,,OVC,,,,800.00,,,,-FZRA BR,,,,,,,,KACT 131230Z AUTO 35013KT 3SM -FZRA BR OVC008 M05/M07 A3021 RMK T10501070 CIG 7V12  MADISHF
ACT,2021-02-13 12:35,,,,350.00,11.00,,30.22,,3.50,,OVC,,,,800.00,,,,BR,,,,,,,,KACT 131235Z AUTO 35011KT 3SM BR OVC008 M05/M07 A3021 RMK T10501070 CIG 7V12  MADISHF
ACT,2021-02-13 12:40,,,,350.00,11.00,,30.22,,3.00,,OVC,,,,800.00,,,,-FZRA BR,,,,,,,,KACT 131240Z AUTO 35011KT 3SM -FZRA BR OVC008 M05/M07 A3021 RMK T10501070 MADISHF
ACT,2021-02-13 12:45,,,,350.00,11.00,,30.22,,3.00,,OVC,,,,800.00,,,,-FZRA BR,,,,,,,,KACT 131245Z AUTO 35011KT 3SM -FZRA BR OVC008 M05/M07 A3021 RMK T10501070 CIG 6V12  MADISHF
ACT,2021-02-13 12:50,,,,350.00,9.00,,30.22,,3.50,,OVC,,,,800.00,,,,-FZRA BR,,,,,,,,KACT 131250Z AUTO 35009KT 3SM -FZRA BR OVC008 M04/M07 A3021 RMK T10401070 CIG 6V12  MADISHF
ACT,2021-02-13 12:51,24.10,19.90,83.75,350.00,9.00,T,30.22,1023.80,3.00,,OVC,,,,800.00,,,,-FZRA BR,0.01,,,,,,13.69,KACT 131251Z 35009KT 3SM -FZRA BR OVC008 M04/M07 A3022 RMK AO2 UPB21E27FZRAB27 CIG 006V012 SLP238 P0000 I1001 T10441067
ACT,2021-02-13 12:55,,,,350.00,11.00,,30.22,,3.50,,OVC,,,,800.00,,,,-FZRA BR,,,,,,,,KACT 131255Z AUTO 35011KT 3SM -FZRA BR OVC008 M04/M07 A3021 RMK T10401070 CIG 6V12  MADISHF
ACT,2021-02-13 13:00,,,,350.00,11.00,,30.22,,3.50,,OVC,,,,800.00,,,,BR,,,,,,,,KACT 131300Z AUTO 35011KT 3SM BR OVC008 M04/M07 A3021 RMK T10401070 CIG 6V12  MADISHF
ACT,2021-02-13 13:03,24.10,19.90,83.75,350.00,13.00,T,30.22,,3.00,,OVC,,,,800.00,,,,BR,T,,,,,,11.45,KACT 131303Z 35013KT 3SM BR OVC008 M04/M07 A3022 RMK AO2 FZRAE1257 CIG 006V012 P0000 I1000 T10441067
ACT,2021-02-13 13:05,,,,350.00,11.00,,30.22,,3.50,,OVC,,,,800.00,,,,BR,,,,,,,,KACT 131305Z AUTO 35011KT 3SM BR OVC008 M04/M07 A3021 RMK T10401070 CIG 6V12  MADISHF
ACT,2021-02-13 13:10,,,,350.00,11.00,,30.22,,4.00,,OVC,,,,800.00,,,,BR,,,,,,,,KACT 131310Z AUTO 35011KT 4SM BR OVC008 M04/M07 A3021 RMK T10401070 CIG 7V12  MADISHF
ACT,2021-02-13 13:15,,,,360.00,11.00,,30.22,,4.00,,OVC,,,,800.00,,,,BR,,,,,,,,KACT 131315Z AUTO 36011KT 4SM BR OVC008 M04/M07 A3021 RMK T10401070 CIG 7V12  MADISHF
ACT,2021-02-13 13:20,,,,350.00,10.00,,30.23,,4.00,17.00,OVC,,,,800.00,,,,BR,,,,,,,,KACT 131320Z AUTO 35010G17KT 4SM BR OVC008 M04/M07 A3022 RMK T10401070 CIG 6V12  MADISHF
ACT,2021-02-13 13:25,,,,350.00,11.00,,30.23,,4.00,,OVC,,,,800.00,,,,BR,,,,,,,,KACT 131325Z AUTO 35011KT 4SM BR OVC008 M05/M07 A3022 RMK T10501070 CIG 6V11  MADISHF
ACT,2021-02-13 13:30,,,,350.00,11.00,,30.23,,4.00,,OVC,,,,800.00,,,,BR,,,,,,,,KACT 131330Z AUTO 35011KT 4SM BR OVC008 M04/M07 A3022 RMK T10401070 MADISHF
ACT,2021-02-13 13:35,,,,350.00,13.00,,30.23,,3.50,18.00,OVC,,,,800.00,,,,BR,,,,,,,,KACT 131335Z AUTO 35013G18KT 3SM BR OVC008 M05/M07 A3022 RMK T10501070 CIG 6V11  MADISHF
ACT,2021-02-13 13:40,,,,360.00,13.00,,30.23,,3.00,,OVC,,,,800.00,,,,BR,,,,,,,,KACT 131340Z AUTO 36013KT 3SM BR OVC008 M05/M07 A3022 RMK T10501070 CIG 6V12  MADISHF
ACT,2021-02-13 13:45,,,,10.00,16.00,,30.23,,3.50,,BKN,OVC,,,800.00,1500.00,,,BR,,,,,,,,KACT 131345Z AUTO 01016KT 3SM BR BKN008 OVC015 M05/M07 A3022 RMK T10501070 CIG 6V13  MADISHF
ACT,2021-02-13 13:50,,,,360.00,14.00,,30.23,,3.50,,BKN,OVC,,,999.00,1500.00,,,BR,,,,,,,,KACT 131350Z AUTO 36014KT 3SM BR BKN009 OVC015 M05/M07 A3022 RMK T10501070 CIG 6V12  MADISHF
ACT,2021-02-13 13:51,23.00,19.90,87.70,10.00,13.00,T,30.23,1024.20,3.00,,BKN,OVC,,,1000.00,1500.00,,,BR,T,,,,,,10.04,KACT 131351Z 01013KT 3SM BR BKN010 OVC015 M05/M07 A3023 RMK AO2 FZRAE1257 CIG 006V012 SLP242 P0000 I1000 T10501067
ACT,2021-02-13 13:55,,,,360.00,11.00,,30.23,,3.00,,BKN,OVC,,,999.00,1500.00,,,BR,,,,,,,,KACT 131355Z AUTO 36011KT 3SM BR BKN009 OVC015 M05/M07 A3022 RMK T10501070 CIG 7V12  MADISHF
ACT,2021-02-13 14:00,,,,360.00,11.00,,30.23,,3.00,,BKN,OVC,,,800.00,1300.00,,,BR,,,,,,,,KACT 131400Z AUTO 36011KT 3SM BR BKN008 OVC013 M05/M07 A3022 RMK T10501070 MADISHF
ACT,2021-02-13 14:05,,,,10.00,11.00,,30.24,,3.00,,BKN,OVC,,,999.00,1500.00,,,BR,,,,,,,,KACT 131405Z AUTO 01011KT 3SM BR BKN009 OVC015 M05/M07 A3023 RMK T10501070 CIG 7V12  MADISHF
ACT,2021-02-13 14:10,,,,350.00,9.00,,30.24,,3.50,,OVC,,,,999.00,,,,BR,,,,,,,,KACT 131410Z AUTO 35009KT 3SM BR OVC009 M04/M07 A3023 RMK T10401070 CIG 7V12  MADISHF
ACT,2021-02-13 14:15,,,,10.00,13.00,,30.24,,4.00,,OVC,,,,999.00,,,,BR,,,,,,,,KACT 131415Z AUTO 01013KT 4SM BR OVC009 M04/M07 A3023 RMK T10401070 CIG 7V12  MADISHF
ACT,2021-02-13 14:20,,,,350.00,11.00,,30.25,,4.00,,OVC,,,,900.00,,,,BR,,,,,,,,KACT 131420Z AUTO 35011KT 4SM BR OVC009 M04/M07 A3025 RMK T10401070 CIG 7V12  MADISHF
ACT,2021-02-13 14:23,24.10,19.90,83.75,350.00,9.00,0.00,30.25,,4.00,,OVC,,,,900.00,,,,BR,,,,,,,13.69,KACT 131423Z 35009KT 4SM BR OVC009 M04/M07 A3025 RMK AO2 CIG 007V012 T10441067
ACT,2021-02-13 14:25,,,,350.00,11.00,,30.25,,4.00,,OVC,,,,900.00,,,,BR,,,,,,,,KACT 131425Z AUTO 35011KT 4SM BR OVC009 M04/M07 A3025 RMK T10401070 CIG 7V12  MADISHF
ACT,2021-02-13 14:30,,,,350.00,13.00,,30.26,,4.00,,OVC,,,,900.00,,,,BR,,,,,,,,KACT 131430Z AUTO 35013KT 4SM BR OVC009 M04/M07 A3026 RMK T10401070 CIG 7V12  MADISHF
ACT,2021-02-13 14:35,,,,350.00,11.00,,30.26,,5.00,,OVC,,,,900.00,,,,BR,,,,,,,,KACT 131435Z AUTO 35011KT 5SM BR OVC009 M04/M07 A3026 RMK T10401070 CIG 7V12  MADISHF
ACT,2021-02-13 14:40,,,,360.00,14.00,,30.26,,5.00,,OVC,,,,900.00,,,,BR,,,,,,,,KACT 131440Z AUTO 36014KT 5SM BR OVC009 M04/M07 A3026 RMK T10401070 CIG 7V12  MADISHF
ACT,2021-02-13 14:45,,,,360.00,14.00,,30.27,,5.00,,OVC,,,,900.00,,,,HZ,,,,,,,,KACT 131445Z AUTO 36014KT 5SM HZ OVC009 M04/M07 A3027 RMK T10401070 CIG 7V12  MADISHF
ACT,2021-02-13 14:50,,,,360.00,14.00,,30.27,,5.00,,OVC,,,,999.00,,,,HZ,,,,,,,,KACT 131450Z AUTO 36014KT 5SM HZ OVC009 M04/M07 A3027 RMK T10401070 CIG 7V12  MADISHF
ACT,2021-02-13 14:51,24.10,19.00,80.59,360.00,13.00,0.00,30.27,1025.50,5.00,,OVC,,,,1000.00,,,,HZ,,0.01,,,,,11.45,KACT 131451Z 36013KT 5SM HZ OVC010 M04/M07 A3027 RMK AO2 CIG 007V012 SLP255 60000 I3001 T10441072 53020
ACT,2021-02-13 14:55,,,,350.00,11.00,,30.27,,5.00,18.00,OVC,,,,999.00,,,,BR,,,,,,,,KACT 131455Z AUTO 35011G18KT 5SM BR OVC009 M04/M07 A3027 RMK T10401070 MADISHF
ACT,2021-02-13 15:00,,,,350.00,11.00,,30.28,,5.00,,OVC,,,,999.00,,,,BR,,,,,,,,KACT 131500Z AUTO 35011KT 5SM BR OVC009 M04/M07 A3028 RMK T10401070 MADISHF
ACT,2021-02-13 15:05,,,,350.00,11.00,,30.28,,5.00,16.00,OVC,,,,999.00,,,,BR,,,,,,,,KACT 131505Z AUTO 35011G16KT 5SM BR OVC009 M04/M07 A3028 RMK T10401070 MADISHF
ACT,2021-02-13 15:10,,,,360.00,15.00,,30.29,,5.00,,OVC,,,,999.00,,,,BR,,,,,,,,KACT 131510Z AUTO 36015KT 5SM BR OVC009 M04/M07 A3029 RMK T10401070 CIG 9V12  MADISHF
ACT,2021-02-13 15:15,,,,360.00,15.00,,30.29,,5.00,,OVC,,,,999.00,,,,BR,,,,,,,,KACT 131515Z AUTO 36015KT 5SM BR OVC009 M04/M07 A3029 RMK T10401070 MADISHF
ACT,2021-02-13 15:20,,,,360.00,11.00,,30.30,,5.00,,OVC,,,,999.00,,,,HZ,,,,,,,,KACT 131520Z AUTO 36011KT 5SM HZ OVC009 M04/M07 A3029 RMK T10401070 MADISHF
ACT,2021-02-13 15:25,,,,350.00,15.00,,30.30,,6.00,,OVC,,,,999.00,,,,BR,,,,,,,,KACT 131525Z AUTO 35015KT 6SM BR OVC009 M04/M07 A3029 RMK T10401070 MADISHF
ACT,2021-02-13 15:30,,,,350.00,14.00,,30.30,,6.00,,OVC,,,,999.00,,,,HZ,,,,,,,,KACT 131530Z AUTO 35014KT 6SM HZ OVC009 M04/M07 A3029 RMK T10401070 MADISHF
ACT,2021-02-13 15:35,,,,360.00,13.00,,30.31,,6.00,,OVC,,,,1100.00,,,,HZ,,,,,,,,KACT 131535Z AUTO 36013KT 6SM HZ OVC011 M04/M07 A3030 RMK T10401070 MADISHF
ACT,2021-02-13 15:40,,,,350.00,13.00,,30.31,,6.00,,OVC,,,,1100.00,,,,HZ,,,,,,,,KACT 131540Z AUTO 35013KT 6SM HZ OVC011 M04/M07 A3030 RMK T10401070 MADISHF
ACT,2021-02-13 15:45,,,,360.00,14.00,,30.31,,6.00,,OVC,,,,1100.00,,,,HZ,,,,,,,,KACT 131545Z AUTO 36014KT 6SM HZ OVC011 M04/M07 A3030 RMK T10401070 MADISHF
ACT,2021-02-13 15:50,,,,360.00,14.00,,30.31,,6.00,,OVC,,,,1100.00,,,,HZ,,,,,,,,KACT 131550Z AUTO 36014KT 6SM HZ OVC011 M04/M07 A3030 RMK T10401070 MADISHF
ACT,2021-02-13 15:51,24.10,19.00,80.59,360.00,13.00,0.00,30.31,1026.90,6.00,,OVC,,,,1100.00,,,,HZ,,,,,,,11.45,KACT 131551Z 36013KT 6SM HZ OVC011 M04/M07 A3031 RMK AO2 SLP269 T10441072
ACT,2021-02-13 15:55,,,,360.00,14.00,,30.31,,6.00,,OVC,,,,1100.00,,,,HZ,,,,,,,,KACT 131555Z AUTO 36014KT 6SM HZ OVC011 M04/M07 A3030 RMK T10401070 MADISHF
ACT,2021-02-13 16:00,,,,350.00,14.00,,30.31,,6.00,,OVC,,,,1100.00,,,,HZ,,,,,,,,KACT 131600Z AUTO 35014KT 6SM HZ OVC011 M04/M07 A3030 RMK T10401070 MADISHF
ACT,2021-02-13 16:05,,,,350.00,13.00,,30.31,,6.00,18.00,OVC,,,,1100.00,,,,HZ,,,,,,,,KACT 131605Z AUTO 35013G18KT 6SM HZ OVC011 M04/M07 A3030 RMK T10401070 MADISHF
ACT,2021-02-13 16:10,,,,350.00,13.00,,30.31,,6.00,,OVC,,,,1200.00,,,,HZ,,,,,,,,KACT 131610Z AUTO 35013KT 6SM HZ OVC012 M04/M07 A3030 RMK T10401070 MADISHF
ACT,2021-02-13 16:15,,,,350.00,13.00,,30.32,,6.00,,OVC,,,,1200.00,,,,HZ,,,,,,,,KACT 131615Z AUTO 35013KT 6SM HZ OVC012 M04/M07 A3031 RMK T10401070 MADISHF
ACT,2021-02-13 16:20,,,,350.00,14.00,,30.32,,6.00,,OVC,,,,1200.00,,,,HZ,,,,,,,,KACT 131620Z AUTO 35014KT 6SM HZ OVC012 M04/M07 A3031 RMK T10401070 MADISHF
ACT,2021-02-13 16:25,,,,340.00,14.00,,30.32,,6.00,,OVC,,,,1200.00,,,,HZ,,,,,,,,KACT 131625Z AUTO 34014KT 6SM HZ OVC012 M04/M07 A3031 RMK T10401070 MADISHF
ACT,2021-02-13 16:30,,,,340.00,13.00,,30.32,,6.00,,OVC,,,,1200.00,,,,HZ,,,,,,,,KACT 131630Z AUTO 34013KT 6SM HZ OVC012 M04/M07 A3031 RMK T10401070 MADISHF
ACT,2021-02-13 16:35,,,,350.00,16.00,,30.32,,6.00,,OVC,,,,1200.00,,,,HZ,,,,,,,,KACT 131635Z AUTO 35016KT 6SM HZ OVC012 M04/M07 A3031 RMK T10401070 MADISHF
ACT,2021-02-13 16:40,,,,350.00,14.00,,30.31,,6.00,,OVC,,,,1200.00,,,,HZ,,,,,,,,KACT 131640Z AUTO 35014KT 6SM HZ OVC012 M04/M07 A3030 RMK T10401070 MADISHF
ACT,2021-02-13 16:45,,,,350.00,15.00,,30.31,,6.00,,OVC,,,,1200.00,,,,HZ,,,,,,,,KACT 131645Z AUTO 35015KT 6SM HZ OVC012 M04/M07 A3030 RMK T10401070 MADISHF
ACT,2021-02-13 16:50,,,,360.00,14.00,,30.31,,6.00,,OVC,,,,1200.00,,,,HZ,,,,,,,,KACT 131650Z AUTO 36014KT 6SM HZ OVC012 M04/M07 A3030 RMK T10401070 MADISHF
ACT,2021-02-13 16:51,24.10,19.00,80.59,360.00,14.00,0.00,30.31,1026.90,6.00,,OVC,,,,1200.00,,,,HZ,,,,,,,10.98,KACT 131651Z 36014KT 6SM HZ OVC012 M04/M07 A3031 RMK AO2 SLP269 T10441072
ACT,2021-02-13 16:55,,,,350.00,14.00,,30.31,,6.00,,OVC,,,,1200.00,,,,HZ,,,,,,,,KACT 131655Z AUTO 35014KT 6SM HZ OVC012 M04/M07 A3030 RMK T10401070 MADISHF
ACT,2021-02-13 17:00,,,,350.00,14.00,,30.31,,6.00,,OVC,,,,1200.00,,,,HZ,,,,,,,,KACT 131700Z AUTO 35014KT 6SM HZ OVC012 M04/M07 A3030 RMK T10401070 MADISHF
ACT,2021-02-13 17:05,,,,350.00,14.00,,30.30,,6.00,,OVC,,,,1200.00,,,,HZ,,,,,,,,KACT 131705Z AUTO 35014KT 6SM HZ OVC012 M04/M07 A3029 RMK T10401070 MADISHF
ACT,2021-02-13 17:10,,,,,16.00,,30.30,,6.00,,OVC,,,,1200.00,,,,HZ,,,,,,,,KACT 131710Z AUTO ///16KT 6SM HZ OVC012 M04/M07 A3029 RMK T10401070 MADISHF
ACT,2021-02-13 17:15,,,,360.00,11.00,,30.30,,6.00,18.00,OVC,,,,1300.00,,,,BR,,,,,,,,KACT 131715Z AUTO 36011G18KT 6SM BR OVC013 M04/M07 A3029 RMK T10401070 MADISHF
ACT,2021-02-13 17:20,,,,350.00,14.00,,30.30,,6.00,19.00,OVC,,,,1300.00,,,,HZ,,,,,,,,KACT 131720Z AUTO 35014G19KT 6SM HZ OVC013 M04/M07 A3029 RMK T10401070 MADISHF
ACT,2021-02-13 17:25,,,,360.00,14.00,,30.29,,6.00,,OVC,,,,1300.00,,,,BR,,,,,,,,KACT 131725Z AUTO 36014KT 6SM BR OVC013 M04/M07 A3029 RMK T10401070 MADISHF
ACT,2021-02-13 17:30,,,,350.00,13.00,,30.29,,6.00,,OVC,,,,1300.00,,,,HZ,,,,,,,,KACT 131730Z AUTO 35013KT 6SM HZ OVC013 M04/M07 A3029 RMK T10401070 MADISHF
ACT,2021-02-13 17:35,,,,360.00,15.00,,30.28,,6.00,,OVC,,,,1300.00,,,,HZ,,,,,,,,KACT 131735Z AUTO 36015KT 6SM HZ OVC013 M04/M07 A3028 RMK T10401070 MADISHF
ACT,2021-02-13 17:40,,,,360.00,11.00,,30.28,,6.00,,OVC,,,,1300.00,,,,HZ,,,,,,,,KACT 131740Z AUTO 36011KT 6SM HZ OVC013 M04/M07 A3028 RMK T10401070 MADISHF
ACT,2021-02-13 17:45,,,,10.00,13.00,,30.28,,6.00,,OVC,,,,1300.00,,,,HZ,,,,,,,,KACT 131745Z AUTO 01013KT 6SM HZ OVC013 M04/M07 A3028 RMK T10401070 MADISHF
ACT,2021-02-13 17:50,,,,360.00,13.00,,30.27,,6.00,,OVC,,,,1300.00,,,,HZ,,,,,,,,KACT 131750Z AUTO 36013KT 6SM HZ OVC013 M04/M07 A3027 RMK T10401070 MADISHF
ACT,2021-02-13 17:51,25.00,19.90,80.66,360.00,14.00,0.00,30.27,1025.50,6.00,,OVC,,,,1300.00,,,,HZ,,,0.01,,,,12.14,KACT 131751Z 36014KT 6SM HZ OVC013 M04/M07 A3027 RMK AO2 SLP255 60000 I6001 T10391067 11039 21050 58000
ACT,2021-02-13 17:55,,,,360.00,15.00,,30.27,,6.00,,OVC,,,,1300.00,,,,HZ,,,,,,,,KACT 131755Z AUTO 36015KT 6SM HZ OVC013 M04/M07 A3027 RMK T10401070 MADISHF
ACT,2021-02-13 18:00,,,,360.00,11.00,,30.26,,6.00,,OVC,,,,1300.00,,,,HZ,,,,,,,,KACT 131800Z AUTO 36011KT 6SM HZ OVC013 M04/M07 A3026 RMK T10401070 MADISHF
ACT,2021-02-13 18:05,,,,360.00,11.00,,30.26,,6.00,,OVC,,,,1300.00,,,,BR,,,,,,,,KACT 131805Z AUTO 36011KT 6SM BR OVC013 M04/M06 A3026 RMK T10401060 MADISHF
ACT,2021-02-13 18:10,,,,360.00,14.00,,30.26,,6.00,,OVC,,,,1300.00,,,,HZ,,,,,,,,KACT 131810Z AUTO 36014KT 6SM HZ OVC013 M03/M06 A3026 RMK T10301060 MADISHF
ACT,2021-02-13 18:15,,,,360.00,16.00,,30.25,,6.00,,OVC,,,,1300.00,,,,HZ,,,,,,,,KACT 131815Z AUTO 36016KT 6SM HZ OVC013 M03/M06 A3025 RMK T10301060 MADISHF
ACT,2021-02-13 18:20,,,,350.00,15.00,,30.24,,6.00,,OVC,,,,1300.00,,,,HZ,,,,,,,,KACT 131820Z AUTO 35015KT 6SM HZ OVC013 M03/M06 A3023 RMK T10301060 MADISHF
ACT,2021-02-13 18:25,,,,10.00,14.00,,30.24,,6.00,,OVC,,,,1300.00,,,,HZ,,,,,,,,KACT 131825Z AUTO 01014KT 6SM HZ OVC013 M03/M06 A3023 RMK T10301060 MADISHF
ACT,2021-02-13 18:30,,,,360.00,16.00,,30.24,,6.00,,OVC,,,,1300.00,,,,BR,,,,,,,,KACT 131830Z AUTO 36016KT 6SM BR OVC013 M03/M06 A3023 RMK T10301060 MADISHF
ACT,2021-02-13 18:35,,,,10.00,14.00,,30.23,,6.00,,OVC,,,,1300.00,,,,BR,,,,,,,,KACT 131835Z AUTO 01014KT 6SM BR OVC013 M03/M06 A3022 RMK T10301060 MADISHF
ACT,2021-02-13 18:40,,,,10.00,11.00,,30.23,,6.00,,OVC,,,,1300.00,,,,BR,,,,,,,,KACT 131840Z AUTO 01011KT 6SM BR OVC013 M03/M06 A3022 RMK T10301060 MADISHF
ACT,2021-02-13 18:45,,,,360.00,13.00,,30.23,,6.00,,OVC,,,,1300.00,,,,HZ,,,,,,,,KACT 131845Z AUTO 36013KT 6SM HZ OVC013 M03/M06 A3022 RMK T10301060 MADISHF
ACT,2021-02-13 18:50,,,,360.00,11.00,,30.23,,6.00,,OVC,,,,1300.00,,,,BR,,,,,,,,KACT 131850Z AUTO 36011KT 6SM BR OVC013 M03/M06 A3022 RMK T10301060 MADISHF
ACT,2021-02-13 18:51,27.00,21.90,80.83,360.00,12.00,0.00,30.23,1023.80,6.00,,OVC,,,,1300.00,,,,HZ,,,,,,,15.64,KACT 131851Z 36012KT 6SM HZ OVC013 M03/M06 A3023 RMK AO2 SLP238 T10281056
ACT,2021-02-13 18:55,,,,10.00,14.00,,30.22,,6.00,,OVC,,,,1300.00,,,,HZ,,,,,,,,KACT 131855Z AUTO 01014KT 6SM HZ OVC013 M03/M06 A3021 RMK T10301060 MADISHF
ACT,2021-02-13 19:00,,,,10.00,14.00,,30.22,,6.00,,OVC,,,,1300.00,,,,HZ,,,,,,,,KACT 131900Z AUTO 01014KT 6SM HZ OVC013 M03/M06 A3021 RMK T10301060 MADISHF
ACT,2021-02-13 19:05,,,,10.00,14.00,,30.22,,6.00,,OVC,,,,1300.00,,,,HZ,,,,,,,,KACT 131905Z AUTO 01014KT 6SM HZ OVC013 M03/M06 A3021 RMK T10301060 MADISHF
ACT,2021-02-13 19:10,,,,10.00,13.00,,30.22,,6.00,,OVC,,,,1300.00,,,,BR,,,,,,,,KACT 131910Z AUTO 01013KT 6SM BR OVC013 M03/M05 A3021 RMK T10301050 MADISHF
ACT,2021-02-13 19:15,,,,360.00,15.00,,30.21,,6.00,,OVC,,,,1300.00,,,,HZ,,,,,,,,KACT 131915Z AUTO 36015KT 6SM HZ OVC013 M03/M06 A3020 RMK T10301060 MADISHF
ACT,2021-02-13 19:20,,,,10.00,14.00,,30.21,,6.00,,OVC,,,,1300.00,,,,HZ,,,,,,,,KACT 131920Z AUTO 01014KT 6SM HZ OVC013 M03/M06 A3020 RMK T10301060 MADISHF
ACT,2021-02-13 19:25,,,,360.00,15.00,,30.21,,6.00,,OVC,,,,1400.00,,,,HZ,,,,,,,,KACT 131925Z AUTO 36015KT 6SM HZ OVC014 M03/M06 A3020 RMK T10301060 MADISHF
ACT,2021-02-13 19:30,,,,10.00,11.00,,30.21,,6.00,,OVC,,,,1400.00,,,,HZ,,,,,,,,KACT 131930Z AUTO 01011KT 6SM HZ OVC014 M03/M06 A3020 RMK T10301060 MADISHF
ACT,2021-02-13 19:35,,,,360.00,11.00,,30.20,,6.00,,OVC,,,,1400.00,,,,HZ,,,,,,,,KACT 131935Z AUTO 36011KT 6SM HZ OVC014 M02/M05 A3020 RMK T10201050 MADISHF
ACT,2021-02-13 19:40,,,,360.00,13.00,,30.20,,6.00,,OVC,,,,1400.00,,,,HZ,,,,,,,,KACT 131940Z AUTO 36013KT 6SM HZ OVC014 M02/M05 A3020 RMK T10201050 MADISHF
ACT,2021-02-13 19:45,,,,360.00,11.00,,30.20,,6.00,,OVC,,,,1400.00,,,,HZ,,,,,,,,KACT 131945Z AUTO 36011KT 6SM HZ OVC014 M02/M06 A3020 RMK T10201060 MADISHF
ACT,2021-02-13 19:50,,,,360.00,11.00,,30.20,,6.00,,OVC,,,,1400.00,,,,HZ,,,,,,,,KACT 131950Z AUTO 36011KT 6SM HZ OVC014 M02/M05 A3020 RMK T10201050 MADISHF
ACT,2021-02-13 19:51,28.00,23.00,81.25,10.00,11.00,0.00,30.20,1022.90,6.00,,OVC,,,,1400.00,,,,HZ,,,,,,,17.41,KACT 131951Z 01011KT 6SM HZ OVC014 M02/M05 A3020 RMK AO2 SLP229 T10221050
ACT,2021-02-13 19:55,,,,20.00,13.00,,30.20,,6.00,,OVC,,,,1400.00,,,,HZ,,,,,,,,KACT 131955Z AUTO 02013KT 6SM HZ OVC014 M02/M05 A3020 RMK T10201050 MADISHF
ACT,2021-02-13 20:00,,,,10.00,11.00,,30.19,,6.00,,OVC,,,,1400.00,,,,HZ,,,,,,,,KACT 132000Z AUTO 01011KT 6SM HZ OVC014 M02/M05 A3019 RMK T10201050 MADISHF
ACT,2021-02-13 20:05,,,,20.00,14.00,,30.19,,6.00,,OVC,,,,1400.00,,,,HZ,,,,,,,,KACT 132005Z AUTO 02014KT 6SM HZ OVC014 M02/M05 A3019 RMK T10201050 MADISHF
ACT,2021-02-13 20:10,,,,10.00,11.00,,30.19,,6.00,,OVC,,,,1400.00,,,,HZ,,,,,,,,KACT 132010Z AUTO 01011KT 6SM HZ OVC014 M02/M05 A3019 RMK T10201050 MADISHF
ACT,2021-02-13 20:15,,,,10.00,11.00,,30.19,,6.00,,OVC,,,,1400.00,,,,HZ,,,,,,,,KACT 132015Z AUTO 01011KT 6SM HZ OVC014 M02/M04 A3019 RMK T10201040 MADISHF
ACT,2021-02-13 20:20,,,,10.00,13.00,,30.18,,6.00,,OVC,,,,1400.00,,,,HZ,,,,,,,,KACT 132020Z AUTO 01013KT 6SM HZ OVC014 M02/M04 A3018 RMK T10201040 MADISHF
ACT,2021-02-13 20:25,,,,10.00,11.00,,30.19,,6.00,,OVC,,,,1400.00,,,,HZ,,,,,,,,KACT 132025Z AUTO 01011KT 6SM HZ OVC014 M02/M05 A3019 RMK T10201050 MADISHF
ACT,2021-02-13 20:30,,,,10.00,14.00,,30.18,,6.00,,OVC,,,,1400.00,,,,HZ,,,,,,,,KACT 132030Z AUTO 01014KT 6SM HZ OVC014 M02/M04 A3018 RMK T10201040 MADISHF
ACT,2021-02-13 20:35,,,,10.00,14.00,,30.18,,6.00,,OVC,,,,1400.00,,,,HZ,,,,,,,,KACT 132035Z AUTO 01014KT 6SM HZ OVC014 M02/M05 A3018 RMK T10201050 MADISHF
ACT,2021-02-13 20:40,,,,20.00,13.00,,30.18,,7.00,,OVC,,,,1400.00,,,,,,,,,,,,KACT 132040Z AUTO 02013KT 7SM OVC014 M02/M05 A3018 RMK T10201050 MADISHF
ACT,2021-02-13 20:45,,,,10.00,11.00,,30.18,,7.00,17.00,OVC,,,,1400.00,,,,,,,,,,,,KACT 132045Z AUTO 01011G17KT 7SM OVC014 M02/M04 A3018 RMK T10201040 MADISHF
ACT,2021-02-13 20:50,,,,10.00,15.00,,30.18,,7.00,,OVC,,,,1600.00,,,,,,,,,,,,KACT 132050Z AUTO 01015KT 7SM OVC016 M02/M05 A3018 RMK T10201050 MADISHF
ACT,2021-02-13 20:51,28.90,24.10,82.00,20.00,15.00,0.00,30.18,1022.20,7.00,,OVC,,,,1600.00,,,,,,,,,,,16.76,KACT 132051Z 02015KT 7SM OVC016 M02/M04 A3018 RMK AO2 SLP222 T10171044 56031
ACT,2021-02-13 20:55,,,,10.00,11.00,,30.18,,7.00,,OVC,,,,1600.00,,,,,,,,,,,,KACT 132055Z AUTO 01011KT 7SM OVC016 M02/M04 A3018 RMK T10201040 MADISHF
ACT,2021-02-13 21:00,,,,10.00,14.00,,30.18,,7.00,,OVC,,,,1600.00,,,,,,,,,,,,KACT 132100Z AUTO 01014KT 7SM OVC016 M02/M04 A3018 RMK T10201040 MADISHF
ACT,2021-02-13 21:05,,,,10.00,15.00,,30.18,,7.00,,OVC,,,,1600.00,,,,,,,,,,,,KACT 132105Z AUTO 01015KT 7SM OVC016 M02/M04 A3018 RMK T10201040 MADISHF
ACT,2021-02-13 21:10,,,,10.00,14.00,,30.18,,7.00,,OVC,,,,1600.00,,,,,,,,,,,,KACT 132110Z AUTO 01014KT 7SM OVC016 M02/M04 A3018 RMK T10201040 MADISHF
ACT,2021-02-13 21:15,,,,10.00,14.00,,30.18,,7.00,,OVC,,,,1600.00,,,,,,,,,,,,KACT 132115Z AUTO 01014KT 7SM OVC016 M02/M04 A3018 RMK T10201040 MADISHF
ACT,2021-02-13 21:20,,,,10.00,13.00,,30.18,,7.00,,OVC,,,,1600.00,,,,,,,,,,,,KACT 132120Z AUTO 01013KT 7SM OVC016 M02/M04 A3018 RMK T10201040 MADISHF
ACT,2021-02-13 21:25,,,,10.00,14.00,,30.18,,7.00,,OVC,,,,1600.00,,,,,,,,,,,,KACT 132125Z AUTO 01014KT 7SM OVC016 M02/M05 A3018 RMK T10201050 MADISHF
ACT,2021-02-13 21:30,,,,20.00,14.00,,30.17,,7.00,,OVC,,,,1600.00,,,,,,,,,,,,KACT 132130Z AUTO 02014KT 7SM OVC016 M02/M05 A3017 RMK T10201050 MADISHF
ACT,2021-02-13 21:35,,,,20.00,14.00,,30.17,,7.00,,OVC,,,,1600.00,,,,,,,,,,,,KACT 132135Z AUTO 02014KT 7SM OVC016 M02/M04 A3017 RMK T10201040 MADISHF
ACT,2021-02-13 21:40,,,,10.00,11.00,,30.18,,7.00,,OVC,,,,1600.00,,,,,,,,,,,,KACT 132140Z AUTO 01011KT 7SM OVC016 M02/M04 A3018 RMK T10201040 MADISHF
ACT,2021-02-13 21:45,,,,20.00,11.00,,30.17,,6.00,18.00,OVC,,,,1600.00,,,,HZ,,,,,,,,KACT 132145Z AUTO 02011G18KT 6SM HZ OVC016 M02/M04 A3017 RMK T10201040 MADISHF
ACT,2021-02-13 21:50,,,,10.00,13.00,,30.18,,6.00,,OVC,,,,1600.00,,,,HZ,,,,,,,,KACT 132150Z AUTO 01013KT 6SM HZ OVC016 M02/M05 A3018 RMK T10201050 MADISHF
ACT,2021-02-13 21:51,28.90,23.00,78.30,10.00,14.00,0.00,30.18,1022.20,6.00,,OVC,,,,1600.00,,,,HZ,,,,,,,17.17,KACT 132151Z AUTO 01014KT 6SM HZ OVC016 M02/M05 A3018 RMK AO2 SLP222 T10171050
ACT,2021-02-13 21:55,,,,10.00,16.00,,30.18,,6.00,,OVC,,,,1600.00,,,,HZ,,,,,,,,KACT 132155Z AUTO 01016KT 6SM HZ OVC016 M02/M05 A3018 RMK T10201050 MADISHF
ACT,2021-02-13 22:00,,,,20.00,14.00,,30.18,,6.00,,OVC,,,,1600.00,,,,HZ,,,,,,,,KACT 132200Z AUTO 02014KT 6SM HZ OVC016 M02/M05 A3018 RMK T10201050 MADISHF
ACT,2021-02-13 22:05,,,,10.00,15.00,,30.18,,6.00,,OVC,,,,1699.00,,,,HZ,,,,,,,,KACT 132205Z AUTO 01015KT 6SM HZ OVC016 M02/M05 A3018 RMK T10201050 MADISHF
ACT,2021-02-13 22:10,,,,20.00,15.00,,30.18,,6.00,,OVC,,,,1699.00,,,,HZ,,,,,,,,KACT 132210Z AUTO 02015KT 6SM HZ OVC016 M02/M05 A3018 RMK T10201050 MADISHF
ACT,2021-02-13 22:15,,,,20.00,14.00,,30.18,,7.00,19.00,OVC,,,,1699.00,,,,,,,,,,,,KACT 132215Z AUTO 02014G19KT 7SM OVC016 M02/M05 A3018 RMK T10201050 MADISHF
ACT,2021-02-13 22:20,,,,10.00,15.00,,30.18,,7.00,,OVC,,,,1800.00,,,,,,,,,,,,KACT 132220Z AUTO 01015KT 7SM OVC018 M02/M05 A3018 RMK T10201050 MADISHF
ACT,2021-02-13 22:25,,,,10.00,14.00,,30.18,,7.00,,OVC,,,,1800.00,,,,,,,,,,,,KACT 132225Z AUTO 01014KT 7SM OVC018 M02/M05 A3018 RMK T10201050 MADISHF
ACT,2021-02-13 22:30,,,,10.00,13.00,,30.17,,7.00,,OVC,,,,1800.00,,,,,,,,,,,,KACT 132230Z AUTO 01013KT 7SM OVC018 M02/M05 A3017 RMK T10201050 MADISHF
ACT,2021-02-13 22:35,,,,20.00,14.00,,30.17,,7.00,,OVC,,,,1900.00,,,,,,,,,,,,KACT 132235Z AUTO 02014KT 7SM OVC019 M01/M04 A3017 RMK T10101040 MADISHF
ACT,2021-02-13 22:40,,,,10.00,11.00,,30.17,,6.00,,OVC,,,,1900.00,,,,HZ,,,,,,,,KACT 132240Z AUTO 01011KT 6SM HZ OVC019 M02/M05 A3017 RMK T10201050 MADISHF
ACT,2021-02-13 22:45,,,,20.00,14.00,,30.17,,7.00,,OVC,,,,1900.00,,,,,,,,,,,,KACT 132245Z AUTO 02014KT 7SM OVC019 M02/M05 A3017 RMK T10201050 MADISHF
ACT,2021-02-13 22:50,,,,20.00,11.00,,30.17,,7.00,,OVC,,,,1900.00,,,,,,,,,,,,KACT 132250Z AUTO 02011KT 7SM OVC019 M02/M05 A3017 RMK T10201050 MADISHF
ACT,2021-02-13 22:51,28.90,23.00,78.30,20.00,12.00,0.00,30.17,1022.10,7.00,,OVC,,,,1900.00,,,,,,,,,,,18.06,KACT 132251Z 02012KT 7SM OVC019 M02/M05 A3017 RMK AO2 SLP221 T10171050
ACT,2021-02-13 22:55,,,,30.00,10.00,,30.17,,7.00,,OVC,,,,1900.00,,,,,,,,,,,,KACT 132255Z AUTO 03010KT 7SM OVC019 M02/M05 A3017 RMK T10201050 MADISHF
ACT,2021-02-13 23:00,,,,20.00,13.00,,30.17,,7.00,,BKN,OVC,,,1900.00,4800.00,,,,,,,,,,,KACT 132300Z AUTO 02013KT 7SM BKN019 OVC048 M01/M05 A3017 RMK T10101050 MADISHF
ACT,2021-02-13 23:05,,,,20.00,11.00,,30.17,,7.00,,BKN,OVC,,,1900.00,4800.00,,,,,,,,,,,KACT 132305Z AUTO 02011KT 7SM BKN019 OVC048 M02/M05 A3017 RMK T10201050 MADISHF
ACT,2021-02-13 23:10,,,,10.00,11.00,,30.17,,7.00,,OVC,,,,1900.00,,,,,,,,,,,,KACT 132310Z AUTO 01011KT 7SM OVC019 M02/M05 A3017 RMK T10201050 MADISHF
ACT,2021-02-13 23:15,,,,20.00,11.00,,30.17,,8.00,,OVC,,,,1900.00,,,,,,,,,,,,KACT 132315Z AUTO 02011KT 8SM OVC019 M02/M05 A3017 RMK T10201050 MADISHF
ACT,2021-02-13 23:20,,,,20.00,11.00,,30.17,,8.00,,OVC,,,,1900.00,,,,,,,,,,,,KACT 132320Z AUTO 02011KT 8SM OVC019 M02/M05 A3017 RMK T10201050 MADISHF
ACT,2021-02-13 23:25,,,,20.00,10.00,,30.18,,8.00,,OVC,,,,2100.00,,,,,,,,,,,,KACT 132325Z AUTO 02010KT 8SM OVC021 M02/M05 A3018 RMK T10201050 MADISHF
ACT,2021-02-13 23:30,,,,20.00,9.00,,30.17,,8.00,,BKN,BKN,OVC,,2100.00,2500.00,4700.00,,,,,,,,,,KACT 132330Z AUTO 02009KT 8SM BKN021 BKN025 OVC047 M02/M05 A3017 RMK T10201050 MADISHF
ACT,2021-02-13 23:35,,,,20.00,10.00,,30.17,,8.00,,SCT,BKN,OVC,,2100.00,2500.00,4700.00,,,,,,,,,,KACT 132335Z AUTO 02010KT 8SM SCT021 BKN025 OVC047 M01/M05 A3017 RMK T10101050 MADISHF
ACT,2021-02-13 23:40,,,,20.00,11.00,,30.17,,8.00,,SCT,BKN,OVC,,2100.00,2600.00,4700.00,,,,,,,,,,KACT 132340Z AUTO 02011KT 8SM SCT021 BKN026 OVC047 M01/M06 A3017 RMK T10101060 MADISHF
ACT,2021-02-13 23:45,,,,20.00,9.00,,30.17,,8.00,,BKN,OVC,,,2600.00,4700.00,,,,,,,,,,,KACT 132345Z AUTO 02009KT 8SM BKN026 OVC047 M01/M05 A3017 RMK T10101050 MADISHF
ACT,2021-02-13 23:50,,,,20.00,8.00,,30.17,,8.00,,BKN,OVC,,,2600.00,4700.00,,,,,,,,,,,KACT 132350Z AUTO 02008KT 8SM BKN026 OVC047 M01/M05 A3017 RMK T10101050 MADISHF
ACT,2021-02-13 23:51,30.00,23.00,74.87,20.00,7.00,0.00,30.17,1022.00,8.00,,BKN,OVC,,,2600.00,4700.00,,,,,,,,,,22.34,KACT 132351Z 02007KT 8SM BKN026 OVC047 M01/M05 A3017 RMK AO2 SLP220 T10111050 11011 21039 58002
ACT,2021-02-13 23:55,,,,20.00,9.00,,30.17,,8.00,,SCT,OVC,,,2600.00,4700.00,,,,,,,,,,,KACT 132355Z AUTO 02009KT 8SM SCT026 OVC047 M01/M05 A3017 RMK T10101050 MADISHF
ACT,2021-02-14 00:00,,,,20.00,8.00,,30.17,,8.00,,BKN,OVC,,,2600.00,4700.00,,,,,,,,,,,KACT 140000Z AUTO 02008KT 8SM BKN026 OVC047 M01/M05 A3017 RMK T10101050 MADISHF
ACT,2021-02-14 00:05,,,,20.00,8.00,,30.17,,8.00,,BKN,OVC,,,2600.00,4700.00,,,,,,,,,,,KACT 140005Z AUTO 02008KT 8SM BKN026 OVC047 M01/M05 A3017 RMK T10101050 MADISHF
ACT,2021-02-14 00:10,,,,10.00,7.00,,30.17,,8.00,,BKN,OVC,,,2600.00,4700.00,,,,,,,,,,,KACT 140010Z AUTO 01007KT 8SM BKN026 OVC047 M01/M05 A3017 RMK T10101050 MADISHF
ACT,2021-02-14 00:15,,,,20.00,7.00,,30.17,,9.00,,BKN,OVC,,,2600.00,4700.00,,,,,,,,,,,KACT 140015Z AUTO 02007KT 9SM BKN026 OVC047 M01/M05 A3017 RMK T10101050 MADISHF
ACT,2021-02-14 00:20,,,,20.00,8.00,,30.17,,9.00,,BKN,OVC,,,2600.00,4700.00,,,,,,,,,,,KACT 140020Z AUTO 02008KT 9SM BKN026 OVC047 M01/M05 A3017 RMK T10101050 MADISHF
ACT,2021-02-14 00:25,,,,20.00,7.00,,30.17,,10.00,,BKN,OVC,,,2600.00,4700.00,,,,,,,,,,,KACT 140025Z AUTO 02007KT 10SM BKN026 OVC047 M01/M05 A3017 RMK T10101050 MADISHF
ACT,2021-02-14 00:30,,,,20.00,9.00,,30.17,,10.00,,BKN,OVC,,,2600.00,4700.00,,,,,,,,,,,KACT 140030Z AUTO 02009KT 10SM BKN026 OVC047 M01/M05 A3017 RMK T10101050 MADISHF
ACT,2021-02-14 00:35,,,,20.00,8.00,,30.16,,10.00,,BKN,OVC,,,2600.00,4700.00,,,,,,,,,,,KACT 140035Z AUTO 02008KT 10SM BKN026 OVC047 M01/M05 A3015 RMK T10101050 MADISHF
ACT,2021-02-14 00:40,,,,10.00,9.00,,30.16,,10.00,,BKN,OVC,,,2600.00,4700.00,,,,,,,,,,,KACT 140040Z AUTO 01009KT 10SM BKN026 OVC047 M01/M05 A3015 RMK T10101050 MADISHF
ACT,2021-02-14 00:45,,,,10.00,7.00,,30.16,,10.00,,OVC,,,,4400.00,,,,,,,,,,,,KACT 140045Z AUTO 01007KT 10SM OVC044 M01/M05 A3015 RMK T10101050 MADISHF
ACT,2021-02-14 00:47,30.20,24.80,80.07,10.00,7.00,0.00,30.16,,10.00,,OVC,,,,4400.00,,,,,,,,,,,22.59,KACT 140047Z 01007KT 10SM OVC044 M01/M04 A3016 RMK AO2
ACT,2021-02-14 00:50,,,,10.00,7.00,,30.16,,10.00,,BKN,OVC,,,4400.00,5500.00,,,,,,,,,,,KACT 140050Z AUTO 01007KT 10SM BKN044 OVC055 M01/M04 A3015 RMK T10101040 MADISHF
ACT,2021-02-14 00:51,30.90,23.00,72.18,10.00,7.00,0.00,30.16,1021.80,10.00,,BKN,OVC,,,4400.00,5500.00,,,,,,,,,,23.44,KACT 140051Z 01007KT 10SM BKN044 OVC055 M01/M05 A3016 RMK AO2 SLP218 T10061050
ACT,2021-02-14 00:55,,,,10.00,7.00,,30.16,,10.00,,OVC,,,,4300.00,,,,,,,,,,,,KACT 140055Z AUTO 01007KT 10SM OVC043 M01/M05 A3015 RMK T10101050 MADISHF
ACT,2021-02-14 01:00,,,,10.00,7.00,,30.16,,10.00,,OVC,,,,4300.00,,,,,,,,,,,,KACT 140100Z AUTO 01007KT 10SM OVC043 M01/M04 A3015 RMK T10101040 MADISHF
ACT,2021-02-14 01:05,,,,10.00,8.00,,30.16,,10.00,,OVC,,,,4300.00,,,,,,,,,,,,KACT 140105Z AUTO 01008KT 10SM OVC043 M01/M04 A3015 RMK T10101040 MADISHF
ACT,2021-02-14 01:10,,,,10.00,8.00,,30.16,,10.00,,OVC,,,,4300.00,,,,,,,,,,,,KACT 140110Z AUTO 01008KT 10SM OVC043 M01/M04 A3015 RMK T10101040 MADISHF
ACT,2021-02-14 01:15,,,,20.00,9.00,,30.17,,10.00,,OVC,,,,4300.00,,,,,,,,,,,,KACT 140115Z AUTO 02009KT 10SM OVC043 M01/M05 A3017 RMK T10101050 MADISHF
ACT,2021-02-14 01:20,,,,20.00,9.00,,30.17,,10.00,,OVC,,,,4300.00,,,,,,,,,,,,KACT 140120Z AUTO 02009KT 10SM OVC043 M01/M05 A3017 RMK T10101050 MADISHF
ACT,2021-02-14 01:25,,,,20.00,9.00,,30.17,,10.00,,OVC,,,,4300.00,,,,,,,,,,,,KACT 140125Z AUTO 02009KT 10SM OVC043 M01/M05 A3017 RMK T10101050 MADISHF
ACT,2021-02-14 01:30,,,,20.00,7.00,,30.17,,10.00,,OVC,,,,4300.00,,,,,,,,,,,,KACT 140130Z AUTO 02007KT 10SM OVC043 M01/M05 A3017 RMK T10101050 MADISHF
ACT,2021-02-14 01:35,,,,20.00,8.00,,30.18,,10.00,,OVC,,,,4300.00,,,,,,,,,,,,KACT 140135Z AUTO 02008KT 10SM OVC043 M01/M05 A3018 RMK T10101050 MADISHF
ACT,2021-02-14 01:40,,,,20.00,8.00,,30.18,,10.00,,OVC,,,,4300.00,,,,,,,,,,,,KACT 140140Z AUTO 02008KT 10SM OVC043 M01/M05 A3018 RMK T10101050 MADISHF
ACT,2021-02-14 01:45,,,,20.00,8.00,,30.18,,10.00,,OVC,,,,4300.00,,,,,,,,,,,,KACT 140145Z AUTO 02008KT 10SM OVC043 M01/M05 A3018 RMK T10101050 MADISHF
ACT,2021-02-14 01:50,,,,40.00,8.00,,30.18,,10.00,,OVC,,,,4300.00,,,,,,,,,,,,KACT 140150Z AUTO 04008KT 10SM OVC043 M01/M05 A3018 RMK T10101050 MADISHF
ACT,2021-02-14 01:51,30.90,23.00,72.18,40.00,9.00,0.00,30.18,1022.40,10.00,,OVC,,,,4300.00,,,,,,,,,,,22.15,KACT 140151Z 04009KT 10SM OVC043 M01/M05 A3018 RMK AO2 SLP224 T10061050
ACT,2021-02-14 01:55,,,,30.00,11.00,,30.19,,10.00,,OVC,,,,4300.00,,,,,,,,,,,,KACT 140155Z AUTO 03011KT 10SM OVC043 M01/M05 A3019 RMK T10101050 MADISHF
ACT,2021-02-14 02:00,,,,40.00,11.00,,30.19,,10.00,,OVC,,,,4300.00,,,,,,,,,,,,KACT 140200Z AUTO 04011KT 10SM OVC043 M01/M05 A3019 RMK T10101050 MADISHF
ACT,2021-02-14 02:05,,,,40.00,10.00,,30.19,,10.00,,OVC,,,,4300.00,,,,,,,,,,,,KACT 140205Z AUTO 04010KT 10SM OVC043 M01/M05 A3019 RMK T10101050 MADISHF
ACT,2021-02-14 02:10,,,,40.00,10.00,,30.19,,10.00,,OVC,,,,4300.00,,,,,,,,,,,,KACT 140210Z AUTO 04010KT 10SM OVC043 M01/M06 A3019 RMK T10101060 MADISHF
ACT,2021-02-14 02:15,,,,30.00,11.00,,30.19,,10.00,,OVC,,,,4300.00,,,,,,,,,,,,KACT 140215Z AUTO 03011KT 10SM OVC043 M01/M06 A3019 RMK T10101060 MADISHF
ACT,2021-02-14 02:20,,,,40.00,9.00,,30.19,,10.00,,OVC,,,,4300.00,,,,,,,,,,,,KACT 140220Z AUTO 04009KT 10SM OVC043 M01/M06 A3019 RMK T10101060 MADISHF
ACT,2021-02-14 02:25,,,,40.00,11.00,,30.19,,10.00,,OVC,,,,4300.00,,,,,,,,,,,,KACT 140225Z AUTO 04011KT 10SM OVC043 M01/M06 A3019 RMK T10101060 MADISHF
ACT,2021-02-14 02:30,,,,40.00,8.00,,30.20,,10.00,,OVC,,,,4300.00,,,,,,,,,,,,KACT 140230Z AUTO 04008KT 10SM OVC043 M01/M06 A3020 RMK T10101060 MADISHF
ACT,2021-02-14 02:35,,,,40.00,10.00,,30.20,,10.00,,OVC,,,,4300.00,,,,,,,,,,,,KACT 140235Z AUTO 04010KT 10SM OVC043 M01/M06 A3020 RMK T10101060 MADISHF
ACT,2021-02-14 02:40,,,,30.00,11.00,,30.20,,10.00,,OVC,,,,4300.00,,,,,,,,,,,,KACT 140240Z AUTO 03011KT 10SM OVC043 M01/M06 A3020 RMK T10101060 MADISHF
ACT,2021-02-14 02:45,,,,30.00,11.00,,30.20,,10.00,,OVC,,,,4300.00,,,,,,,,,,,,KACT 140245Z AUTO 03011KT 10SM OVC043 M01/M06 A3020 RMK T10101060 MADISHF
ACT,2021-02-14 02:50,,,,40.00,11.00,,30.20,,10.00,,OVC,,,,4300.00,,,,,,,,,,,,KACT 140250Z AUTO 04011KT 10SM OVC043 M01/M06 A3020 RMK T10101060 MADISHF
ACT,2021-02-14 02:51,30.90,21.00,66.34,40.00,13.00,0.00,30.20,1023.10,10.00,,OVC,,,,4300.00,,,,,,,,,,,20.16,KACT 140251Z 04013KT 10SM OVC043 M01/M06 A3020 RMK AO2 SLP231 T10061061 53014
ACT,2021-02-14 02:55,,,,40.00,9.00,,30.21,,10.00,,OVC,,,,4300.00,,,,,,,,,,,,KACT 140255Z AUTO 04009KT 10SM OVC043 M01/M06 A3020 RMK T10101060 MADISHF
ACT,2021-02-14 03:00,,,,30.00,10.00,,30.21,,10.00,,OVC,,,,4300.00,,,,,,,,,,,,KACT 140300Z AUTO 03010KT 10SM OVC043 M01/M06 A3020 RMK T10101060 MADISHF
ACT,2021-02-14 03:05,,,,40.00,9.00,,30.21,,10.00,,OVC,,,,4300.00,,,,,,,,,,,,KACT 140305Z AUTO 04009KT 10SM OVC043 M01/M06 A3020 RMK T10101060 MADISHF
ACT,2021-02-14 03:10,,,,40.00,10.00,,30.21,,10.00,,OVC,,,,4300.00,,,,,,,,,,,,KACT 140310Z AUTO 04010KT 10SM OVC043 M01/M06 A3020 RMK T10101060 MADISHF
ACT,2021-02-14 03:15,,,,30.00,8.00,,30.22,,10.00,,OVC,,,,4300.00,,,,,,,,,,,,KACT 140315Z AUTO 03008KT 10SM OVC043 M01/M05 A3021 RMK T10101050 MADISHF
ACT,2021-02-14 03:20,,,,40.00,11.00,,30.22,,10.00,,OVC,,,,4300.00,,,,,,,,,,,,KACT 140320Z AUTO 04011KT 10SM OVC043 M01/M05 A3021 RMK T10101050 MADISHF
ACT,2021-02-14 03:25,,,,40.00,9.00,,30.22,,10.00,,OVC,,,,4300.00,,,,,,,,,,,,KACT 140325Z AUTO 04009KT 10SM OVC043 M01/M06 A3021 RMK T10101060 MADISHF
ACT,2021-02-14 03:30,,,,30.00,10.00,,30.23,,10.00,,OVC,,,,4300.00,,,,,,,,,,,,KACT 140330Z AUTO 03010KT 10SM OVC043 M01/M06 A3022 RMK T10101060 MADISHF
ACT,2021-02-14 03:35,,,,30.00,13.00,,30.23,,10.00,,OVC,,,,4300.00,,,,,,,,,,,,KACT 140335Z AUTO 03013KT 10SM OVC043 M01/M06 A3022 RMK T10101060 MADISHF
ACT,2021-02-14 03:40,,,,30.00,11.00,,30.24,,10.00,,OVC,,,,4300.00,,,,,,,,,,,,KACT 140340Z AUTO 03011KT 10SM OVC043 M01/M06 A3023 RMK T10101060 MADISHF
ACT,2021-02-14 03:45,,,,30.00,10.00,,30.24,,10.00,,OVC,,,,4300.00,,,,,,,,,,,,KACT 140345Z AUTO 03010KT 10SM OVC043 M01/M06 A3023 RMK T10101060 MADISHF
ACT,2021-02-14 03:50,,,,40.00,11.00,,30.24,,10.00,,OVC,,,,4300.00,,,,,,,,,,,,KACT 140350Z AUTO 04011KT 10SM OVC043 M01/M06 A3023 RMK T10101060 MADISHF
ACT,2021-02-14 03:51,30.00,21.00,68.81,40.00,11.00,0.00,30.24,1024.30,10.00,,OVC,,,,4300.00,,,,,,,,,,,19.94,KACT 140351Z 04011KT 10SM OVC043 M01/M06 A3024 RMK AO2 SLP243 T10111061
ACT,2021-02-14 03:55,,,,40.00,10.00,,30.24,,10.00,,OVC,,,,4300.00,,,,,,,,,,,,KACT 140355Z AUTO 04010KT 10SM OVC043 M01/M06 A3023 RMK T10101060 MADISHF
ACT,2021-02-14 04:00,,,,40.00,9.00,,30.24,,10.00,,OVC,,,,4300.00,,,,,,,,,,,,KACT 140400Z AUTO 04009KT 10SM OVC043 M01/M06 A3023 RMK T10101060 MADISHF
ACT,2021-02-14 04:05,,,,40.00,9.00,,30.24,,10.00,,OVC,,,,4300.00,,,,,,,,,,,,KACT 140405Z AUTO 04009KT 10SM OVC043 M01/M06 A3023 RMK T10101060 MADISHF
ACT,2021-02-14 04:10,,,,40.00,11.00,,30.23,,10.00,,OVC,,,,4300.00,,,,,,,,,,,,KACT 140410Z AUTO 04011KT 10SM OVC043 M01/M06 A3022 RMK T10101060 MADISHF
ACT,2021-02-14 04:15,,,,40.00,13.00,,30.23,,10.00,,OVC,,,,4300.00,,,,,,,,,,,,KACT 140415Z AUTO 04013KT 10SM OVC043 M01/M07 A3022 RMK T10101070 MADISHF
ACT,2021-02-14 04:20,,,,30.00,11.00,,30.23,,10.00,,OVC,,,,4200.00,,,,,,,,,,,,KACT 140420Z AUTO 03011KT 10SM OVC042 M02/M07 A3022 RMK T10201070 MADISHF
ACT,2021-02-14 04:25,,,,30.00,11.00,,30.23,,10.00,,OVC,,,,4200.00,,,,,,,,,,,,KACT 140425Z AUTO 03011KT 10SM OVC042 M02/M07 A3022 RMK T10201070 MADISHF
ACT,2021-02-14 04:30,,,,40.00,10.00,,30.23,,10.00,,OVC,,,,4100.00,,,,,,,,,,,,KACT 140430Z AUTO 04010KT 10SM OVC041 M02/M07 A3022 RMK T10201070 MADISHF
ACT,2021-02-14 04:35,,,,40.00,13.00,,30.23,,10.00,,OVC,,,,4100.00,,,,,,,,,,,,KACT 140435Z AUTO 04013KT 10SM OVC041 M02/M07 A3022 RMK T10201070 MADISHF
ACT,2021-02-14 04:40,,,,40.00,11.00,,30.22,,10.00,,OVC,,,,4100.00,,,,,,,,,,,,KACT 140440Z AUTO 04011KT 10SM OVC041 M02/M07 A3021 RMK T10201070 MADISHF
ACT,2021-02-14 04:45,,,,40.00,11.00,,30.22,,10.00,,OVC,,,,4100.00,,,,,,,,,,,,KACT 140445Z AUTO 04011KT 10SM OVC041 M02/M07 A3021 RMK T10201070 MADISHF
ACT,2021-02-14 04:50,,,,40.00,10.00,T,30.22,,10.00,,OVC,,,,4100.00,,,,UP,,,,,,,,KACT 140450Z AUTO 04010KT 10SM UP OVC041 M02/M07 A3021 RMK P0000 T10201070 MADISHF
ACT,2021-02-14 04:51,28.90,19.90,68.67,40.00,9.00,T,30.22,1023.70,9.00,,OVC,,,,4100.00,,,,UP,,,,,,,19.66,KACT 140451Z 04009KT 9SM UP OVC041 M02/M07 A3022 RMK AO2 UPB48 SLP237 P0000 T10171067
ACT,2021-02-14 04:55,,,,40.00,10.00,T,30.22,,8.00,15.00,OVC,,,,4100.00,,,,UP,,,,,,,,KACT 140455Z AUTO 04010G15KT 8SM UP OVC041 M02/M07 A3021 RMK P0000 T10201070 MADISHF
ACT,2021-02-14 05:00,,,,40.00,10.00,T,30.22,,8.00,15.00,OVC,,,,4100.00,,,,UP,,,,,,,,KACT 140500Z AUTO 04010G15KT 8SM UP OVC041 M02/M07 A3021 RMK P0000 T10201070 MADISHF
ACT,2021-02-14 05:05,,,,40.00,11.00,,30.22,,9.00,,OVC,,,,4100.00,,,,,,,,,,,,KACT 140505Z AUTO 04011KT 9SM OVC041 M02/M07 A3021 RMK T10201070 MADISHF
ACT,2021-02-14 05:10,,,,40.00,9.00,,30.22,,10.00,,OVC,,,,3999.00,,,,,,,,,,,,KACT 140510Z AUTO 04009KT 10SM OVC039 M02/M07 A3021 RMK T10201070 MADISHF
ACT,2021-02-14 05:15,,,,40.00,10.00,,30.22,,10.00,,OVC,,,,3999.00,,,,,,,,,,,,KACT 140515Z AUTO 04010KT 10SM OVC039 M02/M07 A3021 RMK T10201070 MADISHF
ACT,2021-02-14 05:20,,,,40.00,8.00,,30.22,,10.00,,OVC,,,,3999.00,,,,,,,,,,,,KACT 140520Z AUTO 04008KT 10SM OVC039 M02/M07 A3021 RMK T10201070 MADISHF
ACT,2021-02-14 05:25,,,,40.00,10.00,,30.22,,10.00,,OVC,,,,3999.00,,,,,,,,,,,,KACT 140525Z AUTO 04010KT 10SM OVC039 M02/M07 A3021 RMK T10201070 MADISHF
ACT,2021-02-14 05:30,,,,50.00,11.00,,30.21,,10.00,,OVC,,,,3999.00,,,,,,,,,,,,KACT 140530Z AUTO 05011KT 10SM OVC039 M02/M07 A3020 RMK T10201070 MADISHF
ACT,2021-02-14 05:35,,,,40.00,11.00,,30.21,,10.00,,OVC,,,,3999.00,,,,,,,,,,,,KACT 140535Z AUTO 04011KT 10SM OVC039 M02/M07 A3020 RMK T10201070 MADISHF
ACT,2021-02-14 05:40,,,,40.00,10.00,,30.21,,10.00,,OVC,,,,3999.00,,,,,,,,,,,,KACT 140540Z AUTO 04010KT 10SM OVC039 M02/M07 A3020 RMK T10201070 MADISHF
ACT,2021-02-14 05:45,,,,40.00,9.00,,30.20,,10.00,,OVC,,,,3999.00,,,,,,,,,,,,KACT 140545Z AUTO 04009KT 10SM OVC039 M02/M07 A3020 RMK T10201070 MADISHF
ACT,2021-02-14 05:50,,,,40.00,10.00,,30.20,,10.00,,OVC,,,,3999.00,,,,,,,,,,,,KACT 140550Z AUTO 04010KT 10SM OVC039 M02/M07 A3020 RMK T10201070 MADISHF
ACT,2021-02-14 05:51,28.00,19.00,68.57,40.00,10.00,T,30.20,1023.10,10.00,,OVC,,,,4000.00,,,,,,,,,,,17.95,KACT 140551Z 04010KT 10SM OVC040 M02/M07 A3020 RMK AO2 UPE04 SLP231 P0000 60000 T10221072 11006 21022 410061050 50000
ACT,2021-02-14 05:55,,,,50.00,14.00,,30.20,,10.00,,OVC,,,,3999.00,,,,,,,,,,,,KACT 140555Z AUTO 05014KT 10SM OVC039 M02/M07 A3020 RMK T10201070 MADISHF
ACT,2021-02-14 06:00,,,,40.00,14.00,,30.19,,10.00,,OVC,,,,3999.00,,,,,,,,,,,,KACT 140600Z AUTO 04014KT 10SM OVC039 M02/M07 A3019 RMK T10201070 MADISHF
ACT,2021-02-14 06:05,,,,50.00,11.00,,30.20,,10.00,,OVC,,,,3999.00,,,,,,,,,,,,KACT 140605Z AUTO 05011KT 10SM OVC039 M02/M07 A3020 RMK T10201070 MADISHF
ACT,2021-02-14 06:10,,,,40.00,11.00,,30.19,,10.00,,OVC,,,,3999.00,,,,,,,,,,,,KACT 140610Z AUTO 04011KT 10SM OVC039 M02/M07 A3019 RMK T10201070 MADISHF
ACT,2021-02-14 06:15,,,,40.00,11.00,,30.20,,10.00,,OVC,,,,3999.00,,,,,,,,,,,,KACT 140615Z AUTO 04011KT 10SM OVC039 M02/M07 A3020 RMK T10201070 MADISHF
ACT,2021-02-14 06:20,,,,40.00,13.00,,30.20,,10.00,,OVC,,,,3800.00,,,,,,,,,,,,KACT 140620Z AUTO 04013KT 10SM OVC038 M03/M07 A3020 RMK T10301070 MADISHF
ACT,2021-02-14 06:25,,,,40.00,11.00,,30.20,,10.00,,OVC,,,,3800.00,,,,,,,,,,,,KACT 140625Z AUTO 04011KT 10SM OVC038 M03/M08 A3020 RMK T10301080 MADISHF
ACT,2021-02-14 06:30,,,,40.00,10.00,,30.20,,10.00,15.00,OVC,,,,3800.00,,,,,,,,,,,,KACT 140630Z AUTO 04010G15KT 10SM OVC038 M03/M07 A3020 RMK T10301070 MADISHF
ACT,2021-02-14 06:35,,,,40.00,13.00,,30.19,,10.00,,OVC,,,,3800.00,,,,,,,,,,,,KACT 140635Z AUTO 04013KT 10SM OVC038 M03/M08 A3019 RMK T10301080 MADISHF
ACT,2021-02-14 06:40,,,,40.00,15.00,,30.19,,10.00,,OVC,,,,3800.00,,,,,,,,,,,,KACT 140640Z AUTO 04015KT 10SM OVC038 M03/M08 A3019 RMK T10301080 MADISHF
ACT,2021-02-14 06:45,,,,40.00,14.00,,30.19,,10.00,,OVC,,,,3700.00,,,,,,,,,,,,KACT 140645Z AUTO 04014KT 10SM OVC037 M03/M08 A3019 RMK T10301080 MADISHF
ACT,2021-02-14 06:50,,,,40.00,13.00,,30.19,,10.00,,OVC,,,,3700.00,,,,,,,,,,,,KACT 140650Z AUTO 04013KT 10SM OVC037 M03/M08 A3019 RMK T10301080 MADISHF
ACT,2021-02-14 06:51,27.00,18.00,68.45,40.00,13.00,0.00,30.19,1022.50,10.00,,OVC,,,,3700.00,,,,,,,,,,,15.16,KACT 140651Z AUTO 04013KT 10SM OVC037 M03/M08 A3019 RMK AO2 SLP225 T10281078
ACT,2021-02-14 06:55,,,,30.00,15.00,,30.18,,10.00,,OVC,,,,3800.00,,,,,,,,,,,,KACT 140655Z AUTO 03015KT 10SM OVC038 M03/M08 A3018 RMK T10301080 MADISHF
ACT,2021-02-14 07:00,,,,40.00,11.00,,30.18,,10.00,16.00,OVC,,,,3800.00,,,,,,,,,,,,KACT 140700Z AUTO 04011G16KT 10SM OVC038 M03/M08 A3018 RMK T10301080 MADISHF
ACT,2021-02-14 07:05,,,,30.00,13.00,,30.17,,10.00,,OVC,,,,3800.00,,,,,,,,,,,,KACT 140705Z AUTO 03013KT 10SM OVC038 M03/M08 A3017 RMK T10301080 MADISHF
ACT,2021-02-14 07:10,,,,40.00,10.00,,30.17,,10.00,,OVC,,,,3800.00,,,,,,,,,,,,KACT 140710Z AUTO 04010KT 10SM OVC038 M03/M08 A3017 RMK T10301080 MADISHF
ACT,2021-02-14 07:15,,,,40.00,14.00,,30.16,,10.00,,OVC,,,,3800.00,,,,,,,,,,,,KACT 140715Z AUTO 04014KT 10SM OVC038 M03/M08 A3015 RMK T10301080 MADISHF
ACT,2021-02-14 07:20,,,,40.00,11.00,,30.17,,10.00,,OVC,,,,3800.00,,,,,,,,,,,,KACT 140720Z AUTO 04011KT 10SM OVC038 M03/M08 A3017 RMK T10301080 MADISHF
ACT,2021-02-14 07:25,,,,30.00,13.00,,30.17,,10.00,,OVC,,,,3999.00,,,,,,,,,,,,KACT 140725Z AUTO 03013KT 10SM OVC039 M03/M08 A3017 RMK T10301080 MADISHF
ACT,2021-02-14 07:30,,,,30.00,13.00,,30.17,,10.00,,OVC,,,,3999.00,,,,,,,,,,,,KACT 140730Z AUTO 03013KT 10SM OVC039 M03/M08 A3017 RMK T10301080 MADISHF
ACT,2021-02-14 07:35,,,,40.00,11.00,,30.17,,10.00,17.00,OVC,,,,4100.00,,,,,,,,,,,,KACT 140735Z AUTO 04011G17KT 10SM OVC041 M03/M08 A3017 RMK T10301080 MADISHF
ACT,2021-02-14 07:40,,,,30.00,11.00,,30.17,,10.00,,OVC,,,,4100.00,,,,,,,,,,,,KACT 140740Z AUTO 03011KT 10SM OVC041 M03/M08 A3017 RMK T10301080 MADISHF
ACT,2021-02-14 07:45,,,,30.00,13.00,,30.17,,10.00,,OVC,,,,3900.00,,,,,,,,,,,,KACT 140745Z AUTO 03013KT 10SM OVC039 M03/M08 A3017 RMK T10301080 MADISHF
ACT,2021-02-14 07:50,,,,20.00,14.00,,30.17,,10.00,19.00,OVC,,,,3900.00,,,,,,,,,,,,KACT 140750Z AUTO 02014G19KT 10SM OVC039 M03/M08 A3017 RMK T10301080 MADISHF
ACT,2021-02-14 07:51,26.10,17.10,68.34,20.00,16.00,0.00,30.17,1022.10,10.00,,OVC,,,,3900.00,,,,,,,,,,,12.73,KACT 140751Z AUTO 02016KT 10SM OVC039 M03/M08 A3017 RMK AO2 SLP221 T10331083
ACT,2021-02-14 07:55,,,,20.00,13.00,,30.18,,10.00,18.00,BKN,OVC,,,3500.00,4200.00,,,,,,,,,,,KACT 140755Z AUTO 02013G18KT 10SM BKN035 OVC042 M03/M08 A3018 RMK T10301080 MADISHF
ACT,2021-02-14 08:00,,,,20.00,14.00,,30.18,,10.00,,OVC,,,,3500.00,,,,,,,,,,,,KACT 140800Z AUTO 02014KT 10SM OVC035 M03/M09 A3018 RMK T10301090 MADISHF
ACT,2021-02-14 08:05,,,,10.00,11.00,,30.19,,10.00,,FEW,OVC,,,2400.00,3600.00,,,,,,,,,,,KACT 140805Z AUTO 01011KT 10SM FEW024 OVC036 M03/M08 A3019 RMK T10301080 MADISHF
ACT,2021-02-14 08:10,,,,20.00,14.00,T,30.20,,10.00,,SCT,OVC,,,2400.00,3399.00,,,UP,,,,,,,,KACT 140810Z AUTO 02014KT 10SM UP SCT024 OVC033 M03/M08 A3020 RMK P0000 T10301080 MADISHF
ACT,2021-02-14 08:15,,,,10.00,11.00,T,30.20,,9.00,,BKN,OVC,,,2400.00,3399.00,,,UP,,,,,,,,KACT 140815Z AUTO 01011KT 9SM UP BKN024 OVC033 M03/M08 A3020 RMK P0000 T10301080 MADISHF
ACT,2021-02-14 08:19,26.10,17.10,68.34,10.00,16.00,T,30.21,,8.00,,BKN,OVC,,,2400.00,3400.00,,,UP,,,,,,,12.73,KACT 140819Z AUTO 01016KT 8SM UP BKN024 OVC034 M03/M08 A3021 RMK AO2 UPB08 P0000 T10331083
ACT,2021-02-14 08:20,,,,10.00,15.00,T,30.21,,8.00,,BKN,OVC,,,2400.00,3399.00,,,UP,,,,,,,,KACT 140820Z AUTO 01015KT 8SM UP BKN024 OVC033 M03/M08 A3020 RMK P0000 T10301080 MADISHF
ACT,2021-02-14 08:25,,,,10.00,16.00,T,30.21,,7.00,,BKN,OVC,,,2400.00,3399.00,,,UP,,,,,,,,KACT 140825Z AUTO 01016KT 7SM UP BKN024 OVC033 M03/M08 A3020 RMK P0000 T10301080 MADISHF
ACT,2021-02-14 08:30,,,,20.00,11.00,T,30.20,,7.00,,OVC,,,,2400.00,,,,UP,,,,,,,,KACT 140830Z AUTO 02011KT 7SM UP OVC024 M03/M08 A3020 RMK P0000 T10301080 MADISHF
ACT,2021-02-14 08:35,,,,10.00,11.00,T,30.20,,6.00,,OVC,,,,2400.00,,,,UP,,,,,,,,KACT 140835Z AUTO 01011KT 6SM UP OVC024 M03/M08 A3020 RMK P0000 T10301080 MADISHF
ACT,2021-02-14 08:40,,,,10.00,13.00,,30.20,,5.00,,OVC,,,,2400.00,,,,-SN,,,,,,,,KACT 140840Z AUTO 01013KT 5SM -SN OVC024 M03/M07 A3020 RMK T10301070 MADISHF
ACT,2021-02-14 08:45,,,,360.00,13.00,,30.20,,3.00,,OVC,,,,2400.00,,,,-SN,,,,,,,,KACT 140845Z AUTO 36013KT 3SM -SN OVC024 M04/M07 A3020 RMK T10401070 MADISHF
ACT,2021-02-14 08:50,,,,10.00,15.00,,30.19,,2.00,,FEW,OVC,,,1699.00,2400.00,,,-SN,,,,,,,,KACT 140850Z AUTO 01015KT 2SM -SN FEW016 OVC024 M04/M07 A3019 RMK T10401070 MADISHF
ACT,2021-02-14 08:51,25.00,19.90,80.66,360.00,15.00,T,30.19,1022.70,2.00,,FEW,OVC,,,1700.00,2400.00,,,-SN,,,,,,,11.71,KACT 140851Z AUTO 36015KT 2SM -SN FEW017 OVC024 M04/M07 A3019 RMK AO2 UPB08E39SNB39 SLP227 P0000 60000 T10391067 55004
ACT,2021-02-14 08:55,,,,360.00,14.00,,30.19,,1.75,,SCT,OVC,,,1699.00,2400.00,,,-SN,,,,,,,,KACT 140855Z AUTO 36014KT 2SM -SN SCT016 OVC024 M04/M07 A3019 RMK T10401070 MADISHF
ACT,2021-02-14 09:00,,,,360.00,15.00,,30.20,,1.75,,SCT,OVC,,,1500.00,2400.00,,,-SN BR,,,,,,,,KACT 140900Z AUTO 36015KT 2SM -SN BR SCT015 OVC024 M04/M06 A3020 RMK T10401060 MADISHF
ACT,2021-02-14 09:05,,,,360.00,17.00,0.01,30.20,,1.75,,FEW,BKN,OVC,,700.00,1500.00,2400.00,,-SN BR,,,,,,,,KACT 140905Z AUTO 36017KT 2SM -SN BR FEW007 BKN015 OVC024 M04/M06 A3020 RMK P0000 T10401060 MADISHF
ACT,2021-02-14 09:09,25.00,21.00,84.53,360.00,15.00,0.01,30.20,,2.00,,SCT,BKN,OVC,,700.00,1600.00,2400.00,,-SN BR,,,,,,,11.71,KACT 140909Z AUTO 36015KT 2SM -SN BR SCT007 BKN016 OVC024 M04/M06 A3020 RMK AO2 P0001 T10391061
ACT,2021-02-14 09:10,,,,360.00,15.00,0.01,30.20,,2.00,,SCT,BKN,OVC,,700.00,1600.00,2400.00,,-SN BR,,,,,,,,KACT 140910Z AUTO 36015KT 2SM -SN BR SCT007 BKN016 OVC024 M04/M06 A3020 RMK P0000 T10401060 MADISHF
ACT,2021-02-14 09:15,,,,10.00,14.00,0.01,30.19,,2.00,,SCT,BKN,OVC,,700.00,1600.00,2200.00,,-SN BR,,,,,,,,KACT 140915Z AUTO 01014KT 2SM -SN BR SCT007 BKN016 OVC022 M04/M06 A3019 RMK P0000 T10401060 MADISHF
ACT,2021-02-14 09:20,,,,360.00,15.00,0.01,30.20,,2.00,,SCT,BKN,OVC,,700.00,1400.00,1999.00,,-SN BR,,,,,,,,KACT 140920Z AUTO 36015KT 2SM -SN BR SCT007 BKN014 OVC019 M04/M06 A3020 RMK P0000 T10401060 MADISHF
ACT,2021-02-14 09:21,24.10,21.00,87.76,360.00,14.00,0.01,30.20,,2.00,,BKN,BKN,OVC,,700.00,1400.00,1800.00,,-SN BR,,,,,,,10.98,KACT 140921Z AUTO 36014KT 2SM -SN BR BKN007 BKN014 OVC018 M04/M06 A3020 RMK AO2 CIG 005V011 P0001 T10441061
ACT,2021-02-14 09:25,,,,10.00,13.00,0.01,30.20,,2.00,,BKN,OVC,,,700.00,1400.00,,,-SN BR,,,,,,,,KACT 140925Z AUTO 01013KT 2SM -SN BR BKN007 OVC014 M04/M06 A3020 RMK P0000 T10401060 CIG 5V11  MADISHF
ACT,2021-02-14 09:30,,,,360.00,11.00,0.01,30.20,,2.00,,BKN,OVC,,,700.00,1500.00,,,-SN BR,,,,,,,,KACT 140930Z AUTO 36011KT 2SM -SN BR BKN007 OVC015 M04/M06 A3020 RMK P0000 T10401060 CIG 5V11  MADISHF
ACT,2021-02-14 09:35,,,,10.00,14.00,0.01,30.20,,2.00,,BKN,OVC,,,700.00,1500.00,,,-SN BR,,,,,,,,KACT 140935Z AUTO 01014KT 2SM -SN BR BKN007 OVC015 M04/M06 A3020 RMK P0000 T10401060 CIG 5V11  MADISHF
ACT,2021-02-14 09:40,,,,,13.00,0.01,30.20,,1.75,,BKN,OVC,,,700.00,1300.00,,,-SN BR,,,,,,,,KACT 140940Z AUTO ///13KT 2SM -SN BR BKN007 OVC013 M04/M06 A3020 RMK P0000 T10401060 CIG 5V11  MADISHF
ACT,2021-02-14 09:43,24.10,21.00,87.76,10.00,13.00,0.01,30.20,,1.75,,BKN,OVC,,,700.00,1300.00,,,-SN BR,,,,,,,11.45,KACT 140943Z AUTO 01013KT 1 3/4SM -SN BR BKN007 OVC013 M04/M06 A3020 RMK AO2 CIG 005V011 P0001 T10441061
ACT,2021-02-14 09:45,,,,10.00,13.00,0.01,30.20,,1.75,,BKN,OVC,,,700.00,1300.00,,,-SN BR,,,,,,,,KACT 140945Z AUTO 01013KT 2SM -SN BR BKN007 OVC013 M04/M06 A3020 RMK P0000 T10401060 CIG 5V11  MADISHF
ACT,2021-02-14 09:50,,,,360.00,14.00,0.01,30.20,,1.75,,OVC,,,,700.00,,,,-SN BR,,,,,,,,KACT 140950Z AUTO 36014KT 2SM -SN BR OVC007 M04/M06 A3020 RMK P0000 T10401060 CIG 5V11  MADISHF
ACT,2021-02-14 09:51,24.10,21.00,87.76,10.00,13.00,0.01,30.20,1022.80,1.75,,OVC,,,,700.00,,,,-SN BR,,,,,,,11.45,KACT 140951Z AUTO 01013KT 1 3/4SM -SN BR OVC007 M04/M06 A3020 RMK AO2 CIG 005V011 SLP228 P0001 T10441061
ACT,2021-02-14 09:55,,,,,15.00,,30.19,,2.00,,OVC,,,,700.00,,,,-SN BR,,,,,,,,KACT 140955Z AUTO ///15KT 2SM -SN BR OVC007 M04/M06 A3019 RMK T10401060 CIG 5V10  MADISHF
ACT,2021-02-14 09:59,24.10,21.00,87.76,360.00,15.00,T,30.19,,2.00,,OVC,,,,700.00,,,,-SN BR,,,,,,,10.54,KACT 140959Z AUTO 36015KT 2SM -SN BR OVC007 M04/M06 A3019 RMK AO2 CIG 005V010 P0000 T10441061
ACT,2021-02-14 10:00,,,,360.00,13.00,,30.19,,2.00,,OVC,,,,700.00,,,,-SN BR,,,,,,,,KACT 141000Z AUTO 36013KT 2SM -SN BR OVC007 M04/M06 A3019 RMK T10401060 CIG 5V10  MADISHF
ACT,2021-02-14 10:05,,,,,15.00,,30.19,,2.00,,OVC,,,,700.00,,,,-SN BR,,,,,,,,KACT 141005Z AUTO ///15KT 2SM -SN BR OVC007 M04/M06 A3019 RMK T10401060 CIG 5V10  MADISHF
ACT,2021-02-14 10:10,,,,10.00,15.00,,30.19,,2.00,,OVC,,,,700.00,,,,-SN BR,,,,,,,,KACT 141010Z AUTO 01015KT 2SM -SN BR OVC007 M04/M06 A3019 RMK T10401060 CIG 5V10  MADISHF
ACT,2021-02-14 10:15,,,,,16.00,,30.19,,2.00,22.00,OVC,,,,700.00,,,,-SN BR,,,,,,,,KACT 141015Z AUTO ///16G22KT 2SM -SN BR OVC007 M04/M07 A3019 RMK T10401070 CIG 5V10  MADISHF
ACT,2021-02-14 10:20,,,,10.00,17.00,,30.18,,2.00,,BKN,OVC,,,700.00,1400.00,,,-SN BR,,,,,,,,KACT 141020Z AUTO 01017KT 2SM -SN BR BKN007 OVC014 M05/M07 A3018 RMK T10501070 CIG 5V9  MADISHF
ACT,2021-02-14 10:25,,,,,18.00,,30.18,,2.00,,BKN,OVC,,,700.00,1400.00,,,-SN BR,,,,,,,,KACT 141025Z AUTO ///18KT 2SM -SN BR BKN007 OVC014 M05/M07 A3018 RMK T10501070 CIG 5V8  MADISHF
ACT,2021-02-14 10:30,,,,,16.00,,30.18,,2.00,,BKN,OVC,,,700.00,1200.00,,,-SN BR,,,,,,,,KACT 141030Z AUTO ///16KT 2SM -SN BR BKN007 OVC012 M05/M07 A3018 RMK T10501070 CIG 5V11  MADISHF
ACT,2021-02-14 10:35,,,,360.00,15.00,,30.18,,2.50,,BKN,OVC,,,700.00,1200.00,,,-SN BR,,,,,,,,KACT 141035Z AUTO 36015KT 2 1/2SM -SN BR BKN007 OVC012 M05/M07 A3018 RMK T10501070 CIG 5V10  MADISHF
ACT,2021-02-14 10:40,,,,,17.00,,30.19,,2.50,23.00,BKN,OVC,,,800.00,1300.00,,,-SN BR,,,,,,,,KACT 141040Z AUTO ///17G23KT 2 1/2SM -SN BR BKN008 OVC013 M06/M07 A3019 RMK T10601070 CIG 6V11  MADISHF
ACT,2021-02-14 10:45,,,,10.00,17.00,T,30.18,,3.00,,BKN,OVC,,,999.00,1500.00,,,UP BR,,,,,,,,KACT 141045Z AUTO 01017KT 3SM UP BR BKN009 OVC015 M06/M08 A3018 RMK P0000 T10601080 CIG 6V12  MADISHF
ACT,2021-02-14 10:48,21.20,17.60,85.74,360.00,16.00,T,30.18,,4.00,25.00,SCT,OVC,,,1000.00,1500.00,,,UP BR,,,,,,,6.34,KACT 141048Z AUTO 36016G25KT 4SM UP BR SCT010 OVC015 M06/M08 A3018 RMK AO2 UPB41SNE41 P0000
ACT,2021-02-14 10:50,,,,360.00,18.00,T,30.18,,4.00,,BKN,OVC,,,999.00,1500.00,,,UP BR,,,,,,,,KACT 141050Z AUTO 36018KT 4SM UP BR BKN009 OVC015 M06/M08 A3018 RMK P0000 T10601080 CIG 6V12  MADISHF
ACT,2021-02-14 10:51,21.90,18.00,84.68,10.00,17.00,T,30.18,1022.50,4.00,25.00,SCT,OVC,,,1000.00,1500.00,,,UP BR,,,,,,,6.84,KACT 141051Z AUTO 01017G25KT 4SM UP BR SCT010 OVC015 M06/M08 A3018 RMK AO2 UPB41SNE41 SLP225 P0000 T10561078
ACT,2021-02-14 10:55,,,,,16.00,T,30.18,,3.50,,BKN,OVC,,,999.00,1500.00,,,UP BR,,,,,,,,KACT 141055Z AUTO ///16KT 3SM UP BR BKN009 OVC015 M06/M08 A3018 RMK P0000 T10601080 CIG 6V12  MADISHF
ACT,2021-02-14 10:58,21.90,18.00,84.68,360.00,16.00,T,30.19,,3.00,,BKN,OVC,,,1000.00,1500.00,,,UP BR,T,,,,,,7.25,KACT 141058Z AUTO 36016KT 3SM UP BR BKN010 OVC015 M06/M08 A3019 RMK AO2 P0000 I1000 T10561078
ACT,2021-02-14 11:00,,,,360.00,13.00,T,30.19,,3.00,,BKN,OVC,,,999.00,1699.00,,,UP BR,,,,,,,,KACT 141100Z AUTO 36013KT 3SM UP BR BKN009 OVC016 M06/M08 A3019 RMK P0000 T10601080 CIG 6V14  MADISHF
ACT,2021-02-14 11:05,,,,10.00,17.00,,30.19,,3.00,,OVC,,,,1200.00,,,,-FZRA BR,,,,,,,,KACT 141105Z AUTO 01017KT 3SM -FZRA BR OVC012 M06/M08 A3019 RMK T10601080 MADISHF
ACT,2021-02-14 11:09,21.90,18.00,84.68,10.00,15.00,T,30.18,,3.00,,BKN,OVC,,,1000.00,1600.00,,,-FZRA BR,0.01,,,,,,7.69,KACT 141109Z AUTO 01015KT 3SM -FZRA BR BKN010 OVC016 M06/M08 A3018 RMK AO2 UPE03FZRAB03 CIG 007V013 P0000 I1001 T10561078
ACT,2021-02-14 11:10,,,,10.00,15.00,,30.18,,3.00,,BKN,OVC,,,999.00,1600.00,,,-FZRA BR,,,,,,,,KACT 141110Z AUTO 01015KT 3SM -FZRA BR BKN009 OVC016 M06/M08 A3018 RMK T10601080 CIG 7V13  MADISHF
ACT,2021-02-14 11:15,,,,10.00,15.00,,30.18,,3.50,,OVC,,,,999.00,,,,-FZRA BR,,,,,,,,KACT 141115Z AUTO 01015KT 3SM -FZRA BR OVC009 M06/M08 A3018 RMK T10601080 CIG 7V13  MADISHF
ACT,2021-02-14 11:20,,,,10.00,16.00,,30.18,,4.00,,OVC,,,,999.00,,,,BR,,,,,,,,KACT 141120Z AUTO 01016KT 4SM BR OVC009 M06/M08 A3018 RMK T10601080 MADISHF
ACT,2021-02-14 11:25,,,,10.00,14.00,,30.18,,4.00,,OVC,,,,999.00,,,,BR,,,,,,,,KACT 141125Z AUTO 01014KT 4SM BR OVC009 M06/M08 A3018 RMK T10601080 MADISHF
ACT,2021-02-14 11:30,,,,20.00,13.00,,30.18,,4.00,,OVC,,,,1100.00,,,,BR,,,,,,,,KACT 141130Z AUTO 02013KT 4SM BR OVC011 M06/M08 A3018 RMK T10601080 MADISHF
ACT,2021-02-14 11:35,,,,20.00,13.00,,30.18,,4.00,,OVC,,,,1100.00,,,,BR,,,,,,,,KACT 141135Z AUTO 02013KT 4SM BR OVC011 M06/M08 A3018 RMK T10601080 MADISHF
ACT,2021-02-14 11:40,,,,20.00,11.00,,30.18,,4.00,,OVC,,,,1100.00,,,,BR,,,,,,,,KACT 141140Z AUTO 02011KT 4SM BR OVC011 M06/M08 A3018 RMK T10601080 CIG 7V15  MADISHF
ACT,2021-02-14 11:45,,,,20.00,13.00,,30.19,,4.00,,SCT,BKN,OVC,,800.00,1100.00,2300.00,,BR,,,,,,,,KACT 141145Z AUTO 02013KT 4SM BR SCT008 BKN011 OVC023 M06/M08 A3019 RMK T10601080 MADISHF
ACT,2021-02-14 11:50,,,,20.00,13.00,,30.19,,4.00,,BKN,BKN,OVC,,999.00,1500.00,2300.00,,BR,,,,,,,,KACT 141150Z AUTO 02013KT 4SM BR BKN009 BKN015 OVC023 M06/M08 A3019 RMK T10601080 MADISHF
ACT,2021-02-14 11:51,21.90,18.00,84.68,20.00,13.00,T,30.19,1022.70,4.00,,BKN,BKN,OVC,,1000.00,1500.00,2300.00,,UP BR,0.01,,0.01,,,,8.63,KACT 141151Z AUTO 02013KT 4SM UP BR BKN010 BKN015 OVC023 M06/M08 A3019 RMK AO2 UPE03B51FZRAB03E19 SLP227 P0000 60001 70001 I1001 I6001 T10561078 11022 21056 55002
ACT,2021-02-14 11:55,,,,10.00,15.00,T,30.19,,4.00,,SCT,BKN,OVC,,900.00,1400.00,2300.00,,UP BR,,,,,,,,KACT 141155Z AUTO 01015KT 4SM UP BR SCT009 BKN014 OVC023 M06/M08 A3019 RMK P0000 T10601080 MADISHF
ACT,2021-02-14 11:59,21.90,18.00,84.68,20.00,15.00,T,30.19,,4.00,,SCT,BKN,OVC,,900.00,1400.00,2300.00,,-FZRA BR,T,,,,,,7.69,KACT 141159Z AUTO 02015KT 4SM -FZRA BR SCT009 BKN014 OVC023 M06/M08 A3019 RMK AO2 UPE59FZRAB59 P0000 I1000 T10561078
ACT,2021-02-14 12:00,,,,20.00,15.00,,30.19,,4.00,,SCT,BKN,OVC,,900.00,1400.00,2300.00,,-FZRA BR,,,,,,,,KACT 141200Z AUTO 02015KT 4SM -FZRA BR SCT009 BKN014 OVC023 M06/M08 A3019 RMK T10601080 MADISHF
ACT,2021-02-14 12:05,,,,20.00,16.00,,30.19,,4.00,,SCT,BKN,OVC,,900.00,1400.00,2400.00,,-FZRA BR,,,,,,,,KACT 141205Z AUTO 02016KT 4SM -FZRA BR SCT009 BKN014 OVC024 M06/M08 A3019 RMK T10601080 MADISHF
ACT,2021-02-14 12:10,,,,10.00,15.00,,30.19,,4.00,,SCT,BKN,OVC,,900.00,1500.00,2400.00,,-FZRA BR,,,,,,,,KACT 141210Z AUTO 01015KT 4SM -FZRA BR SCT009 BKN015 OVC024 M06/M08 A3019 RMK T10601080 MADISHF
ACT,2021-02-14 12:15,,,,10.00,18.00,,30.20,,4.00,,SCT,OVC,,,999.00,1500.00,,,-FZRA BR,,,,,,,,KACT 141215Z AUTO 01018KT 4SM -FZRA BR SCT009 OVC015 M06/M08 A3020 RMK T10601080 MADISHF
ACT,2021-02-14 12:20,,,,10.00,16.00,,30.20,,4.00,,OVC,,,,1300.00,,,,-FZRA BR,,,,,,,,KACT 141220Z AUTO 01016KT 4SM -FZRA BR OVC013 M06/M08 A3020 RMK T10601080 MADISHF
ACT,2021-02-14 12:25,,,,10.00,17.00,,30.21,,4.00,,OVC,,,,1300.00,,,,-FZRA BR,,,,,,,,KACT 141225Z AUTO 01017KT 4SM -FZRA BR OVC013 M06/M08 A3020 RMK T10601080 MADISHF
ACT,2021-02-14 12:30,,,,10.00,16.00,,30.21,,5.00,,OVC,,,,1300.00,,,,BR,,,,,,,,KACT 141230Z AUTO 01016KT 5SM BR OVC013 M06/M08 A3020 RMK T10601080 MADISHF
ACT,2021-02-14 12:32,21.00,17.10,84.62,10.00,16.00,T,30.21,,5.00,,OVC,,,,1300.00,,,,BR,0.01,,,,,,6.08,KACT 141232Z 01016KT 5SM BR OVC013 M06/M08 A3021 RMK AO2 UPE1159FZRAB1159E26 P0000 I1001 T10611083
ACT,2021-02-14 12:35,,,,10.00,15.00,,30.21,,5.00,,OVC,,,,1300.00,,,,BR,,,,,,,,KACT 141235Z AUTO 01015KT 5SM BR OVC013 M06/M08 A3020 RMK T10601080 MADISHF
ACT,2021-02-14 12:40,,,,10.00,14.00,,30.20,,5.00,19.00,OVC,,,,1300.00,,,,BR,,,,,,,,KACT 141240Z AUTO 01014G19KT 5SM BR OVC013 M06/M08 A3020 RMK T10601080 MADISHF
ACT,2021-02-14 12:45,,,,10.00,16.00,,30.20,,5.00,,OVC,,,,1300.00,,,,BR,,,,,,,,KACT 141245Z AUTO 01016KT 5SM BR OVC013 M06/M08 A3020 RMK T10601080 MADISHF
ACT,2021-02-14 12:50,,,,10.00,11.00,,30.20,,6.00,16.00,OVC,,,,1200.00,,,,BR,,,,,,,,KACT 141250Z AUTO 01011G16KT 6SM BR OVC012 M06/M08 A3020 RMK T10601080 MADISHF
ACT,2021-02-14 12:51,21.00,17.10,84.62,20.00,12.00,T,30.20,1023.10,6.00,,OVC,,,,1200.00,,,,BR,0.01,,,,,,8.00,KACT 141251Z 02012KT 6SM BR OVC012 M06/M08 A3020 RMK AO2 UPE1159FZRAB1159E26 SLP231 P0000 I1001 T10611083
ACT,2021-02-14 12:55,,,,20.00,11.00,,30.20,,6.00,17.00,OVC,,,,1200.00,,,,BR,,,,,,,,KACT 141255Z AUTO 02011G17KT 6SM BR OVC012 M06/M08 A3020 RMK T10601080 MADISHF
ACT,2021-02-14 13:00,,,,30.00,14.00,,30.18,,6.00,,OVC,,,,1200.00,,,,BR,,,,,,,,KACT 141300Z AUTO 03014KT 6SM BR OVC012 M06/M08 A3018 RMK T10601080 MADISHF
ACT,2021-02-14 13:05,,,,20.00,16.00,,30.17,,6.00,,OVC,,,,1200.00,,,,BR,,,,,,,,KACT 141305Z AUTO 02016KT 6SM BR OVC012 M06/M08 A3017 RMK T10601080 MADISHF
ACT,2021-02-14 13:10,,,,20.00,15.00,,30.18,,6.00,,OVC,,,,1100.00,,,,BR,,,,,,,,KACT 141310Z AUTO 02015KT 6SM BR OVC011 M06/M08 A3018 RMK T10601080 MADISHF
ACT,2021-02-14 13:15,,,,10.00,18.00,,30.19,,7.00,,OVC,,,,1100.00,,,,,,,,,,,,KACT 141315Z AUTO 01018KT 7SM OVC011 M06/M08 A3019 RMK T10601080 MADISHF
ACT,2021-02-14 13:20,,,,10.00,13.00,,30.20,,8.00,18.00,OVC,,,,1100.00,,,,,,,,,,,,KACT 141320Z AUTO 01013G18KT 8SM OVC011 M06/M08 A3020 RMK T10601080 MADISHF
ACT,2021-02-14 13:25,,,,10.00,10.00,,30.21,,8.00,,OVC,,,,1300.00,,,,,,,,,,,,KACT 141325Z AUTO 01010KT 8SM OVC013 M06/M08 A3020 RMK T10601080 MADISHF
ACT,2021-02-14 13:30,,,,360.00,11.00,,30.20,,9.00,,OVC,,,,1100.00,,,,,,,,,,,,KACT 141330Z AUTO 36011KT 9SM OVC011 M06/M08 A3020 RMK T10601080 MADISHF
ACT,2021-02-14 13:35,,,,10.00,17.00,,30.20,,8.00,,OVC,,,,1100.00,,,,,,,,,,,,KACT 141335Z AUTO 01017KT 8SM OVC011 M06/M08 A3020 RMK T10601080 MADISHF
ACT,2021-02-14 13:40,,,,10.00,17.00,,30.20,,8.00,,OVC,,,,1100.00,,,,,,,,,,,,KACT 141340Z AUTO 01017KT 8SM OVC011 M06/M08 A3020 RMK T10601080 MADISHF
ACT,2021-02-14 13:45,,,,360.00,16.00,,30.21,,8.00,,OVC,,,,1200.00,,,,,,,,,,,,KACT 141345Z AUTO 36016KT 8SM OVC012 M06/M09 A3020 RMK T10601090 MADISHF
ACT,2021-02-14 13:50,,,,,16.00,,30.21,,8.00,,OVC,,,,1200.00,,,,,,,,,,,,KACT 141350Z AUTO ///16KT 8SM OVC012 M06/M08 A3020 RMK T10601080 MADISHF
ACT,2021-02-14 13:51,21.00,17.10,84.62,360.00,17.00,0.00,30.21,1023.50,8.00,,OVC,,,,1200.00,,,,,,,,,,,5.66,KACT 141351Z 36017KT 8SM OVC012 M06/M08 A3021 RMK AO2 SLP235 T10611083
ACT,2021-02-14 13:55,,,,10.00,17.00,,30.21,,8.00,,OVC,,,,1200.00,,,,,,,,,,,,KACT 141355Z AUTO 01017KT 8SM OVC012 M06/M08 A3020 RMK T10601080 MADISHF
ACT,2021-02-14 14:00,,,,360.00,16.00,,30.21,,7.00,,OVC,,,,1200.00,,,,,,,,,,,,KACT 141400Z AUTO 36016KT 7SM OVC012 M06/M08 A3020 RMK T10601080 MADISHF
ACT,2021-02-14 14:05,,,,360.00,17.00,,30.21,,6.00,,OVC,,,,1200.00,,,,BR,,,,,,,,KACT 141405Z AUTO 36017KT 6SM BR OVC012 M06/M08 A3020 RMK T10601080 MADISHF
ACT,2021-02-14 14:10,,,,10.00,14.00,,30.21,,6.00,,OVC,,,,1200.00,,,,BR,,,,,,,,KACT 141410Z AUTO 01014KT 6SM BR OVC012 M06/M08 A3020 RMK T10601080 MADISHF
ACT,2021-02-14 14:15,,,,360.00,15.00,,30.21,,5.00,22.00,OVC,,,,1200.00,,,,BR,,,,,,,,KACT 141415Z AUTO 36015G22KT 5SM BR OVC012 M06/M08 A3020 RMK T10601080 MADISHF
ACT,2021-02-14 14:20,,,,10.00,14.00,,30.22,,2.50,,OVC,,,,1200.00,,,,-SN BR,,,,,,,,KACT 141420Z AUTO 01014KT 2 1/2SM -SN BR OVC012 M06/M08 A3021 RMK T10601080 MADISHF
ACT,2021-02-14 14:25,,,,350.00,13.00,,30.22,,1.75,,OVC,,,,1200.00,,,,-SN BR,,,,,,,,KACT 141425Z AUTO 35013KT 2SM -SN BR OVC012 M06/M08 A3021 RMK T10601080 MADISHF
ACT,2021-02-14 14:30,,,,350.00,14.00,,30.22,,1.50,,OVC,,,,1100.00,,,,-SN BR,,,,,,,,KACT 141430Z AUTO 35014KT 1 1/2SM -SN BR OVC011 M06/M08 A3021 RMK T10601080 MADISHF
ACT,2021-02-14 14:35,,,,360.00,15.00,,30.21,,1.25,,BKN,OVC,,,900.00,1300.00,,,-SN BR,,,,,,,,KACT 141435Z AUTO 36015KT 1 1/2SM -SN BR BKN009 OVC013 M06/M08 A3020 RMK T10601080 CIG 6V10  MADISHF
ACT,2021-02-14 14:37,21.00,18.00,87.97,350.00,14.00,T,30.22,,1.25,,BKN,OVC,,,900.00,1300.00,,,-SN BR,,,,,,,6.98,KACT 141437Z 35014KT 1 1/4SM -SN BR BKN009 OVC013 M06/M08 A3022 RMK AO2 UPB18E20SNB20 CIG 006V010 P0000 T10611078
ACT,2021-02-14 14:40,,,,360.00,13.00,,30.22,,1.25,,OVC,,,,900.00,,,,-SN BR,,,,,,,,KACT 141440Z AUTO 36013KT 1 1/2SM -SN BR OVC009 M06/M08 A3021 RMK T10601080 CIG 6V12  MADISHF
ACT,2021-02-14 14:45,,,,360.00,15.00,,30.22,,1.25,,OVC,,,,900.00,,,,-SN BR,,,,,,,,KACT 141445Z AUTO 36015KT 1 1/2SM -SN BR OVC009 M06/M08 A3021 RMK T10601080 CIG 6V12  MADISHF
ACT,2021-02-14 14:50,,,,360.00,11.00,T,30.22,,1.50,,OVC,,,,900.00,,,,UP BR,,,,,,,,KACT 141450Z AUTO 36011KT 1 1/2SM UP BR OVC009 M06/M08 A3021 RMK P0000 T10601080 CIG 6V12  MADISHF
ACT,2021-02-14 14:51,21.00,18.00,87.97,360.00,12.00,T,30.22,1023.90,1.50,,OVC,,,,900.00,,,,UP BR,,0.01,,,,,8.00,KACT 141451Z 36012KT 1 1/2SM UP BR OVC009 M06/M08 A3022 RMK AO2 UPB18E20B49SNB20E49 CIG 005V011 SLP239 P0000 60000 I3001 T10611078 51012
ACT,2021-02-14 14:55,,,,350.00,13.00,T,30.23,,1.50,19.00,OVC,,,,700.00,,,,UP BR,,,,,,,,KACT 141455Z AUTO 35013G19KT 1 1/2SM UP BR OVC007 M06/M08 A3022 RMK P0000 T10601080 CIG 5V12  MADISHF
ACT,2021-02-14 14:58,21.00,18.00,87.97,10.00,14.00,T,30.23,,1.75,,OVC,,,,700.00,,,,UP BR,,,,,,,6.98,KACT 141458Z 01014KT 1 3/4SM UP BR OVC007 M06/M08 A3023 RMK AO2 CIG 005V012 P0000 T10611078
ACT,2021-02-14 15:00,,,,360.00,13.00,T,30.24,,1.75,,OVC,,,,700.00,,,,UP BR,,,,,,,,KACT 141500Z AUTO 36013KT 2SM UP BR OVC007 M06/M08 A3023 RMK P0000 T10601080 CIG 5V12  MADISHF
ACT,2021-02-14 15:05,,,,360.00,11.00,T,30.23,,2.00,,OVC,,,,700.00,,,,UP BR,,,,,,,,KACT 141505Z AUTO 36011KT 2SM UP BR OVC007 M06/M08 A3022 RMK P0000 T10601080 CIG 5V12  MADISHF
ACT,2021-02-14 15:10,,,,360.00,14.00,,30.24,,2.00,,OVC,,,,800.00,,,,BR,,,,,,,,KACT 141510Z AUTO 36014KT 2SM BR OVC008 M06/M08 A3023 RMK T10601080 CIG 5V12  MADISHF
ACT,2021-02-14 15:15,,,,360.00,16.00,,30.24,,2.00,21.00,OVC,,,,800.00,,,,BR,,,,,,,,KACT 141515Z AUTO 36016G21KT 2SM BR OVC008 M06/M08 A3023 RMK T10601080 CIG 5V12  MADISHF
ACT,2021-02-14 15:20,,,,360.00,14.00,,30.24,,2.50,,OVC,,,,700.00,,,,BR,,,,,,,,KACT 141520Z AUTO 36014KT 2 1/2SM BR OVC007 M06/M08 A3023 RMK T10601080 CIG 5V12  MADISHF
ACT,2021-02-14 15:23,21.00,18.00,87.97,10.00,15.00,T,30.23,,2.50,22.00,OVC,,,,700.00,,,,BR,0.01,,,,,,6.52,KACT 141523Z 01015G22KT 2 1/2SM BR OVC007 M06/M08 A3023 RMK AO2 UPE09 CIG 005V011 P0000 I1001 T10611078
ACT,2021-02-14 15:25,,,,360.00,15.00,,30.24,,2.50,,OVC,,,,900.00,,,,BR,,,,,,,,KACT 141525Z AUTO 36015KT 2 1/2SM BR OVC009 M06/M08 A3023 RMK T10601080 CIG 6V11  MADISHF
ACT,2021-02-14 15:30,,,,360.00,15.00,,30.24,,3.00,,OVC,,,,900.00,,,,BR,,,,,,,,KACT 141530Z AUTO 36015KT 3SM BR OVC009 M06/M08 A3023 RMK T10601080 CIG 6V11  MADISHF
ACT,2021-02-14 15:34,21.00,18.00,87.97,10.00,16.00,T,30.24,,3.00,21.00,OVC,,,,900.00,,,,BR,0.01,,,,,,6.08,KACT 141534Z 01016G21KT 3SM BR OVC009 M06/M08 A3024 RMK AO2 UPE09 CIG 006V011 P0000 I1001 T10611078
ACT,2021-02-14 15:35,,,,360.00,17.00,,30.24,,3.00,,OVC,,,,900.00,,,,BR,,,,,,,,KACT 141535Z AUTO 36017KT 3SM BR OVC009 M06/M08 A3023 RMK T10601080 CIG 6V11  MADISHF
ACT,2021-02-14 15:40,,,,360.00,17.00,,30.24,,3.00,,OVC,,,,900.00,,,,BR,,,,,,,,KACT 141540Z AUTO 36017KT 3SM BR OVC009 M06/M08 A3023 RMK T10601080 CIG 7V11  MADISHF
ACT,2021-02-14 15:45,,,,10.00,17.00,,30.23,,3.00,,OVC,,,,900.00,,,,BR,,,,,,,,KACT 141545Z AUTO 01017KT 3SM BR OVC009 M06/M08 A3022 RMK T10601080 CIG 7V12  MADISHF
ACT,2021-02-14 15:50,,,,10.00,16.00,,30.24,,4.00,,OVC,,,,900.00,,,,BR,,,,,,,,KACT 141550Z AUTO 01016KT 4SM BR OVC009 M06/M08 A3023 RMK T10601080 CIG 7V12  MADISHF
ACT,2021-02-14 15:51,21.00,18.00,87.97,10.00,16.00,T,30.23,1024.30,4.00,,OVC,,,,900.00,,,,BR,0.01,,,,,,6.08,KACT 141551Z 01016KT 4SM BR OVC009 M06/M08 A3023 RMK AO2 UPE09 CIG 007V012 SLP243 P0000 I1001 T10611078
ACT,2021-02-14 15:55,,,,20.00,13.00,,30.23,,5.00,,OVC,,,,1100.00,,,,BR,,,,,,,,KACT 141555Z AUTO 02013KT 5SM BR OVC011 M06/M08 A3022 RMK T10601080 CIG 7V12  MADISHF
ACT,2021-02-14 16:00,,,,10.00,15.00,,30.23,,4.00,22.00,OVC,,,,1100.00,,,,BR,,,,,,,,KACT 141600Z AUTO 01015G22KT 4SM BR OVC011 M06/M08 A3022 RMK T10601080 CIG 7V13  MADISHF
ACT,2021-02-14 16:05,,,,20.00,17.00,,30.22,,5.00,,OVC,,,,999.00,,,,BR,,,,,,,,KACT 141605Z AUTO 02017KT 5SM BR OVC009 M06/M08 A3021 RMK T10601080 CIG 7V13  MADISHF
ACT,2021-02-14 16:10,,,,10.00,17.00,,30.22,,5.00,22.00,OVC,,,,999.00,,,,BR,,,,,,,,KACT 141610Z AUTO 01017G22KT 5SM BR OVC009 M06/M08 A3021 RMK T10601080 CIG 7V13  MADISHF
ACT,2021-02-14 16:15,,,,360.00,17.00,,30.22,,4.00,,OVC,,,,999.00,,,,BR,,,,,,,,KACT 141615Z AUTO 36017KT 4SM BR OVC009 M06/M08 A3021 RMK T10601080 CIG 6V13  MADISHF
ACT,2021-02-14 16:20,,,,,19.00,,30.23,,5.00,24.00,BKN,OVC,,,800.00,1200.00,,,BR,,,,,,,,KACT 141620Z AUTO ///19G24KT 5SM BR BKN008 OVC012 M06/M08 A3022 RMK T10601080 CIG 6V11  MADISHF
ACT,2021-02-14 16:22,21.00,18.00,87.97,10.00,19.00,0.00,30.23,,5.00,26.00,BKN,OVC,,,800.00,1200.00,,,BR,,,,26.00,360.00,2021-02-14 16:20,4.89,KACT 141622Z 01019G26KT 5SM BR BKN008 OVC012 M06/M08 A3023 RMK AO2 PK WND 36026/1620 CIG 006V011 T10611078
ACT,2021-02-14 16:25,,,,10.00,15.00,,30.23,,6.00,,BKN,OVC,,,800.00,1300.00,,,BR,,,,,,,,KACT 141625Z AUTO 01015KT 6SM BR BKN008 OVC013 M06/M08 A3022 RMK T10601080 CIG 6V12  MADISHF
ACT,2021-02-14 16:30,,,,10.00,13.00,,30.23,,6.00,,OVC,,,,800.00,,,,BR,,,,,,,,KACT 141630Z AUTO 01013KT 6SM BR OVC008 M06/M08 A3022 RMK T10601080 CIG 6V12  MADISHF
ACT,2021-02-14 16:35,,,,10.00,17.00,,30.23,,6.00,22.00,OVC,,,,800.00,,,,BR,,,,,,,,KACT 141635Z AUTO 01017G22KT 6SM BR OVC008 M06/M08 A3022 RMK T10601080 CIG 6V11  MADISHF
ACT,2021-02-14 16:40,,,,360.00,15.00,,30.24,,6.00,,OVC,,,,800.00,,,,BR,,,,,,,,KACT 141640Z AUTO 36015KT 6SM BR OVC008 M06/M08 A3023 RMK T10601080 CIG 6V12  MADISHF
ACT,2021-02-14 16:45,,,,10.00,17.00,,30.24,,6.00,,OVC,,,,800.00,,,,BR,,,,,,,,KACT 141645Z AUTO 01017KT 6SM BR OVC008 M06/M08 A3023 RMK T10601080 MADISHF
ACT,2021-02-14 16:50,,,,360.00,16.00,,30.24,,6.00,,OVC,,,,800.00,,,,BR,,,,,,,,KACT 141650Z AUTO 36016KT 6SM BR OVC008 M06/M08 A3023 RMK T10601080 MADISHF
ACT,2021-02-14 16:51,21.00,18.00,87.97,10.00,15.00,0.00,30.24,1024.50,6.00,22.00,OVC,,,,800.00,,,,BR,,,,26.00,360.00,2021-02-14 16:20,6.52,KACT 141651Z 01015G22KT 6SM BR OVC008 M06/M08 A3024 RMK AO2 PK WND 36026/1620 SLP245 T10611078
ACT,2021-02-14 16:55,,,,10.00,17.00,,30.24,,6.00,,OVC,,,,900.00,,,,BR,,,,,,,,KACT 141655Z AUTO 01017KT 6SM BR OVC009 M06/M08 A3023 RMK T10601080 MADISHF
ACT,2021-02-14 17:00,,,,360.00,16.00,,30.24,,6.00,21.00,OVC,,,,900.00,,,,BR,,,,,,,,KACT 141700Z AUTO 36016G21KT 6SM BR OVC009 M06/M08 A3023 RMK T10601080 MADISHF
ACT,2021-02-14 17:05,,,,360.00,17.00,,30.24,,6.00,22.00,OVC,,,,900.00,,,,BR,,,,,,,,KACT 141705Z AUTO 36017G22KT 6SM BR OVC009 M06/M08 A3023 RMK T10601080 MADISHF
ACT,2021-02-14 17:10,,,,360.00,16.00,,30.24,,6.00,,OVC,,,,900.00,,,,BR,,,,,,,,KACT 141710Z AUTO 36016KT 6SM BR OVC009 M06/M08 A3023 RMK T10601080 MADISHF
ACT,2021-02-14 17:15,,,,10.00,17.00,,30.24,,6.00,,OVC,,,,900.00,,,,BR,,,,,,,,KACT 141715Z AUTO 01017KT 6SM BR OVC009 M06/M08 A3023 RMK T10601080 MADISHF
ACT,2021-02-14 17:20,,,,360.00,18.00,,30.24,,6.00,,OVC,,,,900.00,,,,BR,,,,,,,,KACT 141720Z AUTO 36018KT 6SM BR OVC009 M06/M08 A3023 RMK T10601080 MADISHF
ACT,2021-02-14 17:25,,,,10.00,17.00,,30.24,,6.00,,OVC,,,,900.00,,,,BR,,,,,,,,KACT 141725Z AUTO 01017KT 6SM BR OVC009 M06/M08 A3023 RMK T10601080 MADISHF
ACT,2021-02-14 17:30,,,,360.00,17.00,,30.24,,6.00,,OVC,,,,900.00,,,,BR,,,,,,,,KACT 141730Z AUTO 36017KT 6SM BR OVC009 M06/M08 A3023 RMK T10601080 MADISHF
ACT,2021-02-14 17:35,,,,10.00,15.00,,30.24,,6.00,,OVC,,,,900.00,,,,BR,,,,,,,,KACT 141735Z AUTO 01015KT 6SM BR OVC009 M06/M08 A3023 RMK T10601080 MADISHF
ACT,2021-02-14 17:40,,,,360.00,13.00,,30.25,,7.00,,OVC,,,,900.00,,,,,,,,,,,,KACT 141740Z AUTO 36013KT 7SM OVC009 M06/M08 A3025 RMK T10601080 MADISHF
ACT,2021-02-14 17:45,,,,360.00,19.00,,30.24,,6.00,,OVC,,,,900.00,,,,BR,,,,,,,,KACT 141745Z AUTO 36019KT 6SM BR OVC009 M06/M08 A3023 RMK T10601080 MADISHF
ACT,2021-02-14 17:50,,,,10.00,18.00,,30.24,,6.00,,OVC,,,,900.00,,,,BR,,,,,,,,KACT 141750Z AUTO 01018KT 6SM BR OVC009 M06/M08 A3023 RMK T10601080 MADISHF
ACT,2021-02-14 17:51,21.00,17.10,84.62,10.00,17.00,0.00,30.25,1024.60,6.00,25.00,OVC,,,,900.00,,,,BR,,,0.02,,,,5.66,KACT 141751Z 01017G25KT 6SM BR OVC009 M06/M08 A3025 RMK AO2 SLP246 60000 I6002 T10611083 11056 21061 51007
ACT,2021-02-14 17:55,,,,360.00,17.00,,30.25,,6.00,22.00,OVC,,,,900.00,,,,BR,,,,,,,,KACT 141755Z AUTO 36017G22KT 6SM BR OVC009 M06/M08 A3025 RMK T10601080 CIG 9V12  MADISHF
ACT,2021-02-14 18:00,,,,10.00,15.00,,30.25,,5.00,,OVC,,,,999.00,,,,BR,,,,,,,,KACT 141800Z AUTO 01015KT 5SM BR OVC009 M06/M08 A3025 RMK T10601080 MADISHF
ACT,2021-02-14 18:04,21.00,17.10,84.62,360.00,13.00,0.00,30.25,,5.00,24.00,BKN,OVC,,,1000.00,1300.00,,,BR,,,,,,,7.48,KACT 141804Z 36013G24KT 5SM BR BKN010 OVC013 M06/M08 A3025 RMK AO2 CIG 009V012 T10611083
ACT,2021-02-14 18:05,,,,360.00,13.00,,30.25,,4.00,,BKN,OVC,,,999.00,1300.00,,,BR,,,,,,,,KACT 141805Z AUTO 36013KT 4SM BR BKN009 OVC013 M06/M08 A3025 RMK T10601080 MADISHF
ACT,2021-02-14 18:10,,,,350.00,16.00,,30.25,,4.00,,OVC,,,,900.00,,,,BR,,,,,,,,KACT 141810Z AUTO 35016KT 4SM BR OVC009 M06/M08 A3025 RMK T10601080 MADISHF
ACT,2021-02-14 18:14,21.00,17.10,84.62,350.00,17.00,0.00,30.25,,3.00,,OVC,,,,900.00,,,,BR,,,,,,,5.66,KACT 141814Z 35017KT 3SM BR OVC009 M06/M08 A3025 RMK AO2 T10611083
ACT,2021-02-14 18:15,,,,350.00,16.00,,30.25,,3.00,,OVC,,,,900.00,,,,BR,,,,,,,,KACT 141815Z AUTO 35016KT 3SM BR OVC009 M06/M08 A3025 RMK T10601080 CIG 9V14  MADISHF
ACT,2021-02-14 18:20,,,,360.00,14.00,,30.24,,2.50,,OVC,,,,900.00,,,,-FZRA BR,,,,,,,,KACT 141820Z AUTO 36014KT 2 1/2SM -FZRA BR OVC009 M06/M08 A3023 RMK T10601080 CIG 8V12  MADISHF
ACT,2021-02-14 18:24,21.00,17.10,84.62,360.00,16.00,T,30.24,,2.50,,OVC,,,,900.00,,,,-FZRA BR,T,,,,,,6.08,KACT 141824Z 36016KT 2 1/2SM -FZRA BR OVC009 M06/M08 A3024 RMK AO2 UPB16E18FZRAB18 P0000 I1000 T10611083
ACT,2021-02-14 18:25,,,,360.00,15.00,,30.24,,2.50,21.00,OVC,,,,900.00,,,,-FZRA BR,,,,,,,,KACT 141825Z AUTO 36015G21KT 2 1/2SM -FZRA BR OVC009 M06/M08 A3023 RMK T10601080 MADISHF
ACT,2021-02-14 18:30,,,,350.00,11.00,,30.24,,2.50,17.00,OVC,,,,900.00,,,,BR,,,,,,,,KACT 141830Z AUTO 35011G17KT 2 1/2SM BR OVC009 M06/M08 A3023 RMK T10601080 MADISHF
ACT,2021-02-14 18:35,,,,360.00,15.00,,30.24,,2.50,,OVC,,,,900.00,,,,BR,,,,,,,,KACT 141835Z AUTO 36015KT 2 1/2SM BR OVC009 M06/M08 A3023 RMK T10601080 CIG 7V12  MADISHF
ACT,2021-02-14 18:40,,,,10.00,16.00,,30.24,,2.50,,OVC,,,,900.00,,,,-FZRA BR,,,,,,,,KACT 141840Z AUTO 01016KT 2 1/2SM -FZRA BR OVC009 M06/M08 A3023 RMK T10601080 CIG 7V13  MADISHF
ACT,2021-02-14 18:45,,,,360.00,14.00,,30.25,,2.00,,OVC,,,,900.00,,,,-FZRA BR,,,,,,,,KACT 141845Z AUTO 36014KT 2SM -FZRA BR OVC009 M06/M08 A3025 RMK T10601080 CIG 7V13  MADISHF
ACT,2021-02-14 18:50,,,,360.00,18.00,,30.24,,2.00,,OVC,,,,900.00,,,,-FZRA BR,,,,,,,,KACT 141850Z AUTO 36018KT 2SM -FZRA BR OVC009 M06/M08 A3023 RMK T10601080 CIG 7V13  MADISHF
ACT,2021-02-14 18:51,21.00,17.10,84.62,350.00,17.00,T,30.24,1024.50,2.00,24.00,OVC,,,,900.00,,,,-FZRA BR,0.01,,,,,,5.66,KACT 141851Z 35017G24KT 2SM -FZRA BR OVC009 M06/M08 A3024 RMK AO2 UPB16E18FZRAB18E29B39 CIG 007V013 SLP245 P0000 I1001 T10611083
ACT,2021-02-14 18:55,,,,360.00,17.00,,30.24,,1.75,22.00,OVC,,,,900.00,,,,-SN BR,,,,,,,,KACT 141855Z AUTO 36017G22KT 2SM -SN BR OVC009 M06/M08 A3023 RMK T10601080 CIG 7V13  MADISHF
ACT,2021-02-14 18:58,19.90,17.10,88.68,360.00,17.00,T,30.24,,1.75,,OVC,,,,1100.00,,,,-SN BR,T,,,,,,4.22,KACT 141858Z 36017KT 1 3/4SM -SN BR OVC011 M07/M08 A3024 RMK AO2 FZRAE53SNB53 P0000 I1000 T10671083
ACT,2021-02-14 19:00,,,,10.00,16.00,,30.24,,1.50,,BKN,OVC,,,900.00,1300.00,,,-SN BR,,,,,,,,KACT 141900Z AUTO 01016KT 1 1/2SM -SN BR BKN009 OVC013 M07/M08 A3023 RMK T10701080 CIG 7V11  MADISHF
ACT,2021-02-14 19:05,,,,360.00,15.00,,30.24,,1.75,,OVC,,,,900.00,,,,-SN BR,,,,,,,,KACT 141905Z AUTO 36015KT 2SM -SN BR OVC009 M06/M08 A3023 RMK T10601080 CIG 7V14  MADISHF
ACT,2021-02-14 19:06,19.90,17.10,88.68,360.00,15.00,T,30.24,,1.75,,OVC,,,,900.00,,,,-SN BR,T,,,,,,5.09,KACT 141906Z 36015KT 1 3/4SM -SN BR OVC009 M07/M08 A3024 RMK AO2 UPB03E05FZRAE1853SNB1853E03B05 CIG 007V014 P0000 I1000 T10671083
ACT,2021-02-14 19:10,,,,350.00,15.00,,30.24,,1.75,,OVC,,,,900.00,,,,-SN BR,,,,,,,,KACT 141910Z AUTO 35015KT 2SM -SN BR OVC009 M06/M08 A3023 RMK T10601080 CIG 7V14  MADISHF
ACT,2021-02-14 19:14,21.00,17.10,84.62,360.00,15.00,T,30.24,,2.00,21.00,OVC,,,,1100.00,,,,UP BR,T,,,,,,6.52,KACT 141914Z 36015G21KT 2SM UP BR OVC011 M06/M08 A3024 RMK AO2 UPB03E05B14FZRAE1853SNB1853E03B05E14 P0000 I1000 T10611083
ACT,2021-02-14 19:15,,,,360.00,15.00,T,30.24,,2.00,,OVC,,,,1100.00,,,,UP BR,,,,,,,,KACT 141915Z AUTO 36015KT 2SM UP BR OVC011 M06/M08 A3023 RMK P0000 T10601080 CIG 7V13  MADISHF
ACT,2021-02-14 19:20,,,,340.00,15.00,,30.24,,2.00,21.00,OVC,,,,1100.00,,,,-FZRA BR,,,,,,,,KACT 141920Z AUTO 34015G21KT 2SM -FZRA BR OVC011 M06/M08 A3023 RMK T10601080 CIG 7V13  MADISHF
ACT,2021-02-14 19:25,,,,340.00,16.00,,30.24,,2.00,22.00,OVC,,,,999.00,,,,-FZRA BR,,,,,,,,KACT 141925Z AUTO 34016G22KT 2SM -FZRA BR OVC009 M07/M09 A3023 RMK T10701090 CIG 7V14  MADISHF
ACT,2021-02-14 19:30,,,,360.00,17.00,,30.24,,2.50,,OVC,,,,999.00,,,,-FZRA BR,,,,,,,,KACT 141930Z AUTO 36017KT 2 1/2SM -FZRA BR OVC009 M07/M09 A3023 RMK T10701090 CIG 7V12  MADISHF
ACT,2021-02-14 19:35,,,,360.00,16.00,,30.23,,2.50,,OVC,,,,999.00,,,,-FZRA BR,,,,,,,,KACT 141935Z AUTO 36016KT 2 1/2SM -FZRA BR OVC009 M07/M09 A3022 RMK T10701090 CIG 7V14  MADISHF
ACT,2021-02-14 19:40,,,,360.00,13.00,,30.23,,2.50,,BKN,OVC,,,999.00,1400.00,,,BR,,,,,,,,KACT 141940Z AUTO 36013KT 2 1/2SM BR BKN009 OVC014 M07/M09 A3022 RMK T10701090 CIG 7V12  MADISHF
ACT,2021-02-14 19:44,19.90,16.00,84.55,360.00,16.00,T,30.23,,2.50,,BKN,OVC,,,800.00,1300.00,,,BR,0.01,,,,,,4.65,KACT 141944Z 36016KT 2 1/2SM BR BKN008 OVC013 M07/M09 A3023 RMK AO2 UPB03E05B14E19FZRAE1853B19E40SNB1853E03B05E14 P0000 I1001 T10671089
ACT,2021-02-14 19:45,,,,360.00,17.00,,30.23,,2.50,22.00,BKN,OVC,,,800.00,1300.00,,,BR,,,,,,,,KACT 141945Z AUTO 36017G22KT 2 1/2SM BR BKN008 OVC013 M07/M09 A3022 RMK T10701090 MADISHF
ACT,2021-02-14 19:47,19.40,15.80,85.63,360.00,15.00,T,30.23,,3.00,23.00,BKN,OVC,,,900.00,1300.00,,,BR,0.01,,,,,,4.45,KACT 141947Z 36015G23KT 3SM BR BKN009 OVC013 M07/M09 A3023 RMK AO2 UPB03E05B14E19FZRAE1853B19E40SNB1853E03B05E14 CIG 007V011 P0000 I1001
ACT,2021-02-14 19:50,,,,360.00,15.00,,30.22,,3.00,,OVC,,,,1100.00,,,,BR,,,,,,,,KACT 141950Z AUTO 36015KT 3SM BR OVC011 M07/M09 A3021 RMK T10701090 MADISHF
ACT,2021-02-14 19:51,19.90,16.00,84.55,360.00,14.00,T,30.22,1023.90,3.00,23.00,OVC,,,,1100.00,,,,BR,0.01,,,,,,5.57,KACT 141951Z 36014G23KT 3SM BR OVC011 M07/M09 A3022 RMK AO2 UPB03E05B14E19FZRAE1853B19E40SNB1853E03B05E14 SLP239 P0000 I1001 T10671089
ACT,2021-02-14 19:55,,,,360.00,11.00,,30.22,,3.00,,BKN,OVC,,,900.00,1300.00,,,BR,,,,,,,,KACT 141955Z AUTO 36011KT 3SM BR BKN009 OVC013 M07/M09 A3021 RMK T10701090 CIG 7V11  MADISHF
ACT,2021-02-14 20:00,,,,350.00,14.00,,30.22,,2.50,,BKN,OVC,,,800.00,1100.00,,,-FZRA BR,,,,,,,,KACT 142000Z AUTO 35014KT 2 1/2SM -FZRA BR BKN008 OVC011 M07/M09 A3021 RMK T10701090 MADISHF
ACT,2021-02-14 20:05,,,,350.00,14.00,,30.22,,2.50,19.00,OVC,,,,999.00,,,,-FZRA BR,,,,,,,,KACT 142005Z AUTO 35014G19KT 2 1/2SM -FZRA BR OVC009 M07/M09 A3021 RMK T10701090 CIG 7V14  MADISHF
ACT,2021-02-14 20:10,,,,360.00,15.00,,30.20,,2.50,21.00,OVC,,,,999.00,,,,-FZRA BR,,,,,,,,KACT 142010Z AUTO 36015G21KT 2 1/2SM -FZRA BR OVC009 M07/M09 A3020 RMK T10701090 CIG 7V14  MADISHF
ACT,2021-02-14 20:11,19.90,16.00,84.55,360.00,16.00,T,30.20,,2.50,23.00,OVC,,,,1000.00,,,,-FZRA BR,T,,,,,,4.65,KACT 142011Z 36016G23KT 2 1/2SM -FZRA BR OVC010 M07/M09 A3020 RMK AO2 FZRAB1959 CIG 007V014 P0000 I1000 T10671089
ACT,2021-02-14 20:15,,,,350.00,13.00,,30.22,,2.50,18.00,OVC,,,,999.00,,,,-FZRA BR,,,,,,,,KACT 142015Z AUTO 35013G18KT 2 1/2SM -FZRA BR OVC009 M07/M09 A3021 RMK T10701090 MADISHF
ACT,2021-02-14 20:20,,,,350.00,14.00,,30.22,,3.00,,BKN,OVC,,,999.00,1400.00,,,-FZRA BR,,,,,,,,KACT 142020Z AUTO 35014KT 3SM -FZRA BR BKN009 OVC014 M07/M09 A3021 RMK T10701090 CIG 7V12  MADISHF
ACT,2021-02-14 20:23,19.90,16.00,84.55,350.00,14.00,T,30.22,,3.00,,BKN,OVC,,,1000.00,1400.00,,,-FZRA BR,T,,,,,,5.57,KACT 142023Z 35014KT 3SM -FZRA BR BKN010 OVC014 M07/M09 A3022 RMK AO2 FZRAB1959 CIG 007V012 P0000 I1000 T10671089
ACT,2021-02-14 20:25,,,,340.00,14.00,,30.22,,3.00,19.00,OVC,,,,999.00,,,,-FZRA BR,,,,,,,,KACT 142025Z AUTO 34014G19KT 3SM -FZRA BR OVC009 M07/M09 A3021 RMK T10701090 CIG 7V12  MADISHF
ACT,2021-02-14 20:30,,,,340.00,16.00,,30.22,,2.00,,OVC,,,,999.00,,,,-SN BR,,,,,,,,KACT 142030Z AUTO 34016KT 2SM -SN BR OVC009 M07/M09 A3021 RMK T10701090 CIG 7V12  MADISHF
ACT,2021-02-14 20:32,19.90,16.00,84.55,340.00,18.00,T,30.22,,2.00,,OVC,,,,1000.00,,,,-SN BR,T,,,,,,3.82,KACT 142032Z 34018KT 2SM -SN BR OVC010 M07/M09 A3022 RMK AO2 FZRAB1959E26SNB26 CIG 007V012 P0000 I1000 T10671089
ACT,2021-02-14 20:35,,,,350.00,15.00,,30.22,,2.00,,OVC,,,,999.00,,,,-SN BR,,,,,,,,KACT 142035Z AUTO 35015KT 2SM -SN BR OVC009 M07/M09 A3021 RMK T10701090 CIG 8V15  MADISHF
ACT,2021-02-14 20:40,,,,350.00,17.00,,30.22,,2.00,22.00,OVC,,,,999.00,,,,-SN BR,,,,,,,,KACT 142040Z AUTO 35017G22KT 2SM -SN BR OVC009 M07/M09 A3021 RMK T10701090 MADISHF
ACT,2021-02-14 20:45,,,,350.00,18.00,,30.22,,2.50,22.00,OVC,,,,1200.00,,,,-SN,,,,,,,,KACT 142045Z AUTO 35018G22KT 2 1/2SM -SN OVC012 M07/M09 A3021 RMK T10701090 MADISHF
ACT,2021-02-14 20:50,,,,350.00,11.00,,30.22,,2.50,,OVC,,,,1200.00,,,,-SN,,,,,,,,KACT 142050Z AUTO 35011KT 2 1/2SM -SN OVC012 M07/M09 A3021 RMK T10701090 MADISHF
ACT,2021-02-14 20:51,19.90,15.10,81.30,350.00,13.00,T,30.22,1023.70,2.50,24.00,OVC,,,,1200.00,,,,-SN,T,0.02,,,,,6.07,KACT 142051Z 35013G24KT 2 1/2SM -SN OVC012 M07/M09 A3022 RMK AO2 FZRAB1959E26SNB26 SLP237 P0000 60000 I1000 I3002 T10671094 58009
ACT,2021-02-14 20:55,,,,350.00,16.00,T,30.21,,2.50,22.00,OVC,,,,999.00,,,,UP BR,,,,,,,,KACT 142055Z AUTO 35016G22KT 2 1/2SM UP BR OVC009 M07/M09 A3020 RMK P0000 T10701090 CIG 8V14  MADISHF
ACT,2021-02-14 21:00,,,,350.00,16.00,T,30.21,,2.50,,OVC,,,,999.00,,,,UP BR,,,,,,,,KACT 142100Z AUTO 35016KT 2 1/2SM UP BR OVC009 M07/M09 A3020 RMK P0000 T10701090 MADISHF
ACT,2021-02-14 21:05,,,,340.00,15.00,,30.21,,2.00,,OVC,,,,999.00,,,,-SN BR,,,,,,,,KACT 142105Z AUTO 34015KT 2SM -SN BR OVC009 M07/M09 A3020 RMK T10701090 CIG 8V14  MADISHF
ACT,2021-02-14 21:10,,,,360.00,19.00,,30.20,,1.75,24.00,OVC,,,,999.00,,,,-SN BR,,,,,,,,KACT 142110Z AUTO 36019G24KT 2SM -SN BR OVC009 M07/M09 A3020 RMK T10701090 MADISHF
ACT,2021-02-14 21:13,19.00,15.10,84.49,360.00,17.00,T,30.21,,1.75,26.00,BKN,OVC,,,1000.00,1500.00,,,-SN BR,,,,26.00,360.00,2021-02-14 21:10,3.04,KACT 142113Z 36017G26KT 1 3/4SM -SN BR BKN010 OVC015 M07/M09 A3021 RMK AO2 PK WND 36026/2110 UPB2053E01SNE2053B01 CIG 008V013 P0000 T10721094
ACT,2021-02-14 21:15,,,,350.00,16.00,,30.21,,2.00,22.00,BKN,OVC,,,999.00,1500.00,,,-SN BR,,,,,,,,KACT 142115Z AUTO 35016G22KT 2SM -SN BR BKN009 OVC015 M07/M09 A3020 RMK T10701090 CIG 8V12  MADISHF
ACT,2021-02-14 21:20,,,,350.00,13.00,,30.21,,2.00,,OVC,,,,999.00,,,,-SN BR,,,,,,,,KACT 142120Z AUTO 35013KT 2SM -SN BR OVC009 M07/M09 A3020 RMK T10701090 MADISHF
ACT,2021-02-14 21:21,19.00,15.10,84.49,350.00,14.00,T,30.21,,2.00,24.00,OVC,,,,1000.00,,,,-SN BR,,,,26.00,360.00,2021-02-14 21:10,4.41,KACT 142121Z 35014G24KT 2SM -SN BR OVC010 M07/M09 A3021 RMK AO2 PK WND 36026/2110 UPB2053E01SNE2053B01 P0000 T10721094
ACT,2021-02-14 21:25,,,,350.00,15.00,,30.21,,2.00,22.00,OVC,,,,999.00,,,,-SN BR,,,,,,,,KACT 142125Z AUTO 35015G22KT 2SM -SN BR OVC009 M07/M09 A3020 RMK T10701090 MADISHF
ACT,2021-02-14 21:30,,,,350.00,19.00,,30.22,,2.00,23.00,OVC,,,,1100.00,,,,-SN BR,,,,,,,,KACT 142130Z AUTO 35019G23KT 2SM -SN BR OVC011 M07/M09 A3021 RMK T10701090 MADISHF
ACT,2021-02-14 21:35,,,,350.00,14.00,,30.23,,2.00,19.00,OVC,,,,1300.00,,,,-SN BR,,,,,,,,KACT 142135Z AUTO 35014G19KT 2SM -SN BR OVC013 M07/M09 A3022 RMK T10701090 MADISHF
ACT,2021-02-14 21:40,,,,350.00,18.00,,30.23,,2.50,22.00,OVC,,,,1300.00,,,,-SN,,,,,,,,KACT 142140Z AUTO 35018G22KT 2 1/2SM -SN OVC013 M07/M10 A3022 RMK T10701100 MADISHF
ACT,2021-02-14 21:45,,,,350.00,16.00,,30.22,,2.50,22.00,BKN,OVC,,,1300.00,1800.00,,,-SN,,,,,,,,KACT 142145Z AUTO 35016G22KT 2 1/2SM -SN BKN013 OVC018 M07/M10 A3021 RMK T10701100 MADISHF
ACT,2021-02-14 21:50,,,,350.00,19.00,,30.22,,2.00,,OVC,,,,1200.00,,,,-SN,,,,,,,,KACT 142150Z AUTO 35019KT 2SM -SN OVC012 M07/M10 A3021 RMK T10701100 MADISHF
ACT,2021-02-14 21:51,18.00,14.00,84.05,350.00,18.00,T,30.22,1023.80,2.00,26.00,OVC,,,,1200.00,,,,-SN BR,,,,26.00,350.00,2021-02-14 21:47,1.32,KACT 142151Z 35018G26KT 2SM -SN BR OVC012 M08/M10 A3022 RMK AO2 PK WND 35026/2147 UPB2053E01SNE2053B01 SLP238 P0000 T10781100
ACT,2021-02-14 21:55,,,,350.00,17.00,,30.22,,2.50,,OVC,,,,1200.00,,,,-SN BR,,,,,,,,KACT 142155Z AUTO 35017KT 2 1/2SM -SN BR OVC012 M08/M10 A3021 RMK T10801100 MADISHF
ACT,2021-02-14 22:00,,,,350.00,14.00,,30.22,,2.00,,OVC,,,,1200.00,,,,-SN BR,,,,,,,,KACT 142200Z AUTO 35014KT 2SM -SN BR OVC012 M08/M10 A3021 RMK T10801100 MADISHF
ACT,2021-02-14 22:05,,,,360.00,17.00,,30.23,,2.00,22.00,BKN,OVC,,,1300.00,1800.00,,,-SN BR,,,,,,,,KACT 142205Z AUTO 36017G22KT 2SM -SN BR BKN013 OVC018 M08/M10 A3022 RMK T10801100 MADISHF
ACT,2021-02-14 22:10,,,,360.00,16.00,,30.23,,2.50,,BKN,OVC,,,1300.00,1800.00,,,-SN,,,,,,,,KACT 142210Z AUTO 36016KT 2 1/2SM -SN BKN013 OVC018 M08/M11 A3022 RMK T10801110 MADISHF
ACT,2021-02-14 22:15,,,,350.00,16.00,,30.23,,3.00,,OVC,,,,1300.00,,,,-SN BR,,,,,,,,KACT 142215Z AUTO 35016KT 3SM -SN BR OVC013 M08/M10 A3022 RMK T10801100 MADISHF
ACT,2021-02-14 22:20,,,,360.00,16.00,,30.23,,2.00,,OVC,,,,1300.00,,,,-SN BR,,,,,,,,KACT 142220Z AUTO 36016KT 2SM -SN BR OVC013 M08/M10 A3022 RMK T10801100 MADISHF
ACT,2021-02-14 22:25,,,,350.00,14.00,,30.23,,1.50,,OVC,,,,1400.00,,,,-SN BR,,,,,,,,KACT 142225Z AUTO 35014KT 1 1/2SM -SN BR OVC014 M08/M10 A3022 RMK T10801100 MADISHF
ACT,2021-02-14 22:28,18.00,14.00,84.05,360.00,16.00,T,30.23,,1.75,25.00,OVC,,,,1400.00,,,,-SN BR,,,,,,,2.17,KACT 142228Z 36016G25KT 1 3/4SM -SN BR OVC014 M08/M10 A3023 RMK AO2 UPB13E15SNE13B15 P0000 T10781100
ACT,2021-02-14 22:30,,,,360.00,16.00,,30.23,,1.75,24.00,OVC,,,,1400.00,,,,-SN BR,,,,,,,,KACT 142230Z AUTO 36016G24KT 2SM -SN BR OVC014 M08/M10 A3022 RMK T10801100 MADISHF
ACT,2021-02-14 22:35,,,,340.00,15.00,,30.24,,2.00,,OVC,,,,1400.00,,,,-SN,,,,,,,,KACT 142235Z AUTO 34015KT 2SM -SN OVC014 M08/M11 A3023 RMK T10801110 MADISHF
ACT,2021-02-14 22:40,,,,360.00,15.00,,30.24,,2.00,,OVC,,,,1400.00,,,,-SN,,,,,,,,KACT 142240Z AUTO 36015KT 2SM -SN OVC014 M08/M11 A3023 RMK T10801110 MADISHF
ACT,2021-02-14 22:45,,,,350.00,15.00,,30.24,,1.50,,OVC,,,,1400.00,,,,-SN BR,,,,,,,,KACT 142245Z AUTO 35015KT 1 1/2SM -SN BR OVC014 M08/M10 A3023 RMK T10801100 MADISHF
ACT,2021-02-14 22:48,17.60,14.00,85.51,350.00,15.00,T,30.24,,1.25,,OVC,,,,1400.00,,,,-SN BR,,,,,,,2.11,KACT 142248Z 35015KT 1 1/4SM -SN BR OVC014 M08/M10 A3024 RMK AO2 UPB13E15SNE13B15 P0000
ACT,2021-02-14 22:50,,,,340.00,16.00,,30.24,,1.25,,OVC,,,,1400.00,,,,-SN BR,,,,,,,,KACT 142250Z AUTO 34016KT 1 1/2SM -SN BR OVC014 M08/M10 A3023 RMK T10801100 MADISHF
ACT,2021-02-14 22:51,18.00,14.00,84.05,340.00,16.00,T,30.24,1024.60,1.25,23.00,OVC,,,,1400.00,,,,-SN BR,,,,,,,2.17,KACT 142251Z 34016G23KT 1 1/4SM -SN BR OVC014 M08/M10 A3024 RMK AO2 UPB13E15SNE13B15 SLP246 P0000 T10781100
ACT,2021-02-14 22:55,,,,340.00,17.00,,30.25,,1.25,22.00,BKN,OVC,,,1400.00,1800.00,,,-SN,,,,,,,,KACT 142255Z AUTO 34017G22KT 1 1/2SM -SN BKN014 OVC018 M08/M11 A3025 RMK T10801110 MADISHF
ACT,2021-02-14 23:00,,,,350.00,17.00,,30.24,,1.75,22.00,BKN,OVC,,,1300.00,1900.00,,,-SN BR,,,,,,,,KACT 142300Z AUTO 35017G22KT 2SM -SN BR BKN013 OVC019 M08/M11 A3023 RMK T10801110 MADISHF
ACT,2021-02-14 23:05,,,,350.00,16.00,,30.25,,1.25,22.00,OVC,,,,1500.00,,,,-SN,,,,,,,,KACT 142305Z AUTO 35016G22KT 1 1/2SM -SN OVC015 M08/M11 A3025 RMK T10801110 MADISHF
ACT,2021-02-14 23:08,17.10,12.00,80.01,350.00,17.00,T,30.24,,1.25,23.00,OVC,,,,1500.00,,,,-SN,,,,,,,0.56,KACT 142308Z 35017G23KT 1 1/4SM -SN OVC015 M08/M11 A3024 RMK AO2 P0000 T10831111
ACT,2021-02-14 23:10,,,,350.00,19.00,,30.24,,1.00,,BKN,OVC,,,1300.00,1800.00,,,-SN,,,,,,,,KACT 142310Z AUTO 35019KT 1SM -SN BKN013 OVC018 M08/M11 A3023 RMK T10801110 MADISHF
ACT,2021-02-14 23:15,,,,350.00,16.00,,30.24,,1.25,21.00,FEW,OVC,,,1100.00,1800.00,,,-SN,,,,,,,,KACT 142315Z AUTO 35016G21KT 1 1/2SM -SN FEW011 OVC018 M08/M11 A3023 RMK T10801110 MADISHF
ACT,2021-02-14 23:20,,,,350.00,13.00,0.01,30.25,,1.25,,BKN,OVC,,,1500.00,2100.00,,,-SN,,,,,,,,KACT 142320Z AUTO 35013KT 1 1/2SM -SN BKN015 OVC021 M08/M11 A3025 RMK P0000 T10801110 MADISHF
ACT,2021-02-14 23:24,17.10,12.00,80.01,350.00,11.00,0.01,30.26,,0.75,22.00,BKN,OVC,,,1200.00,1800.00,,,-SN,,,,,,,3.64,KACT 142324Z 35011G22KT 3/4SM -SN BKN012 OVC018 M08/M11 A3026 RMK AO2 P0001 T10831111
ACT,2021-02-14 23:25,,,,350.00,10.00,0.01,30.27,,0.75,,BKN,OVC,,,1200.00,1800.00,,,-SN BR,,,,,,,,KACT 142325Z AUTO 35010KT 1SM -SN BR BKN012 OVC018 M08/M11 A3027 RMK P0000 T10801110 MADISHF
ACT,2021-02-14 23:30,,,,350.00,14.00,0.01,30.26,,0.50,,BKN,OVC,,,999.00,1600.00,,,SN FZFG,,,,,,,,KACT 142330Z AUTO 35014KT 1/2SM SN FZFG BKN009 OVC016 M08/M11 A3026 RMK P0000 T10801110 MADISHF
ACT,2021-02-14 23:35,,,,360.00,16.00,0.01,30.26,,0.50,22.00,BKN,OVC,,,999.00,1800.00,,,SN,,,,,,,,KACT 142335Z AUTO 36016G22KT 1/2SM SN BKN009 OVC018 M08/M11 A3026 RMK P0000 T10801110 MADISHF
ACT,2021-02-14 23:40,,,,350.00,15.00,0.02,30.26,,0.50,,VV ,,,,1100.00,,,,SN,,,,,,,,KACT 142340Z AUTO 35015KT 1/2SM SN VV011 M08/M11 A3026 RMK P0001 T10801110 MADISHF
ACT,2021-02-14 23:45,,,,350.00,13.00,0.03,30.26,,0.50,,VV ,,,,999.00,,,,SN,,,,,,,,KACT 142345Z AUTO 35013KT 1/2SM SN VV009 M08/M11 A3026 RMK P0002 T10801110 MADISHF
ACT,2021-02-14 23:49,17.60,12.20,79.00,350.00,12.00,0.03,30.26,,0.25,,VV ,,,,900.00,,,,SN FZFG,,,,,,,3.67,KACT 142349Z 35012KT 1/4SM SN FZFG VV009 M08/M11 A3026 RMK AO2 P0003
ACT,2021-02-14 23:50,,,,350.00,14.00,0.03,30.27,,0.25,19.00,VV ,,,,900.00,,,,SN FZFG,,,,,,,,KACT 142350Z AUTO 35014G19KT 1/4SM SN FZFG VV009 M08/M11 A3027 RMK P0002 T10801110 MADISHF
ACT,2021-02-14 23:51,17.10,12.90,83.25,350.00,15.00,0.03,30.27,1025.40,0.25,22.00,VV ,,,,900.00,,,,SN FZFG,,,0.02,,,,1.46,KACT 142351Z 35015G22KT 1/4SM SN FZFG VV009 M08/M11 A3027 RMK AO2 SLP254 P0003 60003 I6002 T10831106 11061 21083 51017
ACT,2021-02-14 23:55,,,,350.00,16.00,,30.27,,0.25,,VV ,,,,900.00,,,,SN FZFG,,,,,,,,KACT 142355Z AUTO 35016KT 1/4SM SN FZFG VV009 M08/M11 A3027 RMK T10801110 MADISHF
ACT,2021-02-15 00:00,,,,350.00,15.00,0.01,30.27,,0.50,,VV ,,,,1200.00,,,,-SN FZFG,,,,,,,,KACT 150000Z AUTO 35015KT 1/2SM -SN FZFG VV012 M09/M11 A3027 RMK P0000 T10901110 MADISHF
ACT,2021-02-15 00:05,,,,340.00,14.00,0.01,30.27,,0.50,19.00,VV ,,,,1300.00,,,,SN FZFG,,,,,,,,KACT 150005Z AUTO 34014G19KT 1/2SM SN FZFG VV013 M09/M11 A3027 RMK P0000 T10901110 MADISHF
ACT,2021-02-15 00:10,,,,350.00,13.00,0.01,30.27,,0.50,,VV ,,,,1100.00,,,,SN FZFG,,,,,,,,KACT 150010Z AUTO 35013KT 1/2SM SN FZFG VV011 M09/M11 A3027 RMK P0000 T10901110 MADISHF
ACT,2021-02-15 00:15,,,,340.00,11.00,0.01,30.27,,0.75,,VV ,,,,1100.00,,,,-SN BR,,,,,,,,KACT 150015Z AUTO 34011KT 1SM -SN BR VV011 M09/M11 A3027 RMK P0000 T10901110 MADISHF
ACT,2021-02-15 00:20,,,,330.00,14.00,0.02,30.28,,0.75,22.00,VV ,,,,1100.00,,,,-SN BR,,,,,,,,KACT 150020Z AUTO 33014G22KT 1SM -SN BR VV011 M09/M11 A3028 RMK P0001 T10901110 MADISHF
ACT,2021-02-15 00:25,,,,340.00,15.00,0.02,30.28,,0.50,,VV ,,,,1100.00,,,,SN,,,,,,,,KACT 150025Z AUTO 34015KT 1/2SM SN VV011 M09/M12 A3028 RMK P0001 T10901120 MADISHF
ACT,2021-02-15 00:30,,,,340.00,17.00,0.02,30.28,,0.75,22.00,VV ,,,,1100.00,,,,-SN BR,,,,,,,,KACT 150030Z AUTO 34017G22KT 1SM -SN BR VV011 M09/M12 A3028 RMK P0001 T10901120 MADISHF
ACT,2021-02-15 00:35,,,,340.00,15.00,0.03,30.29,,0.75,,VV ,,,,1100.00,,,,-SN BR,,,,,,,,KACT 150035Z AUTO 34015KT 1SM -SN BR VV011 M09/M12 A3029 RMK P0002 T10901120 MADISHF
ACT,2021-02-15 00:40,,,,340.00,16.00,0.03,30.30,,0.75,,VV ,,,,1200.00,,,,-SN BR,,,,,,,,KACT 150040Z AUTO 34016KT 1SM -SN BR VV012 M09/M12 A3029 RMK P0002 T10901120 MADISHF
ACT,2021-02-15 00:45,,,,330.00,18.00,0.03,30.30,,0.75,24.00,VV ,,,,1100.00,,,,-SN BR,,,,,,,,KACT 150045Z AUTO 33018G24KT 1SM -SN BR VV011 M09/M12 A3029 RMK P0002 T10901120 MADISHF
ACT,2021-02-15 00:50,,,,340.00,18.00,0.04,30.30,,0.50,22.00,VV ,,,,999.00,,,,SN,,,,,,,,KACT 150050Z AUTO 34018G22KT 1/2SM SN VV009 M09/M12 A3029 RMK P0003 T10901120 MADISHF
ACT,2021-02-15 00:51,15.10,10.00,79.84,340.00,18.00,0.04,30.30,1026.70,0.50,25.00,VV ,,,,1000.00,,,,SN,,,,27.00,340.00,2021-02-15 00:27,-2.50,KACT 150051Z 34018G25KT 1/2SM SN VV010 M09/M12 A3030 RMK AO2 PK WND 34027/0027 SLP267 P0004 T10941122
ACT,2021-02-15 00:55,,,,350.00,19.00,,30.29,,0.50,24.00,VV ,,,,999.00,,,,SN FZFG,,,,,,,,KACT 150055Z AUTO 35019G24KT 1/2SM SN FZFG VV009 M10/M12 A3029 RMK T11001120 MADISHF
ACT,2021-02-15 01:00,,,,350.00,14.00,0.01,30.29,,0.50,,VV ,,,,999.00,,,,SN FZFG,,,,,,,,KACT 150100Z AUTO 35014KT 1/2SM SN FZFG VV009 M10/M12 A3029 RMK P0000 T11001120 MADISHF
ACT,2021-02-15 01:05,,,,340.00,14.00,0.01,30.30,,0.75,19.00,VV ,,,,999.00,,,,-SN BR,,,,,,,,KACT 150105Z AUTO 34014G19KT 1SM -SN BR VV009 M10/M12 A3029 RMK P0000 T11001120 MADISHF
ACT,2021-02-15 01:10,,,,330.00,11.00,0.01,30.31,,0.75,,VV ,,,,900.00,,,,-SN,,,,,,,,KACT 150110Z AUTO 33011KT 1SM -SN VV009 M09/M12 A3030 RMK P0000 T10901120 MADISHF
ACT,2021-02-15 01:15,,,,330.00,18.00,0.02,30.30,,0.75,22.00,VV ,,,,900.00,,,,-SN BR,,,,,,,,KACT 150115Z AUTO 33018G22KT 1SM -SN BR VV009 M09/M12 A3029 RMK P0001 T10901120 MADISHF
ACT,2021-02-15 01:20,,,,340.00,20.00,0.02,30.29,,0.75,24.00,BKN,OVC,,,999.00,7000.00,,,-SN,,,,,,,,KACT 150120Z AUTO 34020G24KT 1SM -SN BKN009 OVC070 M10/M13 A3029 RMK P0001 T11001130 MADISHF
ACT,2021-02-15 01:21,14.00,9.00,80.10,350.00,20.00,0.02,30.29,,1.00,28.00,BKN,OVC,,,1000.00,7000.00,,,-SN,,,,28.00,350.00,2021-02-15 01:21,-4.77,KACT 150121Z 35020G28KT 1SM -SN BKN010 OVC070 M10/M13 A3029 RMK AO2 PK WND 35028/0121 P0002 T11001128
ACT,2021-02-15 01:25,,,,340.00,21.00,0.02,30.30,,1.50,,BKN,OVC,,,999.00,7000.00,,,-SN,,,,,,,,KACT 150125Z AUTO 34021KT 1 1/2SM -SN BKN009 OVC070 M10/M13 A3029 RMK P0001 T11001130 MADISHF
ACT,2021-02-15 01:30,,,,340.00,18.00,0.02,30.30,,2.00,23.00,SCT,OVC,,,999.00,7000.00,,,-SN,,,,,,,,KACT 150130Z AUTO 34018G23KT 2SM -SN SCT009 OVC070 M10/M13 A3029 RMK P0001 T11001130 MADISHF
ACT,2021-02-15 01:35,,,,350.00,19.00,0.02,30.29,,3.00,24.00,SCT,OVC,,,999.00,7000.00,,,-SN,,,,,,,,KACT 150135Z AUTO 35019G24KT 3SM -SN SCT009 OVC070 M10/M13 A3029 RMK P0001 T11001130 MADISHF
ACT,2021-02-15 01:40,,,,350.00,18.00,0.02,30.30,,5.00,22.00,FEW,OVC,,,999.00,6500.00,,,-SN,,,,,,,,KACT 150140Z AUTO 35018G22KT 5SM -SN FEW009 OVC065 M10/M13 A3029 RMK P0001 T11001130 MADISHF
ACT,2021-02-15 01:41,14.00,8.10,76.92,350.00,19.00,0.02,30.30,,5.00,27.00,FEW,OVC,,,1000.00,6500.00,,,-SN,,,,28.00,350.00,2021-02-15 01:21,-4.37,KACT 150141Z 35019G27KT 5SM -SN FEW010 OVC065 M10/M13 A3030 RMK AO2 PK WND 35028/0121 P0002 T11001133
ACT,2021-02-15 01:45,,,,350.00,15.00,0.02,30.29,,7.00,21.00,OVC,,,,6500.00,,,,-SN,,,,,,,,KACT 150145Z AUTO 35015G21KT 7SM -SN OVC065 M10/M13 A3029 RMK P0001 T11001130 MADISHF
ACT,2021-02-15 01:50,,,,350.00,15.00,0.02,30.29,,6.00,,OVC,,,,6500.00,,,,-SN,,,,,,,,KACT 150150Z AUTO 35015KT 6SM -SN OVC065 M10/M13 A3029 RMK P0001 T11001130 MADISHF
ACT,2021-02-15 01:51,14.00,8.10,76.92,340.00,14.00,0.02,30.30,1026.60,6.00,29.00,FEW,OVC,,,1600.00,6500.00,,,-SN,,,,29.00,360.00,2021-02-15 01:42,-2.04,KACT 150151Z 34014G29KT 6SM -SN FEW016 OVC065 M10/M13 A3030 RMK AO2 PK WND 36029/0142 UPB46E48SNE46B48 SLP266 P0002 T11001133
ACT,2021-02-15 01:55,,,,340.00,18.00,,30.30,,5.00,24.00,FEW,OVC,,,1600.00,6500.00,,,-SN,,,,,,,,KACT 150155Z AUTO 34018G24KT 5SM -SN FEW016 OVC065 M10/M13 A3029 RMK T11001130 MADISHF
ACT,2021-02-15 02:00,,,,350.00,18.00,,30.30,,6.00,,FEW,OVC,,,1600.00,6500.00,,,-SN,,,,,,,,KACT 150200Z AUTO 35018KT 6SM -SN FEW016 OVC065 M11/M13 A3029 RMK T11101130 MADISHF
ACT,2021-02-15 02:05,,,,350.00,19.00,,30.28,,9.00,26.00,FEW,SCT,OVC,,1600.00,5000.00,6500.00,,,,,,,,,,KACT 150205Z AUTO 35019G26KT 9SM FEW016 SCT050 OVC065 M11/M14 A3028 RMK T11101140 MADISHF
ACT,2021-02-15 02:10,,,,350.00,17.00,,30.29,,9.00,,FEW,BKN,OVC,,1600.00,4500.00,6500.00,,,,,,,,,,KACT 150210Z AUTO 35017KT 9SM FEW016 BKN045 OVC065 M11/M14 A3029 RMK T11101140 MADISHF
ACT,2021-02-15 02:15,,,,350.00,17.00,,30.29,,10.00,,FEW,BKN,OVC,,1500.00,3999.00,7000.00,,,,,,,,,,KACT 150215Z AUTO 35017KT 10SM FEW015 BKN039 OVC070 M11/M14 A3029 RMK T11101140 MADISHF
ACT,2021-02-15 02:20,,,,350.00,17.00,,30.30,,9.00,22.00,FEW,OVC,,,1500.00,3600.00,,,,,,,,,,,KACT 150220Z AUTO 35017G22KT 9SM FEW015 OVC036 M11/M14 A3029 RMK T11101140 MADISHF
ACT,2021-02-15 02:25,,,,350.00,16.00,,30.30,,5.00,21.00,OVC,,,,3200.00,,,,-SN,,,,,,,,KACT 150225Z AUTO 35016G21KT 5SM -SN OVC032 M11/M14 A3029 RMK T11101140 MADISHF
ACT,2021-02-15 02:30,,,,350.00,17.00,,30.31,,3.50,24.00,FEW,OVC,,,1800.00,3200.00,,,-SN,,,,,,,,KACT 150230Z AUTO 35017G24KT 3SM -SN FEW018 OVC032 M11/M14 A3030 RMK T11101140 MADISHF
ACT,2021-02-15 02:35,,,,340.00,15.00,,30.31,,3.00,,SCT,OVC,,,1800.00,2800.00,,,-SN,,,,,,,,KACT 150235Z AUTO 34015KT 3SM -SN SCT018 OVC028 M11/M14 A3030 RMK T11101140 MADISHF
ACT,2021-02-15 02:40,,,,340.00,18.00,,30.31,,3.50,24.00,SCT,BKN,OVC,,1900.00,2600.00,6500.00,,-SN,,,,,,,,KACT 150240Z AUTO 34018G24KT 3SM -SN SCT019 BKN026 OVC065 M11/M14 A3030 RMK T11101140 MADISHF
ACT,2021-02-15 02:41,12.90,7.00,76.82,340.00,20.00,T,30.31,,4.00,26.00,SCT,BKN,OVC,,1900.00,2600.00,6500.00,,-SN,,,,29.00,350.00,2021-02-15 01:58,-6.23,KACT 150241Z 34020G26KT 4SM -SN SCT019 BKN026 OVC065 M11/M14 A3031 RMK AO2 PK WND 35029/0158 SNE05B21 P0000 T11061139
ACT,2021-02-15 02:45,,,,350.00,19.00,,30.30,,5.00,,SCT,BKN,OVC,,1999.00,2600.00,6500.00,,-SN,,,,,,,,KACT 150245Z AUTO 35019KT 5SM -SN SCT019 BKN026 OVC065 M11/M14 A3029 RMK T11101140 MADISHF
ACT,2021-02-15 02:50,,,,350.00,15.00,,30.31,,8.00,,SCT,BKN,OVC,,1999.00,2600.00,6000.00,,-SN,,,,,,,,KACT 150250Z AUTO 35015KT 8SM -SN SCT019 BKN026 OVC060 M11/M14 A3030 RMK T11101140 MADISHF
ACT,2021-02-15 02:51,12.90,6.10,73.74,350.00,15.00,T,30.31,1026.90,9.00,26.00,SCT,BKN,OVC,,2000.00,2600.00,6000.00,,-SN,,,,29.00,350.00,2021-02-15 01:58,-3.98,KACT 150251Z 35015G26KT 9SM -SN SCT020 BKN026 OVC060 M11/M14 A3031 RMK AO2 PK WND 35029/0158 SNE05B21 SLP269 P0000 60006 T11061144 51013
ACT,2021-02-15 02:55,,,,350.00,20.00,T,30.29,,9.00,,SCT,BKN,OVC,,1999.00,4100.00,6000.00,,UP,,,,,,,,KACT 150255Z AUTO 35020KT 9SM UP SCT019 BKN041 OVC060 M11/M14 A3029 RMK P0000 T11101140 MADISHF
ACT,2021-02-15 02:58,12.90,6.10,73.74,350.00,15.00,T,30.29,,9.00,27.00,SCT,OVC,,,2000.00,6000.00,,,UP,,,,27.00,340.00,2021-02-15 02:54,-3.98,KACT 150258Z 35015G27KT 9SM UP SCT020 OVC060 M11/M14 A3029 RMK AO2 PK WND 34027/0254 UPB54SNE54 P0000 T11061144
ACT,2021-02-15 03:00,,,,350.00,15.00,T,30.30,,10.00,21.00,SCT,OVC,,,1999.00,6000.00,,,UP,,,,,,,,KACT 150300Z AUTO 35015G21KT 10SM UP SCT019 OVC060 M11/M14 A3029 RMK P0000 T11101140 MADISHF
ACT,2021-02-15 03:05,,,,350.00,20.00,T,30.30,,10.00,26.00,FEW,OVC,,,1999.00,6000.00,,,UP,,,,,,,,KACT 150305Z AUTO 35020G26KT 10SM UP FEW019 OVC060 M11/M14 A3029 RMK P0000 T11101140 MADISHF
ACT,2021-02-15 03:10,,,,350.00,19.00,T,30.30,,10.00,,FEW,OVC,,,1999.00,6500.00,,,UP,,,,,,,,KACT 150310Z AUTO 35019KT 10SM UP FEW019 OVC065 M11/M14 A3029 RMK P0000 T11101140 MADISHF
ACT,2021-02-15 03:15,,,,350.00,16.00,T,30.30,,10.00,21.00,FEW,OVC,,,1999.00,6500.00,,,UP,,,,,,,,KACT 150315Z AUTO 35016G21KT 10SM UP FEW019 OVC065 M11/M14 A3029 RMK P0000 T11101140 MADISHF
ACT,2021-02-15 03:20,,,,350.00,17.00,T,30.29,,10.00,22.00,FEW,OVC,,,2200.00,6500.00,,,UP,,,,,,,,KACT 150320Z AUTO 35017G22KT 10SM UP FEW022 OVC065 M11/M14 A3029 RMK P0000 T11101140 MADISHF
ACT,2021-02-15 03:25,,,,350.00,13.00,T,30.30,,10.00,,FEW,OVC,,,2200.00,6500.00,,,UP,,,,,,,,KACT 150325Z AUTO 35013KT 10SM UP FEW022 OVC065 M11/M14 A3029 RMK P0000 T11101140 MADISHF
ACT,2021-02-15 03:30,,,,350.00,13.00,T,30.31,,10.00,,SCT,OVC,,,2200.00,6500.00,,,UP,,,,,,,,KACT 150330Z AUTO 35013KT 10SM UP SCT022 OVC065 M11/M14 A3030 RMK P0000 T11101140 MADISHF
ACT,2021-02-15 03:35,,,,350.00,15.00,T,30.31,,10.00,,BKN,OVC,,,2200.00,6500.00,,,UP,,,,,,,,KACT 150335Z AUTO 35015KT 10SM UP BKN022 OVC065 M11/M14 A3030 RMK P0000 T11101140 MADISHF
ACT,2021-02-15 03:39,12.90,7.00,76.82,360.00,11.00,T,30.31,,10.00,19.00,FEW,BKN,OVC,,1700.00,2200.00,6500.00,,UP,,,,27.00,340.00,2021-02-15 02:54,-1.67,KACT 150339Z 36011G19KT 10SM UP FEW017 BKN022 OVC065 M11/M14 A3031 RMK AO2 PK WND 34027/0254 UPB0254SNE0254 P0000 T11061139
ACT,2021-02-15 03:40,,,,350.00,13.00,,30.31,,10.00,19.00,FEW,BKN,OVC,,1699.00,2200.00,6500.00,,,,,,,,,,KACT 150340Z AUTO 35013G19KT 10SM FEW016 BKN022 OVC065 M11/M14 A3030 RMK T11101140 MADISHF
ACT,2021-02-15 03:45,,,,350.00,18.00,T,30.31,,10.00,,FEW,SCT,OVC,,1800.00,2200.00,6000.00,,UP,,,,,,,,KACT 150345Z AUTO 35018KT 10SM UP FEW018 SCT022 OVC060 M11/M14 A3030 RMK P0000 T11101140 MADISHF
ACT,2021-02-15 03:50,,,,340.00,16.00,T,30.31,,10.00,,FEW,SCT,OVC,,1699.00,2200.00,6000.00,,UP,,,,,,,,KACT 150350Z AUTO 34016KT 10SM UP FEW016 SCT022 OVC060 M11/M14 A3030 RMK P0000 T11101140 MADISHF
ACT,2021-02-15 03:51,12.90,6.10,73.74,340.00,16.00,T,30.31,1027.00,10.00,24.00,FEW,SCT,OVC,,1700.00,2200.00,6000.00,,UP,,,,27.00,340.00,2021-02-15 02:54,-4.48,KACT 150351Z 34016G24KT 10SM UP FEW017 SCT022 OVC060 M11/M14 A3031 RMK AO2 PK WND 34027/0254 UPB0254SNE0254 SLP270 P0000 T11061144
ACT,2021-02-15 03:55,,,,350.00,18.00,T,30.30,,10.00,22.00,FEW,SCT,OVC,,1699.00,2200.00,6000.00,,UP,,,,,,,,KACT 150355Z AUTO 35018G22KT 10SM UP FEW016 SCT022 OVC060 M11/M14 A3029 RMK P0000 T11101140 MADISHF
ACT,2021-02-15 04:00,,,,350.00,16.00,T,30.29,,10.00,21.00,FEW,FEW,OVC,,1699.00,2200.00,6000.00,,UP,,,,,,,,KACT 150400Z AUTO 35016G21KT 10SM UP FEW016 FEW022 OVC060 M11/M14 A3029 RMK P0000 T11101140 MADISHF
ACT,2021-02-15 04:05,,,,350.00,16.00,T,30.30,,10.00,21.00,FEW,OVC,,,1800.00,6000.00,,,UP,,,,,,,,KACT 150405Z AUTO 35016G21KT 10SM UP FEW018 OVC060 M11/M14 A3029 RMK P0000 T11101140 MADISHF
ACT,2021-02-15 04:10,,,,350.00,13.00,T,30.30,,10.00,18.00,OVC,,,,6000.00,,,,UP,,,,,,,,KACT 150410Z AUTO 35013G18KT 10SM UP OVC060 M11/M14 A3029 RMK P0000 T11101140 MADISHF
ACT,2021-02-15 04:15,,,,350.00,19.00,T,30.30,,10.00,23.00,FEW,OVC,,,1900.00,6000.00,,,UP,,,,,,,,KACT 150415Z AUTO 35019G23KT 10SM UP FEW019 OVC060 M11/M14 A3029 RMK P0000 T11101140 MADISHF
ACT,2021-02-15 04:20,,,,350.00,17.00,,30.31,,10.00,,FEW,OVC,,,2200.00,6000.00,,,,,,,,,,,KACT 150420Z AUTO 35017KT 10SM FEW022 OVC060 M11/M14 A3030 RMK T11101140 MADISHF
ACT,2021-02-15 04:25,,,,340.00,15.00,,30.32,,10.00,,FEW,OVC,,,2200.00,6500.00,,,,,,,,,,,KACT 150425Z AUTO 34015KT 10SM FEW022 OVC065 M11/M14 A3031 RMK T11101140 MADISHF
ACT,2021-02-15 04:30,,,,340.00,17.00,,30.32,,10.00,,FEW,OVC,,,2200.00,6500.00,,,,,,,,,,,KACT 150430Z AUTO 34017KT 10SM FEW022 OVC065 M11/M14 A3031 RMK T11101140 MADISHF
ACT,2021-02-15 04:35,,,,340.00,19.00,,30.31,,10.00,,FEW,OVC,,,2200.00,6500.00,,,,,,,,,,,KACT 150435Z AUTO 34019KT 10SM FEW022 OVC065 M11/M14 A3030 RMK T11101140 MADISHF
ACT,2021-02-15 04:40,,,,340.00,16.00,,30.31,,10.00,,FEW,OVC,,,2200.00,6500.00,,,,,,,,,,,KACT 150440Z AUTO 34016KT 10SM FEW022 OVC065 M11/M14 A3030 RMK T11101140 MADISHF
ACT,2021-02-15 04:45,,,,350.00,15.00,,30.30,,10.00,,FEW,OVC,,,2200.00,6500.00,,,,,,,,,,,KACT 150445Z AUTO 35015KT 10SM FEW022 OVC065 M11/M14 A3029 RMK T11101140 MADISHF
ACT,2021-02-15 04:50,,,,340.00,21.00,,30.31,,10.00,28.00,FEW,OVC,,,2200.00,6500.00,,,,,,,,,,,KACT 150450Z AUTO 34021G28KT 10SM FEW022 OVC065 M11/M14 A3030 RMK T11101140 MADISHF
ACT,2021-02-15 04:51,12.90,5.00,70.13,340.00,21.00,T,30.31,1027.00,10.00,29.00,FEW,OVC,,,2200.00,6500.00,,,,,,,29.00,360.00,2021-02-15 04:50,-6.62,KACT 150451Z 34021G29KT 10SM FEW022 OVC065 M11/M15 A3031 RMK AO2 PK WND 36029/0450 UPE16 SLP270 P0000 T11061150
ACT,2021-02-15 04:55,,,,340.00,20.00,,30.32,,10.00,24.00,FEW,OVC,,,2200.00,6500.00,,,,,,,,,,,KACT 150455Z AUTO 34020G24KT 10SM FEW022 OVC065 M11/M15 A3031 RMK T11101150 MADISHF
ACT,2021-02-15 05:00,,,,350.00,18.00,,30.31,,10.00,26.00,FEW,OVC,,,2300.00,6000.00,,,,,,,,,,,KACT 150500Z AUTO 35018G26KT 10SM FEW023 OVC060 M11/M15 A3030 RMK T11101150 MADISHF
ACT,2021-02-15 05:05,,,,340.00,20.00,,30.31,,10.00,24.00,FEW,OVC,,,2100.00,6500.00,,,,,,,,,,,KACT 150505Z AUTO 34020G24KT 10SM FEW021 OVC065 M11/M14 A3030 RMK T11101140 MADISHF
ACT,2021-02-15 05:10,,,,350.00,17.00,,30.31,,10.00,,OVC,,,,6500.00,,,,,,,,,,,,KACT 150510Z AUTO 35017KT 10SM OVC065 M11/M14 A3030 RMK T11101140 MADISHF
ACT,2021-02-15 05:15,,,,350.00,16.00,,30.31,,10.00,22.00,OVC,,,,6000.00,,,,,,,,,,,,KACT 150515Z AUTO 35016G22KT 10SM OVC060 M11/M14 A3030 RMK T11101140 MADISHF
ACT,2021-02-15 05:20,,,,350.00,23.00,T,30.30,,10.00,32.00,OVC,,,,6500.00,,,,UP,,,,,,,,KACT 150520Z AUTO 35023G32KT 10SM UP OVC065 M11/M14 A3029 RMK P0000 T11101140 MADISHF
ACT,2021-02-15 05:25,,,,340.00,18.00,,30.30,,10.00,22.00,BKN,OVC,,,7000.00,7999.00,,,,,,,,,,,KACT 150525Z AUTO 34018G22KT 10SM BKN070 OVC079 M11/M14 A3029 RMK T11101140 MADISHF
ACT,2021-02-15 05:30,,,,340.00,13.00,,30.32,,9.00,,FEW,BKN,OVC,,3900.00,6500.00,7999.00,,,,,,,,,,KACT 150530Z AUTO 34013KT 9SM FEW039 BKN065 OVC079 M11/M14 A3031 RMK T11101140 MADISHF
ACT,2021-02-15 05:35,,,,350.00,18.00,T,30.32,,9.00,23.00,SCT,BKN,OVC,,3900.00,6500.00,7999.00,,UP,,,,,,,,KACT 150535Z AUTO 35018G23KT 9SM UP SCT039 BKN065 OVC079 M11/M14 A3031 RMK P0000 T11101140 MADISHF
ACT,2021-02-15 05:40,,,,340.00,18.00,,30.34,,5.00,23.00,FEW,BKN,OVC,,1900.00,3900.00,7999.00,,-SN,,,,,,,,KACT 150540Z AUTO 34018G23KT 5SM -SN FEW019 BKN039 OVC079 M11/M14 A3034 RMK T11101140 MADISHF
ACT,2021-02-15 05:45,,,,340.00,18.00,,30.33,,2.50,23.00,FEW,BKN,OVC,,1900.00,3399.00,7999.00,,-SN,,,,,,,,KACT 150545Z AUTO 34018G23KT 2 1/2SM -SN FEW019 BKN033 OVC079 M11/M14 A3032 RMK T11101140 MADISHF
ACT,2021-02-15 05:49,12.20,6.80,78.51,340.00,24.00,T,30.33,,1.75,33.00,FEW,BKN,OVC,,1900.00,3200.00,7500.00,,-SN,,,,33.00,340.00,2021-02-15 05:48,-8.65,KACT 150549Z AUTO 34024G33KT 1 3/4SM -SN FEW019 BKN032 OVC075 M11/M14 A3033 RMK AO2 PK WND 34033/0548 UPB17E36SNB36 P0000
ACT,2021-02-15 05:50,,,,340.00,20.00,,30.34,,1.75,,BKN,BKN,OVC,,3200.00,3999.00,7500.00,,-SN,,,,,,,,KACT 150550Z AUTO 34020KT 2SM -SN BKN032 BKN039 OVC075 M11/M14 A3034 RMK T11101140 MADISHF
ACT,2021-02-15 05:55,,,,340.00,15.00,,30.33,,1.75,,BKN,OVC,,,3000.00,3999.00,,,-SN,,,,,,,,KACT 150555Z AUTO 34015KT 2SM -SN BKN030 OVC039 M11/M15 A3032 RMK T11101150 MADISHF
ACT,2021-02-15 06:00,,,,340.00,21.00,,30.33,,1.50,26.00,OVC,,,,3000.00,,,,-SN,,,,,,,,KACT 150600Z AUTO 34021G26KT 1 1/2SM -SN OVC030 M11/M14 A3032 RMK T11101140 MADISHF
ACT,2021-02-15 06:05,,,,340.00,18.00,,30.32,,1.75,,OVC,,,,3000.00,,,,-SN,,,,,,,,KACT 150605Z AUTO 34018KT 2SM -SN OVC030 M11/M15 A3031 RMK T11101150 MADISHF
ACT,2021-02-15 06:10,,,,350.00,15.00,,30.33,,1.75,,OVC,,,,3000.00,,,,-SN,,,,,,,,KACT 150610Z AUTO 35015KT 2SM -SN OVC030 M11/M14 A3032 RMK T11101140 MADISHF
ACT,2021-02-15 06:15,,,,340.00,14.00,,30.32,,1.75,,OVC,,,,3000.00,,,,-SN,,,,,,,,KACT 150615Z AUTO 34014KT 2SM -SN OVC030 M11/M14 A3031 RMK T11101140 MADISHF
ACT,2021-02-15 06:20,,,,340.00,17.00,,30.32,,1.75,,OVC,,,,3000.00,,,,-SN,,,,,,,,KACT 150620Z AUTO 34017KT 2SM -SN OVC030 M11/M14 A3031 RMK T11101140 MADISHF
ACT,2021-02-15 06:25,,,,350.00,17.00,,30.32,,2.00,,OVC,,,,3000.00,,,,-SN,,,,,,,,KACT 150625Z AUTO 35017KT 2SM -SN OVC030 M12/M15 A3031 RMK T11201150  LTG DSNT E! MADISHF
ACT,2021-02-15 06:30,,,,350.00,15.00,,30.32,,1.75,,OVC,,,,3000.00,,,,-SN,,,,,,,,KACT 150630Z AUTO 35015KT 2SM -SN OVC030 M12/M15 A3031 RMK T11201150  LTG DSNT E! MADISHF
ACT,2021-02-15 06:35,,,,340.00,16.00,,30.32,,1.75,22.00,OVC,,,,2800.00,,,,-SN,,,,,,,,KACT 150635Z AUTO 34016G22KT 2SM -SN OVC028 M12/M15 A3031 RMK T11201150  LTG DSNT E! MADISHF
ACT,2021-02-15 06:40,,,,340.00,18.00,,30.32,,1.50,23.00,OVC,,,,2400.00,,,,-SN,,,,,,,,KACT 150640Z AUTO 34018G23KT 1 1/2SM -SN OVC024 M12/M15 A3031 RMK T11201150 MADISHF
ACT,2021-02-15 06:45,,,,350.00,17.00,,30.32,,1.00,,OVC,,,,2200.00,,,,-SN,,,,,,,,KACT 150645Z AUTO 35017KT 1SM -SN OVC022 M12/M15 A3031 RMK T11201150 MADISHF
ACT,2021-02-15 06:50,,,,340.00,16.00,0.01,30.32,,1.00,21.00,VV ,,,,1800.00,,,,-SN,,,,,,,,KACT 150650Z AUTO 34016G21KT 1SM -SN VV018 M12/M14 A3031 RMK P0000 T11201140 MADISHF
ACT,2021-02-15 06:51,10.90,6.10,80.57,340.00,16.00,0.01,30.33,1027.60,0.75,,VV ,,,,1800.00,,,,-SN,,,,27.00,340.00,2021-02-15 06:03,-7.08,KACT 150651Z AUTO 34016KT 3/4SM -SN VV018 M12/M14 A3033 RMK AO2 PK WND 34027/0603 SLP276 P0001 T11171144
ACT,2021-02-15 06:55,,,,340.00,14.00,,30.33,,0.75,,VV ,,,,1600.00,,,,-SN,,,,,,,,KACT 150655Z AUTO 34014KT 1SM -SN VV016 M12/M14 A3032 RMK T11201140 MADISHF
ACT,2021-02-15 07:00,,,,340.00,15.00,,30.33,,0.75,22.00,VV ,,,,1400.00,,,,-SN,,,,,,,,KACT 150700Z AUTO 34015G22KT 1SM -SN VV014 M12/M14 A3032 RMK T11201140 MADISHF
ACT,2021-02-15 07:05,,,,340.00,17.00,,30.33,,0.75,22.00,VV ,,,,1200.00,,,,-SN,,,,,,,,KACT 150705Z AUTO 34017G22KT 1SM -SN VV012 M12/M14 A3032 RMK T11201140 MADISHF
ACT,2021-02-15 07:10,,,,340.00,14.00,0.01,30.33,,0.75,,VV ,,,,1300.00,,,,-SN,,,,,,,,KACT 150710Z AUTO 34014KT 1SM -SN VV013 M12/M14 A3032 RMK P0000 T11201140 MADISHF
ACT,2021-02-15 07:15,,,,330.00,15.00,0.01,30.34,,0.75,22.00,VV ,,,,1300.00,,,,-SN,,,,,,,,KACT 150715Z AUTO 33015G22KT 1SM -SN VV013 M12/M14 A3034 RMK P0000 T11201140 MADISHF
ACT,2021-02-15 07:20,,,,330.00,18.00,0.01,30.35,,1.00,,VV ,,,,1400.00,,,,-SN,,,,,,,,KACT 150720Z AUTO 33018KT 1SM -SN VV014 M12/M14 A3035 RMK P0000 T11201140 MADISHF
ACT,2021-02-15 07:25,,,,340.00,17.00,0.01,30.36,,1.00,,VV ,,,,1400.00,,,,-SN,,,,,,,,KACT 150725Z AUTO 34017KT 1SM -SN VV014 M12/M15 A3036 RMK P0000 T11201150 MADISHF
ACT,2021-02-15 07:30,,,,340.00,13.00,0.02,30.35,,1.00,18.00,VV ,,,,1400.00,,,,-SN,,,,,,,,KACT 150730Z AUTO 34013G18KT 1SM -SN VV014 M12/M15 A3035 RMK P0001 T11201150 MADISHF
ACT,2021-02-15 07:35,,,,340.00,15.00,0.02,30.34,,0.75,,VV ,,,,1400.00,,,,-SN,,,,,,,,KACT 150735Z AUTO 34015KT 1SM -SN VV014 M12/M14 A3034 RMK P0001 T11201140 MADISHF
ACT,2021-02-15 07:39,10.90,6.10,80.57,340.00,13.00,0.02,30.34,,0.75,21.00,VV ,,,,1300.00,,,,-SN,,,,,,,-5.46,KACT 150739Z AUTO 34013G21KT 3/4SM -SN VV013 M12/M14 A3034 RMK AO2 P0002 T11171144
ACT,2021-02-15 07:40,,,,340.00,13.00,0.02,30.34,,0.75,18.00,VV ,,,,1300.00,,,,-SN,,,,,,,,KACT 150740Z AUTO 34013G18KT 1SM -SN VV013 M12/M14 A3034 RMK P0001 T11201140 MADISHF
ACT,2021-02-15 07:45,,,,340.00,18.00,0.02,30.33,,0.75,22.00,VV ,,,,1300.00,,,,-SN BR,,,,,,,,KACT 150745Z AUTO 34018G22KT 1SM -SN BR VV013 M12/M14 A3032 RMK P0001 T11201140 MADISHF
ACT,2021-02-15 07:50,,,,340.00,17.00,0.02,30.32,,0.75,22.00,VV ,,,,1300.00,,,,-SN,,,,,,,,KACT 150750Z AUTO 34017G22KT 1SM -SN VV013 M12/M15 A3031 RMK P0001 T11201150 MADISHF
ACT,2021-02-15 07:51,10.00,5.00,79.76,340.00,18.00,0.02,30.31,1027.20,0.75,,VV ,,,,1300.00,,,,-SN,,,,26.00,350.00,2021-02-15 07:51,-9.21,KACT 150751Z AUTO 34018KT 3/4SM -SN VV013 M12/M15 A3031 RMK AO2 PK WND 35026/0751 PRESFR SLP272 P0002 T11221150
ACT,2021-02-15 07:55,,,,340.00,17.00,,30.32,,0.75,,VV ,,,,1300.00,,,,-SN,,,,,,,,KACT 150755Z AUTO 34017KT 1SM -SN VV013 M12/M15 A3031 RMK T11201150 MADISHF
ACT,2021-02-15 08:00,,,,340.00,15.00,0.01,30.34,,0.75,,VV ,,,,1300.00,,,,-SN,,,,,,,,KACT 150800Z AUTO 34015KT 1SM -SN VV013 M12/M15 A3034 RMK P0000 T11201150 MADISHF
ACT,2021-02-15 08:05,,,,330.00,14.00,0.01,30.33,,0.75,,VV ,,,,1300.00,,,,-SN,,,,,,,,KACT 150805Z AUTO 33014KT 1SM -SN VV013 M12/M15 A3032 RMK P0000 T11201150 MADISHF
ACT,2021-02-15 08:10,,,,330.00,17.00,0.01,30.35,,0.75,,VV ,,,,1300.00,,,,-SN,,,,,,,,KACT 150810Z AUTO 33017KT 1SM -SN VV013 M12/M15 A3035 RMK P0000 T11201150 MADISHF
ACT,2021-02-15 08:15,,,,340.00,16.00,0.01,30.34,,0.75,21.00,VV ,,,,1200.00,,,,-SN,,,,,,,,KACT 150815Z AUTO 34016G21KT 1SM -SN VV012 M12/M15 A3034 RMK P0000 T11201150 MADISHF
ACT,2021-02-15 08:20,,,,330.00,16.00,0.02,30.35,,0.50,21.00,VV ,,,,1100.00,,,,SN,,,,,,,,KACT 150820Z AUTO 33016G21KT 1/2SM SN VV011 M12/M15 A3035 RMK P0001 T11201150 MADISHF
ACT,2021-02-15 08:25,,,,330.00,17.00,0.02,30.34,,0.50,23.00,VV ,,,,999.00,,,,SN,,,,,,,,KACT 150825Z AUTO 33017G23KT 1/2SM SN VV009 M12/M15 A3034 RMK P0001 T11201150 MADISHF
ACT,2021-02-15 08:30,,,,340.00,15.00,0.03,30.33,,0.50,,VV ,,,,900.00,,,,SN,,,,,,,,KACT 150830Z AUTO 34015KT 1/2SM SN VV009 M12/M15 A3032 RMK P0002 T11201150 MADISHF
ACT,2021-02-15 08:32,10.00,5.00,79.76,340.00,15.00,0.03,30.34,,0.50,24.00,VV ,,,,900.00,,,,SN,,,,,,,-7.74,KACT 150832Z AUTO 34015G24KT 1/2SM SN VV009 M12/M15 A3034 RMK AO2 P0003 T11221150
ACT,2021-02-15 08:35,,,,340.00,14.00,0.03,30.35,,0.50,,VV ,,,,800.00,,,,SN,,,,,,,,KACT 150835Z AUTO 34014KT 1/2SM SN VV008 M12/M15 A3035 RMK P0002 T11201150 MADISHF
ACT,2021-02-15 08:40,,,,330.00,11.00,0.04,30.35,,0.50,,VV ,,,,800.00,,,,SN,,,,,,,,KACT 150840Z AUTO 33011KT 1/2SM SN VV008 M12/M15 A3035 RMK P0003 T11201150 MADISHF
ACT,2021-02-15 08:45,,,,330.00,14.00,0.04,30.35,,0.50,24.00,VV ,,,,800.00,,,,SN,,,,,,,,KACT 150845Z AUTO 33014G24KT 1/2SM SN VV008 M12/M15 A3035 RMK P0003 T11201150 MADISHF
ACT,2021-02-15 08:50,,,,340.00,18.00,0.04,30.33,,0.50,,VV ,,,,900.00,,,,SN,,,,,,,,KACT 150850Z AUTO 34018KT 1/2SM SN VV009 M12/M15 A3032 RMK P0003 T11201150 MADISHF
ACT,2021-02-15 08:51,10.00,5.00,79.76,340.00,16.00,0.05,30.34,1028.00,0.50,26.00,VV ,,,,900.00,,,,SN,,,,26.00,350.00,2021-02-15 08:46,-8.26,KACT 150851Z AUTO 34016G26KT 1/2SM SN VV009 M12/M15 A3034 RMK AO2 PK WND 35026/0846 SLP280 P0005 60008 T11221150 53001
ACT,2021-02-15 08:55,,,,330.00,17.00,,30.34,,0.50,22.00,VV ,,,,900.00,,,,SN,,,,,,,,KACT 150855Z AUTO 33017G22KT 1/2SM SN VV009 M12/M15 A3034 RMK T11201150 MADISHF
ACT,2021-02-15 09:00,,,,330.00,16.00,,30.35,,0.50,22.00,VV ,,,,800.00,,,,SN,,,,,,,,KACT 150900Z AUTO 33016G22KT 1/2SM SN VV008 M12/M15 A3035 RMK T11201150 MADISHF
ACT,2021-02-15 09:05,,,,330.00,16.00,,30.35,,0.50,,VV ,,,,800.00,,,,SN,,,,,,,,KACT 150905Z AUTO 33016KT 1/2SM SN VV008 M12/M15 A3035 RMK T11201150 MADISHF
ACT,2021-02-15 09:10,,,,310.00,15.00,0.01,30.36,,0.50,,VV ,,,,800.00,,,,SN,,,,,,,,KACT 150910Z AUTO 31015KT 1/2SM SN VV008 M12/M15 A3036 RMK P0000 T11201150 MADISHF
ACT,2021-02-15 09:15,,,,320.00,13.00,0.02,30.35,,0.50,,VV ,,,,700.00,,,,SN FZFG,,,,,,,,KACT 150915Z AUTO 32013KT 1/2SM SN FZFG VV007 M13/M15 A3035 RMK P0001 T11301150 MADISHF
ACT,2021-02-15 09:18,9.00,5.00,83.41,320.00,15.00,0.02,30.35,,0.50,22.00,VV ,,,,700.00,,,,SN FZFG,,,,,,,-9.04,KACT 150918Z AUTO 32015G22KT 1/2SM SN FZFG VV007 M13/M15 A3035 RMK AO2 P0002 T11281150
ACT,2021-02-15 09:20,,,,330.00,14.00,0.02,30.35,,0.50,,VV ,,,,700.00,,,,SN FZFG,,,,,,,,KACT 150920Z AUTO 33014KT 1/2SM SN FZFG VV007 M13/M15 A3035 RMK P0001 T11301150 MADISHF
ACT,2021-02-15 09:25,,,,330.00,14.00,0.03,30.34,,0.50,,VV ,,,,700.00,,,,SN FZFG,,,,,,,,KACT 150925Z AUTO 33014KT 1/2SM SN FZFG VV007 M13/M15 A3034 RMK P0002 T11301150 MADISHF
ACT,2021-02-15 09:30,,,,330.00,11.00,0.03,30.33,,0.50,,VV ,,,,700.00,,,,SN FZFG,,,,,,,,KACT 150930Z AUTO 33011KT 1/2SM SN FZFG VV007 M13/M15 A3032 RMK P0002 T11301150 MADISHF
ACT,2021-02-15 09:35,,,,330.00,14.00,0.04,30.33,,0.50,,VV ,,,,700.00,,,,SN,,,,,,,,KACT 150935Z AUTO 33014KT 1/2SM SN VV007 M13/M16 A3032 RMK P0003 T11301160 MADISHF
ACT,2021-02-15 09:40,,,,350.00,13.00,0.04,30.32,,0.50,,VV ,,,,700.00,,,,SN,,,,,,,,KACT 150940Z AUTO 35013KT 1/2SM SN VV007 M13/M16 A3031 RMK P0003 T11301160 MADISHF
ACT,2021-02-15 09:45,,,,340.00,16.00,0.04,30.32,,0.50,,VV ,,,,800.00,,,,SN,,,,,,,,KACT 150945Z AUTO 34016KT 1/2SM SN VV008 M13/M16 A3031 RMK P0003 T11301160 MADISHF
ACT,2021-02-15 09:50,,,,340.00,14.00,0.05,30.32,,0.50,,VV ,,,,800.00,,,,SN FZFG,,,,,,,,KACT 150950Z AUTO 34014KT 1/2SM SN FZFG VV008 M13/M15 A3031 RMK P0005 T11301150 MADISHF
ACT,2021-02-15 09:51,9.00,5.00,83.41,350.00,14.00,0.05,30.32,1027.30,0.50,24.00,VV ,,,,800.00,,,,SN FZFG,,,,,,,-8.48,KACT 150951Z AUTO 35014G24KT 1/2SM SN FZFG VV008 M13/M15 A3032 RMK AO2 SLP273 P0005 T11281150
ACT,2021-02-15 09:55,,,,340.00,19.00,,30.31,,0.50,,VV ,,,,999.00,,,,SN,,,,,,,,KACT 150955Z AUTO 34019KT 1/2SM SN VV009 M13/M16 A3030 RMK T11301160 MADISHF
ACT,2021-02-15 10:00,,,,340.00,20.00,,30.32,,0.75,26.00,VV ,,,,1400.00,,,,-SN,,,,,,,,KACT 151000Z AUTO 34020G26KT 1SM -SN VV014 M13/M16 A3031 RMK T11301160 MADISHF
ACT,2021-02-15 10:01,9.00,3.90,79.31,340.00,19.00,T,30.32,,0.75,27.00,VV ,,,,1500.00,,,,-SN,,,,27.00,340.00,2021-02-15 10:00,-10.98,KACT 151001Z AUTO 34019G27KT 3/4SM -SN VV015 M13/M16 A3032 RMK AO2 PK WND 34027/1000 P0000 T11281156
ACT,2021-02-15 10:05,,,,340.00,17.00,,30.32,,1.25,,OVC,,,,2500.00,,,,-SN,,,,,,,,KACT 151005Z AUTO 34017KT 1 1/2SM -SN OVC025 M13/M16 A3031 RMK T11301160 MADISHF
ACT,2021-02-15 10:08,9.00,3.90,79.31,330.00,19.00,T,30.33,,1.25,27.00,OVC,,,,3200.00,,,,-SN,,,,27.00,340.00,2021-02-15 10:08,-10.98,KACT 151008Z AUTO 33019G27KT 1 1/4SM -SN OVC032 M13/M16 A3033 RMK AO2 PK WND 34027/1008 P0000 T11281156
ACT,2021-02-15 10:10,,,,330.00,18.00,,30.33,,1.50,,OVC,,,,3600.00,,,,-SN,,,,,,,,KACT 151010Z AUTO 33018KT 1 1/2SM -SN OVC036 M13/M16 A3032 RMK T11301160 MADISHF
ACT,2021-02-15 10:15,,,,330.00,20.00,,30.32,,1.75,24.00,OVC,,,,3800.00,,,,-SN,,,,,,,,KACT 151015Z AUTO 33020G24KT 2SM -SN OVC038 M13/M16 A3031 RMK T11301160 MADISHF
ACT,2021-02-15 10:20,,,,330.00,17.00,,30.34,,1.75,,BKN,OVC,,,3999.00,9500.00,,,,,,,,,,,KACT 151020Z AUTO 33017KT 2SM BKN039 OVC095 M13/M16 A3034 RMK T11301160 MADISHF
ACT,2021-02-15 10:25,,,,330.00,14.00,,30.35,,2.50,,BKN,OVC,,,4500.00,9500.00,,,,,,,,,,,KACT 151025Z AUTO 33014KT 2 1/2SM BKN045 OVC095 M13/M16 A3035 RMK T11301160 MADISHF
ACT,2021-02-15 10:27,9.00,3.00,76.08,330.00,14.00,T,30.35,,3.00,26.00,BKN,OVC,,,4700.00,9500.00,,,BLSN,,,,27.00,340.00,2021-02-15 10:08,-8.48,KACT 151027Z AUTO 33014G26KT 3SM BLSN BKN047 OVC095 M13/M16 A3035 RMK AO2 PK WND 34027/1008 SNE19 P0000 T11281161
ACT,2021-02-15 10:30,,,,330.00,16.00,,30.34,,4.00,,SCT,OVC,,,4900.00,9500.00,,,,,,,,,,,KACT 151030Z AUTO 33016KT 4SM SCT049 OVC095 M13/M16 A3034 RMK T11301160 MADISHF
ACT,2021-02-15 10:35,,,,340.00,14.00,,30.34,,2.50,,FEW,BKN,OVC,,1200.00,3900.00,9500.00,,-SN,,,,,,,,KACT 151035Z AUTO 34014KT 2 1/2SM -SN FEW012 BKN039 OVC095 M13/M16 A3034 RMK T11301160 MADISHF
ACT,2021-02-15 10:37,9.00,3.00,76.08,340.00,13.00,T,30.34,,1.75,,FEW,BKN,OVC,,1200.00,3300.00,9500.00,,-SN,,,,27.00,340.00,2021-02-15 10:08,-7.90,KACT 151037Z AUTO 34013KT 1 3/4SM -SN FEW012 BKN033 OVC095 M13/M16 A3034 RMK AO2 PK WND 34027/1008 SNE19B34 P0000 T11281161
ACT,2021-02-15 10:40,,,,330.00,11.00,,30.33,,1.25,,FEW,BKN,OVC,,1200.00,2500.00,9500.00,,-SN,,,,,,,,KACT 151040Z AUTO 33011KT 1 1/2SM -SN FEW012 BKN025 OVC095 M13/M16 A3032 RMK T11301160 MADISHF
ACT,2021-02-15 10:45,,,,320.00,14.00,,30.34,,1.00,,BKN,OVC,,,1600.00,9500.00,,,-SN,,,,,,,,KACT 151045Z AUTO 32014KT 1SM -SN BKN016 OVC095 M13/M16 A3034 RMK T11301160 MADISHF
ACT,2021-02-15 10:50,,,,320.00,11.00,,30.33,,1.00,17.00,SCT,BKN,OVC,,1200.00,1699.00,9500.00,,-SN,,,,,,,,KACT 151050Z AUTO 32011G17KT 1SM -SN SCT012 BKN016 OVC095 M13/M16 A3032 RMK T11301160 MADISHF
ACT,2021-02-15 10:51,9.00,3.90,79.31,320.00,12.00,T,30.33,1027.70,1.00,19.00,SCT,BKN,OVC,,1200.00,1700.00,10000.00,,-SN,,,,27.00,340.00,2021-02-15 10:08,-7.27,KACT 151051Z AUTO 32012G19KT 1SM -SN SCT012 BKN017 OVC100 M13/M16 A3033 RMK AO2 PK WND 34027/1008 SNE19B34 SLP277 P0000 T11281156
ACT,2021-02-15 10:55,,,,330.00,15.00,,30.32,,1.25,,SCT,BKN,OVC,,1200.00,1699.00,10000.00,,-SN,,,,,,,,KACT 151055Z AUTO 33015KT 1 1/2SM -SN SCT012 BKN016 OVC100 M13/M16 A3031 RMK T11301160 MADISHF
ACT,2021-02-15 11:00,,,,320.00,11.00,,30.33,,1.50,,BKN,OVC,,,1400.00,1900.00,,,-SN,,,,,,,,KACT 151100Z AUTO 32011KT 1 1/2SM -SN BKN014 OVC019 M13/M16 A3032 RMK T11301160 MADISHF
ACT,2021-02-15 11:02,8.10,3.00,79.23,320.00,13.00,T,30.33,,2.00,21.00,BKN,BKN,OVC,,1400.00,1900.00,6500.00,,-SN,,,,,,,-9.05,KACT 151102Z AUTO 32013G21KT 2SM -SN BKN014 BKN019 OVC065 M13/M16 A3033 RMK AO2 P0000 T11331161
ACT,2021-02-15 11:05,,,,320.00,11.00,,30.33,,2.50,18.00,FEW,BKN,OVC,,999.00,1699.00,6500.00,,-SN,,,,,,,,KACT 151105Z AUTO 32011G18KT 2 1/2SM -SN FEW009 BKN016 OVC065 M13/M16 A3032 RMK T11301160 MADISHF
ACT,2021-02-15 11:06,9.00,3.00,76.08,320.00,13.00,T,30.33,,3.00,,FEW,BKN,OVC,,1000.00,1700.00,6500.00,,-SN,,,,,,,-7.90,KACT 151106Z AUTO 32013KT 3SM -SN FEW010 BKN017 OVC065 M13/M16 A3033 RMK AO2 P0000 T11281161
ACT,2021-02-15 11:10,,,,320.00,14.00,,30.32,,4.00,,BKN,OVC,,,1699.00,6500.00,,,-SN,,,,,,,,KACT 151110Z AUTO 32014KT 4SM -SN BKN016 OVC065 M13/M16 A3031 RMK T11301160 MADISHF
ACT,2021-02-15 11:15,,,,330.00,13.00,,30.31,,5.00,,BKN,OVC,,,1900.00,6500.00,,,-SN,,,,,,,,KACT 151115Z AUTO 33013KT 5SM -SN BKN019 OVC065 M13/M17 A3030 RMK T11301170 MADISHF
ACT,2021-02-15 11:20,,,,340.00,16.00,,30.31,,5.00,,BKN,OVC,,,1900.00,6500.00,,,-SN,,,,,,,,KACT 151120Z AUTO 34016KT 5SM -SN BKN019 OVC065 M13/M16 A3030 RMK T11301160 MADISHF
ACT,2021-02-15 11:25,,,,340.00,13.00,,30.31,,7.00,19.00,BKN,OVC,,,1900.00,6500.00,,,-SN,,,,,,,,KACT 151125Z AUTO 34013G19KT 7SM -SN BKN019 OVC065 M13/M17 A3030 RMK T11301170 MADISHF
ACT,2021-02-15 11:30,,,,340.00,15.00,,30.31,,7.00,,SCT,BKN,,,1900.00,6500.00,,,,,,,,,,,KACT 151130Z AUTO 34015KT 7SM SCT019 BKN065 M13/M17 A3030 RMK T11301170 MADISHF
ACT,2021-02-15 11:35,,,,340.00,16.00,,30.31,,7.00,21.00,SCT,BKN,,,1900.00,6500.00,,,,,,,,,,,KACT 151135Z AUTO 34016G21KT 7SM SCT019 BKN065 M13/M17 A3030 RMK T11301170 MADISHF
ACT,2021-02-15 11:40,,,,340.00,17.00,,30.31,,7.00,,SCT,BKN,,,1900.00,6000.00,,,,,,,,,,,KACT 151140Z AUTO 34017KT 7SM SCT019 BKN060 M13/M17 A3030 RMK T11301170 MADISHF
ACT,2021-02-15 11:45,,,,340.00,15.00,,30.31,,6.00,22.00,BKN,BKN,,,1900.00,6000.00,,,,,,,,,,,KACT 151145Z AUTO 34015G22KT 6SM BKN019 BKN060 M13/M17 A3030 RMK T11301170 MADISHF
ACT,2021-02-15 11:47,8.60,1.40,71.92,340.00,18.00,T,30.31,,7.00,,BKN,BKN,,,1900.00,6000.00,,,,,,,,,,-11.05,KACT 151147Z AUTO 34018KT 7SM BKN019 BKN060 M13/M17 A3031 RMK AO2 SNE27 P0000
ACT,2021-02-15 11:50,,,,340.00,14.00,,30.32,,7.00,19.00,FEW,BKN,BKN,,1600.00,2100.00,6000.00,,,,,,,,,,KACT 151150Z AUTO 34014G19KT 7SM FEW016 BKN021 BKN060 M13/M17 A3031 RMK T11301170 MADISHF
ACT,2021-02-15 11:51,8.10,1.00,72.20,340.00,16.00,T,30.32,1027.40,8.00,23.00,FEW,BKN,BKN,,1600.00,2100.00,6000.00,,,,,,,,,-10.73,KACT 151151Z AUTO 34016G23KT 8SM FEW016 BKN021 BKN060 M13/M17 A3032 RMK AO2 SNE27 SLP274 P0000 60013 70022 T11331172 11117 21133 51000
ACT,2021-02-15 11:55,,,,340.00,14.00,,30.32,,7.00,,BKN,,,,2100.00,,,,,,,,,,,,KACT 151155Z AUTO 34014KT 7SM BKN021 M13/M17 A3031 RMK T11301170 MADISHF
ACT,2021-02-15 12:00,,,,340.00,17.00,,30.33,,7.00,22.00,BKN,,,,2100.00,,,,,,,,,,,,KACT 151200Z AUTO 34017G22KT 7SM BKN021 M13/M18 A3032 RMK T11301180 MADISHF
ACT,2021-02-15 12:05,,,,340.00,20.00,,30.33,,8.00,24.00,BKN,,,,2100.00,,,,,,,,,,,,KACT 151205Z AUTO 34020G24KT 8SM BKN021 M13/M18 A3032 RMK T11301180 MADISHF
ACT,2021-02-15 12:10,,,,340.00,16.00,,30.33,,8.00,,BKN,,,,2100.00,,,,,,,,,,,,KACT 151210Z AUTO 34016KT 8SM BKN021 M13/M18 A3032 RMK T11301180 MADISHF
ACT,2021-02-15 12:15,,,,340.00,14.00,,30.33,,9.00,,BKN,,,,2100.00,,,,,,,,,,,,KACT 151215Z AUTO 34014KT 9SM BKN021 M13/M18 A3032 RMK T11301180 MADISHF
ACT,2021-02-15 12:20,,,,340.00,13.00,,30.33,,10.00,,BKN,,,,2200.00,,,,,,,,,,,,KACT 151220Z AUTO 34013KT 10SM BKN022 M13/M18 A3032 RMK T11301180 MADISHF
ACT,2021-02-15 12:25,,,,340.00,13.00,,30.33,,10.00,,BKN,,,,2200.00,,,,,,,,,,,,KACT 151225Z AUTO 34013KT 10SM BKN022 M13/M18 A3032 RMK T11301180 MADISHF
ACT,2021-02-15 12:30,,,,340.00,14.00,,30.33,,10.00,,BKN,,,,2200.00,,,,,,,,,,,,KACT 151230Z AUTO 34014KT 10SM BKN022 M13/M18 A3032 RMK T11301180 MADISHF
ACT,2021-02-15 12:35,,,,340.00,18.00,,30.32,,10.00,,BKN,,,,2200.00,,,,,,,,,,,,KACT 151235Z AUTO 34018KT 10SM BKN022 M13/M18 A3031 RMK T11301180 MADISHF
ACT,2021-02-15 12:40,,,,340.00,16.00,,30.32,,10.00,,BKN,,,,2200.00,,,,,,,,,,,,KACT 151240Z AUTO 34016KT 10SM BKN022 M13/M18 A3031 RMK T11301180 MADISHF
ACT,2021-02-15 12:45,,,,340.00,15.00,,30.33,,10.00,,BKN,,,,2200.00,,,,,,,,,,,,KACT 151245Z AUTO 34015KT 10SM BKN022 M13/M18 A3032 RMK T11301180 MADISHF
ACT,2021-02-15 12:50,,,,330.00,11.00,,30.32,,10.00,,BKN,,,,2200.00,,,,,,,,,,,,KACT 151250Z AUTO 33011KT 10SM BKN022 M13/M18 A3031 RMK T11301180 MADISHF
ACT,2021-02-15 12:51,8.10,0.00,68.90,330.00,11.00,0.00,30.32,1027.50,10.00,21.00,BKN,,,,2200.00,,,,,,,,26.00,350.00,2021-02-15 11:59,-7.74,KACT 151251Z 33011G21KT 10SM BKN022 M13/M18 A3032 RMK AO2 PK WND 35026/1159 SLP275 T11331178
ACT,2021-02-15 12:55,,,,330.00,13.00,,30.32,,10.00,,BKN,,,,2200.00,,,,,,,,,,,,KACT 151255Z AUTO 33013KT 10SM BKN022 M13/M18 A3031 RMK T11301180 MADISHF
ACT,2021-02-15 13:00,,,,320.00,13.00,T,30.32,,10.00,19.00,BKN,,,,2200.00,,,,UP,,,,,,,,KACT 151300Z AUTO 32013G19KT 10SM UP BKN022 M13/M18 A3031 RMK P0000 T11301180 MADISHF
ACT,2021-02-15 13:05,,,,320.00,11.00,T,30.32,,10.00,,BKN,,,,2200.00,,,,UP,,,,,,,,KACT 151305Z AUTO 32011KT 10SM UP BKN022 M13/M18 A3031 RMK P0000 T11301180 MADISHF
ACT,2021-02-15 13:10,,,,320.00,11.00,T,30.33,,10.00,17.00,OVC,,,,2200.00,,,,UP,,,,,,,,KACT 151310Z AUTO 32011G17KT 10SM UP OVC022 M13/M18 A3032 RMK P0000 T11301180 MADISHF
ACT,2021-02-15 13:15,,,,320.00,13.00,T,30.33,,10.00,,OVC,,,,2200.00,,,,UP,,,,,,,,KACT 151315Z AUTO 32013KT 10SM UP OVC022 M13/M18 A3032 RMK P0000 T11301180 MADISHF
ACT,2021-02-15 13:20,,,,320.00,11.00,T,30.33,,10.00,16.00,OVC,,,,2200.00,,,,UP,,,,,,,,KACT 151320Z AUTO 32011G16KT 10SM UP OVC022 M13/M18 A3032 RMK P0000 T11301180 MADISHF
ACT,2021-02-15 13:25,,,,330.00,14.00,T,30.33,,9.00,,OVC,,,,2200.00,,,,UP,,,,,,,,KACT 151325Z AUTO 33014KT 9SM UP OVC022 M13/M18 A3032 RMK P0000 T11301180 MADISHF
ACT,2021-02-15 13:30,,,,320.00,15.00,T,30.33,,9.00,,OVC,,,,2200.00,,,,UP,,,,,,,,KACT 151330Z AUTO 32015KT 9SM UP OVC022 M14/M18 A3032 RMK P0000 T11401180 MADISHF
ACT,2021-02-15 13:35,,,,320.00,13.00,T,30.33,,8.00,,OVC,,,,2200.00,,,,UP,,,,,,,,KACT 151335Z AUTO 32013KT 8SM UP OVC022 M14/M18 A3032 RMK P0000 T11401180 MADISHF
ACT,2021-02-15 13:40,,,,320.00,14.00,T,30.33,,7.00,,OVC,,,,2200.00,,,,UP,,,,,,,,KACT 151340Z AUTO 32014KT 7SM UP OVC022 M14/M18 A3032 RMK P0000 T11401180 MADISHF
ACT,2021-02-15 13:45,,,,330.00,14.00,T,30.33,,7.00,19.00,OVC,,,,2200.00,,,,UP,,,,,,,,KACT 151345Z AUTO 33014G19KT 7SM UP OVC022 M13/M18 A3032 RMK P0000 T11301180 MADISHF
ACT,2021-02-15 13:50,,,,320.00,13.00,T,30.34,,7.00,18.00,OVC,,,,2200.00,,,,UP,,,,,,,,KACT 151350Z AUTO 32013G18KT 7SM UP OVC022 M14/M18 A3034 RMK P0000 T11401180 MADISHF
ACT,2021-02-15 13:51,7.00,0.00,72.41,320.00,14.00,T,30.34,1028.00,8.00,,OVC,,,,2200.00,,,,UP,,,,,,,-11.06,KACT 151351Z 32014KT 8SM UP OVC022 M14/M18 A3034 RMK AO2 UPB1259 SLP280 P0000 T11391178
ACT,2021-02-15 13:55,,,,330.00,14.00,T,30.33,,9.00,,OVC,,,,2200.00,,,,UP,,,,,,,,KACT 151355Z AUTO 33014KT 9SM UP OVC022 M14/M18 A3032 RMK P0000 T11401180 MADISHF
ACT,2021-02-15 14:00,,,,320.00,14.00,,30.33,,10.00,,OVC,,,,2200.00,,,,,,,,,,,,KACT 151400Z AUTO 32014KT 10SM OVC022 M14/M18 A3032 RMK T11401180 MADISHF
ACT,2021-02-15 14:05,,,,320.00,14.00,,30.33,,9.00,,OVC,,,,2200.00,,,,,,,,,,,,KACT 151405Z AUTO 32014KT 9SM OVC022 M14/M18 A3032 RMK T11401180 MADISHF
ACT,2021-02-15 14:10,,,,330.00,11.00,T,30.34,,10.00,,OVC,,,,2200.00,,,,UP,,,,,,,,KACT 151410Z AUTO 33011KT 10SM UP OVC022 M14/M18 A3034 RMK P0000 T11401180 MADISHF
ACT,2021-02-15 14:15,,,,320.00,11.00,T,30.34,,10.00,17.00,OVC,,,,2200.00,,,,UP,,,,,,,,KACT 151415Z AUTO 32011G17KT 10SM UP OVC022 M14/M18 A3034 RMK P0000 T11401180 MADISHF
ACT,2021-02-15 14:20,,,,320.00,13.00,T,30.34,,10.00,,OVC,,,,2200.00,,,,UP,,,,,,,,KACT 151420Z AUTO 32013KT 10SM UP OVC022 M14/M18 A3034 RMK P0000 T11401180 MADISHF
ACT,2021-02-15 14:25,,,,320.00,10.00,T,30.35,,10.00,15.00,OVC,,,,2200.00,,,,UP,,,,,,,,KACT 151425Z AUTO 32010G15KT 10SM UP OVC022 M13/M18 A3035 RMK P0000 T11301180 MADISHF
ACT,2021-02-15 14:30,,,,320.00,11.00,T,30.35,,9.00,16.00,OVC,,,,2200.00,,,,UP,,,,,,,,KACT 151430Z AUTO 32011G16KT 9SM UP OVC022 M13/M18 A3035 RMK P0000 T11301180 MADISHF
ACT,2021-02-15 14:35,,,,320.00,11.00,T,30.35,,10.00,,OVC,,,,2200.00,,,,UP,,,,,,,,KACT 151435Z AUTO 32011KT 10SM UP OVC022 M13/M18 A3035 RMK P0000 T11301180 MADISHF
ACT,2021-02-15 14:40,,,,320.00,13.00,T,30.36,,10.00,,OVC,,,,2200.00,,,,UP,,,,,,,,KACT 151440Z AUTO 32013KT 10SM UP OVC022 M13/M18 A3036 RMK P0000 T11301180 MADISHF
ACT,2021-02-15 14:45,,,,320.00,11.00,T,30.37,,10.00,,OVC,,,,2200.00,,,,UP,,,,,,,,KACT 151445Z AUTO 32011KT 10SM UP OVC022 M13/M18 A3037 RMK P0000 T11301180 MADISHF
ACT,2021-02-15 14:50,,,,310.00,11.00,T,30.37,,10.00,,OVC,,,,2200.00,,,,UP,,,,,,,,KACT 151450Z AUTO 31011KT 10SM UP OVC022 M13/M18 A3037 RMK P0000 T11301180 MADISHF
ACT,2021-02-15 14:51,8.10,-0.90,66.04,310.00,12.00,T,30.37,1029.00,10.00,,OVC,,,,2200.00,,,,UP,,,,,,,-8.42,KACT 151451Z 31012KT 10SM UP OVC022 M13/M18 A3037 RMK AO2 SLP290 P0000 60000 T11331183 53017
ACT,2021-02-15 14:55,,,,320.00,11.00,T,30.37,,10.00,,OVC,,,,2200.00,,,,UP,,,,,,,,KACT 151455Z AUTO 32011KT 10SM UP OVC022 M13/M18 A3037 RMK P0000 T11301180 MADISHF
ACT,2021-02-15 15:00,,,,310.00,10.00,T,30.38,,10.00,,OVC,,,,2200.00,,,,UP,,,,,,,,KACT 151500Z AUTO 31010KT 10SM UP OVC022 M13/M18 A3037 RMK P0000 T11301180 MADISHF
ACT,2021-02-15 15:05,,,,320.00,13.00,T,30.38,,10.00,19.00,OVC,,,,2200.00,,,,UP,,,,,,,,KACT 151505Z AUTO 32013G19KT 10SM UP OVC022 M13/M18 A3037 RMK P0000 T11301180 MADISHF
ACT,2021-02-15 15:10,,,,320.00,13.00,,30.38,,10.00,18.00,OVC,,,,2100.00,,,,,,,,,,,,KACT 151510Z AUTO 32013G18KT 10SM OVC021 M13/M18 A3037 RMK T11301180 MADISHF
ACT,2021-02-15 15:15,,,,320.00,11.00,,30.38,,10.00,17.00,OVC,,,,2100.00,,,,,,,,,,,,KACT 151515Z AUTO 32011G17KT 10SM OVC021 M13/M18 A3037 RMK T11301180 MADISHF
ACT,2021-02-15 15:20,,,,310.00,15.00,,30.39,,10.00,,OVC,,,,2100.00,,,,,,,,,,,,KACT 151520Z AUTO 31015KT 10SM OVC021 M13/M18 A3038 RMK T11301180 MADISHF
ACT,2021-02-15 15:25,,,,320.00,13.00,,30.38,,10.00,,OVC,,,,2100.00,,,,,,,,,,,,KACT 151525Z AUTO 32013KT 10SM OVC021 M13/M18 A3037 RMK T11301180 MADISHF
ACT,2021-02-15 15:30,,,,320.00,16.00,T,30.39,,10.00,21.00,OVC,,,,2200.00,,,,UP,,,,,,,,KACT 151530Z AUTO 32016G21KT 10SM UP OVC022 M13/M18 A3038 RMK P0000 T11301180 MADISHF
ACT,2021-02-15 15:35,,,,320.00,14.00,,30.39,,10.00,,OVC,,,,2200.00,,,,,,,,,,,,KACT 151535Z AUTO 32014KT 10SM OVC022 M13/M18 A3038 RMK T11301180 MADISHF
ACT,2021-02-15 15:40,,,,320.00,11.00,,30.39,,10.00,,BKN,,,,2200.00,,,,,,,,,,,,KACT 151540Z AUTO 32011KT 10SM BKN022 M13/M18 A3038 RMK T11301180 MADISHF
ACT,2021-02-15 15:45,,,,320.00,15.00,,30.39,,10.00,,BKN,,,,2200.00,,,,,,,,,,,,KACT 151545Z AUTO 32015KT 10SM BKN022 M13/M18 A3038 RMK T11301180 MADISHF
ACT,2021-02-15 15:50,,,,320.00,13.00,,30.38,,10.00,,SCT,,,,2300.00,,,,,,,,,,,,KACT 151550Z AUTO 32013KT 10SM SCT023 M12/M18 A3037 RMK T11201180 MADISHF
ACT,2021-02-15 15:51,10.00,0.00,63.26,320.00,13.00,T,30.38,1029.60,10.00,,SCT,,,,2300.00,,,,,,,,,,,-6.62,KACT 151551Z 32013KT 10SM SCT023 M12/M18 A3038 RMK AO2 UPE10B29E31 SLP296 P0000 T11221178
ACT,2021-02-15 15:55,,,,320.00,15.00,,30.38,,10.00,,SCT,,,,2300.00,,,,,,,,,,,,KACT 151555Z AUTO 32015KT 10SM SCT023 M12/M18 A3037 RMK T11201180 MADISHF
ACT,2021-02-15 16:00,,,,320.00,15.00,,30.38,,10.00,,SCT,,,,2300.00,,,,,,,,,,,,KACT 151600Z AUTO 32015KT 10SM SCT023 M12/M18 A3037 RMK T11201180 MADISHF
ACT,2021-02-15 16:05,,,,310.00,14.00,,30.38,,10.00,,SCT,,,,2300.00,,,,,,,,,,,,KACT 151605Z AUTO 31014KT 10SM SCT023 M12/M18 A3037 RMK T11201180 MADISHF
ACT,2021-02-15 16:10,,,,320.00,13.00,,30.38,,10.00,19.00,SCT,,,,2300.00,,,,,,,,,,,,KACT 151610Z AUTO 32013G19KT 10SM SCT023 M12/M18 A3037 RMK T11201180 MADISHF
ACT,2021-02-15 16:15,,,,310.00,16.00,,30.37,,10.00,,SCT,,,,2300.00,,,,,,,,,,,,KACT 151615Z AUTO 31016KT 10SM SCT023 M12/M18 A3037 RMK T11201180 MADISHF
ACT,2021-02-15 16:20,,,,320.00,15.00,,30.37,,10.00,,SCT,,,,2300.00,,,,,,,,,,,,KACT 151620Z AUTO 32015KT 10SM SCT023 M12/M18 A3037 RMK T11201180 MADISHF
ACT,2021-02-15 16:25,,,,320.00,16.00,,30.37,,10.00,,SCT,,,,2300.00,,,,,,,,,,,,KACT 151625Z AUTO 32016KT 10SM SCT023 M12/M18 A3037 RMK T11201180 MADISHF
ACT,2021-02-15 16:30,,,,320.00,14.00,,30.37,,10.00,,SCT,,,,2300.00,,,,,,,,,,,,KACT 151630Z AUTO 32014KT 10SM SCT023 M12/M17 A3037 RMK T11201170 MADISHF
ACT,2021-02-15 16:35,,,,310.00,16.00,,30.37,,10.00,,SCT,,,,2300.00,,,,,,,,,,,,KACT 151635Z AUTO 31016KT 10SM SCT023 M12/M17 A3037 RMK T11201170 MADISHF
ACT,2021-02-15 16:40,,,,320.00,15.00,,30.37,,10.00,22.00,SCT,,,,2300.00,,,,,,,,,,,,KACT 151640Z AUTO 32015G22KT 10SM SCT023 M11/M17 A3037 RMK T11101170 MADISHF
ACT,2021-02-15 16:45,,,,320.00,14.00,,30.37,,10.00,21.00,SCT,,,,2300.00,,,,,,,,,,,,KACT 151645Z AUTO 32014G21KT 10SM SCT023 M11/M17 A3037 RMK T11101170 MADISHF
ACT,2021-02-15 16:50,,,,320.00,15.00,,30.37,,10.00,,SCT,,,,2300.00,,,,,,,,,,,,KACT 151650Z AUTO 32015KT 10SM SCT023 M11/M17 A3037 RMK T11101170 MADISHF
ACT,2021-02-15 16:51,12.00,1.00,60.65,320.00,15.00,T,30.37,1029.10,10.00,22.00,SCT,,,,2300.00,,,,,,,,,,,-5.15,KACT 151651Z 32015G22KT 10SM SCT023 M11/M17 A3037 RMK AO2 UPB1557E1558 SLP291 P0000 T11111172
ACT,2021-02-15 16:55,,,,320.00,16.00,,30.37,,10.00,22.00,CLR,,,,,,,,,,,,,,,,KACT 151655Z AUTO 32016G22KT 10SM CLR M11/M17 A3037 RMK T11101170 MADISHF
ACT,2021-02-15 17:00,,,,310.00,16.00,,30.37,,10.00,,CLR,,,,,,,,,,,,,,,,KACT 151700Z AUTO 31016KT 10SM CLR M11/M17 A3037 RMK T11101170 MADISHF
ACT,2021-02-15 17:05,,,,310.00,17.00,,30.37,,10.00,,CLR,,,,,,,,,,,,,,,,KACT 151705Z AUTO 31017KT 10SM CLR M11/M17 A3037 RMK T11101170 MADISHF
ACT,2021-02-15 17:10,,,,320.00,17.00,T,30.37,,10.00,22.00,CLR,,,,,,,,UP,,,,,,,,KACT 151710Z AUTO 32017G22KT 10SM UP CLR M11/M17 A3037 RMK P0000 T11101170 MADISHF
ACT,2021-02-15 17:15,,,,330.00,14.00,,30.36,,10.00,,CLR,,,,,,,,,,,,,,,,KACT 151715Z AUTO 33014KT 10SM CLR M11/M17 A3036 RMK T11101170 MADISHF
ACT,2021-02-15 17:20,,,,330.00,17.00,,30.36,,10.00,,CLR,,,,,,,,,,,,,,,,KACT 151720Z AUTO 33017KT 10SM CLR M11/M17 A3036 RMK T11101170 MADISHF
ACT,2021-02-15 17:25,,,,320.00,16.00,,30.36,,8.00,22.00,CLR,,,,,,,,,,,,,,,,KACT 151725Z AUTO 32016G22KT 8SM CLR M11/M17 A3036 RMK T11101170 MADISHF
ACT,2021-02-15 17:30,,,,320.00,15.00,,30.36,,9.00,,CLR,,,,,,,,,,,,,,,,KACT 151730Z AUTO 32015KT 9SM CLR M11/M17 A3036 RMK T11101170 MADISHF
ACT,2021-02-15 17:35,,,,330.00,17.00,,30.35,,10.00,22.00,CLR,,,,,,,,,,,,,,,,KACT 151735Z AUTO 33017G22KT 10SM CLR M11/M17 A3035 RMK T11101170 MADISHF
ACT,2021-02-15 17:40,,,,320.00,16.00,,30.35,,10.00,,CLR,,,,,,,,,,,,,,,,KACT 151740Z AUTO 32016KT 10SM CLR M10/M17 A3035 RMK T11001170 MADISHF
ACT,2021-02-15 17:45,,,,320.00,16.00,,30.35,,10.00,,CLR,,,,,,,,,,,,,,,,KACT 151745Z AUTO 32016KT 10SM CLR M10/M16 A3035 RMK T11001160 MADISHF
ACT,2021-02-15 17:50,,,,320.00,16.00,,30.35,,10.00,,CLR,,,,,,,,,,,,,,,,KACT 151750Z AUTO 32016KT 10SM CLR M10/M16 A3035 RMK T11001160 MADISHF
ACT,2021-02-15 17:51,14.00,3.00,60.94,320.00,16.00,T,30.35,1028.40,10.00,24.00,CLR,,,,,,,,,,,,27.00,320.00,2021-02-15 17:18,-3.04,KACT 151751Z 32016G24KT 10SM CLR M10/M16 A3035 RMK AO2 PK WND 32027/1718 UPB08E11 SLP284 P0000 60000 T11001161 11100 21139 58007
ACT,2021-02-15 17:55,,,,310.00,13.00,,30.34,,10.00,18.00,CLR,,,,,,,,,,,,,,,,KACT 151755Z AUTO 31013G18KT 10SM CLR M10/M16 A3034 RMK T11001160 MADISHF
ACT,2021-02-15 18:00,,,,320.00,15.00,,30.34,,10.00,,CLR,,,,,,,,,,,,,,,,KACT 151800Z AUTO 32015KT 10SM CLR M09/M16 A3034 RMK T10901160 MADISHF
ACT,2021-02-15 18:05,,,,310.00,15.00,,30.34,,10.00,,CLR,,,,,,,,,,,,,,,,KACT 151805Z AUTO 31015KT 10SM CLR M10/M16 A3034 RMK T11001160 MADISHF
ACT,2021-02-15 18:10,,,,320.00,16.00,,30.34,,10.00,,CLR,,,,,,,,,,,,,,,,KACT 151810Z AUTO 32016KT 10SM CLR M10/M16 A3034 RMK T11001160 MADISHF
ACT,2021-02-15 18:15,,,,,17.00,,30.34,,10.00,22.00,CLR,,,,,,,,,,,,,,,,KACT 151815Z AUTO ///17G22KT 10SM CLR M10/M16 A3034 RMK T11001160 MADISHF
ACT,2021-02-15 18:20,,,,310.00,17.00,,30.34,,10.00,22.00,CLR,,,,,,,,,,,,,,,,KACT 151820Z AUTO 31017G22KT 10SM CLR M10/M17 A3034 RMK T11001170 MADISHF
ACT,2021-02-15 18:25,,,,300.00,16.00,T,30.34,,10.00,21.00,CLR,,,,,,,,UP,,,,,,,,KACT 151825Z AUTO 30016G21KT 10SM UP CLR M10/M16 A3034 RMK P0000 T11001160 MADISHF
ACT,2021-02-15 18:30,,,,310.00,14.00,T,30.34,,10.00,,CLR,,,,,,,,UP,,,,,,,,KACT 151830Z AUTO 31014KT 10SM UP CLR M09/M16 A3034 RMK P0000 T10901160 MADISHF
ACT,2021-02-15 18:35,,,,310.00,18.00,T,30.33,,10.00,22.00,CLR,,,,,,,,UP,,,,,,,,KACT 151835Z AUTO 31018G22KT 10SM UP CLR M09/M16 A3032 RMK P0000 T10901160 MADISHF
ACT,2021-02-15 18:40,,,,320.00,15.00,T,30.33,,10.00,,CLR,,,,,,,,UP,,,,,,,,KACT 151840Z AUTO 32015KT 10SM UP CLR M09/M16 A3032 RMK P0000 T10901160 MADISHF
ACT,2021-02-15 18:45,,,,320.00,16.00,T,30.33,,10.00,22.00,CLR,,,,,,,,UP,,,,,,,,KACT 151845Z AUTO 32016G22KT 10SM UP CLR M09/M16 A3032 RMK P0000 T10901160 MADISHF
ACT,2021-02-15 18:50,,,,320.00,16.00,,30.33,,10.00,,CLR,,,,,,,,,,,,,,,,KACT 151850Z AUTO 32016KT 10SM CLR M09/M17 A3032 RMK T10901170 MADISHF
ACT,2021-02-15 18:51,16.00,3.00,55.85,330.00,16.00,T,30.33,1027.80,10.00,23.00,CLR,,,,,,,,,,,,,,,-0.44,KACT 151851Z 33016G23KT 10SM CLR M09/M16 A3033 RMK AO2 UPB23E47 SLP278 P0000 T10891161
ACT,2021-02-15 18:55,,,,330.00,14.00,,30.33,,10.00,,CLR,,,,,,,,,,,,,,,,KACT 151855Z AUTO 33014KT 10SM CLR M09/M16 A3032 RMK T10901160 MADISHF
ACT,2021-02-15 19:00,,,,320.00,16.00,,30.32,,10.00,,CLR,,,,,,,,,,,,,,,,KACT 151900Z AUTO 32016KT 10SM CLR M09/M16 A3031 RMK T10901160 MADISHF
ACT,2021-02-15 19:05,,,,320.00,15.00,,30.32,,10.00,,CLR,,,,,,,,,,,,,,,,KACT 151905Z AUTO 32015KT 10SM CLR M09/M16 A3031 RMK T10901160 MADISHF
ACT,2021-02-15 19:10,,,,320.00,15.00,,30.31,,10.00,,CLR,,,,,,,,,,,,,,,,KACT 151910Z AUTO 32015KT 10SM CLR M09/M16 A3030 RMK T10901160 MADISHF
ACT,2021-02-15 19:15,,,,320.00,14.00,,30.31,,10.00,,CLR,,,,,,,,,,,,,,,,KACT 151915Z AUTO 32014KT 10SM CLR M09/M16 A3030 RMK T10901160 MADISHF
ACT,2021-02-15 19:20,,,,310.00,16.00,T,30.30,,10.00,,CLR,,,,,,,,UP,,,,,,,,KACT 151920Z AUTO 31016KT 10SM UP CLR M09/M16 A3029 RMK P0000 T10901160 MADISHF
ACT,2021-02-15 19:25,,,,320.00,16.00,,30.30,,10.00,22.00,CLR,,,,,,,,,,,,,,,,KACT 151925Z AUTO 32016G22KT 10SM CLR M08/M16 A3029 RMK T10801160 MADISHF
ACT,2021-02-15 19:30,,,,310.00,15.00,,30.29,,10.00,,CLR,,,,,,,,,,,,,,,,KACT 151930Z AUTO 31015KT 10SM CLR M08/M16 A3029 RMK T10801160 MADISHF
ACT,2021-02-15 19:35,,,,320.00,14.00,,30.29,,10.00,,CLR,,,,,,,,,,,,,,,,KACT 151935Z AUTO 32014KT 10SM CLR M08/M16 A3029 RMK T10801160 MADISHF
ACT,2021-02-15 19:40,,,,310.00,15.00,T,30.29,,10.00,,CLR,,,,,,,,UP,,,,,,,,KACT 151940Z AUTO 31015KT 10SM UP CLR M08/M16 A3029 RMK P0000 T10801160 MADISHF
ACT,2021-02-15 19:45,,,,330.00,15.00,,30.28,,10.00,,CLR,,,,,,,,,,,,,,,,KACT 151945Z AUTO 33015KT 10SM CLR M08/M16 A3028 RMK T10801160 MADISHF
ACT,2021-02-15 19:50,,,,310.00,15.00,,30.28,,10.00,,CLR,,,,,,,,,,,,,,,,KACT 151950Z AUTO 31015KT 10SM CLR M08/M16 A3028 RMK T10801160 MADISHF
ACT,2021-02-15 19:51,17.10,3.90,55.51,310.00,16.00,T,30.28,1026.20,10.00,,CLR,,,,,,,,,,,,,,,1.00,KACT 151951Z 31016KT 10SM CLR M08/M16 A3028 RMK AO2 UPB18E43 SLP262 P0000 T10831156
ACT,2021-02-15 19:55,,,,320.00,14.00,,30.28,,10.00,19.00,CLR,,,,,,,,,,,,,,,,KACT 151955Z AUTO 32014G19KT 10SM CLR M08/M16 A3028 RMK T10801160 MADISHF
ACT,2021-02-15 20:00,,,,320.00,13.00,T,30.28,,10.00,18.00,CLR,,,,,,,,UP,,,,,,,,KACT 152000Z AUTO 32013G18KT 10SM UP CLR M08/M16 A3028 RMK P0000 T10801160 MADISHF
ACT,2021-02-15 20:05,,,,330.00,14.00,,30.27,,10.00,,CLR,,,,,,,,,,,,,,,,KACT 152005Z AUTO 33014KT 10SM CLR M08/M16 A3027 RMK T10801160 MADISHF
ACT,2021-02-15 20:10,,,,320.00,11.00,,30.27,,10.00,,CLR,,,,,,,,,,,,,,,,KACT 152010Z AUTO 32011KT 10SM CLR M08/M16 A3027 RMK T10801160 MADISHF
ACT,2021-02-15 20:15,,,,330.00,15.00,,30.27,,10.00,,CLR,,,,,,,,,,,,,,,,KACT 152015Z AUTO 33015KT 10SM CLR M08/M16 A3027 RMK T10801160 MADISHF
ACT,2021-02-15 20:20,,,,330.00,11.00,,30.26,,10.00,,CLR,,,,,,,,,,,,,,,,KACT 152020Z AUTO 33011KT 10SM CLR M08/M16 A3026 RMK T10801160 MADISHF
ACT,2021-02-15 20:25,,,,310.00,14.00,,30.26,,10.00,,CLR,,,,,,,,,,,,,,,,KACT 152025Z AUTO 31014KT 10SM CLR M08/M16 A3026 RMK T10801160 MADISHF
ACT,2021-02-15 20:30,,,,320.00,14.00,,30.26,,10.00,19.00,CLR,,,,,,,,,,,,,,,,KACT 152030Z AUTO 32014G19KT 10SM CLR M08/M15 A3026 RMK T10801150 MADISHF
ACT,2021-02-15 20:35,,,,330.00,13.00,,30.26,,10.00,18.00,CLR,,,,,,,,,,,,,,,,KACT 152035Z AUTO 33013G18KT 10SM CLR M08/M16 A3026 RMK T10801160 MADISHF
ACT,2021-02-15 20:40,,,,330.00,14.00,,30.26,,10.00,19.00,CLR,,,,,,,,,,,,,,,,KACT 152040Z AUTO 33014G19KT 10SM CLR M07/M16 A3026 RMK T10701160 MADISHF
ACT,2021-02-15 20:45,,,,320.00,10.00,,30.26,,10.00,,CLR,,,,,,,,,,,,,,,,KACT 152045Z AUTO 32010KT 10SM CLR M07/M16 A3026 RMK T10701160 MADISHF
ACT,2021-02-15 20:50,,,,330.00,14.00,,30.26,,10.00,,CLR,,,,,,,,,,,,,,,,KACT 152050Z AUTO 33014KT 10SM CLR M07/M16 A3026 RMK T10701160 MADISHF
ACT,2021-02-15 20:51,19.00,3.90,51.15,340.00,14.00,T,30.26,1025.20,10.00,20.00,CLR,,,,,,,,,,,,,,,4.41,KACT 152051Z 34014G20KT 10SM CLR M07/M16 A3026 RMK AO2 UPB1959E04 SLP252 P0000 60000 T10721156 58029
ACT,2021-02-15 20:55,,,,330.00,11.00,,30.26,,10.00,,CLR,,,,,,,,,,,,,,,,KACT 152055Z AUTO 33011KT 10SM CLR M07/M15 A3026 RMK T10701150 MADISHF
ACT,2021-02-15 21:00,,,,330.00,15.00,,30.26,,10.00,,CLR,,,,,,,,,,,,,,,,KACT 152100Z AUTO 33015KT 10SM CLR M07/M16 A3026 RMK T10701160 MADISHF
ACT,2021-02-15 21:05,,,,320.00,16.00,,30.26,,10.00,21.00,CLR,,,,,,,,,,,,,,,,KACT 152105Z AUTO 32016G21KT 10SM CLR M07/M16 A3026 RMK T10701160 MADISHF
ACT,2021-02-15 21:10,,,,330.00,14.00,,30.26,,10.00,,CLR,,,,,,,,,,,,,,,,KACT 152110Z AUTO 33014KT 10SM CLR M07/M16 A3026 RMK T10701160 MADISHF
ACT,2021-02-15 21:15,,,,330.00,16.00,,30.26,,10.00,,CLR,,,,,,,,,,,,,,,,KACT 152115Z AUTO 33016KT 10SM CLR M07/M16 A3026 RMK T10701160 MADISHF
ACT,2021-02-15 21:20,,,,310.00,13.00,,30.26,,10.00,,CLR,,,,,,,,,,,,,,,,KACT 152120Z AUTO 31013KT 10SM CLR M07/M16 A3026 RMK T10701160 MADISHF
ACT,2021-02-15 21:25,,,,330.00,16.00,,30.26,,10.00,,CLR,,,,,,,,,,,,,,,,KACT 152125Z AUTO 33016KT 10SM CLR M07/M16 A3026 RMK T10701160 MADISHF
ACT,2021-02-15 21:30,,,,330.00,14.00,,30.26,,10.00,,CLR,,,,,,,,,,,,,,,,KACT 152130Z AUTO 33014KT 10SM CLR M07/M16 A3026 RMK T10701160 MADISHF
ACT,2021-02-15 21:35,,,,310.00,16.00,,30.26,,10.00,,CLR,,,,,,,,,,,,,,,,KACT 152135Z AUTO 31016KT 10SM CLR M07/M16 A3026 RMK T10701160 MADISHF
ACT,2021-02-15 21:40,,,,330.00,16.00,,30.26,,10.00,,CLR,,,,,,,,,,,,,,,,KACT 152140Z AUTO 33016KT 10SM CLR M07/M16 A3026 RMK T10701160 MADISHF
ACT,2021-02-15 21:45,,,,330.00,15.00,,30.26,,10.00,,CLR,,,,,,,,,,,,,,,,KACT 152145Z AUTO 33015KT 10SM CLR M07/M16 A3026 RMK T10701160 MADISHF
ACT,2021-02-15 21:50,,,,320.00,14.00,,30.26,,10.00,,CLR,,,,,,,,,,,,,,,,KACT 152150Z AUTO 32014KT 10SM CLR M07/M16 A3026 RMK T10701160 MADISHF
ACT,2021-02-15 21:51,19.00,3.00,49.07,320.00,14.00,0.00,30.26,1025.60,10.00,22.00,CLR,,,,,,,,,,,,,,,4.41,KACT 152151Z 32014G22KT 10SM CLR M07/M16 A3026 RMK AO2 SLP256 T10721161
ACT,2021-02-15 21:55,,,,320.00,11.00,,30.26,,10.00,,CLR,,,,,,,,,,,,,,,,KACT 152155Z AUTO 32011KT 10SM CLR M07/M16 A3026 RMK T10701160 MADISHF
ACT,2021-02-15 22:00,,,,320.00,11.00,T,30.26,,10.00,,CLR,,,,,,,,UP,,,,,,,,KACT 152200Z AUTO 32011KT 10SM UP CLR M07/M16 A3026 RMK P0000 T10701160 MADISHF
ACT,2021-02-15 22:05,,,,320.00,14.00,,30.26,,10.00,19.00,CLR,,,,,,,,,,,,,,,,KACT 152205Z AUTO 32014G19KT 10SM CLR M07/M16 A3026 RMK T10701160 MADISHF
ACT,2021-02-15 22:10,,,,310.00,13.00,,30.26,,10.00,,CLR,,,,,,,,,,,,,,,,KACT 152210Z AUTO 31013KT 10SM CLR M07/M16 A3026 RMK T10701160 MADISHF
ACT,2021-02-15 22:15,,,,320.00,11.00,T,30.26,,10.00,,CLR,,,,,,,,UP,,,,,,,,KACT 152215Z AUTO 32011KT 10SM UP CLR M07/M16 A3026 RMK P0000 T10701160 MADISHF
ACT,2021-02-15 22:20,,,,330.00,10.00,T,30.26,,10.00,,CLR,,,,,,,,UP,,,,,,,,KACT 152220Z AUTO 33010KT 10SM UP CLR M07/M16 A3026 RMK P0000 T10701160 MADISHF
ACT,2021-02-15 22:25,,,,330.00,11.00,T,30.25,,10.00,,CLR,,,,,,,,UP,,,,,,,,KACT 152225Z AUTO 33011KT 10SM UP CLR M07/M16 A3025 RMK P0000 T10701160 MADISHF
ACT,2021-02-15 22:30,,,,330.00,10.00,T,30.25,,10.00,,CLR,,,,,,,,UP,,,,,,,,KACT 152230Z AUTO 33010KT 10SM UP CLR M07/M16 A3025 RMK P0000 T10701160 MADISHF
ACT,2021-02-15 22:35,,,,320.00,11.00,T,30.25,,10.00,,CLR,,,,,,,,UP,,,,,,,,KACT 152235Z AUTO 32011KT 10SM UP CLR M07/M16 A3025 RMK P0000 T10701160 MADISHF
ACT,2021-02-15 22:40,,,,330.00,11.00,T,30.25,,10.00,,CLR,,,,,,,,UP,,,,,,,,KACT 152240Z AUTO 33011KT 10SM UP CLR M07/M16 A3025 RMK P0000 T10701160 MADISHF
ACT,2021-02-15 22:45,,,,330.00,11.00,,30.25,,10.00,,CLR,,,,,,,,,,,,,,,,KACT 152245Z AUTO 33011KT 10SM CLR M08/M16 A3025 RMK T10801160 MADISHF
ACT,2021-02-15 22:50,,,,340.00,14.00,,30.25,,10.00,,CLR,,,,,,,,,,,,,,,,KACT 152250Z AUTO 34014KT 10SM CLR M07/M16 A3025 RMK T10701160 MADISHF
ACT,2021-02-15 22:51,19.00,3.90,51.15,340.00,14.00,T,30.25,1025.20,10.00,,CLR,,,,,,,,,,,,,,,4.41,KACT 152251Z 34014KT 10SM CLR M07/M16 A3025 RMK AO2 UPB2157E42 SLP252 P0000 T10721156
ACT,2021-02-15 22:55,,,,330.00,11.00,,30.25,,10.00,,CLR,,,,,,,,,,,,,,,,KACT 152255Z AUTO 33011KT 10SM CLR M08/M16 A3025 RMK T10801160 MADISHF
ACT,2021-02-15 23:00,,,,320.00,14.00,,30.25,,10.00,,CLR,,,,,,,,,,,,,,,,KACT 152300Z AUTO 32014KT 10SM CLR M08/M16 A3025 RMK T10801160 MADISHF
ACT,2021-02-15 23:05,,,,320.00,11.00,T,30.25,,10.00,,CLR,,,,,,,,UP,,,,,,,,KACT 152305Z AUTO 32011KT 10SM UP CLR M08/M16 A3025 RMK P0000 T10801160 MADISHF
ACT,2021-02-15 23:10,,,,330.00,13.00,T,30.25,,10.00,18.00,CLR,,,,,,,,UP,,,,,,,,KACT 152310Z AUTO 33013G18KT 10SM UP CLR M08/M16 A3025 RMK P0000 T10801160 MADISHF
ACT,2021-02-15 23:15,,,,330.00,14.00,,30.25,,10.00,,CLR,,,,,,,,,,,,,,,,KACT 152315Z AUTO 33014KT 10SM CLR M08/M16 A3025 RMK T10801160 MADISHF
ACT,2021-02-15 23:20,,,,330.00,11.00,,30.25,,10.00,,CLR,,,,,,,,,,,,,,,,KACT 152320Z AUTO 33011KT 10SM CLR M08/M17 A3025 RMK T10801170 MADISHF
ACT,2021-02-15 23:25,,,,330.00,11.00,,30.25,,10.00,,CLR,,,,,,,,,,,,,,,,KACT 152325Z AUTO 33011KT 10SM CLR M08/M16 A3025 RMK T10801160 MADISHF
ACT,2021-02-15 23:30,,,,320.00,11.00,T,30.25,,10.00,,CLR,,,,,,,,UP,,,,,,,,KACT 152330Z AUTO 32011KT 10SM UP CLR M08/M17 A3025 RMK P0000 T10801170 MADISHF
ACT,2021-02-15 23:35,,,,330.00,11.00,T,30.25,,10.00,,CLR,,,,,,,,UP,,,,,,,,KACT 152335Z AUTO 33011KT 10SM UP CLR M08/M16 A3025 RMK P0000 T10801160 MADISHF
ACT,2021-02-15 23:40,,,,330.00,11.00,T,30.25,,10.00,,CLR,,,,,,,,UP,,,,,,,,KACT 152340Z AUTO 33011KT 10SM UP CLR M08/M17 A3025 RMK P0000 T10801170 MADISHF
ACT,2021-02-15 23:45,,,,330.00,10.00,T,30.25,,10.00,17.00,CLR,,,,,,,,UP,,,,,,,,KACT 152345Z AUTO 33010G17KT 10SM UP CLR M08/M16 A3025 RMK P0000 T10801160 MADISHF
ACT,2021-02-15 23:50,,,,330.00,14.00,T,30.25,,10.00,,CLR,,,,,,,,UP,,,,,,,,KACT 152350Z AUTO 33014KT 10SM UP CLR M08/M17 A3025 RMK P0000 T10801170 MADISHF
ACT,2021-02-15 23:51,17.10,1.90,50.60,330.00,13.00,T,30.25,1025.20,10.00,18.00,CLR,,,,,,,,UP,,,,,,,2.48,KACT 152351Z 33013G18KT 10SM UP CLR M08/M17 A3025 RMK AO2 UPB05 SLP252 P0000 60000 T10831167 11067 21100 58001
ACT,2021-02-15 23:55,,,,330.00,11.00,T,30.26,,10.00,,CLR,,,,,,,,UP,,,,,,,,KACT 152355Z AUTO 33011KT 10SM UP CLR M08/M17 A3026 RMK P0000 T10801170 MADISHF
ACT,2021-02-16 00:00,,,,330.00,10.00,T,30.26,,10.00,,CLR,,,,,,,,UP,,,,,,,,KACT 160000Z AUTO 33010KT 10SM UP CLR M08/M17 A3026 RMK P0000 T10801170 MADISHF
ACT,2021-02-16 00:05,,,,320.00,10.00,,30.26,,10.00,,CLR,,,,,,,,,,,,,,,,KACT 160005Z AUTO 32010KT 10SM CLR M08/M17 A3026 RMK T10801170 MADISHF
ACT,2021-02-16 00:10,,,,320.00,13.00,,30.26,,10.00,,CLR,,,,,,,,,,,,,,,,KACT 160010Z AUTO 32013KT 10SM CLR M09/M17 A3026 RMK T10901170 MADISHF
ACT,2021-02-16 00:15,,,,320.00,10.00,,30.26,,10.00,,CLR,,,,,,,,,,,,,,,,KACT 160015Z AUTO 32010KT 10SM CLR M09/M17 A3026 RMK T10901170 MADISHF
ACT,2021-02-16 00:20,,,,330.00,11.00,,30.26,,10.00,,CLR,,,,,,,,,,,,,,,,KACT 160020Z AUTO 33011KT 10SM CLR M09/M17 A3026 RMK T10901170 MADISHF
ACT,2021-02-16 00:25,,,,330.00,10.00,,30.26,,10.00,,CLR,,,,,,,,,,,,,,,,KACT 160025Z AUTO 33010KT 10SM CLR M09/M17 A3026 RMK T10901170 MADISHF
ACT,2021-02-16 00:30,,,,330.00,11.00,,30.26,,10.00,18.00,CLR,,,,,,,,,,,,,,,,KACT 160030Z AUTO 33011G18KT 10SM CLR M09/M17 A3026 RMK T10901170 MADISHF
ACT,2021-02-16 00:35,,,,330.00,11.00,,30.26,,10.00,,CLR,,,,,,,,,,,,,,,,KACT 160035Z AUTO 33011KT 10SM CLR M09/M17 A3026 RMK T10901170 MADISHF
ACT,2021-02-16 00:40,,,,330.00,10.00,,30.26,,10.00,,CLR,,,,,,,,,,,,,,,,KACT 160040Z AUTO 33010KT 10SM CLR M09/M17 A3026 RMK T10901170 MADISHF
ACT,2021-02-16 00:45,,,,330.00,10.00,,30.27,,10.00,,CLR,,,,,,,,,,,,,,,,KACT 160045Z AUTO 33010KT 10SM CLR M09/M17 A3027 RMK T10901170 MADISHF
ACT,2021-02-16 00:50,,,,330.00,11.00,,30.27,,10.00,,CLR,,,,,,,,,,,,,,,,KACT 160050Z AUTO 33011KT 10SM CLR M09/M17 A3027 RMK T10901170 MADISHF
ACT,2021-02-16 00:51,15.10,1.90,55.19,330.00,9.00,T,30.27,1025.60,10.00,,CLR,,,,,,,,,,,,,,,2.50,KACT 160051Z 33009KT 10SM CLR M09/M17 A3027 RMK AO2 UPE05 SLP256 P0000 T10941167
ACT,2021-02-16 00:55,,,,320.00,10.00,,30.27,,10.00,15.00,CLR,,,,,,,,,,,,,,,,KACT 160055Z AUTO 32010G15KT 10SM CLR M09/M17 A3027 RMK T10901170 MADISHF
ACT,2021-02-16 01:00,,,,330.00,10.00,,30.27,,10.00,,CLR,,,,,,,,,,,,,,,,KACT 160100Z AUTO 33010KT 10SM CLR M09/M17 A3027 RMK T10901170 MADISHF
ACT,2021-02-16 01:05,,,,330.00,9.00,,30.27,,10.00,,CLR,,,,,,,,,,,,,,,,KACT 160105Z AUTO 33009KT 10SM CLR M09/M17 A3027 RMK T10901170 MADISHF
ACT,2021-02-16 01:10,,,,330.00,10.00,,30.27,,10.00,,CLR,,,,,,,,,,,,,,,,KACT 160110Z AUTO 33010KT 10SM CLR M09/M17 A3027 RMK T10901170 MADISHF
ACT,2021-02-16 01:15,,,,330.00,9.00,,30.27,,10.00,,CLR,,,,,,,,,,,,,,,,KACT 160115Z AUTO 33009KT 10SM CLR M09/M17 A3027 RMK T10901170 MADISHF
ACT,2021-02-16 01:20,,,,330.00,8.00,,30.27,,10.00,,CLR,,,,,,,,,,,,,,,,KACT 160120Z AUTO 33008KT 10SM CLR M10/M17 A3027 RMK T11001170 MADISHF
ACT,2021-02-16 01:25,,,,320.00,8.00,,30.27,,10.00,,CLR,,,,,,,,,,,,,,,,KACT 160125Z AUTO 32008KT 10SM CLR M10/M17 A3027 RMK T11001170 MADISHF
ACT,2021-02-16 01:30,,,,320.00,9.00,,30.28,,10.00,14.00,CLR,,,,,,,,,,,,,,,,KACT 160130Z AUTO 32009G14KT 10SM CLR M10/M17 A3028 RMK T11001170 MADISHF
ACT,2021-02-16 01:35,,,,320.00,9.00,,30.28,,10.00,,CLR,,,,,,,,,,,,,,,,KACT 160135Z AUTO 32009KT 10SM CLR M10/M17 A3028 RMK T11001170 MADISHF
ACT,2021-02-16 01:40,,,,320.00,10.00,,30.28,,10.00,,CLR,,,,,,,,,,,,,,,,KACT 160140Z AUTO 32010KT 10SM CLR M10/M17 A3028 RMK T11001170 MADISHF
ACT,2021-02-16 01:45,,,,320.00,9.00,,30.28,,10.00,,CLR,,,,,,,,,,,,,,,,KACT 160145Z AUTO 32009KT 10SM CLR M10/M17 A3028 RMK T11001170 MADISHF
ACT,2021-02-16 01:50,,,,320.00,9.00,,30.28,,10.00,,CLR,,,,,,,,,,,,,,,,KACT 160150Z AUTO 32009KT 10SM CLR M10/M17 A3028 RMK T11001170 MADISHF
ACT,2021-02-16 01:51,14.00,1.00,55.54,320.00,9.00,0.00,30.28,1026.00,10.00,,CLR,,,,,,,,,,,,,,,1.13,KACT 160151Z 32009KT 10SM CLR M10/M17 A3028 RMK AO2 SLP260 T11001172
ACT,2021-02-16 01:55,,,,320.00,8.00,,30.28,,10.00,,CLR,,,,,,,,,,,,,,,,KACT 160155Z AUTO 32008KT 10SM CLR M10/M17 A3028 RMK T11001170 MADISHF
ACT,2021-02-16 02:00,,,,320.00,8.00,,30.28,,10.00,,CLR,,,,,,,,,,,,,,,,KACT 160200Z AUTO 32008KT 10SM CLR M10/M17 A3028 RMK T11001170 MADISHF
ACT,2021-02-16 02:05,,,,320.00,9.00,,30.28,,10.00,,CLR,,,,,,,,,,,,,,,,KACT 160205Z AUTO 32009KT 10SM CLR M11/M17 A3028 RMK T11101170 MADISHF
ACT,2021-02-16 02:10,,,,320.00,10.00,,30.28,,10.00,,CLR,,,,,,,,,,,,,,,,KACT 160210Z AUTO 32010KT 10SM CLR M11/M18 A3028 RMK T11101180 MADISHF
ACT,2021-02-16 02:15,,,,320.00,10.00,,30.28,,10.00,,CLR,,,,,,,,,,,,,,,,KACT 160215Z AUTO 32010KT 10SM CLR M11/M18 A3028 RMK T11101180 MADISHF
ACT,2021-02-16 02:20,,,,320.00,10.00,,30.28,,10.00,,CLR,,,,,,,,,,,,,,,,KACT 160220Z AUTO 32010KT 10SM CLR M11/M18 A3028 RMK T11101180 MADISHF
ACT,2021-02-16 02:25,,,,320.00,10.00,,30.28,,10.00,,CLR,,,,,,,,,,,,,,,,KACT 160225Z AUTO 32010KT 10SM CLR M11/M18 A3028 RMK T11101180 MADISHF
ACT,2021-02-16 02:30,,,,320.00,10.00,,30.28,,10.00,,CLR,,,,,,,,,,,,,,,,KACT 160230Z AUTO 32010KT 10SM CLR M11/M18 A3028 RMK T11101180 MADISHF
ACT,2021-02-16 02:35,,,,320.00,9.00,,30.28,,10.00,,CLR,,,,,,,,,,,,,,,,KACT 160235Z AUTO 32009KT 10SM CLR M11/M18 A3028 RMK T11101180 MADISHF
ACT,2021-02-16 02:40,,,,320.00,9.00,,30.28,,10.00,,CLR,,,,,,,,,,,,,,,,KACT 160240Z AUTO 32009KT 10SM CLR M11/M18 A3028 RMK T11101180 MADISHF
ACT,2021-02-16 02:45,,,,320.00,8.00,,30.28,,10.00,,CLR,,,,,,,,,,,,,,,,KACT 160245Z AUTO 32008KT 10SM CLR M11/M18 A3028 RMK T11101180 MADISHF
ACT,2021-02-16 02:50,,,,320.00,9.00,,30.29,,10.00,,CLR,,,,,,,,,,,,,,,,KACT 160250Z AUTO 32009KT 10SM CLR M11/M18 A3029 RMK T11101180 MADISHF
ACT,2021-02-16 02:51,12.00,0.00,57.88,320.00,8.00,0.00,30.29,1026.40,10.00,,CLR,,,,,,,,,,,,,,,-0.52,KACT 160251Z 32008KT 10SM CLR M11/M18 A3029 RMK AO2 SLP264 60000 T11111178 51011
ACT,2021-02-16 02:55,,,,320.00,10.00,,30.29,,10.00,,CLR,,,,,,,,,,,,,,,,KACT 160255Z AUTO 32010KT 10SM CLR M11/M18 A3029 RMK T11101180 MADISHF
ACT,2021-02-16 03:00,,,,320.00,9.00,,30.29,,10.00,,CLR,,,,,,,,,,,,,,,,KACT 160300Z AUTO 32009KT 10SM CLR M11/M18 A3029 RMK T11101180 MADISHF
ACT,2021-02-16 03:05,,,,330.00,9.00,,30.29,,10.00,,CLR,,,,,,,,,,,,,,,,KACT 160305Z AUTO 33009KT 10SM CLR M11/M18 A3029 RMK T11101180 MADISHF
ACT,2021-02-16 03:10,,,,320.00,10.00,,30.29,,10.00,,CLR,,,,,,,,,,,,,,,,KACT 160310Z AUTO 32010KT 10SM CLR M11/M18 A3029 RMK T11101180 MADISHF
ACT,2021-02-16 03:15,,,,330.00,7.00,,30.29,,10.00,,CLR,,,,,,,,,,,,,,,,KACT 160315Z AUTO 33007KT 10SM CLR M11/M18 A3029 RMK T11101180 MADISHF
ACT,2021-02-16 03:20,,,,340.00,7.00,,30.29,,10.00,,CLR,,,,,,,,,,,,,,,,KACT 160320Z AUTO 34007KT 10SM CLR M12/M18 A3029 RMK T11201180 MADISHF
ACT,2021-02-16 03:25,,,,340.00,8.00,,30.30,,10.00,,CLR,,,,,,,,,,,,,,,,KACT 160325Z AUTO 34008KT 10SM CLR M12/M18 A3029 RMK T11201180 MADISHF
ACT,2021-02-16 03:30,,,,330.00,8.00,,30.30,,10.00,,CLR,,,,,,,,,,,,,,,,KACT 160330Z AUTO 33008KT 10SM CLR M12/M18 A3029 RMK T11201180 MADISHF
ACT,2021-02-16 03:35,,,,330.00,7.00,,30.30,,10.00,,CLR,,,,,,,,,,,,,,,,KACT 160335Z AUTO 33007KT 10SM CLR M12/M18 A3029 RMK T11201180 MADISHF
ACT,2021-02-16 03:40,,,,330.00,5.00,,30.29,,10.00,,CLR,,,,,,,,,,,,,,,,KACT 160340Z AUTO 33005KT 10SM CLR M12/M18 A3029 RMK T11201180 MADISHF
ACT,2021-02-16 03:45,,,,330.00,5.00,,30.30,,10.00,,CLR,,,,,,,,,,,,,,,,KACT 160345Z AUTO 33005KT 10SM CLR M12/M18 A3029 RMK T11201180 MADISHF
ACT,2021-02-16 03:50,,,,330.00,5.00,,30.30,,10.00,,CLR,,,,,,,,,,,,,,,,KACT 160350Z AUTO 33005KT 10SM CLR M12/M18 A3029 RMK T11201180 MADISHF
ACT,2021-02-16 03:51,10.00,0.00,63.26,330.00,6.00,0.00,30.30,1026.90,10.00,,CLR,,,,,,,,,,,,,,,-0.97,KACT 160351Z 33006KT 10SM CLR M12/M18 A3030 RMK AO2 SLP269 T11221178
ACT,2021-02-16 03:55,,,,320.00,5.00,,30.30,,10.00,,CLR,,,,,,,,,,,,,,,,KACT 160355Z AUTO 32005KT 10SM CLR M12/M18 A3029 RMK T11201180 MADISHF
ACT,2021-02-16 04:00,,,,320.00,5.00,,30.30,,10.00,,CLR,,,,,,,,,,,,,,,,KACT 160400Z AUTO 32005KT 10SM CLR M12/M18 A3029 RMK T11201180 MADISHF
ACT,2021-02-16 04:05,,,,310.00,5.00,,30.31,,10.00,,CLR,,,,,,,,,,,,,,,,KACT 160405Z AUTO 31005KT 10SM CLR M12/M18 A3030 RMK T11201180 MADISHF
ACT,2021-02-16 04:10,,,,320.00,7.00,,30.31,,10.00,,CLR,,,,,,,,,,,,,,,,KACT 160410Z AUTO 32007KT 10SM CLR M12/M18 A3030 RMK T11201180 MADISHF
ACT,2021-02-16 04:15,,,,320.00,5.00,,30.31,,10.00,,CLR,,,,,,,,,,,,,,,,KACT 160415Z AUTO 32005KT 10SM CLR M12/M18 A3030 RMK T11201180 MADISHF
ACT,2021-02-16 04:20,,,,320.00,5.00,,30.31,,10.00,,CLR,,,,,,,,,,,,,,,,KACT 160420Z AUTO 32005KT 10SM CLR M12/M18 A3030 RMK T11201180 MADISHF
ACT,2021-02-16 04:25,,,,320.00,5.00,,30.31,,10.00,,CLR,,,,,,,,,,,,,,,,KACT 160425Z AUTO 32005KT 10SM CLR M13/M18 A3030 RMK T11301180 MADISHF
ACT,2021-02-16 04:30,,,,320.00,7.00,,30.32,,10.00,,CLR,,,,,,,,,,,,,,,,KACT 160430Z AUTO 32007KT 10SM CLR M13/M18 A3031 RMK T11301180 MADISHF
ACT,2021-02-16 04:35,,,,320.00,7.00,,30.32,,10.00,,CLR,,,,,,,,,,,,,,,,KACT 160435Z AUTO 32007KT 10SM CLR M13/M18 A3031 RMK T11301180 MADISHF
ACT,2021-02-16 04:40,,,,320.00,5.00,,30.32,,10.00,,CLR,,,,,,,,,,,,,,,,KACT 160440Z AUTO 32005KT 10SM CLR M13/M18 A3031 RMK T11301180 MADISHF
ACT,2021-02-16 04:45,,,,330.00,5.00,,30.32,,10.00,,CLR,,,,,,,,,,,,,,,,KACT 160445Z AUTO 33005KT 10SM CLR M13/M18 A3031 RMK T11301180 MADISHF
ACT,2021-02-16 04:50,,,,330.00,5.00,,30.31,,10.00,,CLR,,,,,,,,,,,,,,,,KACT 160450Z AUTO 33005KT 10SM CLR M13/M18 A3030 RMK T11301180 MADISHF
ACT,2021-02-16 04:51,8.10,-0.90,66.04,330.00,5.00,0.00,30.31,1027.40,10.00,,CLR,,,,,,,,,,,,,,,-1.99,KACT 160451Z 33005KT 10SM CLR M13/M18 A3031 RMK AO2 SLP274 T11331183
ACT,2021-02-16 04:55,,,,330.00,5.00,,30.31,,10.00,,CLR,,,,,,,,,,,,,,,,KACT 160455Z AUTO 33005KT 10SM CLR M13/M18 A3030 RMK T11301180 MADISHF
ACT,2021-02-16 05:00,,,,330.00,5.00,,30.31,,10.00,,CLR,,,,,,,,,,,,,,,,KACT 160500Z AUTO 33005KT 10SM CLR M13/M18 A3030 RMK T11301180 MADISHF
ACT,2021-02-16 05:05,,,,330.00,4.00,,30.31,,10.00,,CLR,,,,,,,,,,,,,,,,KACT 160505Z AUTO 33004KT 10SM CLR M13/M18 A3030 RMK T11301180 MADISHF
ACT,2021-02-16 05:10,,,,330.00,2.00,,30.31,,10.00,,CLR,,,,,,,,,,,,,,,,KACT 160510Z AUTO 33002KT 10SM CLR M13/M18 A3030 RMK T11301180 MADISHF
ACT,2021-02-16 05:15,,,,330.00,4.00,,30.30,,10.00,,CLR,,,,,,,,,,,,,,,,KACT 160515Z AUTO 33004KT 10SM CLR M14/M18 A3029 RMK T11401180 MADISHF
ACT,2021-02-16 05:20,,,,320.00,2.00,,30.30,,10.00,,CLR,,,,,,,,,,,,,,,,KACT 160520Z AUTO 32002KT 10SM CLR M14/M19 A3029 RMK T11401190 MADISHF
ACT,2021-02-16 05:25,,,,320.00,2.00,,30.30,,10.00,,CLR,,,,,,,,,,,,,,,,KACT 160525Z AUTO 32002KT 10SM CLR M14/M18 A3029 RMK T11401180 MADISHF
ACT,2021-02-16 05:30,,,,320.00,2.00,,30.30,,10.00,,CLR,,,,,,,,,,,,,,,,KACT 160530Z AUTO 32002KT 10SM CLR M14/M18 A3029 RMK T11401180 MADISHF
ACT,2021-02-16 05:35,,,,310.00,4.00,,30.30,,10.00,,CLR,,,,,,,,,,,,,,,,KACT 160535Z AUTO 31004KT 10SM CLR M14/M18 A3029 RMK T11401180 MADISHF
ACT,2021-02-16 05:40,,,,300.00,4.00,,30.30,,10.00,,CLR,,,,,,,,,,,,,,,,KACT 160540Z AUTO 30004KT 10SM CLR M14/M18 A3029 RMK T11401180 MADISHF
ACT,2021-02-16 05:45,,,,300.00,2.00,,30.30,,10.00,,CLR,,,,,,,,,,,,,,,,KACT 160545Z AUTO 30002KT 10SM CLR M14/M18 A3029 RMK T11401180 MADISHF
ACT,2021-02-16 05:50,,,,290.00,4.00,,30.30,,10.00,,CLR,,,,,,,,,,,,,,,,KACT 160550Z AUTO 29004KT 10SM CLR M14/M19 A3029 RMK T11401190 MADISHF
ACT,2021-02-16 05:51,6.10,-2.00,68.64,290.00,4.00,0.00,30.30,1027.00,10.00,,CLR,,,,,,,,,,,,,,,-2.82,KACT 160551Z 29004KT 10SM CLR M14/M19 A3030 RMK AO2 SLP270 60000 T11441189 11083 21144 410671144 50006
ACT,2021-02-16 05:55,,,,290.00,4.00,,30.30,,10.00,,CLR,,,,,,,,,,,,,,,,KACT 160555Z AUTO 29004KT 10SM CLR M14/M19 A3029 RMK T11401190 MADISHF
ACT,2021-02-16 06:00,,,,290.00,5.00,,30.31,,10.00,,CLR,,,,,,,,,,,,,,,,KACT 160600Z AUTO 29005KT 10SM CLR M15/M19 A3030 RMK T11501190 MADISHF
ACT,2021-02-16 06:05,,,,290.00,5.00,,30.31,,10.00,,CLR,,,,,,,,,,,,,,,,KACT 160605Z AUTO 29005KT 10SM CLR M15/M19 A3030 RMK T11501190 MADISHF
ACT,2021-02-16 06:10,,,,290.00,5.00,,30.31,,10.00,,CLR,,,,,,,,,,,,,,,,KACT 160610Z AUTO 29005KT 10SM CLR M16/M19 A3030 RMK T11601190 MADISHF
ACT,2021-02-16 06:15,,,,300.00,5.00,,30.31,,10.00,,CLR,,,,,,,,,,,,,,,,KACT 160615Z AUTO 30005KT 10SM CLR M16/M20 A3030 RMK T11601200 MADISHF
ACT,2021-02-16 06:20,,,,300.00,4.00,,30.31,,10.00,,CLR,,,,,,,,,,,,,,,,KACT 160620Z AUTO 30004KT 10SM CLR M16/M19 A3030 RMK T11601190 MADISHF
ACT,2021-02-16 06:25,,,,300.00,2.00,,30.30,,10.00,,CLR,,,,,,,,,,,,,,,,KACT 160625Z AUTO 30002KT 10SM CLR M15/M19 A3029 RMK T11501190 MADISHF
ACT,2021-02-16 06:30,,,,300.00,4.00,,30.30,,10.00,,CLR,,,,,,,,,,,,,,,,KACT 160630Z AUTO 30004KT 10SM CLR M16/M19 A3029 RMK T11601190 MADISHF
ACT,2021-02-16 06:35,,,,300.00,4.00,,30.30,,10.00,,CLR,,,,,,,,,,,,,,,,KACT 160635Z AUTO 30004KT 10SM CLR M16/M19 A3029 RMK T11601190 MADISHF
ACT,2021-02-16 06:40,,,,310.00,5.00,,30.30,,10.00,,CLR,,,,,,,,,,,,,,,,KACT 160640Z AUTO 31005KT 10SM CLR M16/M19 A3029 RMK T11601190 MADISHF
ACT,2021-02-16 06:45,,,,310.00,5.00,,30.30,,10.00,,CLR,,,,,,,,,,,,,,,,KACT 160645Z AUTO 31005KT 10SM CLR M15/M19 A3029 RMK T11501190 MADISHF
ACT,2021-02-16 06:50,,,,310.00,5.00,,30.30,,10.00,,CLR,,,,,,,,,,,,,,,,KACT 160650Z AUTO 31005KT 10SM CLR M15/M19 A3029 RMK T11501190 MADISHF
ACT,2021-02-16 06:51,6.10,-2.00,68.64,310.00,5.00,0.00,30.30,1026.80,10.00,,CLR,,,,,,,,,,,,,,,-4.36,KACT 160651Z AUTO 31005KT 10SM CLR M14/M19 A3030 RMK AO2 SLP268 T11441189
ACT,2021-02-16 06:55,,,,310.00,4.00,,30.30,,10.00,,CLR,,,,,,,,,,,,,,,,KACT 160655Z AUTO 31004KT 10SM CLR M14/M19 A3029 RMK T11401190 MADISHF
ACT,2021-02-16 07:00,,,,310.00,2.00,,30.29,,10.00,,CLR,,,,,,,,,,,,,,,,KACT 160700Z AUTO 31002KT 10SM CLR M17/M20 A3029 RMK T11701200 MADISHF
ACT,2021-02-16 07:05,,,,320.00,2.00,,30.29,,10.00,,CLR,,,,,,,,,,,,,,,,KACT 160705Z AUTO 32002KT 10SM CLR M17/M21 A3029 RMK T11701210 MADISHF
ACT,2021-02-16 07:10,,,,0.00,0.00,,30.30,,10.00,,CLR,,,,,,,,,,,,,,,,KACT 160710Z AUTO 00000KT 10SM CLR M18/M21 A3029 RMK T11801210 MADISHF
ACT,2021-02-16 07:15,,,,0.00,0.00,,30.30,,10.00,,CLR,,,,,,,,,,,,,,,,KACT 160715Z AUTO 00000KT 10SM CLR M18/M21 A3029 RMK T11801210 MADISHF
ACT,2021-02-16 07:20,,,,270.00,2.00,,30.30,,10.00,,CLR,,,,,,,,,,,,,,,,KACT 160720Z AUTO 27002KT 10SM CLR M18/M21 A3029 RMK T11801210 MADISHF
ACT,2021-02-16 07:25,,,,270.00,2.00,,30.30,,10.00,,CLR,,,,,,,,,,,,,,,,KACT 160725Z AUTO 27002KT 10SM CLR M18/M21 A3029 RMK T11801210 MADISHF
ACT,2021-02-16 07:30,,,,280.00,2.00,,30.30,,10.00,,CLR,,,,,,,,,,,,,,,,KACT 160730Z AUTO 28002KT 10SM CLR M17/M20 A3029 RMK T11701200 MADISHF
ACT,2021-02-16 07:35,,,,280.00,2.00,,30.30,,10.00,,CLR,,,,,,,,,,,,,,,,KACT 160735Z AUTO 28002KT 10SM CLR M16/M19 A3029 RMK T11601190 MADISHF
ACT,2021-02-16 07:40,,,,280.00,2.00,,30.30,,10.00,,CLR,,,,,,,,,,,,,,,,KACT 160740Z AUTO 28002KT 10SM CLR M16/M19 A3029 RMK T11601190 MADISHF
ACT,2021-02-16 07:45,,,,280.00,2.00,,30.30,,10.00,,CLR,,,,,,,,,,,,,,,,KACT 160745Z AUTO 28002KT 10SM CLR M15/M18 A3029 RMK T11501180 MADISHF
ACT,2021-02-16 07:50,,,,280.00,2.00,,30.30,,10.00,,CLR,,,,,,,,,,,,,,,,KACT 160750Z AUTO 28002KT 10SM CLR M15/M19 A3029 RMK T11501190 MADISHF
ACT,2021-02-16 07:51,5.00,-2.00,72.18,280.00,3.00,0.00,30.30,1026.80,10.00,,CLR,,,,,,,,,,,,,,,-2.18,KACT 160751Z AUTO 28003KT 10SM CLR M15/M19 A3030 RMK AO2 SLP268 T11501189
ACT,2021-02-16 07:55,,,,290.00,4.00,,30.30,,10.00,,CLR,,,,,,,,,,,,,,,,KACT 160755Z AUTO 29004KT 10SM CLR M16/M19 A3029 RMK T11601190 MADISHF
ACT,2021-02-16 08:00,,,,300.00,4.00,,30.30,,10.00,,CLR,,,,,,,,,,,,,,,,KACT 160800Z AUTO 30004KT 10SM CLR M17/M19 A3029 RMK T11701190 MADISHF
ACT,2021-02-16 08:05,,,,300.00,5.00,,30.30,,10.00,,CLR,,,,,,,,,,,,,,,,KACT 160805Z AUTO 30005KT 10SM CLR M16/M19 A3029 RMK T11601190 MADISHF
ACT,2021-02-16 08:10,,,,290.00,5.00,,30.30,,10.00,,CLR,,,,,,,,,,,,,,,,KACT 160810Z AUTO 29005KT 10SM CLR M16/M19 A3029 RMK T11601190 MADISHF
ACT,2021-02-16 08:15,,,,280.00,5.00,,30.30,,10.00,,CLR,,,,,,,,,,,,,,,,KACT 160815Z AUTO 28005KT 10SM CLR M16/M19 A3029 RMK T11601190 MADISHF
ACT,2021-02-16 08:20,,,,290.00,4.00,,30.29,,10.00,,CLR,,,,,,,,,,,,,,,,KACT 160820Z AUTO 29004KT 10SM CLR M17/M19 A3029 RMK T11701190 MADISHF
ACT,2021-02-16 08:25,,,,300.00,5.00,,30.29,,10.00,,CLR,,,,,,,,,,,,,,,,KACT 160825Z AUTO 30005KT 10SM CLR M16/M19 A3029 RMK T11601190 MADISHF
ACT,2021-02-16 08:30,,,,330.00,4.00,,30.29,,10.00,,CLR,,,,,,,,,,,,,,,,KACT 160830Z AUTO 33004KT 10SM CLR M16/M19 A3029 RMK T11601190 MADISHF
ACT,2021-02-16 08:35,,,,330.00,5.00,,30.29,,10.00,,CLR,,,,,,,,,,,,,,,,KACT 160835Z AUTO 33005KT 10SM CLR M16/M19 A3029 RMK T11601190 MADISHF
ACT,2021-02-16 08:40,,,,310.00,5.00,,30.30,,10.00,,CLR,,,,,,,,,,,,,,,,KACT 160840Z AUTO 31005KT 10SM CLR M15/M19 A3029 RMK T11501190 MADISHF
ACT,2021-02-16 08:45,,,,310.00,5.00,,30.29,,10.00,,CLR,,,,,,,,,,,,,,,,KACT 160845Z AUTO 31005KT 10SM CLR M15/M19 A3029 RMK T11501190 MADISHF
ACT,2021-02-16 08:50,,,,310.00,5.00,,30.29,,10.00,,CLR,,,,,,,,,,,,,,,,KACT 160850Z AUTO 31005KT 10SM CLR M16/M20 A3029 RMK T11601200 MADISHF
ACT,2021-02-16 08:51,3.00,-4.00,71.95,310.00,5.00,0.00,30.28,1026.30,10.00,,CLR,,,,,,,,,,,,,,,-8.05,KACT 160851Z AUTO 31005KT 10SM CLR M16/M20 A3028 RMK AO2 SLP263 T11611200 58006
ACT,2021-02-16 08:55,,,,310.00,5.00,,30.28,,10.00,,CLR,,,,,,,,,,,,,,,,KACT 160855Z AUTO 31005KT 10SM CLR M16/M20 A3028 RMK T11601200 MADISHF
ACT,2021-02-16 09:00,,,,310.00,5.00,,30.29,,10.00,,CLR,,,,,,,,,,,,,,,,KACT 160900Z AUTO 31005KT 10SM CLR M16/M19 A3029 RMK T11601190 MADISHF
ACT,2021-02-16 09:05,,,,300.00,5.00,,30.29,,10.00,,CLR,,,,,,,,,,,,,,,,KACT 160905Z AUTO 30005KT 10SM CLR M16/M19 A3029 RMK T11601190 MADISHF
ACT,2021-02-16 09:10,,,,310.00,5.00,,30.29,,10.00,,CLR,,,,,,,,,,,,,,,,KACT 160910Z AUTO 31005KT 10SM CLR M16/M19 A3029 RMK T11601190 MADISHF
ACT,2021-02-16 09:15,,,,320.00,4.00,,30.28,,10.00,,CLR,,,,,,,,,,,,,,,,KACT 160915Z AUTO 32004KT 10SM CLR M15/M19 A3028 RMK T11501190 MADISHF
ACT,2021-02-16 09:20,,,,320.00,4.00,,30.28,,10.00,,CLR,,,,,,,,,,,,,,,,KACT 160920Z AUTO 32004KT 10SM CLR M15/M19 A3028 RMK T11501190 MADISHF
ACT,2021-02-16 09:25,,,,340.00,4.00,,30.26,,10.00,,CLR,,,,,,,,,,,,,,,,KACT 160925Z AUTO 34004KT 10SM CLR M15/M19 A3026 RMK T11501190 MADISHF
ACT,2021-02-16 09:30,,,,340.00,2.00,,30.27,,10.00,,CLR,,,,,,,,,,,,,,,,KACT 160930Z AUTO 34002KT 10SM CLR M16/M20 A3027 RMK T11601200 MADISHF
ACT,2021-02-16 09:35,,,,330.00,2.00,,30.27,,10.00,,CLR,,,,,,,,,,,,,,,,KACT 160935Z AUTO 33002KT 10SM CLR M16/M19 A3027 RMK T11601190 MADISHF
ACT,2021-02-16 09:40,,,,280.00,2.00,,30.28,,10.00,,CLR,,,,,,,,,,,,,,,,KACT 160940Z AUTO 28002KT 10SM CLR M17/M20 A3028 RMK T11701200 MADISHF
ACT,2021-02-16 09:45,,,,270.00,4.00,,30.28,,10.00,,CLR,,,,,,,,,,,,,,,,KACT 160945Z AUTO 27004KT 10SM CLR M18/M21 A3028 RMK T11801210 MADISHF
ACT,2021-02-16 09:50,,,,280.00,5.00,,30.28,,10.00,,CLR,,,,,,,,,,,,,,,,KACT 160950Z AUTO 28005KT 10SM CLR M17/M21 A3028 RMK T11701210 MADISHF
ACT,2021-02-16 09:51,1.00,-5.10,74.89,280.00,5.00,0.00,30.28,1026.20,10.00,,CLR,,,,,,,,,,,,,,,-10.42,KACT 160951Z AUTO 28005KT 10SM CLR M17/M21 A3028 RMK AO2 SLP262 T11721206
ACT,2021-02-16 09:55,,,,290.00,4.00,,30.28,,10.00,,CLR,,,,,,,,,,,,,,,,KACT 160955Z AUTO 29004KT 10SM CLR M17/M21 A3028 RMK T11701210 MADISHF
ACT,2021-02-16 10:00,,,,300.00,5.00,,30.28,,10.00,,CLR,,,,,,,,,,,,,,,,KACT 161000Z AUTO 30005KT 10SM CLR M17/M21 A3028 RMK T11701210 MADISHF
ACT,2021-02-16 10:05,,,,320.00,5.00,,30.27,,10.00,,CLR,,,,,,,,,,,,,,,,KACT 161005Z AUTO 32005KT 10SM CLR M17/M20 A3027 RMK T11701200 MADISHF
ACT,2021-02-16 10:10,,,,320.00,5.00,,30.26,,10.00,,CLR,,,,,,,,,,,,,,,,KACT 161010Z AUTO 32005KT 10SM CLR M17/M20 A3026 RMK T11701200 MADISHF
ACT,2021-02-16 10:15,,,,320.00,5.00,,30.27,,10.00,,CLR,,,,,,,,,,,,,,,,KACT 161015Z AUTO 32005KT 10SM CLR M16/M19 A3027 RMK T11601190 MADISHF
ACT,2021-02-16 10:20,,,,320.00,5.00,,30.26,,10.00,,CLR,,,,,,,,,,,,,,,,KACT 161020Z AUTO 32005KT 10SM CLR M16/M19 A3026 RMK T11601190 MADISHF
ACT,2021-02-16 10:25,,,,320.00,4.00,,30.26,,10.00,,CLR,,,,,,,,,,,,,,,,KACT 161025Z AUTO 32004KT 10SM CLR M16/M19 A3026 RMK T11601190 MADISHF
ACT,2021-02-16 10:30,,,,330.00,4.00,,30.26,,10.00,,CLR,,,,,,,,,,,,,,,,KACT 161030Z AUTO 33004KT 10SM CLR M16/M19 A3026 RMK T11601190 MADISHF
ACT,2021-02-16 10:35,,,,320.00,4.00,,30.26,,10.00,,CLR,,,,,,,,,,,,,,,,KACT 161035Z AUTO 32004KT 10SM CLR M16/M19 A3026 RMK T11601190 MADISHF
ACT,2021-02-16 10:40,,,,320.00,4.00,,30.26,,10.00,,CLR,,,,,,,,,,,,,,,,KACT 161040Z AUTO 32004KT 10SM CLR M16/M19 A3026 RMK T11601190 MADISHF
ACT,2021-02-16 10:45,,,,320.00,5.00,,30.26,,10.00,,CLR,,,,,,,,,,,,,,,,KACT 161045Z AUTO 32005KT 10SM CLR M16/M19 A3026 RMK T11601190 MADISHF
ACT,2021-02-16 10:50,,,,330.00,5.00,,30.26,,10.00,,CLR,,,,,,,,,,,,,,,,KACT 161050Z AUTO 33005KT 10SM CLR M16/M19 A3026 RMK T11601190 MADISHF
ACT,2021-02-16 10:51,3.90,-2.90,72.74,330.00,6.00,0.00,30.26,1025.50,10.00,,CLR,,,,,,,,,,,,,,,-8.31,KACT 161051Z AUTO 33006KT 10SM CLR M16/M19 A3026 RMK AO2 SLP255 T11561194
ACT,2021-02-16 10:55,,,,340.00,5.00,,30.26,,10.00,,CLR,,,,,,,,,,,,,,,,KACT 161055Z AUTO 34005KT 10SM CLR M16/M19 A3026 RMK T11601190 MADISHF
ACT,2021-02-16 11:00,,,,350.00,5.00,,30.26,,10.00,,CLR,,,,,,,,,,,,,,,,KACT 161100Z AUTO 35005KT 10SM CLR M16/M20 A3026 RMK T11601200 MADISHF
ACT,2021-02-16 11:05,,,,340.00,5.00,,30.26,,10.00,,CLR,,,,,,,,,,,,,,,,KACT 161105Z AUTO 34005KT 10SM CLR M16/M20 A3026 RMK T11601200 MADISHF
ACT,2021-02-16 11:10,,,,340.00,5.00,,30.26,,10.00,,CLR,,,,,,,,,,,,,,,,KACT 161110Z AUTO 34005KT 10SM CLR M16/M20 A3026 RMK T11601200 MADISHF
ACT,2021-02-16 11:15,,,,330.00,5.00,,30.27,,10.00,,CLR,,,,,,,,,,,,,,,,KACT 161115Z AUTO 33005KT 10SM CLR M17/M20 A3027 RMK T11701200 MADISHF
ACT,2021-02-16 11:20,,,,310.00,5.00,,30.28,,10.00,,CLR,,,,,,,,,,,,,,,,KACT 161120Z AUTO 31005KT 10SM CLR M17/M20 A3028 RMK T11701200 MADISHF
ACT,2021-02-16 11:25,,,,320.00,5.00,,30.27,,10.00,,CLR,,,,,,,,,,,,,,,,KACT 161125Z AUTO 32005KT 10SM CLR M16/M19 A3027 RMK T11601190 MADISHF
ACT,2021-02-16 11:30,,,,330.00,4.00,,30.27,,10.00,,CLR,,,,,,,,,,,,,,,,KACT 161130Z AUTO 33004KT 10SM CLR M16/M19 A3027 RMK T11601190 MADISHF
ACT,2021-02-16 11:35,,,,330.00,4.00,,30.26,,10.00,,CLR,,,,,,,,,,,,,,,,KACT 161135Z AUTO 33004KT 10SM CLR M16/M19 A3026 RMK T11601190 MADISHF
ACT,2021-02-16 11:40,,,,340.00,5.00,,30.26,,10.00,,CLR,,,,,,,,,,,,,,,,KACT 161140Z AUTO 34005KT 10SM CLR M17/M20 A3026 RMK T11701200 MADISHF
ACT,2021-02-16 11:45,,,,340.00,5.00,,30.26,,10.00,,CLR,,,,,,,,,,,,,,,,KACT 161145Z AUTO 34005KT 10SM CLR M17/M20 A3026 RMK T11701200 MADISHF
ACT,2021-02-16 11:50,,,,340.00,5.00,,30.25,,10.00,,CLR,,,,,,,,,,,,,,,,KACT 161150Z AUTO 34005KT 10SM CLR M17/M20 A3025 RMK T11701200 MADISHF
ACT,2021-02-16 11:51,1.90,-4.00,75.71,340.00,5.00,0.00,30.25,1025.30,10.00,,CLR,,,,,,,,,,,,,,,-9.35,KACT 161151Z 34005KT 10SM CLR M17/M20 A3025 RMK AO2 SLP253 T11671200 11144 21183 58010
ACT,2021-02-16 11:55,,,,320.00,4.00,,30.26,,10.00,,CLR,,,,,,,,,,,,,,,,KACT 161155Z AUTO 32004KT 10SM CLR M17/M20 A3026 RMK T11701200 MADISHF
ACT,2021-02-16 12:00,,,,310.00,5.00,,30.26,,10.00,,CLR,,,,,,,,,,,,,,,,KACT 161200Z AUTO 31005KT 10SM CLR M17/M20 A3026 RMK T11701200 MADISHF
ACT,2021-02-16 12:05,,,,310.00,5.00,,30.26,,10.00,,CLR,,,,,,,,,,,,,,,,KACT 161205Z AUTO 31005KT 10SM CLR M16/M20 A3026 RMK T11601200 MADISHF
ACT,2021-02-16 12:10,,,,310.00,5.00,,30.26,,10.00,,CLR,,,,,,,,,,,,,,,,KACT 161210Z AUTO 31005KT 10SM CLR M16/M20 A3026 RMK T11601200 MADISHF
ACT,2021-02-16 12:15,,,,320.00,5.00,,30.25,,10.00,,CLR,,,,,,,,,,,,,,,,KACT 161215Z AUTO 32005KT 10SM CLR M16/M20 A3025 RMK T11601200 MADISHF
ACT,2021-02-16 12:20,,,,330.00,5.00,,30.25,,10.00,,CLR,,,,,,,,,,,,,,,,KACT 161220Z AUTO 33005KT 10SM CLR M16/M19 A3025 RMK T11601190 MADISHF
ACT,2021-02-16 12:25,,,,320.00,5.00,,30.25,,10.00,,CLR,,,,,,,,,,,,,,,,KACT 161225Z AUTO 32005KT 10SM CLR M16/M19 A3025 RMK T11601190 MADISHF
ACT,2021-02-16 12:30,,,,330.00,5.00,,30.25,,10.00,,CLR,,,,,,,,,,,,,,,,KACT 161230Z AUTO 33005KT 10SM CLR M16/M19 A3025 RMK T11601190 MADISHF
ACT,2021-02-16 12:35,,,,330.00,7.00,,30.25,,10.00,,CLR,,,,,,,,,,,,,,,,KACT 161235Z AUTO 33007KT 10SM CLR M16/M19 A3025 RMK T11601190 MADISHF
ACT,2021-02-16 12:40,,,,330.00,5.00,,30.24,,10.00,,CLR,,,,,,,,,,,,,,,,KACT 161240Z AUTO 33005KT 10SM CLR M16/M19 A3023 RMK T11601190 MADISHF
ACT,2021-02-16 12:45,,,,330.00,7.00,,30.24,,10.00,,CLR,,,,,,,,,,,,,,,,KACT 161245Z AUTO 33007KT 10SM CLR M16/M19 A3023 RMK T11601190 MADISHF
ACT,2021-02-16 12:50,,,,340.00,5.00,,30.24,,10.00,,CLR,,,,,,,,,,,,,,,,KACT 161250Z AUTO 34005KT 10SM CLR M16/M19 A3023 RMK T11601190 MADISHF
ACT,2021-02-16 12:51,3.00,-2.90,75.82,340.00,5.00,0.00,30.24,1025.00,10.00,,CLR,,,,,,,,,,,,,,,-8.05,KACT 161251Z 34005KT 10SM CLR M16/M19 A3024 RMK AO2 SLP250 T11611194
ACT,2021-02-16 12:55,,,,320.00,5.00,,30.25,,10.00,,CLR,,,,,,,,,,,,,,,,KACT 161255Z AUTO 32005KT 10SM CLR M16/M19 A3025 RMK T11601190 MADISHF
ACT,2021-02-16 13:00,,,,320.00,5.00,,30.25,,10.00,,CLR,,,,,,,,,,,,,,,,KACT 161300Z AUTO 32005KT 10SM CLR M16/M19 A3025 RMK T11601190 MADISHF
ACT,2021-02-16 13:05,,,,320.00,5.00,,30.25,,10.00,,CLR,,,,,,,,,,,,,,,,KACT 161305Z AUTO 32005KT 10SM CLR M16/M19 A3025 RMK T11601190 MADISHF
ACT,2021-02-16 13:10,,,,340.00,5.00,,30.24,,10.00,,CLR,,,,,,,,,,,,,,,,KACT 161310Z AUTO 34005KT 10SM CLR M16/M19 A3023 RMK T11601190 MADISHF
ACT,2021-02-16 13:15,,,,340.00,5.00,,30.24,,10.00,,CLR,,,,,,,,,,,,,,,,KACT 161315Z AUTO 34005KT 10SM CLR M16/M19 A3023 RMK T11601190 MADISHF
ACT,2021-02-16 13:20,,,,340.00,5.00,,30.25,,10.00,,CLR,,,,,,,,,,,,,,,,KACT 161320Z AUTO 34005KT 10SM CLR M16/M19 A3025 RMK T11601190 MADISHF
ACT,2021-02-16 13:25,,,,330.00,5.00,,30.25,,10.00,,CLR,,,,,,,,,,,,,,,,KACT 161325Z AUTO 33005KT 10SM CLR M16/M19 A3025 RMK T11601190 MADISHF
ACT,2021-02-16 13:30,,,,330.00,5.00,,30.26,,10.00,,CLR,,,,,,,,,,,,,,,,KACT 161330Z AUTO 33005KT 10SM CLR M16/M19 A3026 RMK T11601190 MADISHF
ACT,2021-02-16 13:35,,,,330.00,4.00,,30.26,,10.00,,CLR,,,,,,,,,,,,,,,,KACT 161335Z AUTO 33004KT 10SM CLR M15/M19 A3026 RMK T11501190 MADISHF
ACT,2021-02-16 13:40,,,,320.00,4.00,,30.26,,10.00,,CLR,,,,,,,,,,,,,,,,KACT 161340Z AUTO 32004KT 10SM CLR M15/M19 A3026 RMK T11501190 MADISHF
ACT,2021-02-16 13:45,,,,320.00,5.00,,30.26,,10.00,,CLR,,,,,,,,,,,,,,,,KACT 161345Z AUTO 32005KT 10SM CLR M15/M19 A3026 RMK T11501190 MADISHF
ACT,2021-02-16 13:50,,,,320.00,5.00,,30.26,,10.00,,CLR,,,,,,,,,,,,,,,,KACT 161350Z AUTO 32005KT 10SM CLR M15/M19 A3026 RMK T11501190 MADISHF
ACT,2021-02-16 13:51,5.00,-2.90,69.16,320.00,5.00,0.00,30.26,1025.60,10.00,,CLR,,,,,,,,,,,,,,,-5.67,KACT 161351Z 32005KT 10SM CLR M15/M19 A3026 RMK AO2 SLP256 T11501194
ACT,2021-02-16 13:55,,,,320.00,4.00,,30.27,,10.00,,CLR,,,,,,,,,,,,,,,,KACT 161355Z AUTO 32004KT 10SM CLR M15/M19 A3027 RMK T11501190 MADISHF
ACT,2021-02-16 14:00,,,,310.00,5.00,,30.27,,10.00,,CLR,,,,,,,,,,,,,,,,KACT 161400Z AUTO 31005KT 10SM CLR M15/M19 A3027 RMK T11501190 MADISHF
ACT,2021-02-16 14:05,,,,310.00,4.00,,30.28,,10.00,,CLR,,,,,,,,,,,,,,,,KACT 161405Z AUTO 31004KT 10SM CLR M15/M19 A3028 RMK T11501190 MADISHF
ACT,2021-02-16 14:10,,,,310.00,4.00,,30.28,,10.00,,CLR,,,,,,,,,,,,,,,,KACT 161410Z AUTO 31004KT 10SM CLR M15/M19 A3028 RMK T11501190 MADISHF
ACT,2021-02-16 14:15,,,,300.00,2.00,,30.29,,10.00,,CLR,,,,,,,,,,,,,,,,KACT 161415Z AUTO 30002KT 10SM CLR M14/M19 A3029 RMK T11401190 MADISHF
ACT,2021-02-16 14:20,,,,0.00,0.00,,30.29,,10.00,,CLR,,,,,,,,,,,,,,,,KACT 161420Z AUTO 00000KT 10SM CLR M14/M19 A3029 RMK T11401190 MADISHF
ACT,2021-02-16 14:25,,,,0.00,0.00,,30.28,,10.00,,CLR,,,,,,,,,,,,,,,,KACT 161425Z AUTO 00000KT 10SM CLR M13/M18 A3028 RMK T11301180 MADISHF
ACT,2021-02-16 14:30,,,,0.00,0.00,,30.28,,10.00,,CLR,,,,,,,,,,,,,,,,KACT 161430Z AUTO 00000KT 10SM CLR M14/M18 A3028 RMK T11401180 MADISHF
ACT,2021-02-16 14:35,,,,0.00,0.00,,30.29,,10.00,,CLR,,,,,,,,,,,,,,,,KACT 161435Z AUTO 00000KT 10SM CLR M13/M18 A3029 RMK T11301180 MADISHF
ACT,2021-02-16 14:40,,,,0.00,0.00,,30.29,,10.00,,CLR,,,,,,,,,,,,,,,,KACT 161440Z AUTO 00000KT 10SM CLR M13/M18 A3029 RMK T11301180 MADISHF
ACT,2021-02-16 14:45,,,,0.00,0.00,,30.29,,10.00,,CLR,,,,,,,,,,,,,,,,KACT 161445Z AUTO 00000KT 10SM CLR M13/M18 A3029 RMK T11301180 MADISHF
ACT,2021-02-16 14:50,,,,0.00,0.00,,30.28,,10.00,,CLR,,,,,,,,,,,,,,,,KACT 161450Z AUTO 00000KT 10SM CLR M13/M18 A3028 RMK T11301180 MADISHF
ACT,2021-02-16 14:51,8.10,-0.90,66.04,0.00,0.00,0.00,30.29,1026.40,10.00,,CLR,,,,,,,,,,,,,,,,KACT 161451Z 00000KT 10SM CLR M13/M18 A3029 RMK AO2 SLP264 T11331183 53011
ACT,2021-02-16 14:55,,,,0.00,0.00,,30.29,,10.00,,CLR,,,,,,,,,,,,,,,,KACT 161455Z AUTO 00000KT 10SM CLR M14/M18 A3029 RMK T11401180 MADISHF
ACT,2021-02-16 15:00,,,,0.00,0.00,,30.30,,10.00,,CLR,,,,,,,,,,,,,,,,KACT 161500Z AUTO 00000KT 10SM CLR M14/M18 A3029 RMK T11401180 MADISHF
ACT,2021-02-16 15:05,,,,0.00,0.00,,30.29,,10.00,,CLR,,,,,,,,,,,,,,,,KACT 161505Z AUTO 00000KT 10SM CLR M14/M18 A3029 RMK T11401180 MADISHF
ACT,2021-02-16 15:10,,,,0.00,0.00,,30.30,,10.00,,CLR,,,,,,,,,,,,,,,,KACT 161510Z AUTO 00000KT 10SM CLR M14/M18 A3029 RMK T11401180 MADISHF
ACT,2021-02-16 15:15,,,,0.00,0.00,,30.30,,10.00,,CLR,,,,,,,,,,,,,,,,KACT 161515Z AUTO 00000KT 10SM CLR M13/M18 A3029 RMK T11301180 MADISHF
ACT,2021-02-16 15:20,,,,0.00,0.00,,30.30,,10.00,,CLR,,,,,,,,,,,,,,,,KACT 161520Z AUTO 00000KT 10SM CLR M13/M18 A3029 RMK T11301180 MADISHF
ACT,2021-02-16 15:25,,,,0.00,0.00,,30.29,,10.00,,CLR,,,,,,,,,,,,,,,,KACT 161525Z AUTO 00000KT 10SM CLR M13/M17 A3029 RMK T11301170 MADISHF
ACT,2021-02-16 15:30,,,,130.00,2.00,,30.29,,10.00,,CLR,,,,,,,,,,,,,,,,KACT 161530Z AUTO 13002KT 10SM CLR M13/M17 A3029 RMK T11301170 MADISHF
ACT,2021-02-16 15:35,,,,110.00,4.00,,30.29,,10.00,,CLR,,,,,,,,-SN,,,,,,,,KACT 161535Z AUTO 11004KT 10SM -SN CLR M13/M18 A3029 RMK T11301180 MADISHF
ACT,2021-02-16 15:40,,,,110.00,4.00,,30.29,,9.00,,CLR,,,,,,,,-SN,,,,,,,,KACT 161540Z AUTO 11004KT 9SM -SN CLR M13/M18 A3029 RMK T11301180 MADISHF
ACT,2021-02-16 15:45,,,,120.00,4.00,,30.29,,9.00,,CLR,,,,,,,,-SN,,,,,,,,KACT 161545Z AUTO 12004KT 9SM -SN CLR M13/M18 A3029 RMK T11301180 MADISHF
ACT,2021-02-16 15:50,,,,130.00,4.00,,30.29,,10.00,,CLR,,,,,,,,,,,,,,,,KACT 161550Z AUTO 13004KT 10SM CLR M12/M17 A3029 RMK T11201170 MADISHF
ACT,2021-02-16 15:51,10.00,1.00,66.29,130.00,4.00,T,30.29,1026.60,10.00,,CLR,,,,,,,,,,,,,,,1.73,KACT 161551Z 13004KT 10SM CLR M12/M17 A3029 RMK AO2 SNB31E47 SLP266 P0000 T11221172
ACT,2021-02-16 15:55,,,,140.00,4.00,,30.29,,10.00,,CLR,,,,,,,,,,,,,,,,KACT 161555Z AUTO 14004KT 10SM CLR M12/M17 A3029 RMK T11201170 MADISHF
ACT,2021-02-16 16:00,,,,150.00,2.00,,30.29,,10.00,,CLR,,,,,,,,,,,,,,,,KACT 161600Z AUTO 15002KT 10SM CLR M12/M17 A3029 RMK T11201170 VRB03KT  MADISHF
ACT,2021-02-16 16:05,,,,110.00,2.00,,30.29,,10.00,,CLR,,,,,,,,,,,,,,,,KACT 161605Z AUTO 11002KT 10SM CLR M12/M17 A3029 RMK T11201170 MADISHF
ACT,2021-02-16 16:10,,,,130.00,5.00,,30.28,,10.00,,CLR,,,,,,,,,,,,,,,,KACT 161610Z AUTO 13005KT 10SM CLR M12/M17 A3028 RMK T11201170 MADISHF
ACT,2021-02-16 16:15,,,,130.00,5.00,,30.28,,10.00,,CLR,,,,,,,,,,,,,,,,KACT 161615Z AUTO 13005KT 10SM CLR M12/M17 A3028 RMK T11201170 MADISHF
ACT,2021-02-16 16:20,,,,110.00,2.00,,30.27,,10.00,,CLR,,,,,,,,,,,,,,,,KACT 161620Z AUTO 11002KT 10SM CLR M12/M18 A3027 RMK T11201180 MADISHF
ACT,2021-02-16 16:25,,,,120.00,7.00,,30.26,,10.00,,CLR,,,,,,,,,,,,,,,,KACT 161625Z AUTO 12007KT 10SM CLR M11/M17 A3026 RMK T11101170 MADISHF
ACT,2021-02-16 16:30,,,,130.00,5.00,,30.26,,10.00,,CLR,,,,,,,,,,,,,,,,KACT 161630Z AUTO 13005KT 10SM CLR M11/M17 A3026 RMK T11101170 MADISHF
ACT,2021-02-16 16:35,,,,110.00,5.00,,30.27,,10.00,,CLR,,,,,,,,,,,,,,,,KACT 161635Z AUTO 11005KT 10SM CLR M11/M17 A3027 RMK T11101170 MADISHF
ACT,2021-02-16 16:40,,,,120.00,5.00,,30.27,,10.00,,CLR,,,,,,,,,,,,,,,,KACT 161640Z AUTO 12005KT 10SM CLR M11/M17 A3027 RMK T11101170 MADISHF
ACT,2021-02-16 16:45,,,,130.00,5.00,,30.27,,10.00,,CLR,,,,,,,,,,,,,,,,KACT 161645Z AUTO 13005KT 10SM CLR M11/M17 A3027 RMK T11101170 MADISHF
ACT,2021-02-16 16:50,,,,110.00,4.00,,30.27,,10.00,,CLR,,,,,,,,,,,,,,,,KACT 161650Z AUTO 11004KT 10SM CLR M11/M17 A3027 RMK T11101170 MADISHF
ACT,2021-02-16 16:51,12.00,1.90,63.25,100.00,4.00,0.00,30.26,1025.70,10.00,,CLR,,,,,,,,,,,,,,,4.07,KACT 161651Z 10004KT 10SM CLR M11/M17 A3026 RMK AO2 SLP257 T11111167
ACT,2021-02-16 16:55,,,,110.00,2.00,,30.26,,10.00,,CLR,,,,,,,,,,,,,,,,KACT 161655Z AUTO 11002KT 10SM CLR M11/M17 A3026 RMK T11101170 MADISHF
ACT,2021-02-16 17:00,,,,110.00,5.00,,30.25,,10.00,,CLR,,,,,,,,,,,,,,,,KACT 161700Z AUTO 11005KT 10SM CLR M11/M17 A3025 RMK T11101170 MADISHF
ACT,2021-02-16 17:05,,,,140.00,4.00,,30.25,,10.00,,CLR,,,,,,,,,,,,,,,,KACT 161705Z AUTO 14004KT 10SM CLR M11/M17 A3025 RMK T11101170 MADISHF
ACT,2021-02-16 17:10,,,,160.00,2.00,,30.25,,10.00,,CLR,,,,,,,,,,,,,,,,KACT 161710Z AUTO 16002KT 10SM CLR M11/M17 A3025 RMK T11101170 MADISHF
ACT,2021-02-16 17:15,,,,160.00,2.00,,30.25,,10.00,,CLR,,,,,,,,,,,,,,,,KACT 161715Z AUTO 16002KT 10SM CLR M11/M16 A3025 RMK T11101160 MADISHF
ACT,2021-02-16 17:20,,,,130.00,2.00,,30.25,,10.00,,CLR,,,,,,,,,,,,,,,,KACT 161720Z AUTO 13002KT 10SM CLR M10/M17 A3025 RMK T11001170 MADISHF
ACT,2021-02-16 17:25,,,,140.00,4.00,,30.24,,10.00,,CLR,,,,,,,,,,,,,,,,KACT 161725Z AUTO 14004KT 10SM CLR M10/M17 A3023 RMK T11001170 MADISHF
ACT,2021-02-16 17:30,,,,150.00,2.00,,30.24,,10.00,,CLR,,,,,,,,,,,,,,,,KACT 161730Z AUTO 15002KT 10SM CLR M11/M17 A3023 RMK T11101170 MADISHF
ACT,2021-02-16 17:35,,,,140.00,4.00,,30.24,,10.00,,CLR,,,,,,,,,,,,,,,,KACT 161735Z AUTO 14004KT 10SM CLR M10/M16 A3023 RMK T11001160 MADISHF
ACT,2021-02-16 17:40,,,,120.00,5.00,,30.24,,10.00,,CLR,,,,,,,,,,,,,,,,KACT 161740Z AUTO 12005KT 10SM CLR M10/M16 A3023 RMK T11001160 MADISHF
ACT,2021-02-16 17:45,,,,140.00,5.00,,30.24,,10.00,,CLR,,,,,,,,,,,,,,,,KACT 161745Z AUTO 14005KT 10SM CLR M10/M16 A3023 RMK T11001160 MADISHF
ACT,2021-02-16 17:50,,,,150.00,5.00,,30.23,,10.00,,CLR,,,,,,,,,,,,,,,,KACT 161750Z AUTO 15005KT 10SM CLR M09/M16 A3022 RMK T10901160 MADISHF
ACT,2021-02-16 17:51,15.10,3.00,58.08,140.00,6.00,0.00,30.23,1024.60,10.00,,CLR,,,,,,,,,,,,,,,5.18,KACT 161751Z 14006KT 10SM CLR M09/M16 A3023 RMK AO2 SLP246 60000 T10941161 11094 21167 58017
ACT,2021-02-16 17:55,,,,110.00,5.00,,30.24,,10.00,,CLR,,,,,,,,,,,,,,,,KACT 161755Z AUTO 11005KT 10SM CLR M09/M16 A3023 RMK T10901160 MADISHF
ACT,2021-02-16 18:00,,,,130.00,2.00,,30.24,,10.00,,CLR,,,,,,,,,,,,,,,,KACT 161800Z AUTO 13002KT 10SM CLR M09/M16 A3023 RMK T10901160 VRB03KT  MADISHF
ACT,2021-02-16 18:05,,,,160.00,2.00,,30.24,,10.00,,CLR,,,,,,,,,,,,,,,,KACT 161805Z AUTO 16002KT 10SM CLR M09/M16 A3023 RMK T10901160 MADISHF
ACT,2021-02-16 18:10,,,,130.00,2.00,,30.24,,10.00,,CLR,,,,,,,,,,,,,,,,KACT 161810Z AUTO 13002KT 10SM CLR M09/M16 A3023 RMK T10901160 MADISHF
ACT,2021-02-16 18:15,,,,130.00,5.00,,30.23,,10.00,,CLR,,,,,,,,,,,,,,,,KACT 161815Z AUTO 13005KT 10SM CLR M09/M16 A3022 RMK T10901160 MADISHF
ACT,2021-02-16 18:20,,,,120.00,5.00,,30.23,,10.00,,CLR,,,,,,,,,,,,,,,,KACT 161820Z AUTO 12005KT 10SM CLR M09/M16 A3022 RMK T10901160 MADISHF
ACT,2021-02-16 18:25,,,,150.00,2.00,,30.24,,10.00,,CLR,,,,,,,,,,,,,,,,KACT 161825Z AUTO 15002KT 10SM CLR M09/M16 A3023 RMK T10901160 MADISHF
ACT,2021-02-16 18:30,,,,0.00,0.00,,30.24,,10.00,,CLR,,,,,,,,,,,,,,,,KACT 161830Z AUTO 00000KT 10SM CLR M09/M16 A3023 RMK T10901160 MADISHF
ACT,2021-02-16 18:35,,,,140.00,5.00,,30.23,,10.00,,CLR,,,,,,,,,,,,,,,,KACT 161835Z AUTO 14005KT 10SM CLR M08/M16 A3022 RMK T10801160 MADISHF
ACT,2021-02-16 18:40,,,,150.00,5.00,,30.23,,10.00,,CLR,,,,,,,,,,,,,,,,KACT 161840Z AUTO 15005KT 10SM CLR M09/M16 A3022 RMK T10901160 MADISHF
ACT,2021-02-16 18:45,,,,170.00,2.00,,30.23,,10.00,,CLR,,,,,,,,,,,,,,,,KACT 161845Z AUTO 17002KT 10SM CLR M08/M15 A3022 RMK T10801150 VRB03KT  MADISHF
ACT,2021-02-16 18:50,,,,0.00,0.00,,30.22,,10.00,,FEW,,,,4200.00,,,,,,,,,,,,KACT 161850Z AUTO 00000KT 10SM FEW042 M08/M14 A3021 RMK T10801140 MADISHF
ACT,2021-02-16 18:51,18.00,5.00,56.16,,3.00,0.00,30.22,1024.10,10.00,,SCT,,,,4200.00,,,,,,,,,,,12.68,KACT 161851Z VRB03KT 10SM SCT042 M08/M15 A3022 RMK AO2 SLP241 T10781150
ACT,2021-02-16 19:00,,,,180.00,4.00,,30.21,,10.00,,FEW,,,,4200.00,,,,,,,,,,,,KACT 161900Z AUTO 18004KT 10SM FEW042 M08/M14 A3020 RMK T10801140 MADISHF
ACT,2021-02-16 19:05,,,,160.00,5.00,,30.21,,10.00,,SCT,,,,4200.00,,,,,,,,,,,,KACT 161905Z AUTO 16005KT 10SM SCT042 M08/M14 A3020 RMK T10801140 MADISHF
ACT,2021-02-16 19:10,,,,160.00,5.00,,30.20,,10.00,,BKN,,,,3999.00,,,,,,,,,,,,KACT 161910Z AUTO 16005KT 10SM BKN039 M08/M14 A3020 RMK T10801140 MADISHF
ACT,2021-02-16 19:15,,,,170.00,2.00,,30.20,,10.00,,BKN,,,,3999.00,,,,,,,,,,,,KACT 161915Z AUTO 17002KT 10SM BKN039 M08/M14 A3020 RMK T10801140 MADISHF
ACT,2021-02-16 19:20,,,,170.00,4.00,,30.20,,10.00,,BKN,,,,3999.00,,,,,,,,,,,,KACT 161920Z AUTO 17004KT 10SM BKN039 M08/M14 A3020 RMK T10801140 MADISHF
ACT,2021-02-16 19:25,,,,120.00,4.00,,30.20,,10.00,,BKN,,,,3999.00,,,,,,,,,,,,KACT 161925Z AUTO 12004KT 10SM BKN039 M07/M14 A3020 RMK T10701140 MADISHF
ACT,2021-02-16 19:30,,,,150.00,5.00,,30.19,,10.00,,BKN,,,,3900.00,,,,,,,,,,,,KACT 161930Z AUTO 15005KT 10SM BKN039 M07/M14 A3019 RMK T10701140 MADISHF
ACT,2021-02-16 19:35,,,,130.00,4.00,,30.17,,10.00,,BKN,,,,3900.00,,,,,,,,,,,,KACT 161935Z AUTO 13004KT 10SM BKN039 M08/M15 A3017 RMK T10801150 MADISHF
ACT,2021-02-16 19:40,,,,100.00,8.00,,30.16,,10.00,,SCT,,,,3900.00,,,,,,,,,,,,KACT 161940Z AUTO 10008KT 10SM SCT039 M07/M14 A3015 RMK T10701140 MADISHF
ACT,2021-02-16 19:45,,,,110.00,10.00,,30.14,,10.00,,FEW,,,,3900.00,,,,,,,,,,,,KACT 161945Z AUTO 11010KT 10SM FEW039 M07/M14 A3013 RMK T10701140 MADISHF
ACT,2021-02-16 19:50,,,,120.00,10.00,,30.13,,10.00,,FEW,,,,3900.00,,,,,,,,,,,,KACT 161950Z AUTO 12010KT 10SM FEW039 M07/M14 A3012 RMK T10701140 MADISHF
ACT,2021-02-16 19:51,19.00,6.10,56.57,120.00,8.00,0.00,30.13,1021.10,10.00,,FEW,,,,3900.00,,,,,,,,,,,8.10,KACT 161951Z 12008KT 10SM FEW039 M07/M14 A3013 RMK AO2 SLP211 T10721144
ACT,2021-02-16 19:55,,,,140.00,10.00,,30.14,,10.00,,CLR,,,,,,,,,,,,,,,,KACT 161955Z AUTO 14010KT 10SM CLR M07/M14 A3013 RMK T10701140 MADISHF
ACT,2021-02-16 20:00,,,,120.00,5.00,,30.15,,10.00,,CLR,,,,,,,,,,,,,,,,KACT 162000Z AUTO 12005KT 10SM CLR M07/M14 A3014 RMK T10701140 MADISHF
ACT,2021-02-16 20:05,,,,110.00,9.00,,30.14,,10.00,,CLR,,,,,,,,,,,,,,,,KACT 162005Z AUTO 11009KT 10SM CLR M07/M14 A3013 RMK T10701140 MADISHF
ACT,2021-02-16 20:10,,,,120.00,8.00,,30.14,,10.00,,CLR,,,,,,,,,,,,,,,,KACT 162010Z AUTO 12008KT 10SM CLR M07/M14 A3013 RMK T10701140 MADISHF
ACT,2021-02-16 20:15,,,,120.00,9.00,,30.14,,10.00,,CLR,,,,,,,,,,,,,,,,KACT 162015Z AUTO 12009KT 10SM CLR M07/M14 A3013 RMK T10701140 MADISHF
ACT,2021-02-16 20:20,,,,110.00,8.00,,30.13,,10.00,,CLR,,,,,,,,,,,,,,,,KACT 162020Z AUTO 11008KT 10SM CLR M07/M14 A3012 RMK T10701140 MADISHF
ACT,2021-02-16 20:25,,,,120.00,5.00,,30.14,,10.00,,CLR,,,,,,,,,,,,,,,,KACT 162025Z AUTO 12005KT 10SM CLR M07/M14 A3013 RMK T10701140 MADISHF
ACT,2021-02-16 20:30,,,,120.00,5.00,,30.15,,10.00,,CLR,,,,,,,,,,,,,,,,KACT 162030Z AUTO 12005KT 10SM CLR M07/M14 A3014 RMK T10701140 MADISHF
ACT,2021-02-16 20:35,,,,160.00,5.00,,30.14,,10.00,,CLR,,,,,,,,,,,,,,,,KACT 162035Z AUTO 16005KT 10SM CLR M07/M13 A3013 RMK T10701130 MADISHF
ACT,2021-02-16 20:40,,,,110.00,7.00,,30.14,,10.00,,CLR,,,,,,,,,,,,,,,,KACT 162040Z AUTO 11007KT 10SM CLR M07/M13 A3013 RMK T10701130 MADISHF
ACT,2021-02-16 20:45,,,,110.00,5.00,,30.13,,10.00,,CLR,,,,,,,,,,,,,,,,KACT 162045Z AUTO 11005KT 10SM CLR M07/M14 A3012 RMK T10701140 MADISHF
ACT,2021-02-16 20:50,,,,100.00,7.00,,30.13,,10.00,,CLR,,,,,,,,,,,,,,,,KACT 162050Z AUTO 10007KT 10SM CLR M07/M14 A3012 RMK T10701140 MADISHF
ACT,2021-02-16 20:51,19.00,7.00,58.94,110.00,8.00,0.00,30.13,1021.10,10.00,,CLR,,,,,,,,,,,,,,,8.10,KACT 162051Z AUTO 11008KT 10SM CLR M07/M14 A3013 RMK AO2 SLP211 T10721139 56034
ACT,2021-02-16 20:55,,,,110.00,5.00,,30.13,,10.00,,CLR,,,,,,,,,,,,,,,,KACT 162055Z AUTO 11005KT 10SM CLR M07/M13 A3012 RMK T10701130 MADISHF
ACT,2021-02-16 21:00,,,,120.00,5.00,,30.13,,10.00,,CLR,,,,,,,,,,,,,,,,KACT 162100Z AUTO 12005KT 10SM CLR M07/M13 A3012 RMK T10701130 MADISHF
ACT,2021-02-16 21:05,,,,150.00,7.00,,30.13,,10.00,,CLR,,,,,,,,,,,,,,,,KACT 162105Z AUTO 15007KT 10SM CLR M07/M14 A3012 RMK T10701140 MADISHF
ACT,2021-02-16 21:10,,,,130.00,9.00,,30.12,,10.00,,CLR,,,,,,,,,,,,,,,,KACT 162110Z AUTO 13009KT 10SM CLR M07/M13 A3012 RMK T10701130 MADISHF
ACT,2021-02-16 21:15,,,,120.00,4.00,,30.12,,10.00,,CLR,,,,,,,,,,,,,,,,KACT 162115Z AUTO 12004KT 10SM CLR M07/M13 A3012 RMK T10701130 MADISHF
ACT,2021-02-16 21:20,,,,120.00,9.00,,30.12,,10.00,,CLR,,,,,,,,,,,,,,,,KACT 162120Z AUTO 12009KT 10SM CLR M07/M13 A3012 RMK T10701130 MADISHF
ACT,2021-02-16 21:25,,,,110.00,5.00,,30.12,,10.00,,CLR,,,,,,,,,,,,,,,,KACT 162125Z AUTO 11005KT 10SM CLR M07/M13 A3012 RMK T10701130 MADISHF
ACT,2021-02-16 21:30,,,,120.00,5.00,,30.12,,10.00,,CLR,,,,,,,,,,,,,,,,KACT 162130Z AUTO 12005KT 10SM CLR M07/M13 A3012 RMK T10701130 MADISHF
ACT,2021-02-16 21:35,,,,130.00,7.00,,30.12,,10.00,,FEW,,,,10000.00,,,,,,,,,,,,KACT 162135Z AUTO 13007KT 10SM FEW100 M07/M13 A3012 RMK T10701130 MADISHF
ACT,2021-02-16 21:40,,,,120.00,7.00,,30.12,,10.00,,FEW,SCT,,,4500.00,10000.00,,,,,,,,,,,KACT 162140Z AUTO 12007KT 10SM FEW045 SCT100 M07/M13 A3012 RMK T10701130 MADISHF
ACT,2021-02-16 21:45,,,,110.00,5.00,,30.12,,10.00,,FEW,BKN,,,4500.00,11000.00,,,,,,,,,,,KACT 162145Z AUTO 11005KT 10SM FEW045 BKN110 M07/M13 A3012 RMK T10701130 MADISHF
ACT,2021-02-16 21:50,,,,120.00,5.00,,30.13,,10.00,,SCT,BKN,,,4500.00,11000.00,,,,,,,,,,,KACT 162150Z AUTO 12005KT 10SM SCT045 BKN110 M07/M13 A3012 RMK T10701130 MADISHF
ACT,2021-02-16 21:51,19.00,8.10,61.94,120.00,6.00,0.00,30.13,1021.00,10.00,,SCT,BKN,,,4500.00,10000.00,,,,,,,,,,9.87,KACT 162151Z 12006KT 10SM SCT045 BKN100 M07/M13 A3013 RMK AO2 SLP210 T10721133
ACT,2021-02-16 21:55,,,,100.00,4.00,,30.12,,10.00,,BKN,BKN,,,4700.00,10000.00,,,,,,,,,,,KACT 162155Z AUTO 10004KT 10SM BKN047 BKN100 M07/M13 A3012 RMK T10701130 MADISHF
ACT,2021-02-16 22:00,,,,100.00,5.00,,30.11,,10.00,,BKN,OVC,,,4700.00,10000.00,,,,,,,,,,,KACT 162200Z AUTO 10005KT 10SM BKN047 OVC100 M07/M13 A3011 RMK T10701130 MADISHF
ACT,2021-02-16 22:05,,,,130.00,7.00,,30.10,,10.00,,BKN,OVC,,,4700.00,10000.00,,,,,,,,,,,KACT 162205Z AUTO 13007KT 10SM BKN047 OVC100 M07/M13 A3010 RMK T10701130 MADISHF
ACT,2021-02-16 22:10,,,,90.00,5.00,,30.10,,10.00,,SCT,OVC,,,4600.00,10000.00,,,,,,,,,,,KACT 162210Z AUTO 09005KT 10SM SCT046 OVC100 M07/M13 A3010 RMK T10701130 MADISHF
ACT,2021-02-16 22:15,,,,110.00,7.00,,30.10,,10.00,,SCT,OVC,,,4600.00,10000.00,,,,,,,,,,,KACT 162215Z AUTO 11007KT 10SM SCT046 OVC100 M07/M13 A3010 RMK T10701130 MADISHF
ACT,2021-02-16 22:20,,,,110.00,5.00,,30.10,,10.00,,BKN,OVC,,,4600.00,10000.00,,,,,,,,,,,KACT 162220Z AUTO 11005KT 10SM BKN046 OVC100 M07/M13 A3010 RMK T10701130 MADISHF
ACT,2021-02-16 22:25,,,,100.00,5.00,,30.10,,10.00,,BKN,OVC,,,4600.00,10000.00,,,,,,,,,,,KACT 162225Z AUTO 10005KT 10SM BKN046 OVC100 M07/M13 A3010 RMK T10701130 MADISHF
ACT,2021-02-16 22:30,,,,80.00,5.00,,30.10,,10.00,,BKN,OVC,,,4600.00,10000.00,,,,,,,,,,,KACT 162230Z AUTO 08005KT 10SM BKN046 OVC100 M07/M12 A3010 RMK T10701120 MADISHF
ACT,2021-02-16 22:35,,,,80.00,5.00,,30.10,,10.00,,BKN,OVC,,,4600.00,10000.00,,,,,,,,,,,KACT 162235Z AUTO 08005KT 10SM BKN046 OVC100 M07/M12 A3010 RMK T10701120 MADISHF
ACT,2021-02-16 22:40,,,,80.00,5.00,,30.10,,10.00,,BKN,OVC,,,4600.00,10000.00,,,,,,,,,,,KACT 162240Z AUTO 08005KT 10SM BKN046 OVC100 M07/M12 A3010 RMK T10701120 MADISHF
ACT,2021-02-16 22:45,,,,120.00,5.00,,30.11,,10.00,,BKN,OVC,,,4500.00,10000.00,,,,,,,,,,,KACT 162245Z AUTO 12005KT 10SM BKN045 OVC100 M07/M12 A3011 RMK T10701120 MADISHF
ACT,2021-02-16 22:50,,,,100.00,7.00,,30.10,,10.00,,BKN,OVC,,,4500.00,10000.00,,,,,,,,,,,KACT 162250Z AUTO 10007KT 10SM BKN045 OVC100 M07/M12 A3010 RMK T10701120 MADISHF
ACT,2021-02-16 22:51,19.90,10.00,64.91,110.00,8.00,0.00,30.10,1020.10,10.00,,BKN,OVC,,,4500.00,10000.00,,,,,,,,,,9.21,KACT 162251Z 11008KT 10SM BKN045 OVC100 M07/M12 A3010 RMK AO2 SLP201 T10671122
ACT,2021-02-16 22:55,,,,90.00,5.00,,30.09,,10.00,,BKN,OVC,,,4500.00,10000.00,,,,,,,,,,,KACT 162255Z AUTO 09005KT 10SM BKN045 OVC100 M07/M12 A3009 RMK T10701120 MADISHF
ACT,2021-02-16 23:00,,,,80.00,7.00,,30.09,,10.00,,BKN,OVC,,,4300.00,10000.00,,,,,,,,,,,KACT 162300Z AUTO 08007KT 10SM BKN043 OVC100 M07/M12 A3009 RMK T10701120 MADISHF
ACT,2021-02-16 23:05,,,,100.00,7.00,,30.09,,10.00,,OVC,,,,4300.00,,,,,,,,,,,,KACT 162305Z AUTO 10007KT 10SM OVC043 M07/M12 A3009 RMK T10701120 MADISHF
ACT,2021-02-16 23:10,,,,90.00,8.00,,30.08,,10.00,,OVC,,,,4200.00,,,,,,,,,,,,KACT 162310Z AUTO 09008KT 10SM OVC042 M07/M12 A3007 RMK T10701120 MADISHF
ACT,2021-02-16 23:15,,,,100.00,8.00,,30.07,,10.00,,OVC,,,,4200.00,,,,,,,,,,,,KACT 162315Z AUTO 10008KT 10SM OVC042 M07/M12 A3006 RMK T10701120 MADISHF
ACT,2021-02-16 23:20,,,,80.00,5.00,,30.07,,10.00,,OVC,,,,3999.00,,,,,,,,,,,,KACT 162320Z AUTO 08005KT 10SM OVC039 M07/M12 A3006 RMK T10701120 MADISHF
ACT,2021-02-16 23:25,,,,70.00,5.00,,30.08,,10.00,,OVC,,,,3999.00,,,,,,,,,,,,KACT 162325Z AUTO 07005KT 10SM OVC039 M07/M12 A3007 RMK T10701120 MADISHF
ACT,2021-02-16 23:30,,,,80.00,5.00,,30.08,,10.00,,OVC,,,,3800.00,,,,,,,,,,,,KACT 162330Z AUTO 08005KT 10SM OVC038 M07/M12 A3007 RMK T10701120 MADISHF
ACT,2021-02-16 23:35,,,,100.00,5.00,,30.08,,10.00,,OVC,,,,3800.00,,,,,,,,,,,,KACT 162335Z AUTO 10005KT 10SM OVC038 M07/M12 A3007 RMK T10701120 MADISHF
ACT,2021-02-16 23:40,,,,80.00,5.00,,30.09,,10.00,,OVC,,,,3600.00,,,,,,,,,,,,KACT 162340Z AUTO 08005KT 10SM OVC036 M07/M11 A3009 RMK T10701110 MADISHF
ACT,2021-02-16 23:45,,,,100.00,5.00,,30.08,,10.00,,OVC,,,,3600.00,,,,,,,,,,,,KACT 162345Z AUTO 10005KT 10SM OVC036 M07/M11 A3007 RMK T10701110 MADISHF
ACT,2021-02-16 23:50,,,,110.00,5.00,,30.08,,10.00,,OVC,,,,3600.00,,,,,,,,,,,,KACT 162350Z AUTO 11005KT 10SM OVC036 M07/M11 A3007 RMK T10701110 MADISHF
ACT,2021-02-16 23:51,19.90,12.00,70.95,110.00,6.00,0.00,30.08,1019.30,10.00,,OVC,,,,3600.00,,,,,,,,,,,10.96,KACT 162351Z 11006KT 10SM OVC036 M07/M11 A3008 RMK AO2 SLP193 T10671111 11067 21094 58018
ACT,2021-02-16 23:55,,,,120.00,5.00,,30.08,,10.00,,OVC,,,,3600.00,,,,,,,,,,,,KACT 162355Z AUTO 12005KT 10SM OVC036 M07/M11 A3007 RMK T10701110 MADISHF
ACT,2021-02-17 00:00,,,,80.00,5.00,,30.08,,10.00,,FEW,OVC,,,1900.00,3500.00,,,,,,,,,,,KACT 170000Z AUTO 08005KT 10SM FEW019 OVC035 M07/M11 A3007 RMK T10701110 MADISHF
ACT,2021-02-17 00:05,,,,100.00,5.00,,30.08,,10.00,,FEW,OVC,,,1900.00,3500.00,,,,,,,,,,,KACT 170005Z AUTO 10005KT 10SM FEW019 OVC035 M07/M11 A3007 RMK T10701110 MADISHF
ACT,2021-02-17 00:10,,,,90.00,7.00,,30.08,,10.00,,SCT,OVC,,,1900.00,3500.00,,,,,,,,,,,KACT 170010Z AUTO 09007KT 10SM SCT019 OVC035 M07/M11 A3007 RMK T10701110 MADISHF
ACT,2021-02-17 00:15,,,,100.00,7.00,,30.08,,10.00,,SCT,OVC,,,1900.00,3300.00,,,,,,,,,,,KACT 170015Z AUTO 10007KT 10SM SCT019 OVC033 M07/M11 A3007 RMK T10701110 MADISHF
ACT,2021-02-17 00:20,,,,90.00,5.00,,30.08,,10.00,,SCT,OVC,,,1900.00,3300.00,,,,,,,,,,,KACT 170020Z AUTO 09005KT 10SM SCT019 OVC033 M07/M11 A3007 RMK T10701110 MADISHF
ACT,2021-02-17 00:25,,,,100.00,5.00,,30.09,,10.00,,SCT,OVC,,,1900.00,3300.00,,,,,,,,,,,KACT 170025Z AUTO 10005KT 10SM SCT019 OVC033 M07/M11 A3009 RMK T10701110 MADISHF
ACT,2021-02-17 00:30,,,,110.00,2.00,,30.09,,10.00,,SCT,OVC,,,1900.00,3300.00,,,,,,,,,,,KACT 170030Z AUTO 11002KT 10SM SCT019 OVC033 M07/M11 A3009 RMK T10701110 MADISHF
ACT,2021-02-17 00:35,,,,90.00,2.00,,30.10,,10.00,,BKN,OVC,,,1900.00,3300.00,,,,,,,,,,,KACT 170035Z AUTO 09002KT 10SM BKN019 OVC033 M07/M11 A3010 RMK T10701110 MADISHF
ACT,2021-02-17 00:40,,,,100.00,4.00,,30.10,,10.00,,BKN,OVC,,,1900.00,3300.00,,,,,,,,,,,KACT 170040Z AUTO 10004KT 10SM BKN019 OVC033 M07/M11 A3010 RMK T10701110 MADISHF
ACT,2021-02-17 00:45,,,,80.00,4.00,,30.10,,10.00,,BKN,OVC,,,1900.00,3300.00,,,,,,,,,,,KACT 170045Z AUTO 08004KT 10SM BKN019 OVC033 M07/M11 A3010 RMK T10701110 MADISHF
ACT,2021-02-17 00:50,,,,70.00,4.00,,30.11,,10.00,,BKN,OVC,,,1800.00,3300.00,,,,,,,,,,,KACT 170050Z AUTO 07004KT 10SM BKN018 OVC033 M07/M11 A3011 RMK T10701110 MADISHF
ACT,2021-02-17 00:51,19.90,12.90,73.83,70.00,4.00,0.00,30.11,1020.30,10.00,,BKN,OVC,,,1800.00,3300.00,,,,,,,,,,13.29,KACT 170051Z 07004KT 10SM BKN018 OVC033 M07/M11 A3011 RMK AO2 SLP203 T10671106
ACT,2021-02-17 00:55,,,,60.00,4.00,,30.11,,10.00,,BKN,OVC,,,1800.00,3300.00,,,,,,,,,,,KACT 170055Z AUTO 06004KT 10SM BKN018 OVC033 M07/M10 A3011 RMK T10701100 MADISHF
ACT,2021-02-17 01:00,,,,70.00,2.00,,30.11,,10.00,,BKN,OVC,,,1800.00,3300.00,,,,,,,,,,,KACT 170100Z AUTO 07002KT 10SM BKN018 OVC033 M06/M10 A3011 RMK T10601100 MADISHF
ACT,2021-02-17 01:05,,,,60.00,2.00,,30.11,,10.00,,BKN,OVC,,,1800.00,3300.00,,,,,,,,,,,KACT 170105Z AUTO 06002KT 10SM BKN018 OVC033 M07/M10 A3011 RMK T10701100 MADISHF
ACT,2021-02-17 01:10,,,,50.00,2.00,,30.11,,10.00,,BKN,OVC,,,1800.00,3399.00,,,,,,,,,,,KACT 170110Z AUTO 05002KT 10SM BKN018 OVC033 M06/M10 A3011 RMK T10601100 MADISHF
ACT,2021-02-17 01:15,,,,80.00,4.00,,30.11,,10.00,,BKN,OVC,,,1800.00,3399.00,,,,,,,,,,,KACT 170115Z AUTO 08004KT 10SM BKN018 OVC033 M07/M10 A3011 RMK T10701100 MADISHF
ACT,2021-02-17 01:20,,,,80.00,4.00,,30.11,,10.00,,BKN,OVC,,,1800.00,3399.00,,,,,,,,,,,KACT 170120Z AUTO 08004KT 10SM BKN018 OVC033 M06/M10 A3011 RMK T10601100 MADISHF
ACT,2021-02-17 01:25,,,,60.00,2.00,,30.11,,10.00,,BKN,OVC,,,1800.00,3399.00,,,,,,,,,,,KACT 170125Z AUTO 06002KT 10SM BKN018 OVC033 M06/M10 A3011 RMK T10601100 MADISHF
ACT,2021-02-17 01:30,,,,90.00,4.00,,30.11,,10.00,,BKN,OVC,,,1800.00,3399.00,,,,,,,,,,,KACT 170130Z AUTO 09004KT 10SM BKN018 OVC033 M06/M10 A3011 RMK T10601100 MADISHF
ACT,2021-02-17 01:35,,,,80.00,5.00,,30.10,,10.00,,BKN,OVC,,,1800.00,3399.00,,,,,,,,,,,KACT 170135Z AUTO 08005KT 10SM BKN018 OVC033 M06/M10 A3010 RMK T10601100 MADISHF
ACT,2021-02-17 01:40,,,,100.00,5.00,,30.10,,10.00,,SCT,OVC,,,1800.00,3300.00,,,,,,,,,,,KACT 170140Z AUTO 10005KT 10SM SCT018 OVC033 M06/M10 A3010 RMK T10601100 MADISHF
ACT,2021-02-17 01:45,,,,90.00,5.00,,30.10,,10.00,,SCT,OVC,,,1800.00,3300.00,,,,,,,,,,,KACT 170145Z AUTO 09005KT 10SM SCT018 OVC033 M06/M10 A3010 RMK T10601100 MADISHF
ACT,2021-02-17 01:50,,,,100.00,5.00,,30.09,,10.00,,FEW,OVC,,,1800.00,3300.00,,,,,,,,,,,KACT 170150Z AUTO 10005KT 10SM FEW018 OVC033 M06/M10 A3009 RMK T10601100 MADISHF
ACT,2021-02-17 01:51,21.00,14.00,73.94,100.00,6.00,0.00,30.09,1019.60,10.00,,FEW,OVC,,,1800.00,3300.00,,,,,,,,,,12.28,KACT 170151Z 10006KT 10SM FEW018 OVC033 M06/M10 A3009 RMK AO2 SLP196 T10611100
ACT,2021-02-17 01:55,,,,90.00,7.00,,30.08,,10.00,,FEW,OVC,,,1800.00,3500.00,,,,,,,,,,,KACT 170155Z AUTO 09007KT 10SM FEW018 OVC035 M06/M10 A3007 RMK T10601100 MADISHF
ACT,2021-02-17 02:00,,,,100.00,7.00,,30.09,,10.00,,FEW,OVC,,,2800.00,3500.00,,,,,,,,,,,KACT 170200Z AUTO 10007KT 10SM FEW028 OVC035 M06/M10 A3009 RMK T10601100 MADISHF
ACT,2021-02-17 02:05,,,,100.00,5.00,,30.09,,10.00,,OVC,,,,3500.00,,,,,,,,,,,,KACT 170205Z AUTO 10005KT 10SM OVC035 M06/M10 A3009 RMK T10601100 MADISHF
ACT,2021-02-17 02:10,,,,110.00,5.00,,30.09,,10.00,,SCT,OVC,,,2900.00,3500.00,,,,,,,,,,,KACT 170210Z AUTO 11005KT 10SM SCT029 OVC035 M06/M09 A3009 RMK T10601090 MADISHF
ACT,2021-02-17 02:15,,,,110.00,5.00,,30.10,,10.00,,BKN,OVC,,,2900.00,3500.00,,,,,,,,,,,KACT 170215Z AUTO 11005KT 10SM BKN029 OVC035 M06/M09 A3010 RMK T10601090 MADISHF
ACT,2021-02-17 02:20,,,,130.00,5.00,,30.11,,10.00,,BKN,OVC,,,2700.00,3500.00,,,,,,,,,,,KACT 170220Z AUTO 13005KT 10SM BKN027 OVC035 M06/M09 A3011 RMK T10601090 MADISHF
ACT,2021-02-17 02:25,,,,110.00,4.00,,30.12,,10.00,,BKN,OVC,,,2700.00,3500.00,,,,,,,,,,,KACT 170225Z AUTO 11004KT 10SM BKN027 OVC035 M06/M09 A3012 RMK T10601090 MADISHF
ACT,2021-02-17 02:30,,,,90.00,2.00,,30.12,,10.00,,OVC,,,,2700.00,,,,,,,,,,,,KACT 170230Z AUTO 09002KT 10SM OVC027 M06/M09 A3012 RMK T10601090 MADISHF
ACT,2021-02-17 02:35,,,,0.00,0.00,,30.12,,10.00,,OVC,,,,2700.00,,,,,,,,,,,,KACT 170235Z AUTO 00000KT 10SM OVC027 M06/M09 A3012 RMK T10601090 MADISHF
ACT,2021-02-17 02:40,,,,0.00,0.00,,30.12,,10.00,,OVC,,,,2700.00,,,,,,,,,,,,KACT 170240Z AUTO 00000KT 10SM OVC027 M06/M09 A3012 RMK T10601090 MADISHF
ACT,2021-02-17 02:45,,,,90.00,2.00,,30.13,,10.00,,OVC,,,,2700.00,,,,,,,,,,,,KACT 170245Z AUTO 09002KT 10SM OVC027 M06/M09 A3012 RMK T10601090 MADISHF
ACT,2021-02-17 02:50,,,,100.00,4.00,,30.12,,10.00,,OVC,,,,2700.00,,,,,,,,,,,,KACT 170250Z AUTO 10004KT 10SM OVC027 M06/M09 A3012 RMK T10601090 MADISHF
ACT,2021-02-17 02:51,21.00,15.10,77.59,110.00,5.00,0.00,30.12,1020.50,10.00,,OVC,,,,2700.00,,,,,,,,,,,13.33,KACT 170251Z 11005KT 10SM OVC027 M06/M09 A3012 RMK AO2 SLP205 T10611094 51013
ACT,2021-02-17 02:55,,,,110.00,7.00,,30.11,,10.00,,OVC,,,,2700.00,,,,,,,,,,,,KACT 170255Z AUTO 11007KT 10SM OVC027 M06/M09 A3011 RMK T10601090 MADISHF
ACT,2021-02-17 03:00,,,,110.00,5.00,,30.11,,10.00,,OVC,,,,2700.00,,,,,,,,,,,,KACT 170300Z AUTO 11005KT 10SM OVC027 M06/M09 A3011 RMK T10601090 MADISHF
ACT,2021-02-17 03:05,,,,110.00,7.00,,30.10,,9.00,,OVC,,,,2500.00,,,,,,,,,,,,KACT 170305Z AUTO 11007KT 9SM OVC025 M06/M09 A3010 RMK T10601090 MADISHF
ACT,2021-02-17 03:10,,,,100.00,7.00,,30.09,,8.00,,BKN,OVC,,,2500.00,3200.00,,,,,,,,,,,KACT 170310Z AUTO 10007KT 8SM BKN025 OVC032 M06/M09 A3009 RMK T10601090 MADISHF
ACT,2021-02-17 03:15,,,,110.00,9.00,,30.08,,8.00,,BKN,OVC,,,2500.00,3399.00,,,,,,,,,,,KACT 170315Z AUTO 11009KT 8SM BKN025 OVC033 M06/M09 A3007 RMK T10601090 MADISHF
ACT,2021-02-17 03:20,,,,110.00,10.00,,30.07,,8.00,,SCT,OVC,,,2400.00,3399.00,,,,,,,,,,,KACT 170320Z AUTO 11010KT 8SM SCT024 OVC033 M06/M09 A3006 RMK T10601090 MADISHF
ACT,2021-02-17 03:23,21.00,16.00,80.69,110.00,10.00,0.00,30.07,,9.00,,SCT,OVC,,,2400.00,3600.00,,,,,,,,,,9.17,KACT 170323Z 11010KT 9SM SCT024 OVC036 M06/M09 A3007 RMK AO2 PRESFR T10611089
ACT,2021-02-17 03:25,,,,110.00,10.00,,30.06,,9.00,,FEW,OVC,,,2400.00,3600.00,,,,,,,,,,,KACT 170325Z AUTO 11010KT 9SM FEW024 OVC036 M06/M09 A3005 RMK T10601090 MADISHF
ACT,2021-02-17 03:30,,,,120.00,10.00,,30.06,,10.00,,FEW,OVC,,,2400.00,3800.00,,,,,,,,,,,KACT 170330Z AUTO 12010KT 10SM FEW024 OVC038 M06/M09 A3005 RMK T10601090 MADISHF
ACT,2021-02-17 03:35,,,,120.00,11.00,,30.06,,10.00,,OVC,,,,3800.00,,,,,,,,,,,,KACT 170335Z AUTO 12011KT 10SM OVC038 M06/M09 A3005 RMK T10601090 MADISHF
ACT,2021-02-17 03:40,,,,110.00,7.00,,30.07,,10.00,,FEW,OVC,,,1900.00,3999.00,,,,,,,,,,,KACT 170340Z AUTO 11007KT 10SM FEW019 OVC039 M06/M09 A3006 RMK T10601090 MADISHF
ACT,2021-02-17 03:45,,,,110.00,2.00,,30.10,,10.00,,SCT,OVC,,,1699.00,3999.00,,,,,,,,,,,KACT 170345Z AUTO 11002KT 10SM SCT016 OVC039 M06/M09 A3010 RMK T10601090 VRB03KT  MADISHF
ACT,2021-02-17 03:50,,,,140.00,5.00,,30.10,,10.00,,BKN,OVC,,,1500.00,3999.00,,,,,,,,,,,KACT 170350Z AUTO 14005KT 10SM BKN015 OVC039 M06/M09 A3010 RMK T10601090 MADISHF
ACT,2021-02-17 03:51,21.90,16.00,77.67,130.00,5.00,0.00,30.10,1020.00,10.00,,BKN,OVC,,,1500.00,4000.00,,,,,,,,,,14.40,KACT 170351Z 13005KT 10SM BKN015 OVC040 M06/M09 A3010 RMK AO2 SLP200 T10561089
ACT,2021-02-17 03:55,,,,120.00,5.00,,30.10,,10.00,,BKN,OVC,,,1500.00,3999.00,,,,,,,,,,,KACT 170355Z AUTO 12005KT 10SM BKN015 OVC039 M06/M09 A3010 RMK T10601090 MADISHF
ACT,2021-02-17 04:00,,,,120.00,5.00,,30.10,,10.00,,BKN,OVC,,,1500.00,4200.00,,,,,,,,,,,KACT 170400Z AUTO 12005KT 10SM BKN015 OVC042 M06/M09 A3010 RMK T10601090 MADISHF
ACT,2021-02-17 04:05,,,,120.00,5.00,,30.11,,10.00,,OVC,,,,1500.00,,,,,,,,,,,,KACT 170405Z AUTO 12005KT 10SM OVC015 M06/M09 A3011 RMK T10601090 MADISHF
ACT,2021-02-17 04:10,,,,130.00,4.00,,30.11,,10.00,,OVC,,,,1300.00,,,,,,,,,,,,KACT 170410Z AUTO 13004KT 10SM OVC013 M06/M08 A3011 RMK T10601080 MADISHF
ACT,2021-02-17 04:15,,,,110.00,4.00,,30.11,,10.00,,OVC,,,,1300.00,,,,,,,,,,,,KACT 170415Z AUTO 11004KT 10SM OVC013 M06/M08 A3011 RMK T10601080 MADISHF
ACT,2021-02-17 04:20,,,,120.00,5.00,,30.10,,10.00,,OVC,,,,1300.00,,,,,,,,,,,,KACT 170420Z AUTO 12005KT 10SM OVC013 M06/M08 A3010 RMK T10601080 MADISHF
ACT,2021-02-17 04:25,,,,130.00,5.00,,30.10,,10.00,,BKN,OVC,,,1300.00,1999.00,,,,,,,,,,,KACT 170425Z AUTO 13005KT 10SM BKN013 OVC019 M06/M08 A3010 RMK T10601080 MADISHF
ACT,2021-02-17 04:30,,,,130.00,5.00,,30.11,,10.00,,BKN,OVC,,,1400.00,1999.00,,,,,,,,,,,KACT 170430Z AUTO 13005KT 10SM BKN014 OVC019 M06/M08 A3011 RMK T10601080 MADISHF
ACT,2021-02-17 04:35,,,,130.00,5.00,,30.10,,10.00,,SCT,OVC,,,1400.00,2100.00,,,,,,,,,,,KACT 170435Z AUTO 13005KT 10SM SCT014 OVC021 M06/M08 A3010 RMK T10601080 MADISHF
ACT,2021-02-17 04:38,21.90,17.10,81.46,130.00,7.00,0.00,30.10,,9.00,,SCT,OVC,,,1400.00,2100.00,,,,,,,,,,12.47,KACT 170438Z 13007KT 9SM SCT014 OVC021 M06/M08 A3010 RMK AO2 T10561083
ACT,2021-02-17 04:40,,,,130.00,5.00,,30.10,,9.00,,FEW,OVC,,,1400.00,2100.00,,,,,,,,,,,KACT 170440Z AUTO 13005KT 9SM FEW014 OVC021 M06/M08 A3010 RMK T10601080 MADISHF
ACT,2021-02-17 04:45,,,,130.00,5.00,,30.10,,8.00,,FEW,OVC,,,1200.00,2100.00,,,,,,,,,,,KACT 170445Z AUTO 13005KT 8SM FEW012 OVC021 M06/M08 A3010 RMK T10601080 MADISHF
ACT,2021-02-17 04:50,,,,140.00,4.00,,30.11,,8.00,,OVC,,,,2100.00,,,,,,,,,,,,KACT 170450Z AUTO 14004KT 8SM OVC021 M06/M08 A3011 RMK T10601080 MADISHF
ACT,2021-02-17 04:51,21.90,17.10,81.46,130.00,4.00,0.00,30.11,1020.20,8.00,,OVC,,,,2100.00,,,,,,,,,,,15.63,KACT 170451Z 13004KT 8SM OVC021 M06/M08 A3011 RMK AO2 SLP202 T10561083
ACT,2021-02-17 04:55,,,,130.00,5.00,,30.10,,8.00,,OVC,,,,1999.00,,,,,,,,,,,,KACT 170455Z AUTO 13005KT 8SM OVC019 M06/M08 A3010 RMK T10601080 MADISHF
ACT,2021-02-17 05:00,,,,140.00,7.00,,30.10,,7.00,,OVC,,,,1999.00,,,,,,,,,,,,KACT 170500Z AUTO 14007KT 7SM OVC019 M06/M08 A3010 RMK T10601080 MADISHF
ACT,2021-02-17 05:05,,,,130.00,7.00,,30.10,,7.00,,OVC,,,,1999.00,,,,,,,,,,,,KACT 170505Z AUTO 13007KT 7SM OVC019 M06/M08 A3010 RMK T10601080 MADISHF
ACT,2021-02-17 05:10,,,,120.00,7.00,,30.10,,6.00,,OVC,,,,1999.00,,,,BR,,,,,,,,KACT 170510Z AUTO 12007KT 6SM BR OVC019 M06/M08 A3010 RMK T10601080 MADISHF
ACT,2021-02-17 05:15,,,,130.00,5.00,,30.10,,4.00,,OVC,,,,1999.00,,,,HZ,,,,,,,,KACT 170515Z AUTO 13005KT 4SM HZ OVC019 M05/M08 A3010 RMK T10501080 MADISHF
ACT,2021-02-17 05:20,,,,120.00,5.00,0.01,30.09,,3.50,,OVC,,,,1999.00,,,,BR,,,,,,,,KACT 170520Z AUTO 12005KT 3SM BR OVC019 M06/M08 A3009 RMK P0000 T10601080 MADISHF
ACT,2021-02-17 05:25,,,,110.00,4.00,0.01,30.09,,4.00,,OVC,,,,1999.00,,,,BR,,,,,,,,KACT 170525Z AUTO 11004KT 4SM BR OVC019 M06/M08 A3009 RMK P0000 T10601080 MADISHF
ACT,2021-02-17 05:30,,,,120.00,5.00,0.01,30.09,,4.00,,OVC,,,,1900.00,,,,BR,,,,,,,,KACT 170530Z AUTO 12005KT 4SM BR OVC019 M06/M08 A3009 RMK P0000 T10601080 MADISHF
ACT,2021-02-17 05:35,,,,120.00,7.00,0.01,30.08,,4.00,,OVC,,,,1900.00,,,,UP BR,,,,,,,,KACT 170535Z AUTO 12007KT 4SM UP BR OVC019 M06/M08 A3007 RMK P0000 T10601080 MADISHF
ACT,2021-02-17 05:40,,,,130.00,7.00,0.01,30.08,,5.00,,FEW,OVC,,,900.00,1900.00,,,UP BR,,,,,,,,KACT 170540Z AUTO 13007KT 5SM UP BR FEW009 OVC019 M06/M08 A3007 RMK P0000 T10601080 MADISHF
ACT,2021-02-17 05:41,21.90,18.00,84.68,130.00,6.00,0.01,30.08,,5.00,,FEW,OVC,,,900.00,1900.00,,,-FZRA BR,0.01,,,,,,13.37,KACT 170541Z 13006KT 5SM -FZRA BR FEW009 OVC019 M06/M08 A3008 RMK AO2 UPB33E41FZRAB41 P0001 I1001 T10561078
ACT,2021-02-17 05:45,,,,120.00,8.00,0.01,30.08,,5.00,,FEW,OVC,,,900.00,1900.00,,,-FZRA BR,,,,,,,,KACT 170545Z AUTO 12008KT 5SM -FZRA BR FEW009 OVC019 M06/M08 A3007 RMK P0000 T10601080 MADISHF
ACT,2021-02-17 05:50,,,,120.00,5.00,0.01,30.08,,6.00,,FEW,OVC,,,900.00,1900.00,,,-FZRA BR,,,,,,,,KACT 170550Z AUTO 12005KT 6SM -FZRA BR FEW009 OVC019 M06/M08 A3007 RMK P0000 T10601080 MADISHF
ACT,2021-02-17 05:51,21.90,18.00,84.68,120.00,6.00,0.01,30.08,1019.00,6.00,,FEW,OVC,,,900.00,1900.00,,,-FZRA BR,0.01,,0.01,,,,13.37,KACT 170551Z 12006KT 6SM -FZRA BR FEW009 OVC019 M06/M08 A3008 RMK AO2 UPB33E41FZRAB41 SLP190 P0001 60001 I1001 I6001 T10561078 11050 21067 410501183 58013
ACT,2021-02-17 05:55,,,,130.00,8.00,0.01,30.08,,7.00,,FEW,OVC,,,900.00,1900.00,,,-FZRA,,,,,,,,KACT 170555Z AUTO 13008KT 7SM -FZRA FEW009 OVC019 M05/M08 A3007 RMK P0000 T10501080 MADISHF
ACT,2021-02-17 06:00,,,,130.00,7.00,0.01,30.08,,7.00,,OVC,,,,1999.00,,,,-FZRA,,,,,,,,KACT 170600Z AUTO 13007KT 7SM -FZRA OVC019 M05/M08 A3007 RMK P0000 T10501080 MADISHF
ACT,2021-02-17 06:05,,,,120.00,7.00,0.01,30.09,,7.00,,OVC,,,,1999.00,,,,UP,,,,,,,,KACT 170605Z AUTO 12007KT 7SM UP OVC019 M05/M08 A3009 RMK P0000 T10501080 MADISHF
ACT,2021-02-17 06:08,23.00,18.00,80.85,130.00,7.00,0.01,30.08,,8.00,,OVC,,,,2000.00,,,,UP,T,,,,,,13.81,KACT 170608Z AUTO 13007KT 8SM UP OVC020 M05/M08 A3008 RMK AO2 UPB02FZRAE02 P0001 I1000 T10501078
ACT,2021-02-17 06:10,,,,130.00,7.00,0.01,30.09,,8.00,,OVC,,,,1999.00,,,,UP,,,,,,,,KACT 170610Z AUTO 13007KT 8SM UP OVC019 M05/M08 A3009 RMK P0000 T10501080 MADISHF
ACT,2021-02-17 06:15,,,,140.00,7.00,0.01,30.09,,8.00,,OVC,,,,1999.00,,,,UP,,,,,,,,KACT 170615Z AUTO 14007KT 8SM UP OVC019 M05/M08 A3009 RMK P0000 T10501080 MADISHF
ACT,2021-02-17 06:20,,,,140.00,8.00,0.01,30.09,,7.00,,OVC,,,,1900.00,,,,UP,,,,,,,,KACT 170620Z AUTO 14008KT 7SM UP OVC019 M05/M08 A3009 RMK P0000 T10501080 MADISHF
ACT,2021-02-17 06:25,,,,130.00,5.00,0.01,30.09,,6.00,,OVC,,,,1900.00,,,,UP,,,,,,,,KACT 170625Z AUTO 13005KT 6SM UP OVC019 M05/M08 A3009 RMK P0000 T10501080 MADISHF
ACT,2021-02-17 06:30,,,,130.00,5.00,0.01,30.09,,5.00,,OVC,,,,1999.00,,,,-FZRA,,,,,,,,KACT 170630Z AUTO 13005KT 5SM -FZRA OVC019 M05/M08 A3009 RMK P0000 T10501080 MADISHF
ACT,2021-02-17 06:35,,,,140.00,5.00,0.02,30.10,,5.00,,OVC,,,,1800.00,,,,-FZRA,,,,,,,,KACT 170635Z AUTO 14005KT 5SM -FZRA OVC018 M05/M08 A3010 RMK P0001 T10501080 MADISHF
ACT,2021-02-17 06:40,,,,130.00,5.00,0.02,30.10,,6.00,,OVC,,,,1800.00,,,,-FZRA,,,,,,,,KACT 170640Z AUTO 13005KT 6SM -FZRA OVC018 M05/M08 A3010 RMK P0001 T10501080 MADISHF
ACT,2021-02-17 06:45,,,,120.00,5.00,0.02,30.09,,6.00,,OVC,,,,1800.00,,,,-FZRA,,,,,,,,KACT 170645Z AUTO 12005KT 6SM -FZRA OVC018 M05/M08 A3009 RMK P0001 T10501080 MADISHF
ACT,2021-02-17 06:50,,,,110.00,5.00,0.03,30.08,,6.00,,OVC,,,,1699.00,,,,-FZRA BR,,,,,,,,KACT 170650Z AUTO 11005KT 6SM -FZRA BR OVC016 M05/M07 A3007 RMK P0002 T10501070 MADISHF
ACT,2021-02-17 06:51,23.00,19.00,84.39,110.00,5.00,0.03,30.09,1019.30,6.00,,OVC,,,,1700.00,,,,-FZRA BR,0.01,,,,,,15.71,KACT 170651Z AUTO 11005KT 6SM -FZRA BR OVC017 M05/M07 A3009 RMK AO2 UPB02E29FZRAE02B29 SLP193 P0003 I1001 T10501072
ACT,2021-02-17 06:55,,,,110.00,5.00,,30.09,,6.00,,OVC,,,,1699.00,,,,-FZRA BR,,,,,,,,KACT 170655Z AUTO 11005KT 6SM -FZRA BR OVC016 M05/M07 A3009 RMK T10501070 MADISHF
ACT,2021-02-17 07:00,,,,120.00,7.00,,30.09,,6.00,,OVC,,,,1699.00,,,,-FZRA BR,,,,,,,,KACT 170700Z AUTO 12007KT 6SM -FZRA BR OVC016 M05/M07 A3009 RMK T10501070 MADISHF
ACT,2021-02-17 07:05,,,,110.00,5.00,,30.08,,7.00,,OVC,,,,1500.00,,,,-FZRA,,,,,,,,KACT 170705Z AUTO 11005KT 7SM -FZRA OVC015 M05/M07 A3007 RMK T10501070 MADISHF
ACT,2021-02-17 07:10,,,,90.00,2.00,,30.09,,7.00,,OVC,,,,1500.00,,,,-FZRA,,,,,,,,KACT 170710Z AUTO 09002KT 7SM -FZRA OVC015 M05/M07 A3009 RMK T10501070 MADISHF
ACT,2021-02-17 07:15,,,,80.00,2.00,,30.09,,6.00,,OVC,,,,1500.00,,,,-FZRA BR,,,,,,,,KACT 170715Z AUTO 08002KT 6SM -FZRA BR OVC015 M05/M07 A3009 RMK T10501070 MADISHF
ACT,2021-02-17 07:20,,,,80.00,4.00,T,30.09,,5.00,,OVC,,,,1400.00,,,,UP BR,,,,,,,,KACT 170720Z AUTO 08004KT 5SM UP BR OVC014 M05/M07 A3009 RMK P0000 T10501070 MADISHF
ACT,2021-02-17 07:25,,,,80.00,5.00,T,30.08,,5.00,,OVC,,,,1400.00,,,,UP BR,,,,,,,,KACT 170725Z AUTO 08005KT 5SM UP BR OVC014 M05/M07 A3007 RMK P0000 T10501070 MADISHF
ACT,2021-02-17 07:30,,,,70.00,5.00,0.01,30.08,,5.00,,OVC,,,,1300.00,,,,UP BR,,,,,,,,KACT 170730Z AUTO 07005KT 5SM UP BR OVC013 M05/M07 A3007 RMK P0000 T10501070 MADISHF
ACT,2021-02-17 07:35,,,,80.00,4.00,0.01,30.08,,7.00,,OVC,,,,1300.00,,,,UP,,,,,,,,KACT 170735Z AUTO 08004KT 7SM UP OVC013 M05/M07 A3007 RMK P0000 T10501070 MADISHF
ACT,2021-02-17 07:40,,,,90.00,5.00,0.01,30.07,,6.00,,OVC,,,,1300.00,,,,UP BR,,,,,,,,KACT 170740Z AUTO 09005KT 6SM UP BR OVC013 M05/M07 A3006 RMK P0000 T10501070 MADISHF
ACT,2021-02-17 07:45,,,,100.00,5.00,0.01,30.07,,5.00,,OVC,,,,1200.00,,,,UP BR,,,,,,,,KACT 170745Z AUTO 10005KT 5SM UP BR OVC012 M05/M07 A3006 RMK P0000 T10501070 MADISHF
ACT,2021-02-17 07:50,,,,90.00,5.00,0.01,30.06,,7.00,,OVC,,,,1200.00,,,,UP,,,,,,,,KACT 170750Z AUTO 09005KT 7SM UP OVC012 M05/M07 A3005 RMK P0000 T10501070 MADISHF
ACT,2021-02-17 07:51,23.00,19.90,87.70,100.00,5.00,0.01,30.06,1018.50,7.00,,OVC,,,,1200.00,,,,UP,T,,,,,,15.71,KACT 170751Z AUTO 10005KT 7SM UP OVC012 M05/M07 A3006 RMK AO2 UPB19FZRAE19 SLP185 P0001 I1000 T10501067
ACT,2021-02-17 07:55,,,,90.00,5.00,,30.06,,7.00,,OVC,,,,1200.00,,,,,,,,,,,,KACT 170755Z AUTO 09005KT 7SM OVC012 M05/M07 A3005 RMK T10501070 MADISHF
ACT,2021-02-17 08:00,,,,90.00,7.00,,30.05,,4.00,,OVC,,,,1200.00,,,,BR,,,,,,,,KACT 170800Z AUTO 09007KT 4SM BR OVC012 M05/M07 A3004 RMK T10501070 MADISHF
ACT,2021-02-17 08:05,,,,70.00,5.00,,30.06,,3.00,,OVC,,,,999.00,,,,BR,,,,,,,,KACT 170805Z AUTO 07005KT 3SM BR OVC009 M05/M07 A3005 RMK T10501070 CIG 6V13  MADISHF
ACT,2021-02-17 08:10,,,,60.00,5.00,,30.06,,4.00,,BKN,OVC,,,800.00,1200.00,,,BR,,,,,,,,KACT 170810Z AUTO 06005KT 4SM BR BKN008 OVC012 M05/M07 A3005 RMK T10501070 CIG 6V10  MADISHF
ACT,2021-02-17 08:15,,,,50.00,5.00,,30.07,,6.00,,BKN,OVC,,,800.00,1200.00,,,BR,,,,,,,,KACT 170815Z AUTO 05005KT 6SM BR BKN008 OVC012 M05/M07 A3006 RMK T10501070 CIG 6V10  MADISHF
ACT,2021-02-17 08:20,,,,20.00,4.00,,30.08,,8.00,,OVC,,,,800.00,,,,,,,,,,,,KACT 170820Z AUTO 02004KT 8SM OVC008 M05/M07 A3007 RMK T10501070 CIG 6V11  MADISHF
ACT,2021-02-17 08:25,,,,30.00,5.00,,30.07,,9.00,,OVC,,,,800.00,,,,,,,,,,,,KACT 170825Z AUTO 03005KT 9SM OVC008 M05/M07 A3006 RMK T10501070 MADISHF
ACT,2021-02-17 08:30,,,,30.00,5.00,,30.07,,9.00,,OVC,,,,800.00,,,,,,,,,,,,KACT 170830Z AUTO 03005KT 9SM OVC008 M05/M07 A3006 RMK T10501070 MADISHF
ACT,2021-02-17 08:35,,,,20.00,5.00,,30.07,,9.00,,OVC,,,,800.00,,,,,,,,,,,,KACT 170835Z AUTO 02005KT 9SM OVC008 M05/M07 A3006 RMK T10501070 MADISHF
ACT,2021-02-17 08:40,,,,40.00,5.00,,30.06,,9.00,,OVC,,,,800.00,,,,,,,,,,,,KACT 170840Z AUTO 04005KT 9SM OVC008 M05/M07 A3005 RMK T10501070 MADISHF
ACT,2021-02-17 08:45,,,,40.00,7.00,,30.05,,9.00,,OVC,,,,800.00,,,,,,,,,,,,KACT 170845Z AUTO 04007KT 9SM OVC008 M05/M07 A3004 RMK T10501070 MADISHF
ACT,2021-02-17 08:50,,,,40.00,7.00,,30.05,,10.00,,OVC,,,,900.00,,,,,,,,,,,,KACT 170850Z AUTO 04007KT 10SM OVC009 M05/M07 A3004 RMK T10501070 MADISHF
ACT,2021-02-17 08:51,23.00,19.90,87.70,40.00,7.00,T,30.05,1018.20,10.00,,OVC,,,,900.00,,,,,,0.01,,,,,13.81,KACT 170851Z AUTO 04007KT 10SM OVC009 M05/M07 A3005 RMK AO2 UPE0752 SLP182 P0000 60004 I3001 T10501067 58008
ACT,2021-02-17 08:55,,,,50.00,5.00,,30.05,,10.00,,OVC,,,,900.00,,,,,,,,,,,,KACT 170855Z AUTO 05005KT 10SM OVC009 M05/M07 A3004 RMK T10501070 MADISHF
ACT,2021-02-17 09:00,,,,50.00,8.00,,30.05,,10.00,,OVC,,,,900.00,,,,,,,,,,,,KACT 170900Z AUTO 05008KT 10SM OVC009 M05/M07 A3004 RMK T10501070 MADISHF
ACT,2021-02-17 09:05,,,,50.00,7.00,,30.04,,10.00,,OVC,,,,900.00,,,,,,,,,,,,KACT 170905Z AUTO 05007KT 10SM OVC009 M05/M07 A3004 RMK T10501070 MADISHF
ACT,2021-02-17 09:10,,,,60.00,8.00,,30.04,,10.00,,OVC,,,,900.00,,,,,,,,,,,,KACT 170910Z AUTO 06008KT 10SM OVC009 M05/M07 A3004 RMK T10501070 MADISHF
ACT,2021-02-17 09:15,,,,50.00,7.00,,30.05,,10.00,,OVC,,,,900.00,,,,,,,,,,,,KACT 170915Z AUTO 05007KT 10SM OVC009 M05/M07 A3004 RMK T10501070 CIG 8V12  MADISHF
ACT,2021-02-17 09:20,,,,40.00,7.00,,30.05,,10.00,,OVC,,,,1100.00,,,,,,,,,,,,KACT 170920Z AUTO 04007KT 10SM OVC011 M05/M07 A3004 RMK T10501070 MADISHF
ACT,2021-02-17 09:22,23.00,19.90,87.70,50.00,6.00,0.00,30.05,,10.00,,OVC,,,,1100.00,,,,,,,,,,,14.69,KACT 170922Z AUTO 05006KT 10SM OVC011 M05/M07 A3005 RMK AO2 T10501067
ACT,2021-02-17 09:25,,,,60.00,8.00,,30.03,,10.00,,OVC,,,,1100.00,,,,,,,,,,,,KACT 170925Z AUTO 06008KT 10SM OVC011 M05/M07 A3003 RMK T10501070 MADISHF
ACT,2021-02-17 09:30,,,,70.00,9.00,,30.02,,10.00,,OVC,,,,1100.00,,,,,,,,,,,,KACT 170930Z AUTO 07009KT 10SM OVC011 M05/M07 A3002 RMK T10501070 MADISHF
ACT,2021-02-17 09:35,,,,40.00,7.00,,30.03,,10.00,,OVC,,,,1100.00,,,,,,,,,,,,KACT 170935Z AUTO 04007KT 10SM OVC011 M05/M07 A3003 RMK T10501070 MADISHF
ACT,2021-02-17 09:40,,,,20.00,7.00,,30.04,,10.00,,OVC,,,,1100.00,,,,,,,,,,,,KACT 170940Z AUTO 02007KT 10SM OVC011 M05/M07 A3004 RMK T10501070 MADISHF
ACT,2021-02-17 09:45,,,,10.00,8.00,,30.04,,10.00,,OVC,,,,1100.00,,,,,,,,,,,,KACT 170945Z AUTO 01008KT 10SM OVC011 M05/M07 A3004 RMK T10501070 CIG 8V12  MADISHF
ACT,2021-02-17 09:50,,,,30.00,8.00,,30.04,,10.00,,OVC,,,,900.00,,,,,,,,,,,,KACT 170950Z AUTO 03008KT 10SM OVC009 M05/M07 A3004 RMK T10501070 CIG 8V12  MADISHF
ACT,2021-02-17 09:51,23.00,19.90,87.70,30.00,8.00,0.00,30.04,1017.60,10.00,,OVC,,,,900.00,,,,,,,,,,,13.03,KACT 170951Z AUTO 03008KT 10SM OVC009 M05/M07 A3004 RMK AO2 CIG 008V012 SLP176 T10501067
ACT,2021-02-17 09:55,,,,40.00,8.00,,30.03,,10.00,,OVC,,,,900.00,,,,,,,,,,,,KACT 170955Z AUTO 04008KT 10SM OVC009 M05/M07 A3003 RMK T10501070 MADISHF
ACT,2021-02-17 10:00,,,,40.00,9.00,,30.02,,10.00,,OVC,,,,900.00,,,,,,,,,,,,KACT 171000Z AUTO 04009KT 10SM OVC009 M05/M07 A3002 RMK T10501070 MADISHF
ACT,2021-02-17 10:05,,,,50.00,10.00,,30.01,,10.00,,OVC,,,,900.00,,,,,,,,,,,,KACT 171005Z AUTO 05010KT 10SM OVC009 M05/M07 A3001 RMK T10501070 MADISHF
ACT,2021-02-17 10:10,,,,50.00,9.00,,30.01,,10.00,,OVC,,,,900.00,,,,,,,,,,,,KACT 171010Z AUTO 05009KT 10SM OVC009 M05/M07 A3001 RMK T10501070 MADISHF
ACT,2021-02-17 10:15,,,,40.00,7.00,,30.02,,10.00,,OVC,,,,900.00,,,,,,,,,,,,KACT 171015Z AUTO 04007KT 10SM OVC009 M05/M07 A3002 RMK T10501070 MADISHF
ACT,2021-02-17 10:20,,,,40.00,8.00,,30.02,,10.00,,OVC,,,,900.00,,,,,,,,,,,,KACT 171020Z AUTO 04008KT 10SM OVC009 M05/M07 A3002 RMK T10501070 MADISHF
ACT,2021-02-17 10:25,,,,70.00,13.00,,29.97,,9.00,,OVC,,,,900.00,,,,,,,,,,,,KACT 171025Z AUTO 07013KT 9SM OVC009 M05/M07 A2996 RMK T10501070 MADISHF
ACT,2021-02-17 10:30,,,,40.00,9.00,,29.99,,7.00,,OVC,,,,900.00,,,,,,,,,,,,KACT 171030Z AUTO 04009KT 7SM OVC009 M05/M07 A2998 RMK T10501070 MADISHF
ACT,2021-02-17 10:35,,,,360.00,8.00,,30.03,,7.00,,OVC,,,,900.00,,,,,,,,,,,,KACT 171035Z AUTO 36008KT 7SM OVC009 M05/M07 A3003 RMK T10501070 MADISHF
ACT,2021-02-17 10:40,,,,360.00,9.00,T,30.03,,9.00,,OVC,,,,900.00,,,,UP,,,,,,,,KACT 171040Z AUTO 36009KT 9SM UP OVC009 M05/M07 A3003 RMK P0000 T10501070 MADISHF
ACT,2021-02-17 10:45,,,,30.00,10.00,,30.02,,10.00,,OVC,,,,900.00,,,,,,,,,,,,KACT 171045Z AUTO 03010KT 10SM OVC009 M05/M07 A3002 RMK T10501070 MADISHF
ACT,2021-02-17 10:50,,,,20.00,9.00,T,30.03,,9.00,,OVC,,,,800.00,,,,UP,,,,,,,,KACT 171050Z AUTO 02009KT 9SM UP OVC008 M05/M07 A3003 RMK P0000 T10501070 MADISHF
ACT,2021-02-17 10:51,23.00,19.00,84.39,20.00,9.00,T,30.03,1017.30,9.00,,OVC,,,,800.00,,,,UP,,,,,,,12.32,KACT 171051Z AUTO 02009KT 9SM UP OVC008 M05/M07 A3003 RMK AO2 UPB38SNB27E29 SLP173 P0000 T10501072
ACT,2021-02-17 10:55,,,,40.00,11.00,T,30.00,,7.00,,OVC,,,,800.00,,,,UP,,,,,,,,KACT 171055Z AUTO 04011KT 7SM UP OVC008 M05/M07 A3000 RMK P0000 T10501070 MADISHF
ACT,2021-02-17 11:00,,,,30.00,9.00,0.01,30.01,,6.00,,OVC,,,,800.00,,,,UP BR,,,,,,,,KACT 171100Z AUTO 03009KT 6SM UP BR OVC008 M05/M07 A3001 RMK P0000 T10501070 MADISHF
ACT,2021-02-17 11:05,,,,30.00,11.00,0.01,30.01,,7.00,,OVC,,,,800.00,,,,UP,,,,,,,,KACT 171105Z AUTO 03011KT 7SM UP OVC008 M05/M07 A3001 RMK P0000 T10501070 MADISHF
ACT,2021-02-17 11:10,,,,20.00,11.00,0.01,30.01,,8.00,,OVC,,,,800.00,,,,UP,,,,,,,,KACT 171110Z AUTO 02011KT 8SM UP OVC008 M05/M07 A3001 RMK P0000 T10501070 MADISHF
ACT,2021-02-17 11:15,,,,350.00,11.00,0.01,30.05,,8.00,,OVC,,,,900.00,,,,UP,,,,,,,,KACT 171115Z AUTO 35011KT 8SM UP OVC009 M05/M07 A3004 RMK P0000 T10501070 MADISHF
ACT,2021-02-17 11:20,,,,30.00,11.00,0.01,30.03,,7.00,,OVC,,,,900.00,,,,UP,,,,,,,,KACT 171120Z AUTO 03011KT 7SM UP OVC009 M05/M07 A3003 RMK P0000 T10501070 MADISHF
ACT,2021-02-17 11:25,,,,50.00,11.00,0.01,29.99,,8.00,,OVC,,,,900.00,,,,,,,,,,,,KACT 171125Z AUTO 05011KT 8SM OVC009 M05/M07 A2998 RMK P0000 T10501070 MADISHF
ACT,2021-02-17 11:30,,,,20.00,11.00,0.01,30.02,,8.00,,OVC,,,,900.00,,,,,,,,,,,,KACT 171130Z AUTO 02011KT 8SM OVC009 M05/M07 A3002 RMK P0000 T10501070 MADISHF
ACT,2021-02-17 11:35,,,,360.00,10.00,0.01,30.04,,8.00,,OVC,,,,900.00,,,,,,,,,,,,KACT 171135Z AUTO 36010KT 8SM OVC009 M05/M07 A3004 RMK P0000 T10501070 MADISHF
ACT,2021-02-17 11:40,,,,10.00,11.00,0.01,30.04,,9.00,,OVC,,,,900.00,,,,,,,,,,,,KACT 171140Z AUTO 01011KT 9SM OVC009 M06/M07 A3004 RMK P0000 T10601070 MADISHF
ACT,2021-02-17 11:45,,,,30.00,11.00,0.01,30.02,,9.00,,OVC,,,,900.00,,,,,,,,,,,,KACT 171145Z AUTO 03011KT 9SM OVC009 M06/M08 A3002 RMK P0000 T10601080 MADISHF
ACT,2021-02-17 11:50,,,,20.00,11.00,0.01,30.03,,10.00,,OVC,,,,999.00,,,,,,,,,,,,KACT 171150Z AUTO 02011KT 10SM OVC009 M06/M08 A3003 RMK P0000 T10601080 MADISHF
ACT,2021-02-17 11:51,21.90,18.00,84.68,20.00,12.00,0.01,30.02,1017.20,10.00,,OVC,,,,1000.00,,,,,,,0.01,,,,9.15,KACT 171151Z AUTO 02012KT 10SM OVC010 M06/M08 A3002 RMK AO2 UPE25 SLP172 P0001 60005 70006 I6001 T10561078 11050 21056 56009
ACT,2021-02-17 11:55,,,,30.00,10.00,,30.02,,10.00,,OVC,,,,999.00,,,,,,,,,,,,KACT 171155Z AUTO 03010KT 10SM OVC009 M06/M08 A3002 RMK T10601080 CIG 8V13  MADISHF
ACT,2021-02-17 12:00,,,,20.00,9.00,,30.03,,10.00,,OVC,,,,999.00,,,,,,,,,,,,KACT 171200Z AUTO 02009KT 10SM OVC009 M06/M07 A3003 RMK T10601070 MADISHF
ACT,2021-02-17 12:05,,,,30.00,9.00,,30.02,,10.00,,OVC,,,,1200.00,,,,,,,,,,,,KACT 171205Z AUTO 03009KT 10SM OVC012 M06/M07 A3002 RMK T10601070 MADISHF
ACT,2021-02-17 12:10,,,,20.00,8.00,,30.04,,10.00,,OVC,,,,1200.00,,,,,,,,,,,,KACT 171210Z AUTO 02008KT 10SM OVC012 M06/M07 A3004 RMK T10601070 MADISHF
ACT,2021-02-17 12:15,,,,10.00,10.00,,30.04,,10.00,,OVC,,,,1200.00,,,,,,,,,,,,KACT 171215Z AUTO 01010KT 10SM OVC012 M06/M07 A3004 RMK T10601070 MADISHF
ACT,2021-02-17 12:20,,,,20.00,10.00,,30.04,,9.00,,OVC,,,,1200.00,,,,,,,,,,,,KACT 171220Z AUTO 02010KT 9SM OVC012 M05/M07 A3004 RMK T10501070 MADISHF
ACT,2021-02-17 12:25,,,,20.00,10.00,,30.04,,9.00,,OVC,,,,1200.00,,,,,,,,,,,,KACT 171225Z AUTO 02010KT 9SM OVC012 M05/M07 A3004 RMK T10501070 MADISHF
ACT,2021-02-17 12:30,,,,20.00,9.00,,30.04,,10.00,,OVC,,,,1300.00,,,,,,,,,,,,KACT 171230Z AUTO 02009KT 10SM OVC013 M05/M07 A3004 RMK T10501070 MADISHF
ACT,2021-02-17 12:35,,,,20.00,9.00,,30.04,,10.00,,OVC,,,,1300.00,,,,,,,,,,,,KACT 171235Z AUTO 02009KT 10SM OVC013 M05/M07 A3004 RMK T10501070 MADISHF
ACT,2021-02-17 12:40,,,,20.00,9.00,,30.03,,10.00,,OVC,,,,1400.00,,,,,,,,,,,,KACT 171240Z AUTO 02009KT 10SM OVC014 M05/M07 A3003 RMK T10501070 MADISHF
ACT,2021-02-17 12:45,,,,20.00,11.00,,30.02,,10.00,,OVC,,,,1400.00,,,,,,,,,,,,KACT 171245Z AUTO 02011KT 10SM OVC014 M05/M07 A3002 RMK T10501070 MADISHF
ACT,2021-02-17 12:50,,,,30.00,9.00,,30.03,,10.00,,OVC,,,,1400.00,,,,,,,,,,,,KACT 171250Z AUTO 03009KT 10SM OVC014 M05/M07 A3003 RMK T10501070 MADISHF
ACT,2021-02-17 12:51,23.00,19.00,84.39,30.00,9.00,0.00,30.04,1017.60,10.00,,OVC,,,,1400.00,,,,,,,,,,,12.32,KACT 171251Z AUTO 03009KT 10SM OVC014 M05/M07 A3004 RMK AO2 SLP176 T10501072
ACT,2021-02-17 12:55,,,,20.00,9.00,,30.03,,10.00,,OVC,,,,1400.00,,,,,,,,,,,,KACT 171255Z AUTO 02009KT 10SM OVC014 M05/M07 A3003 RMK T10501070 MADISHF
ACT,2021-02-17 13:00,,,,20.00,9.00,,30.04,,10.00,,OVC,,,,1500.00,,,,,,,,,,,,KACT 171300Z AUTO 02009KT 10SM OVC015 M05/M07 A3004 RMK T10501070 MADISHF
ACT,2021-02-17 13:02,23.00,19.00,84.39,20.00,10.00,0.00,30.04,,10.00,,OVC,,,,1500.00,,,,,,,,,,,11.68,KACT 171302Z AUTO 02010KT 10SM OVC015 M05/M07 A3004 RMK AO2 T10501072
ACT,2021-02-17 13:05,,,,20.00,8.00,,30.05,,10.00,,OVC,,,,1500.00,,,,,,,,,,,,KACT 171305Z AUTO 02008KT 10SM OVC015 M05/M07 A3004 RMK T10501070 MADISHF
ACT,2021-02-17 13:10,,,,20.00,7.00,,30.05,,9.00,,OVC,,,,1500.00,,,,,,,,,,,,KACT 171310Z AUTO 02007KT 9SM OVC015 M05/M07 A3004 RMK T10501070 MADISHF
ACT,2021-02-17 13:15,,,,10.00,8.00,,30.05,,9.00,,OVC,,,,1500.00,,,,,,,,,,,,KACT 171315Z AUTO 01008KT 9SM OVC015 M05/M07 A3004 RMK T10501070 MADISHF
ACT,2021-02-17 13:20,,,,20.00,8.00,,30.05,,9.00,,OVC,,,,1600.00,,,,,,,,,,,,KACT 171320Z AUTO 02008KT 9SM OVC016 M05/M07 A3004 RMK T10501070 MADISHF
ACT,2021-02-17 13:25,,,,10.00,7.00,,30.05,,9.00,,OVC,,,,1600.00,,,,,,,,,,,,KACT 171325Z AUTO 01007KT 9SM OVC016 M04/M07 A3004 RMK T10401070 MADISHF
ACT,2021-02-17 13:30,,,,10.00,7.00,,30.05,,8.00,,OVC,,,,1600.00,,,,,,,,,,,,KACT 171330Z AUTO 01007KT 8SM OVC016 M04/M07 A3004 RMK T10401070 MADISHF
ACT,2021-02-17 13:35,,,,360.00,8.00,,30.05,,8.00,,OVC,,,,1600.00,,,,,,,,,,,,KACT 171335Z AUTO 36008KT 8SM OVC016 M04/M07 A3004 RMK T10401070 MADISHF
ACT,2021-02-17 13:40,,,,360.00,7.00,,30.06,,8.00,,OVC,,,,1600.00,,,,,,,,,,,,KACT 171340Z AUTO 36007KT 8SM OVC016 M04/M07 A3005 RMK T10401070 MADISHF
ACT,2021-02-17 13:45,,,,360.00,9.00,,30.06,,8.00,,OVC,,,,1600.00,,,,,,,,,,,,KACT 171345Z AUTO 36009KT 8SM OVC016 M05/M07 A3005 RMK T10501070 MADISHF
ACT,2021-02-17 13:50,,,,360.00,10.00,,30.06,,8.00,,OVC,,,,1600.00,,,,,,,,,,,,KACT 171350Z AUTO 36010KT 8SM OVC016 M05/M07 A3005 RMK T10501070 MADISHF
ACT,2021-02-17 13:51,23.00,19.00,84.39,360.00,9.00,0.00,30.06,1018.40,8.00,,OVC,,,,1600.00,,,,,,,,,,,12.32,KACT 171351Z AUTO 36009KT 8SM OVC016 M05/M07 A3006 RMK AO2 SLP184 T10501072
ACT,2021-02-17 13:55,,,,360.00,8.00,,30.06,,7.00,,OVC,,,,1600.00,,,,,,,,,,,,KACT 171355Z AUTO 36008KT 7SM OVC016 M05/M07 A3005 RMK T10501070 MADISHF
ACT,2021-02-17 14:00,,,,360.00,9.00,,30.06,,7.00,,OVC,,,,1600.00,,,,,,,,,,,,KACT 171400Z AUTO 36009KT 7SM OVC016 M04/M07 A3005 RMK T10401070 MADISHF
ACT,2021-02-17 14:05,,,,10.00,9.00,,30.06,,7.00,,OVC,,,,1600.00,,,,,,,,,,,,KACT 171405Z AUTO 01009KT 7SM OVC016 M05/M07 A3005 RMK T10501070 MADISHF
ACT,2021-02-17 14:10,,,,10.00,9.00,,30.06,,7.00,,OVC,,,,1600.00,,,,,,,,,,,,KACT 171410Z AUTO 01009KT 7SM OVC016 M04/M07 A3005 RMK T10401070 MADISHF
ACT,2021-02-17 14:15,,,,10.00,9.00,,30.05,,7.00,,OVC,,,,1600.00,,,,,,,,,,,,KACT 171415Z AUTO 01009KT 7SM OVC016 M04/M07 A3004 RMK T10401070 MADISHF
ACT,2021-02-17 14:20,,,,10.00,10.00,,30.05,,7.00,,OVC,,,,1600.00,,,,,,,,,,,,KACT 171420Z AUTO 01010KT 7SM OVC016 M04/M07 A3004 RMK T10401070 MADISHF
ACT,2021-02-17 14:25,,,,10.00,10.00,,30.06,,7.00,,OVC,,,,1600.00,,,,,,,,,,,,KACT 171425Z AUTO 01010KT 7SM OVC016 M04/M07 A3005 RMK T10401070 MADISHF
ACT,2021-02-17 14:30,,,,20.00,8.00,,30.06,,7.00,,OVC,,,,1600.00,,,,,,,,,,,,KACT 171430Z AUTO 02008KT 7SM OVC016 M04/M07 A3005 RMK T10401070 MADISHF
ACT,2021-02-17 14:35,,,,10.00,7.00,,30.07,,7.00,,OVC,,,,1600.00,,,,,,,,,,,,KACT 171435Z AUTO 01007KT 7SM OVC016 M04/M07 A3006 RMK T10401070 MADISHF
ACT,2021-02-17 14:40,,,,10.00,8.00,,30.07,,7.00,,OVC,,,,1600.00,,,,,,,,,,,,KACT 171440Z AUTO 01008KT 7SM OVC016 M04/M07 A3006 RMK T10401070 MADISHF
ACT,2021-02-17 14:45,,,,10.00,9.00,,30.07,,7.00,,OVC,,,,1600.00,,,,,,,,,,,,KACT 171445Z AUTO 01009KT 7SM OVC016 M04/M07 A3006 RMK T10401070 MADISHF
ACT,2021-02-17 14:50,,,,360.00,9.00,,30.07,,7.00,,OVC,,,,1600.00,,,,,,,,,,,,KACT 171450Z AUTO 36009KT 7SM OVC016 M04/M07 A3006 RMK T10401070 MADISHF
ACT,2021-02-17 14:51,24.10,19.90,83.75,360.00,9.00,0.00,30.07,1018.60,7.00,,OVC,,,,1600.00,,,,,,,,,,,13.69,KACT 171451Z AUTO 36009KT 7SM OVC016 M04/M07 A3007 RMK AO2 SLP186 T10441067 51014
ACT,2021-02-17 14:55,,,,10.00,9.00,,30.07,,7.00,,OVC,,,,1600.00,,,,,,,,,,,,KACT 171455Z AUTO 01009KT 7SM OVC016 M04/M07 A3006 RMK T10401070 MADISHF
ACT,2021-02-17 15:00,,,,10.00,8.00,,30.07,,7.00,,OVC,,,,1500.00,,,,,,,,,,,,KACT 171500Z AUTO 01008KT 7SM OVC015 M04/M06 A3006 RMK T10401060 MADISHF
ACT,2021-02-17 15:05,,,,10.00,10.00,,30.07,,7.00,,OVC,,,,1500.00,,,,,,,,,,,,KACT 171505Z AUTO 01010KT 7SM OVC015 M04/M06 A3006 RMK T10401060 MADISHF
ACT,2021-02-17 15:10,,,,10.00,11.00,,30.08,,7.00,,OVC,,,,1500.00,,,,,,,,,,,,KACT 171510Z AUTO 01011KT 7SM OVC015 M04/M06 A3007 RMK T10401060 MADISHF
ACT,2021-02-17 15:15,,,,360.00,9.00,,30.08,,7.00,,OVC,,,,1500.00,,,,,,,,,,,,KACT 171515Z AUTO 36009KT 7SM OVC015 M04/M06 A3007 RMK T10401060 MADISHF
ACT,2021-02-17 15:20,,,,360.00,10.00,,30.08,,7.00,,OVC,,,,1500.00,,,,,,,,,,,,KACT 171520Z AUTO 36010KT 7SM OVC015 M04/M06 A3007 RMK T10401060 MADISHF
ACT,2021-02-17 15:25,,,,360.00,9.00,,30.08,,7.00,,FEW,OVC,,,900.00,1400.00,,,,,,,,,,,KACT 171525Z AUTO 36009KT 7SM FEW009 OVC014 M04/M06 A3007 RMK T10401060 MADISHF
ACT,2021-02-17 15:30,,,,10.00,11.00,,30.08,,6.00,,FEW,OVC,,,900.00,1400.00,,,BR,,,,,,,,KACT 171530Z AUTO 01011KT 6SM BR FEW009 OVC014 M04/M06 A3007 RMK T10401060 MADISHF
ACT,2021-02-17 15:35,,,,10.00,10.00,,30.08,,6.00,,OVC,,,,1400.00,,,,BR,,,,,,,,KACT 171535Z AUTO 01010KT 6SM BR OVC014 M04/M06 A3007 RMK T10401060 MADISHF
ACT,2021-02-17 15:40,,,,10.00,9.00,,30.08,,6.00,,FEW,OVC,,,999.00,1400.00,,,BR,,,,,,,,KACT 171540Z AUTO 01009KT 6SM BR FEW009 OVC014 M04/M06 A3007 RMK T10401060 MADISHF
ACT,2021-02-17 15:45,,,,360.00,10.00,T,30.09,,5.00,,SCT,OVC,,,999.00,1400.00,,,UP BR,,,,,,,,KACT 171545Z AUTO 36010KT 5SM UP BR SCT009 OVC014 M04/M06 A3009 RMK P0000 T10401060 MADISHF
ACT,2021-02-17 15:50,,,,10.00,7.00,T,30.09,,3.50,,SCT,OVC,,,900.00,1400.00,,,UP BR,,,,,,,,KACT 171550Z AUTO 01007KT 3SM UP BR SCT009 OVC014 M04/M06 A3009 RMK P0000 T10401060 MADISHF
ACT,2021-02-17 15:51,25.00,21.90,87.81,10.00,7.00,T,30.09,1019.30,3.00,,SCT,OVC,,,900.00,1400.00,,,UP BR,T,,,,,,16.25,KACT 171551Z 01007KT 3SM UP BR SCT009 OVC014 M04/M06 A3009 RMK AO2 UPB43 SLP193 P0000 I1000 T10391056
ACT,2021-02-17 15:55,,,,10.00,9.00,T,30.09,,3.50,,SCT,OVC,,,900.00,1400.00,,,UP BR,,,,,,,,KACT 171555Z AUTO 01009KT 3SM UP BR SCT009 OVC014 M04/M06 A3009 RMK P0000 T10401060 MADISHF
ACT,2021-02-17 16:00,,,,10.00,8.00,T,30.09,,4.00,,SCT,OVC,,,900.00,1400.00,,,UP BR,,,,,,,,KACT 171600Z AUTO 01008KT 4SM UP BR SCT009 OVC014 M04/M06 A3009 RMK P0000 T10401060 MADISHF
ACT,2021-02-17 16:05,,,,20.00,8.00,T,30.08,,4.00,,SCT,OVC,,,900.00,1400.00,,,UP BR,,,,,,,,KACT 171605Z AUTO 02008KT 4SM UP BR SCT009 OVC014 M04/M06 A3007 RMK P0000 T10401060 MADISHF
ACT,2021-02-17 16:10,,,,30.00,8.00,T,30.08,,3.50,,SCT,BKN,OVC,,900.00,1400.00,1800.00,,UP BR,,,,,,,,KACT 171610Z AUTO 03008KT 3SM UP BR SCT009 BKN014 OVC018 M03/M06 A3007 RMK P0000 T10301060 MADISHF
ACT,2021-02-17 16:15,,,,20.00,8.00,T,30.07,,3.00,,FEW,OVC,,,900.00,1400.00,,,UP BR,,,,,,,,KACT 171615Z AUTO 02008KT 3SM UP BR FEW009 OVC014 M03/M06 A3006 RMK P0000 T10301060 MADISHF
ACT,2021-02-17 16:20,,,,20.00,8.00,,30.07,,3.00,,FEW,OVC,,,900.00,1400.00,,,-FZRA BR,,,,,,,,KACT 171620Z AUTO 02008KT 3SM -FZRA BR FEW009 OVC014 M03/M06 A3006 RMK T10301060 MADISHF
ACT,2021-02-17 16:22,26.10,21.90,83.89,30.00,7.00,T,30.07,,3.00,,FEW,OVC,,,900.00,1800.00,,,-FZRA BR,T,,,,,,17.59,KACT 171622Z 03007KT 3SM -FZRA BR FEW009 OVC018 M03/M06 A3007 RMK AO2 UPE20FZRAB20 P0000 I1000 T10331056
ACT,2021-02-17 16:25,,,,40.00,9.00,,30.07,,3.00,,FEW,FEW,OVC,,700.00,1300.00,1800.00,,-FZRA BR,,,,,,,,KACT 171625Z AUTO 04009KT 3SM -FZRA BR FEW007 FEW013 OVC018 M03/M06 A3006 RMK T10301060 MADISHF
ACT,2021-02-17 16:27,26.10,21.90,83.89,40.00,8.00,T,30.07,,2.50,,FEW,FEW,OVC,,700.00,1300.00,1800.00,,-FZRA BR,T,,,,,,16.85,KACT 171627Z 04008KT 2 1/2SM -FZRA BR FEW007 FEW013 OVC018 M03/M06 A3007 RMK AO2 UPE20FZRAB20 P0000 I1000 T10331056
ACT,2021-02-17 16:30,,,,30.00,7.00,,30.07,,2.50,,FEW,SCT,OVC,,700.00,1200.00,1800.00,,-FZRA BR,,,,,,,,KACT 171630Z AUTO 03007KT 2 1/2SM -FZRA BR FEW007 SCT012 OVC018 M03/M05 A3006 RMK T10301050 MADISHF
ACT,2021-02-17 16:35,,,,10.00,8.00,,30.08,,3.00,,SCT,OVC,,,700.00,1800.00,,,-FZRA BR,,,,,,,,KACT 171635Z AUTO 01008KT 3SM -FZRA BR SCT007 OVC018 M03/M05 A3007 RMK T10301050 MADISHF
ACT,2021-02-17 16:36,26.10,23.00,87.87,10.00,7.00,T,30.08,,3.00,,SCT,BKN,OVC,,700.00,1300.00,1800.00,,-FZRA BR,T,,,,,,17.59,KACT 171636Z 01007KT 3SM -FZRA BR SCT007 BKN013 OVC018 M03/M05 A3008 RMK AO2 UPE20FZRAB20 P0000 I1000 T10331050
ACT,2021-02-17 16:40,,,,10.00,8.00,,30.07,,4.00,,BKN,BKN,OVC,,700.00,1300.00,1900.00,,BR,,,,,,,,KACT 171640Z AUTO 01008KT 4SM BR BKN007 BKN013 OVC019 M03/M05 A3006 RMK T10301050 MADISHF
ACT,2021-02-17 16:45,,,,20.00,7.00,,30.07,,4.00,,BKN,BKN,OVC,,700.00,1300.00,1900.00,,BR,,,,,,,,KACT 171645Z AUTO 02007KT 4SM BR BKN007 BKN013 OVC019 M03/M05 A3006 RMK T10301050 MADISHF
ACT,2021-02-17 16:50,,,,20.00,5.00,,30.06,,4.00,,BKN,OVC,,,700.00,1900.00,,,BR,,,,,,,,KACT 171650Z AUTO 02005KT 4SM BR BKN007 OVC019 M03/M05 A3005 RMK T10301050 MADISHF
ACT,2021-02-17 16:51,27.00,23.00,84.66,30.00,7.00,T,30.06,1018.40,4.00,,BKN,OVC,,,700.00,1900.00,,,BR,T,,,,,,18.68,KACT 171651Z 03007KT 4SM BR BKN007 OVC019 M03/M05 A3006 RMK AO2 UPE20FZRAB20E39 SLP184 P0000 I1000 T10281050
ACT,2021-02-17 16:55,,,,10.00,9.00,,30.06,,3.50,,BKN,OVC,,,700.00,1800.00,,,BR,,,,,,,,KACT 171655Z AUTO 01009KT 3SM BR BKN007 OVC018 M03/M05 A3005 RMK T10301050 MADISHF
ACT,2021-02-17 17:00,,,,30.00,8.00,,30.06,,3.50,,BKN,OVC,,,700.00,1800.00,,,BR,,,,,,,,KACT 171700Z AUTO 03008KT 3SM BR BKN007 OVC018 M03/M05 A3005 RMK T10301050 MADISHF
ACT,2021-02-17 17:05,,,,20.00,8.00,,30.07,,4.00,,BKN,OVC,,,700.00,1800.00,,,BR,,,,,,,,KACT 171705Z AUTO 02008KT 4SM BR BKN007 OVC018 M03/M05 A3006 RMK T10301050 MADISHF
ACT,2021-02-17 17:10,,,,30.00,8.00,,30.07,,4.00,,BKN,OVC,,,700.00,1800.00,,,BR,,,,,,,,KACT 171710Z AUTO 03008KT 4SM BR BKN007 OVC018 M03/M05 A3006 RMK T10301050 MADISHF
ACT,2021-02-17 17:15,,,,20.00,8.00,,30.07,,4.00,,BKN,OVC,,,700.00,1800.00,,,BR,,,,,,,,KACT 171715Z AUTO 02008KT 4SM BR BKN007 OVC018 M03/M05 A3006 RMK T10301050 MADISHF
ACT,2021-02-17 17:20,,,,10.00,7.00,,30.08,,4.00,,SCT,OVC,,,700.00,1800.00,,,BR,,,,,,,,KACT 171720Z AUTO 01007KT 4SM BR SCT007 OVC018 M03/M05 A3007 RMK T10301050 MADISHF
ACT,2021-02-17 17:25,,,,360.00,8.00,,30.08,,5.00,,BKN,OVC,,,700.00,1800.00,,,BR,,,,,,,,KACT 171725Z AUTO 36008KT 5SM BR BKN007 OVC018 M03/M04 A3007 RMK T10301040 MADISHF
ACT,2021-02-17 17:30,,,,340.00,8.00,,30.08,,5.00,,BKN,OVC,,,700.00,1800.00,,,BR,,,,,,,,KACT 171730Z AUTO 34008KT 5SM BR BKN007 OVC018 M03/M04 A3007 RMK T10301040 MADISHF
ACT,2021-02-17 17:35,,,,360.00,7.00,,30.08,,4.00,,BKN,OVC,,,700.00,1800.00,,,BR,,,,,,,,KACT 171735Z AUTO 36007KT 4SM BR BKN007 OVC018 M02/M04 A3007 RMK T10201040 MADISHF
ACT,2021-02-17 17:40,,,,360.00,8.00,,30.08,,2.00,,BKN,OVC,,,600.00,1800.00,,,BR,,,,,,,,KACT 171740Z AUTO 36008KT 2SM BR BKN006 OVC018 M02/M04 A3007 RMK T10201040 MADISHF
ACT,2021-02-17 17:41,28.00,25.00,88.33,360.00,8.00,0.00,30.08,,1.75,,BKN,OVC,,,600.00,1800.00,,,BR,,,,,,,19.19,KACT 171741Z 36008KT 1 3/4SM BR BKN006 OVC018 M02/M04 A3008 RMK AO2 T10221039
ACT,2021-02-17 17:45,,,,350.00,8.00,,30.09,,1.00,,OVC,,,,600.00,,,,-SN BR,,,,,,,,KACT 171745Z AUTO 35008KT 1SM -SN BR OVC006 M02/M04 A3009 RMK T10201040 MADISHF
ACT,2021-02-17 17:50,,,,350.00,9.00,,30.08,,0.75,,OVC,,,,600.00,,,,-SN BR,,,,,,,,KACT 171750Z AUTO 35009KT 1SM -SN BR OVC006 M02/M04 A3007 RMK T10201040 CIG 3V7  MADISHF
ACT,2021-02-17 17:51,28.00,25.00,88.33,350.00,9.00,T,30.09,1019.20,0.75,,OVC,,,,600.00,,,,-SN BR,,,T,,,,18.54,KACT 171751Z 35009KT 3/4SM -SN BR OVC006 M02/M04 A3009 RMK AO2 SNB42 CIG 003V007 SLP192 P0000 60000 I6000 T10221039 11022 21050 53006
ACT,2021-02-17 17:55,,,,340.00,8.00,,30.09,,0.75,,OVC,,,,600.00,,,,-SN BR,,,,,,,,KACT 171755Z AUTO 34008KT 1SM -SN BR OVC006 M02/M04 A3009 RMK T10201040 CIG 3V8  MADISHF
ACT,2021-02-17 18:00,,,,340.00,11.00,,30.09,,0.75,,OVC,,,,499.00,,,,-SN BR,,,,,,,,KACT 171800Z AUTO 34011KT 1SM -SN BR OVC004 M02/M04 A3009 RMK T10201040 CIG 3V8  MADISHF
ACT,2021-02-17 18:05,,,,350.00,10.00,T,30.08,,0.75,,OVC,,,,499.00,,,,UP BR,,,,,,,,KACT 171805Z AUTO 35010KT 1SM UP BR OVC004 M02/M04 A3007 RMK P0000 T10201040 CIG 3V8  MADISHF
ACT,2021-02-17 18:10,,,,340.00,10.00,T,30.08,,0.75,,OVC,,,,499.00,,,,UP BR,,,,,,,,KACT 171810Z AUTO 34010KT 1SM UP BR OVC004 M02/M04 A3007 RMK P0000 T10201040 CIG 3V8  MADISHF
ACT,2021-02-17 18:15,,,,350.00,9.00,T,30.08,,0.75,,OVC,,,,499.00,,,,UP BR,,,,,,,,KACT 171815Z AUTO 35009KT 1SM UP BR OVC004 M02/M04 A3007 RMK P0000 T10201040 CIG 3V8  MADISHF
ACT,2021-02-17 18:20,,,,350.00,10.00,,30.08,,0.75,,OVC,,,,499.00,,,,-FZRA BR,,,,,,,,KACT 171820Z AUTO 35010KT 1SM -FZRA BR OVC004 M02/M04 A3007 RMK T10201040 CIG 3V8  MADISHF
ACT,2021-02-17 18:21,28.00,25.00,88.33,350.00,11.00,T,30.08,,1.25,,OVC,,,,500.00,,,,-FZRA BR,0.01,,,,,,17.41,KACT 171821Z 35011KT 1 1/4SM -FZRA BR OVC005 M02/M04 A3008 RMK AO2 UPB02E19FZRAB19SNE02 CIG 003V008 P0000 I1001 T10221039
ACT,2021-02-17 18:25,,,,350.00,11.00,,30.07,,1.50,,OVC,,,,499.00,,,,-FZRA BR,,,,,,,,KACT 171825Z AUTO 35011KT 1 1/2SM -FZRA BR OVC004 M02/M04 A3006 RMK T10201040 MADISHF
ACT,2021-02-17 18:30,,,,340.00,11.00,,30.08,,1.75,,OVC,,,,499.00,,,,-FZRA BR,,,,,,,,KACT 171830Z AUTO 34011KT 2SM -FZRA BR OVC004 M03/M04 A3007 RMK T10301040 MADISHF
ACT,2021-02-17 18:35,,,,350.00,11.00,,30.08,,2.50,,OVC,,,,499.00,,,,BR,,,,,,,,KACT 171835Z AUTO 35011KT 2 1/2SM BR OVC004 M03/M04 A3007 RMK T10301040 CIG 4V8  MADISHF
ACT,2021-02-17 18:40,,,,350.00,10.00,,30.07,,2.50,,OVC,,,,499.00,,,,BR,,,,,,,,KACT 171840Z AUTO 35010KT 2 1/2SM BR OVC004 M02/M04 A3006 RMK T10201040 CIG 4V8  MADISHF
ACT,2021-02-17 18:45,,,,350.00,11.00,,30.07,,2.50,,OVC,,,,499.00,,,,BR,,,,,,,,KACT 171845Z AUTO 35011KT 2 1/2SM BR OVC004 M02/M04 A3006 RMK T10201040 CIG 4V8  MADISHF
ACT,2021-02-17 18:50,,,,350.00,11.00,,30.06,,3.50,,OVC,,,,499.00,,,,BR,,,,,,,,KACT 171850Z AUTO 35011KT 3SM BR OVC004 M02/M04 A3005 RMK T10201040 CIG 4V8  MADISHF
ACT,2021-02-17 18:51,28.00,25.00,88.33,360.00,10.00,T,30.06,1018.40,3.00,,OVC,,,,500.00,,,,BR,0.01,,,,,,17.95,KACT 171851Z 36010KT 3SM BR OVC005 M02/M04 A3006 RMK AO2 UPB02E19FZRAB19E35SNE02 SLP184 P0000 I1001 T10221039
ACT,2021-02-17 18:55,,,,360.00,11.00,,30.06,,4.00,,OVC,,,,600.00,,,,BR,,,,,,,,KACT 171855Z AUTO 36011KT 4SM BR OVC006 M02/M04 A3005 RMK T10201040 MADISHF
ACT,2021-02-17 19:00,,,,360.00,10.00,,30.06,,4.00,,OVC,,,,600.00,,,,BR,,,,,,,,KACT 171900Z AUTO 36010KT 4SM BR OVC006 M02/M04 A3005 RMK T10201040 MADISHF
ACT,2021-02-17 19:05,,,,20.00,11.00,,30.05,,5.00,,OVC,,,,600.00,,,,BR,,,,,,,,KACT 171905Z AUTO 02011KT 5SM BR OVC006 M02/M04 A3004 RMK T10201040 MADISHF
ACT,2021-02-17 19:10,,,,20.00,11.00,,30.05,,6.00,,OVC,,,,600.00,,,,BR,,,,,,,,KACT 171910Z AUTO 02011KT 6SM BR OVC006 M02/M04 A3004 RMK T10201040 MADISHF
ACT,2021-02-17 19:15,,,,20.00,11.00,,30.04,,7.00,,OVC,,,,600.00,,,,,,,,,,,,KACT 171915Z AUTO 02011KT 7SM OVC006 M02/M04 A3004 RMK T10201040 CIG 5V10  MADISHF
ACT,2021-02-17 19:20,,,,10.00,11.00,,30.04,,7.00,,OVC,,,,600.00,,,,,,,,,,,,KACT 171920Z AUTO 01011KT 7SM OVC006 M02/M04 A3004 RMK T10201040 CIG 5V10  MADISHF
ACT,2021-02-17 19:25,,,,10.00,11.00,,30.03,,8.00,,OVC,,,,600.00,,,,,,,,,,,,KACT 171925Z AUTO 01011KT 8SM OVC006 M02/M04 A3003 RMK T10201040 MADISHF
ACT,2021-02-17 19:30,,,,20.00,11.00,,30.02,,7.00,,OVC,,,,600.00,,,,,,,,,,,,KACT 171930Z AUTO 02011KT 7SM OVC006 M02/M04 A3002 RMK T10201040 MADISHF
ACT,2021-02-17 19:35,,,,10.00,11.00,,30.02,,8.00,,OVC,,,,600.00,,,,,,,,,,,,KACT 171935Z AUTO 01011KT 8SM OVC006 M02/M04 A3002 RMK T10201040 MADISHF
ACT,2021-02-17 19:40,,,,10.00,9.00,,30.03,,8.00,,OVC,,,,600.00,,,,,,,,,,,,KACT 171940Z AUTO 01009KT 8SM OVC006 M02/M04 A3003 RMK T10201040 MADISHF
ACT,2021-02-17 19:45,,,,360.00,14.00,,30.02,,9.00,,OVC,,,,600.00,,,,,,,,,,,,KACT 171945Z AUTO 36014KT 9SM OVC006 M02/M04 A3002 RMK T10201040 MADISHF
ACT,2021-02-17 19:50,,,,360.00,14.00,,30.02,,9.00,,OVC,,,,600.00,,,,,,,,,,,,KACT 171950Z AUTO 36014KT 9SM OVC006 M02/M04 A3002 RMK T10201040 MADISHF
ACT,2021-02-17 19:51,28.00,24.10,85.08,10.00,14.00,0.00,30.02,1016.90,9.00,,OVC,,,,700.00,,,,,,,,,,,16.01,KACT 171951Z 01014KT 9SM OVC007 M02/M04 A3002 RMK AO2 SLP169 T10221044
ACT,2021-02-17 19:55,,,,360.00,11.00,,30.03,,9.00,,OVC,,,,700.00,,,,,,,,,,,,KACT 171955Z AUTO 36011KT 9SM OVC007 M02/M04 A3003 RMK T10201040 MADISHF
ACT,2021-02-17 20:00,,,,350.00,11.00,,30.03,,7.00,,OVC,,,,700.00,,,,,,,,,,,,KACT 172000Z AUTO 35011KT 7SM OVC007 M02/M04 A3003 RMK T10201040 MADISHF
ACT,2021-02-17 20:05,,,,10.00,11.00,,30.03,,7.00,,OVC,,,,700.00,,,,,,,,,,,,KACT 172005Z AUTO 01011KT 7SM OVC007 M02/M04 A3003 RMK T10201040 MADISHF
ACT,2021-02-17 20:10,,,,350.00,13.00,,30.04,,8.00,,OVC,,,,700.00,,,,,,,,,,,,KACT 172010Z AUTO 35013KT 8SM OVC007 M02/M04 A3004 RMK T10201040 MADISHF
ACT,2021-02-17 20:15,,,,360.00,14.00,,30.04,,8.00,,OVC,,,,700.00,,,,,,,,,,,,KACT 172015Z AUTO 36014KT 8SM OVC007 M02/M04 A3004 RMK T10201040 MADISHF
ACT,2021-02-17 20:20,,,,360.00,16.00,,30.03,,7.00,,OVC,,,,700.00,,,,,,,,,,,,KACT 172020Z AUTO 36016KT 7SM OVC007 M02/M04 A3003 RMK T10201040 MADISHF
ACT,2021-02-17 20:25,,,,360.00,15.00,,30.03,,6.00,,OVC,,,,700.00,,,,BR,,,,,,,,KACT 172025Z AUTO 36015KT 6SM BR OVC007 M02/M04 A3003 RMK T10201040 MADISHF
ACT,2021-02-17 20:30,,,,10.00,15.00,,30.03,,4.00,,OVC,,,,700.00,,,,BR,,,,,,,,KACT 172030Z AUTO 01015KT 4SM BR OVC007 M03/M04 A3003 RMK T10301040 MADISHF
ACT,2021-02-17 20:35,,,,10.00,16.00,,30.03,,4.00,,OVC,,,,700.00,,,,BR,,,,,,,,KACT 172035Z AUTO 01016KT 4SM BR OVC007 M03/M04 A3003 RMK T10301040 MADISHF
ACT,2021-02-17 20:40,,,,10.00,11.00,,30.02,,4.00,,OVC,,,,700.00,,,,BR,,,,,,,,KACT 172040Z AUTO 01011KT 4SM BR OVC007 M03/M04 A3002 RMK T10301040 MADISHF
ACT,2021-02-17 20:45,,,,10.00,13.00,,30.02,,4.00,,OVC,,,,700.00,,,,BR,,,,,,,,KACT 172045Z AUTO 01013KT 4SM BR OVC007 M03/M04 A3002 RMK T10301040 MADISHF
ACT,2021-02-17 20:50,,,,10.00,11.00,,30.03,,4.00,,OVC,,,,700.00,,,,BR,,,,,,,,KACT 172050Z AUTO 01011KT 4SM BR OVC007 M03/M04 A3003 RMK T10301040 MADISHF
ACT,2021-02-17 20:51,28.00,24.10,85.08,10.00,13.00,0.00,30.04,1017.50,4.00,,OVC,,,,700.00,,,,BR,,0.01,,,,,16.44,KACT 172051Z 01013KT 4SM BR OVC007 M02/M04 A3004 RMK AO2 SLP175 60000 I3001 T10221044 55016
ACT,2021-02-17 20:55,,,,360.00,11.00,,30.05,,4.00,,OVC,,,,700.00,,,,BR,,,,,,,,KACT 172055Z AUTO 36011KT 4SM BR OVC007 M02/M04 A3004 RMK T10201040 MADISHF
ACT,2021-02-17 21:00,,,,360.00,11.00,,30.05,,4.00,,OVC,,,,700.00,,,,BR,,,,,,,,KACT 172100Z AUTO 36011KT 4SM BR OVC007 M02/M04 A3004 RMK T10201040 MADISHF
ACT,2021-02-17 21:05,,,,10.00,11.00,,30.05,,4.00,,OVC,,,,700.00,,,,BR,,,,,,,,KACT 172105Z AUTO 01011KT 4SM BR OVC007 M02/M04 A3004 RMK T10201040 MADISHF
ACT,2021-02-17 21:10,,,,10.00,11.00,,30.05,,4.00,,OVC,,,,700.00,,,,BR,,,,,,,,KACT 172110Z AUTO 01011KT 4SM BR OVC007 M02/M04 A3004 RMK T10201040 CIG 6V10  MADISHF
ACT,2021-02-17 21:15,,,,360.00,11.00,,30.05,,5.00,,OVC,,,,700.00,,,,BR,,,,,,,,KACT 172115Z AUTO 36011KT 5SM BR OVC007 M02/M04 A3004 RMK T10201040 MADISHF
ACT,2021-02-17 21:20,,,,10.00,13.00,,30.05,,5.00,,OVC,,,,800.00,,,,BR,,,,,,,,KACT 172120Z AUTO 01013KT 5SM BR OVC008 M02/M04 A3004 RMK T10201040 MADISHF
ACT,2021-02-17 21:25,,,,360.00,11.00,,30.05,,5.00,,OVC,,,,800.00,,,,BR,,,,,,,,KACT 172125Z AUTO 36011KT 5SM BR OVC008 M02/M04 A3004 RMK T10201040 MADISHF
ACT,2021-02-17 21:30,,,,360.00,11.00,,30.06,,5.00,,OVC,,,,900.00,,,,BR,,,,,,,,KACT 172130Z AUTO 36011KT 5SM BR OVC009 M02/M04 A3005 RMK T10201040 MADISHF
ACT,2021-02-17 21:35,,,,360.00,11.00,,30.06,,5.00,,OVC,,,,900.00,,,,BR,,,,,,,,KACT 172135Z AUTO 36011KT 5SM BR OVC009 M02/M04 A3005 RMK T10201040 MADISHF
ACT,2021-02-17 21:40,,,,10.00,11.00,,30.05,,5.00,,OVC,,,,900.00,,,,BR,,,,,,,,KACT 172140Z AUTO 01011KT 5SM BR OVC009 M02/M04 A3004 RMK T10201040 MADISHF
ACT,2021-02-17 21:45,,,,10.00,13.00,,30.06,,5.00,,OVC,,,,900.00,,,,BR,,,,,,,,KACT 172145Z AUTO 01013KT 5SM BR OVC009 M02/M04 A3005 RMK T10201040 MADISHF
ACT,2021-02-17 21:50,,,,10.00,13.00,,30.06,,5.00,,OVC,,,,900.00,,,,BR,,,,,,,,KACT 172150Z AUTO 01013KT 5SM BR OVC009 M02/M04 A3005 RMK T10201040 MADISHF
ACT,2021-02-17 21:51,28.00,24.10,85.08,10.00,13.00,0.00,30.06,1018.30,5.00,,OVC,,,,900.00,,,,BR,,,,,,,16.44,KACT 172151Z 01013KT 5SM BR OVC009 M02/M04 A3006 RMK AO2 SLP183 T10221044
ACT,2021-02-17 21:55,,,,360.00,11.00,,30.06,,5.00,,OVC,,,,900.00,,,,BR,,,,,,,,KACT 172155Z AUTO 36011KT 5SM BR OVC009 M02/M04 A3005 RMK T10201040 MADISHF
ACT,2021-02-17 22:00,,,,20.00,11.00,,30.05,,5.00,,OVC,,,,900.00,,,,BR,,,,,,,,KACT 172200Z AUTO 02011KT 5SM BR OVC009 M02/M04 A3004 RMK T10201040 MADISHF
ACT,2021-02-17 22:05,,,,360.00,11.00,,30.06,,5.00,,OVC,,,,900.00,,,,BR,,,,,,,,KACT 172205Z AUTO 36011KT 5SM BR OVC009 M02/M04 A3005 RMK T10201040 MADISHF
ACT,2021-02-17 22:10,,,,10.00,11.00,,30.06,,5.00,,OVC,,,,900.00,,,,BR,,,,,,,,KACT 172210Z AUTO 01011KT 5SM BR OVC009 M02/M04 A3005 RMK T10201040 MADISHF
ACT,2021-02-17 22:15,,,,360.00,10.00,,30.07,,5.00,,OVC,,,,900.00,,,,BR,,,,,,,,KACT 172215Z AUTO 36010KT 5SM BR OVC009 M02/M04 A3006 RMK T10201040 MADISHF
ACT,2021-02-17 22:20,,,,20.00,11.00,,30.06,,5.00,,OVC,,,,900.00,,,,BR,,,,,,,,KACT 172220Z AUTO 02011KT 5SM BR OVC009 M02/M04 A3005 RMK T10201040 MADISHF
ACT,2021-02-17 22:25,,,,10.00,11.00,,30.06,,4.00,,OVC,,,,900.00,,,,BR,,,,,,,,KACT 172225Z AUTO 01011KT 4SM BR OVC009 M02/M04 A3005 RMK T10201040 MADISHF
ACT,2021-02-17 22:30,,,,360.00,11.00,,30.07,,4.00,,OVC,,,,900.00,,,,BR,,,,,,,,KACT 172230Z AUTO 36011KT 4SM BR OVC009 M02/M04 A3006 RMK T10201040 MADISHF
ACT,2021-02-17 22:35,,,,360.00,14.00,,30.08,,4.00,,OVC,,,,900.00,,,,BR,,,,,,,,KACT 172235Z AUTO 36014KT 4SM BR OVC009 M02/M04 A3007 RMK T10201040 MADISHF
ACT,2021-02-17 22:40,,,,10.00,11.00,,30.08,,4.00,,OVC,,,,900.00,,,,BR,,,,,,,,KACT 172240Z AUTO 01011KT 4SM BR OVC009 M02/M04 A3007 RMK T10201040 MADISHF
ACT,2021-02-17 22:45,,,,10.00,11.00,,30.08,,4.00,,OVC,,,,900.00,,,,BR,,,,,,,,KACT 172245Z AUTO 01011KT 4SM BR OVC009 M02/M04 A3007 RMK T10201040 MADISHF
ACT,2021-02-17 22:50,,,,10.00,11.00,,30.08,,4.00,,OVC,,,,900.00,,,,BR,,,,,,,,KACT 172250Z AUTO 01011KT 4SM BR OVC009 M02/M04 A3007 RMK T10201040 MADISHF
ACT,2021-02-17 22:51,28.00,24.10,85.08,10.00,11.00,0.00,30.08,1018.90,4.00,,OVC,,,,900.00,,,,BR,,,,,,,17.41,KACT 172251Z 01011KT 4SM BR OVC009 M02/M04 A3008 RMK AO2 SLP189 T10221044 $
ACT,2021-02-17 22:55,,,,10.00,11.00,,30.08,,4.00,,OVC,,,,900.00,,,,BR,,,,,,,,KACT 172255Z AUTO 01011KT 4SM BR OVC009 M02/M04 A3007 RMK T10201040 MADISHF
ACT,2021-02-17 23:00,,,,10.00,11.00,,30.08,,4.00,,OVC,,,,900.00,,,,BR,,,,,,,,KACT 172300Z AUTO 01011KT 4SM BR OVC009 M02/M04 A3007 RMK T10201040 MADISHF
ACT,2021-02-17 23:05,,,,10.00,11.00,,30.09,,4.00,,OVC,,,,900.00,,,,BR,,,,,,,,KACT 172305Z AUTO 01011KT 4SM BR OVC009 M02/M04 A3009 RMK T10201040 MADISHF
ACT,2021-02-17 23:10,,,,10.00,11.00,,30.09,,5.00,,OVC,,,,900.00,,,,BR,,,,,,,,KACT 172310Z AUTO 01011KT 5SM BR OVC009 M02/M04 A3009 RMK T10201040 MADISHF
ACT,2021-02-17 23:15,,,,360.00,11.00,,30.09,,5.00,,OVC,,,,900.00,,,,HZ,,,,,,,,KACT 172315Z AUTO 36011KT 5SM HZ OVC009 M02/M05 A3009 RMK T10201050 MADISHF
ACT,2021-02-17 23:20,,,,360.00,11.00,,30.10,,5.00,,OVC,,,,900.00,,,,HZ,,,,,,,,KACT 172320Z AUTO 36011KT 5SM HZ OVC009 M02/M05 A3010 RMK T10201050 MADISHF
ACT,2021-02-17 23:25,,,,360.00,10.00,,30.10,,5.00,,OVC,,,,900.00,,,,HZ,,,,,,,,KACT 172325Z AUTO 36010KT 5SM HZ OVC009 M02/M05 A3010 RMK T10201050 MADISHF
ACT,2021-02-17 23:30,,,,360.00,11.00,,30.10,,5.00,,OVC,,,,900.00,,,,HZ,,,,,,,,KACT 172330Z AUTO 36011KT 5SM HZ OVC009 M02/M05 A3010 RMK T10201050 MADISHF
ACT,2021-02-17 23:35,,,,360.00,11.00,,30.10,,5.00,,OVC,,,,900.00,,,,HZ,,,,,,,,KACT 172335Z AUTO 36011KT 5SM HZ OVC009 M02/M05 A3010 RMK T10201050 MADISHF
ACT,2021-02-17 23:40,,,,360.00,9.00,,30.10,,5.00,,OVC,,,,900.00,,,,HZ,,,,,,,,KACT 172340Z AUTO 36009KT 5SM HZ OVC009 M02/M05 A3010 RMK T10201050 MADISHF
ACT,2021-02-17 23:45,,,,350.00,11.00,,30.09,,5.00,,OVC,,,,900.00,,,,HZ,,,,,,,,KACT 172345Z AUTO 35011KT 5SM HZ OVC009 M02/M05 A3009 RMK T10201050 MADISHF
ACT,2021-02-17 23:50,,,,360.00,11.00,,30.10,,5.00,,OVC,,,,900.00,,,,HZ,,,,,,,,KACT 172350Z AUTO 36011KT 5SM HZ OVC009 M02/M05 A3010 RMK T10201050 MADISHF
ACT,2021-02-17 23:51,28.00,23.00,81.25,360.00,13.00,0.00,30.10,1019.60,5.00,,OVC,,,,900.00,,,,HZ,,,0.01,,,,16.44,KACT 172351Z 36013KT 5SM HZ OVC009 M02/M05 A3010 RMK AO2 SLP196 60000 I6001 T10221050 11022 21028 52020 $
ACT,2021-02-17 23:55,,,,350.00,11.00,,30.10,,5.00,17.00,OVC,,,,900.00,,,,HZ,,,,,,,,KACT 172355Z AUTO 35011G17KT 5SM HZ OVC009 M02/M05 A3010 RMK T10201050 MADISHF
ACT,2021-02-18 00:00,,,,360.00,11.00,,30.10,,5.00,,OVC,,,,900.00,,,,HZ,,,,,,,,KACT 180000Z AUTO 36011KT 5SM HZ OVC009 M02/M05 A3010 RMK T10201050 MADISHF
ACT,2021-02-18 00:05,,,,350.00,10.00,,30.11,,5.00,,OVC,,,,900.00,,,,HZ,,,,,,,,KACT 180005Z AUTO 35010KT 5SM HZ OVC009 M02/M05 A3011 RMK T10201050 MADISHF
ACT,2021-02-18 00:10,,,,350.00,11.00,,30.11,,5.00,,OVC,,,,900.00,,,,HZ,,,,,,,,KACT 180010Z AUTO 35011KT 5SM HZ OVC009 M02/M05 A3011 RMK T10201050 MADISHF
ACT,2021-02-18 00:15,,,,350.00,10.00,,30.12,,5.00,,OVC,,,,900.00,,,,HZ,,,,,,,,KACT 180015Z AUTO 35010KT 5SM HZ OVC009 M02/M05 A3012 RMK T10201050 MADISHF
ACT,2021-02-18 00:20,,,,350.00,11.00,,30.12,,5.00,,OVC,,,,900.00,,,,HZ,,,,,,,,KACT 180020Z AUTO 35011KT 5SM HZ OVC009 M02/M05 A3012 RMK T10201050 MADISHF
ACT,2021-02-18 00:25,,,,350.00,11.00,,30.12,,5.00,17.00,OVC,,,,900.00,,,,HZ,,,,,,,,KACT 180025Z AUTO 35011G17KT 5SM HZ OVC009 M02/M05 A3012 RMK T10201050 MADISHF
ACT,2021-02-18 00:30,,,,350.00,13.00,,30.12,,6.00,,OVC,,,,900.00,,,,HZ,,,,,,,,KACT 180030Z AUTO 35013KT 6SM HZ OVC009 M02/M05 A3012 RMK T10201050 MADISHF
ACT,2021-02-18 00:35,,,,350.00,10.00,,30.13,,7.00,,OVC,,,,900.00,,,,,,,,,,,,KACT 180035Z AUTO 35010KT 7SM OVC009 M02/M05 A3012 RMK T10201050 MADISHF
ACT,2021-02-18 00:40,,,,350.00,10.00,,30.13,,7.00,,OVC,,,,900.00,,,,,,,,,,,,KACT 180040Z AUTO 35010KT 7SM OVC009 M02/M05 A3012 RMK T10201050 MADISHF
ACT,2021-02-18 00:45,,,,340.00,11.00,,30.14,,7.00,,OVC,,,,900.00,,,,,,,,,,,,KACT 180045Z AUTO 34011KT 7SM OVC009 M02/M05 A3013 RMK T10201050 MADISHF
ACT,2021-02-18 00:50,,,,350.00,11.00,,30.14,,7.00,,OVC,,,,900.00,,,,,,,,,,,,KACT 180050Z AUTO 35011KT 7SM OVC009 M02/M05 A3013 RMK T10201050 MADISHF
ACT,2021-02-18 00:51,28.00,23.00,81.25,350.00,12.00,0.00,30.14,1020.90,7.00,,OVC,,,,900.00,,,,,,,,,,,16.91,KACT 180051Z 35012KT 7SM OVC009 M02/M05 A3014 RMK AO2 SLP209 T10221050 $
ACT,2021-02-18 00:55,,,,350.00,11.00,,30.14,,7.00,,OVC,,,,1300.00,,,,,,,,,,,,KACT 180055Z AUTO 35011KT 7SM OVC013 M02/M05 A3013 RMK T10201050 MADISHF
ACT,2021-02-18 00:58,28.00,23.00,81.25,360.00,10.00,0.00,30.14,,7.00,,OVC,,,,1300.00,,,,,,,,,,,17.95,KACT 180058Z 36010KT 7SM OVC013 M02/M05 A3014 RMK AO2 T10221050 $
ACT,2021-02-18 01:00,,,,350.00,10.00,,30.14,,7.00,,OVC,,,,1300.00,,,,,,,,,,,,KACT 180100Z AUTO 35010KT 7SM OVC013 M02/M05 A3013 RMK T10201050 MADISHF
ACT,2021-02-18 01:05,,,,350.00,11.00,,30.15,,7.00,,OVC,,,,1400.00,,,,,,,,,,,,KACT 180105Z AUTO 35011KT 7SM OVC014 M02/M05 A3014 RMK T10201050 MADISHF
ACT,2021-02-18 01:10,,,,360.00,10.00,,30.15,,7.00,,OVC,,,,1400.00,,,,,,,,,,,,KACT 180110Z AUTO 36010KT 7SM OVC014 M02/M05 A3014 RMK T10201050 MADISHF
ACT,2021-02-18 01:15,,,,360.00,10.00,,30.15,,7.00,,OVC,,,,1400.00,,,,,,,,,,,,KACT 180115Z AUTO 36010KT 7SM OVC014 M02/M05 A3014 RMK T10201050 MADISHF
ACT,2021-02-18 01:20,,,,350.00,9.00,,30.16,,7.00,,OVC,,,,1500.00,,,,,,,,,,,,KACT 180120Z AUTO 35009KT 7SM OVC015 M02/M05 A3015 RMK T10201050 MADISHF
ACT,2021-02-18 01:23,28.00,23.00,81.25,350.00,8.00,0.00,30.16,,7.00,,OVC,,,,1500.00,,,,,,,,,,,19.19,KACT 180123Z 35008KT 7SM OVC015 M02/M05 A3016 RMK AO2 T10221050 $
ACT,2021-02-18 01:25,,,,350.00,8.00,,30.16,,7.00,,OVC,,,,1500.00,,,,,,,,,,,,KACT 180125Z AUTO 35008KT 7SM OVC015 M02/M05 A3015 RMK T10201050 MADISHF
ACT,2021-02-18 01:30,,,,350.00,9.00,,30.17,,7.00,,OVC,,,,1500.00,,,,,,,,,,,,KACT 180130Z AUTO 35009KT 7SM OVC015 M02/M05 A3017 RMK T10201050 MADISHF
ACT,2021-02-18 01:35,,,,350.00,9.00,,30.17,,7.00,,OVC,,,,1500.00,,,,,,,,,,,,KACT 180135Z AUTO 35009KT 7SM OVC015 M02/M05 A3017 RMK T10201050 MADISHF
ACT,2021-02-18 01:40,,,,340.00,7.00,,30.17,,7.00,,OVC,,,,1500.00,,,,,,,,,,,,KACT 180140Z AUTO 34007KT 7SM OVC015 M02/M05 A3017 RMK T10201050 MADISHF
ACT,2021-02-18 01:45,,,,340.00,9.00,,30.17,,7.00,,OVC,,,,1500.00,,,,,,,,,,,,KACT 180145Z AUTO 34009KT 7SM OVC015 M02/M05 A3017 RMK T10201050 MADISHF
ACT,2021-02-18 01:50,,,,350.00,10.00,,30.17,,6.00,,OVC,,,,1500.00,,,,HZ,,,,,,,,KACT 180150Z AUTO 35010KT 6SM HZ OVC015 M02/M05 A3017 RMK T10201050 MADISHF
ACT,2021-02-18 01:51,28.00,23.00,81.25,350.00,9.00,0.00,30.17,1022.10,6.00,,OVC,,,,1500.00,,,,HZ,,,,,,,18.54,KACT 180151Z 35009KT 6SM HZ OVC015 M02/M05 A3017 RMK AO2 SLP221 T10221050 $
ACT,2021-02-18 01:55,,,,350.00,10.00,,30.17,,6.00,,OVC,,,,1500.00,,,,HZ,,,,,,,,KACT 180155Z AUTO 35010KT 6SM HZ OVC015 M02/M05 A3017 RMK T10201050 MADISHF
ACT,2021-02-18 02:00,,,,340.00,9.00,,30.18,,6.00,,OVC,,,,1500.00,,,,HZ,,,,,,,,KACT 180200Z AUTO 34009KT 6SM HZ OVC015 M02/M05 A3018 RMK T10201050 MADISHF
ACT,2021-02-18 02:02,28.00,23.00,81.25,350.00,10.00,0.00,30.18,,6.00,,OVC,,,,1300.00,,,,HZ,,,,,,,17.95,KACT 180202Z 35010KT 6SM HZ OVC013 M02/M05 A3018 RMK AO2 T10221050 $
ACT,2021-02-18 02:05,,,,340.00,10.00,,30.18,,6.00,,OVC,,,,1300.00,,,,HZ,,,,,,,,KACT 180205Z AUTO 34010KT 6SM HZ OVC013 M02/M05 A3018 RMK T10201050 MADISHF
ACT,2021-02-18 02:10,,,,350.00,9.00,,30.18,,6.00,,OVC,,,,1300.00,,,,HZ,,,,,,,,KACT 180210Z AUTO 35009KT 6SM HZ OVC013 M02/M05 A3018 RMK T10201050 MADISHF
ACT,2021-02-18 02:15,,,,350.00,8.00,,30.18,,6.00,,OVC,,,,1300.00,,,,HZ,,,,,,,,KACT 180215Z AUTO 35008KT 6SM HZ OVC013 M02/M05 A3018 RMK T10201050 MADISHF
ACT,2021-02-18 02:20,,,,350.00,9.00,,30.18,,6.00,,OVC,,,,1300.00,,,,HZ,,,,,,,,KACT 180220Z AUTO 35009KT 6SM HZ OVC013 M02/M05 A3018 RMK T10201050 MADISHF
ACT,2021-02-18 02:25,,,,360.00,10.00,,30.18,,6.00,,OVC,,,,1300.00,,,,HZ,,,,,,,,KACT 180225Z AUTO 36010KT 6SM HZ OVC013 M02/M05 A3018 RMK T10201050 MADISHF
ACT,2021-02-18 02:30,,,,350.00,8.00,,30.18,,6.00,,OVC,,,,1400.00,,,,HZ,,,,,,,,KACT 180230Z AUTO 35008KT 6SM HZ OVC014 M02/M05 A3018 RMK T10201050 MADISHF
ACT,2021-02-18 02:35,,,,350.00,9.00,,30.19,,6.00,,OVC,,,,1400.00,,,,HZ,,,,,,,,KACT 180235Z AUTO 35009KT 6SM HZ OVC014 M02/M05 A3019 RMK T10201050 MADISHF
ACT,2021-02-18 02:40,,,,350.00,10.00,,30.18,,6.00,,OVC,,,,1400.00,,,,HZ,,,,,,,,KACT 180240Z AUTO 35010KT 6SM HZ OVC014 M02/M05 A3018 RMK T10201050 MADISHF
ACT,2021-02-18 02:45,,,,350.00,10.00,,30.19,,6.00,,OVC,,,,1400.00,,,,HZ,,,,,,,,KACT 180245Z AUTO 35010KT 6SM HZ OVC014 M02/M05 A3019 RMK T10201050 MADISHF
ACT,2021-02-18 02:50,,,,350.00,11.00,,30.19,,6.00,,OVC,,,,1400.00,,,,HZ,,,,,,,,KACT 180250Z AUTO 35011KT 6SM HZ OVC014 M02/M05 A3019 RMK T10201050 MADISHF
ACT,2021-02-18 02:51,28.00,23.00,81.25,350.00,11.00,0.00,30.19,1022.60,6.00,,OVC,,,,1400.00,,,,HZ,,,,,,,17.41,KACT 180251Z 35011KT 6SM HZ OVC014 M02/M05 A3019 RMK AO2 SLP226 T10221050 51029 $
ACT,2021-02-18 02:55,,,,350.00,10.00,,30.19,,6.00,,OVC,,,,1400.00,,,,HZ,,,,,,,,KACT 180255Z AUTO 35010KT 6SM HZ OVC014 M02/M05 A3019 RMK T10201050 MADISHF
ACT,2021-02-18 03:00,,,,350.00,9.00,,30.19,,6.00,,OVC,,,,1400.00,,,,HZ,,,,,,,,KACT 180300Z AUTO 35009KT 6SM HZ OVC014 M02/M05 A3019 RMK T10201050 MADISHF
ACT,2021-02-18 03:05,,,,350.00,10.00,,30.18,,6.00,,OVC,,,,1400.00,,,,HZ,,,,,,,,KACT 180305Z AUTO 35010KT 6SM HZ OVC014 M02/M05 A3018 RMK T10201050 MADISHF
ACT,2021-02-18 03:10,,,,350.00,9.00,,30.19,,6.00,,OVC,,,,1400.00,,,,HZ,,,,,,,,KACT 180310Z AUTO 35009KT 6SM HZ OVC014 M02/M05 A3019 RMK T10201050 MADISHF
ACT,2021-02-18 03:15,,,,350.00,10.00,,30.19,,6.00,,BKN,OVC,,,1400.00,2900.00,,,HZ,,,,,,,,KACT 180315Z AUTO 35010KT 6SM HZ BKN014 OVC029 M02/M05 A3019 RMK T10201050 MADISHF
ACT,2021-02-18 03:20,,,,350.00,10.00,,30.19,,6.00,,BKN,OVC,,,1400.00,2900.00,,,HZ,,,,,,,,KACT 180320Z AUTO 35010KT 6SM HZ BKN014 OVC029 M02/M05 A3019 RMK T10201050 MADISHF
ACT,2021-02-18 03:25,,,,350.00,11.00,,30.19,,6.00,,BKN,OVC,,,1400.00,2900.00,,,HZ,,,,,,,,KACT 180325Z AUTO 35011KT 6SM HZ BKN014 OVC029 M02/M05 A3019 RMK T10201050 MADISHF
ACT,2021-02-18 03:30,,,,350.00,9.00,,30.19,,6.00,,BKN,OVC,,,1400.00,2900.00,,,HZ,,,,,,,,KACT 180330Z AUTO 35009KT 6SM HZ BKN014 OVC029 M02/M05 A3019 RMK T10201050 MADISHF
ACT,2021-02-18 03:35,,,,360.00,10.00,,30.19,,6.00,,BKN,OVC,,,1400.00,2900.00,,,HZ,,,,,,,,KACT 180335Z AUTO 36010KT 6SM HZ BKN014 OVC029 M02/M05 A3019 RMK T10201050 MADISHF
ACT,2021-02-18 03:40,,,,360.00,9.00,,30.19,,6.00,,OVC,,,,1400.00,,,,HZ,,,,,,,,KACT 180340Z AUTO 36009KT 6SM HZ OVC014 M02/M05 A3019 RMK T10201050 MADISHF
ACT,2021-02-18 03:45,,,,360.00,10.00,,30.19,,6.00,,BKN,OVC,,,1400.00,2900.00,,,HZ,,,,,,,,KACT 180345Z AUTO 36010KT 6SM HZ BKN014 OVC029 M02/M05 A3019 RMK T10201050 MADISHF
ACT,2021-02-18 03:50,,,,350.00,9.00,,30.19,,6.00,,BKN,OVC,,,1400.00,2900.00,,,HZ,,,,,,,,KACT 180350Z AUTO 35009KT 6SM HZ BKN014 OVC029 M02/M05 A3019 RMK T10201050 MADISHF
ACT,2021-02-18 03:51,28.00,23.00,81.25,360.00,10.00,0.00,30.19,1022.70,6.00,,BKN,OVC,,,1400.00,2900.00,,,HZ,,,,,,,17.95,KACT 180351Z 36010KT 6SM HZ BKN014 OVC029 M02/M05 A3019 RMK AO2 SLP227 T10221050 $
ACT,2021-02-18 03:55,,,,350.00,9.00,,30.19,,6.00,,BKN,OVC,,,1400.00,2900.00,,,HZ,,,,,,,,KACT 180355Z AUTO 35009KT 6SM HZ BKN014 OVC029 M02/M05 A3019 RMK T10201050 MADISHF
ACT,2021-02-18 04:00,,,,350.00,9.00,,30.19,,6.00,,BKN,OVC,,,1400.00,2900.00,,,HZ,,,,,,,,KACT 180400Z AUTO 35009KT 6SM HZ BKN014 OVC029 M02/M05 A3019 RMK T10201050 MADISHF
ACT,2021-02-18 04:05,,,,360.00,11.00,,30.18,,6.00,,BKN,OVC,,,1400.00,2900.00,,,HZ,,,,,,,,KACT 180405Z AUTO 36011KT 6SM HZ BKN014 OVC029 M02/M06 A3018 RMK T10201060 MADISHF
ACT,2021-02-18 04:10,,,,360.00,10.00,,30.18,,6.00,,SCT,OVC,,,1400.00,2900.00,,,HZ,,,,,,,,KACT 180410Z AUTO 36010KT 6SM HZ SCT014 OVC029 M02/M06 A3018 RMK T10201060 MADISHF
ACT,2021-02-18 04:13,28.00,21.90,77.57,360.00,11.00,0.00,30.17,,6.00,,FEW,OVC,,,1400.00,2900.00,,,HZ,,,,,,,17.41,KACT 180413Z 36011KT 6SM HZ FEW014 OVC029 M02/M06 A3017 RMK AO2 T10221056 $
ACT,2021-02-18 04:15,,,,360.00,11.00,,30.17,,6.00,,FEW,OVC,,,1400.00,2900.00,,,HZ,,,,,,,,KACT 180415Z AUTO 36011KT 6SM HZ FEW014 OVC029 M02/M06 A3017 RMK T10201060 MADISHF
ACT,2021-02-18 04:20,,,,360.00,11.00,,30.18,,6.00,,FEW,OVC,,,1400.00,2900.00,,,HZ,,,,,,,,KACT 180420Z AUTO 36011KT 6SM HZ FEW014 OVC029 M02/M06 A3018 RMK T10201060 MADISHF
ACT,2021-02-18 04:25,,,,360.00,10.00,,30.18,,6.00,,FEW,OVC,,,1400.00,2900.00,,,HZ,,,,,,,,KACT 180425Z AUTO 36010KT 6SM HZ FEW014 OVC029 M02/M06 A3018 RMK T10201060 MADISHF
ACT,2021-02-18 04:30,,,,350.00,13.00,,30.18,,6.00,,FEW,OVC,,,1400.00,2900.00,,,HZ,,,,,,,,KACT 180430Z AUTO 35013KT 6SM HZ FEW014 OVC029 M02/M06 A3018 RMK T10201060 MADISHF
ACT,2021-02-18 04:35,,,,350.00,14.00,,30.18,,6.00,,FEW,OVC,,,1400.00,3000.00,,,HZ,,,,,,,,KACT 180435Z AUTO 35014KT 6SM HZ FEW014 OVC030 M02/M06 A3018 RMK T10201060 MADISHF
ACT,2021-02-18 04:37,28.00,21.90,77.57,360.00,12.00,0.00,30.18,,6.00,,FEW,OVC,,,1400.00,3000.00,,,HZ,,,,,,,16.91,KACT 180437Z 36012KT 6SM HZ FEW014 OVC030 M02/M06 A3018 RMK AO2 T10221056 $
ACT,2021-02-18 04:40,,,,350.00,11.00,,30.18,,6.00,,FEW,OVC,,,1400.00,3000.00,,,HZ,,,,,,,,KACT 180440Z AUTO 35011KT 6SM HZ FEW014 OVC030 M03/M06 A3018 RMK T10301060 MADISHF
ACT,2021-02-18 04:45,,,,350.00,11.00,,30.18,,6.00,,FEW,OVC,,,1400.00,3000.00,,,HZ,,,,,,,,KACT 180445Z AUTO 35011KT 6SM HZ FEW014 OVC030 M03/M06 A3018 RMK T10301060 MADISHF
ACT,2021-02-18 04:50,,,,350.00,11.00,,30.18,,6.00,,FEW,OVC,,,1400.00,3000.00,,,HZ,,,,,,,,KACT 180450Z AUTO 35011KT 6SM HZ FEW014 OVC030 M03/M06 A3018 RMK T10301060 MADISHF
ACT,2021-02-18 04:51,27.00,21.90,80.83,350.00,13.00,0.00,30.18,1022.20,6.00,,FEW,OVC,,,1400.00,3000.00,,,HZ,,,,,,,15.16,KACT 180451Z 35013KT 6SM HZ FEW014 OVC030 M03/M06 A3018 RMK AO2 SLP222 T10281056 $
ACT,2021-02-18 04:55,,,,350.00,14.00,,30.18,,6.00,,FEW,OVC,,,1400.00,3000.00,,,HZ,,,,,,,,KACT 180455Z AUTO 35014KT 6SM HZ FEW014 OVC030 M03/M06 A3018 RMK T10301060 MADISHF
ACT,2021-02-18 05:00,,,,360.00,11.00,,30.18,,6.00,17.00,FEW,OVC,,,1400.00,3000.00,,,HZ,,,,,,,,KACT 180500Z AUTO 36011G17KT 6SM HZ FEW014 OVC030 M03/M06 A3018 RMK T10301060 MADISHF
ACT,2021-02-18 05:05,,,,360.00,11.00,,30.18,,6.00,,FEW,OVC,,,1400.00,3000.00,,,HZ,,,,,,,,KACT 180505Z AUTO 36011KT 6SM HZ FEW014 OVC030 M03/M06 A3018 RMK T10301060 MADISHF
ACT,2021-02-18 05:10,,,,350.00,14.00,,30.17,,6.00,,SCT,OVC,,,1400.00,3000.00,,,HZ,,,,,,,,KACT 180510Z AUTO 35014KT 6SM HZ SCT014 OVC030 M03/M06 A3017 RMK T10301060 MADISHF
ACT,2021-02-18 05:15,,,,350.00,11.00,,30.17,,7.00,,SCT,OVC,,,1400.00,3000.00,,,,,,,,,,,KACT 180515Z AUTO 35011KT 7SM SCT014 OVC030 M03/M06 A3017 RMK T10301060 MADISHF
ACT,2021-02-18 05:20,,,,360.00,15.00,,30.16,,7.00,,FEW,OVC,,,1500.00,3000.00,,,,,,,,,,,KACT 180520Z AUTO 36015KT 7SM FEW015 OVC030 M03/M06 A3015 RMK T10301060 MADISHF
ACT,2021-02-18 05:25,,,,360.00,13.00,,30.16,,6.00,18.00,SCT,OVC,,,1500.00,3100.00,,,HZ,,,,,,,,KACT 180525Z AUTO 36013G18KT 6SM HZ SCT015 OVC031 M03/M06 A3015 RMK T10301060 MADISHF
ACT,2021-02-18 05:30,,,,360.00,14.00,,30.17,,7.00,,SCT,OVC,,,1500.00,3100.00,,,,,,,,,,,KACT 180530Z AUTO 36014KT 7SM SCT015 OVC031 M03/M06 A3017 RMK T10301060 MADISHF
ACT,2021-02-18 05:35,,,,360.00,11.00,,30.17,,7.00,,SCT,OVC,,,1500.00,3100.00,,,,,,,,,,,KACT 180535Z AUTO 36011KT 7SM SCT015 OVC031 M03/M06 A3017 RMK T10301060 MADISHF
ACT,2021-02-18 05:40,,,,360.00,13.00,,30.18,,7.00,18.00,BKN,OVC,,,1500.00,3100.00,,,,,,,,,,,KACT 180540Z AUTO 36013G18KT 7SM BKN015 OVC031 M03/M06 A3018 RMK T10301060 MADISHF
ACT,2021-02-18 05:42,27.00,21.90,80.83,360.00,14.00,0.00,30.17,,7.00,,BKN,OVC,,,1500.00,3100.00,,,,,,,,,,14.72,KACT 180542Z 36014KT 7SM BKN015 OVC031 M03/M06 A3017 RMK AO2 T10281056 $
ACT,2021-02-18 05:45,,,,360.00,14.00,,30.17,,7.00,,BKN,OVC,,,1500.00,3100.00,,,,,,,,,,,KACT 180545Z AUTO 36014KT 7SM BKN015 OVC031 M03/M06 A3017 RMK T10301060 MADISHF
ACT,2021-02-18 05:50,,,,10.00,14.00,,30.15,,7.00,,BKN,OVC,,,1500.00,3100.00,,,,,,,,,,,KACT 180550Z AUTO 01014KT 7SM BKN015 OVC031 M03/M06 A3014 RMK T10301060 MADISHF
ACT,2021-02-18 05:51,27.00,21.90,80.83,10.00,14.00,0.00,30.15,1021.30,7.00,,BKN,OVC,,,1500.00,3100.00,,,,,,,,,,14.72,KACT 180551Z AUTO 01014KT 7SM BKN015 OVC031 M03/M06 A3015 RMK AO2 SLP213 T10281056 11022 21028 410221056 58012 $
ACT,2021-02-18 05:55,,,,10.00,14.00,,30.15,,7.00,,OVC,,,,1500.00,,,,,,,,,,,,KACT 180555Z AUTO 01014KT 7SM OVC015 M03/M06 A3014 RMK T10301060 MADISHF
ACT,2021-02-18 06:00,,,,360.00,14.00,,30.16,,7.00,,OVC,,,,1500.00,,,,,,,,,,,,KACT 180600Z AUTO 36014KT 7SM OVC015 M03/M06 A3015 RMK T10301060 MADISHF
ACT,2021-02-18 06:05,,,,360.00,14.00,,30.17,,7.00,,OVC,,,,1500.00,,,,,,,,,,,,KACT 180605Z AUTO 36014KT 7SM OVC015 M03/M06 A3017 RMK T10301060 MADISHF
ACT,2021-02-18 06:10,,,,360.00,16.00,,30.16,,7.00,,OVC,,,,1500.00,,,,,,,,,,,,KACT 180610Z AUTO 36016KT 7SM OVC015 M03/M06 A3015 RMK T10301060 MADISHF
ACT,2021-02-18 06:15,,,,10.00,15.00,,30.14,,7.00,,OVC,,,,1500.00,,,,,,,,,,,,KACT 180615Z AUTO 01015KT 7SM OVC015 M03/M06 A3013 RMK T10301060 MADISHF
ACT,2021-02-18 06:20,,,,360.00,16.00,,30.13,,7.00,,OVC,,,,1500.00,,,,,,,,,,,,KACT 180620Z AUTO 36016KT 7SM OVC015 M03/M06 A3012 RMK T10301060 MADISHF
ACT,2021-02-18 06:25,,,,360.00,16.00,,30.12,,7.00,,OVC,,,,1500.00,,,,,,,,,,,,KACT 180625Z AUTO 36016KT 7SM OVC015 M03/M06 A3012 RMK T10301060 MADISHF
ACT,2021-02-18 06:30,,,,360.00,19.00,,30.12,,7.00,,BKN,OVC,,,1500.00,3100.00,,,,,,,,,,,KACT 180630Z AUTO 36019KT 7SM BKN015 OVC031 M03/M06 A3012 RMK T10301060 MADISHF
ACT,2021-02-18 06:35,,,,360.00,17.00,,30.14,,7.00,22.00,OVC,,,,1600.00,,,,,,,,,,,,KACT 180635Z AUTO 36017G22KT 7SM OVC016 M03/M06 A3013 RMK T10301060 MADISHF
ACT,2021-02-18 06:40,,,,10.00,14.00,,30.14,,7.00,,OVC,,,,1600.00,,,,,,,,,,,,KACT 180640Z AUTO 01014KT 7SM OVC016 M03/M06 A3013 RMK T10301060 MADISHF
ACT,2021-02-18 06:45,,,,360.00,15.00,,30.15,,7.00,21.00,BKN,OVC,,,1600.00,2300.00,,,,,,,,,,,KACT 180645Z AUTO 36015G21KT 7SM BKN016 OVC023 M03/M06 A3014 RMK T10301060 MADISHF
ACT,2021-02-18 06:50,,,,360.00,11.00,,30.17,,8.00,,BKN,OVC,,,1600.00,2300.00,,,,,,,,,,,KACT 180650Z AUTO 36011KT 8SM BKN016 OVC023 M03/M06 A3017 RMK T10301060 MADISHF
ACT,2021-02-18 06:51,27.00,21.00,77.80,10.00,13.00,0.00,30.18,1022.20,8.00,21.00,BKN,OVC,,,1600.00,2300.00,,,,,,,,,,15.16,KACT 180651Z AUTO 01013G21KT 8SM BKN016 OVC023 M03/M06 A3018 RMK AO2 PRESRR SLP222 T10281061 $
ACT,2021-02-18 06:55,,,,360.00,11.00,,30.20,,8.00,,OVC,,,,1600.00,,,,,,,,,,,,KACT 180655Z AUTO 36011KT 8SM OVC016 M03/M06 A3020 RMK T10301060 MADISHF
ACT,2021-02-18 07:00,,,,360.00,10.00,,30.21,,8.00,,OVC,,,,1600.00,,,,,,,,,,,,KACT 180700Z AUTO 36010KT 8SM OVC016 M03/M06 A3020 RMK T10301060 MADISHF
ACT,2021-02-18 07:05,,,,360.00,10.00,,30.20,,8.00,,OVC,,,,1600.00,,,,,,,,,,,,KACT 180705Z AUTO 36010KT 8SM OVC016 M03/M06 A3020 RMK T10301060 MADISHF
ACT,2021-02-18 07:10,,,,360.00,8.00,,30.21,,8.00,,BKN,OVC,,,1600.00,2400.00,,,,,,,,,,,KACT 180710Z AUTO 36008KT 8SM BKN016 OVC024 M03/M06 A3020 RMK T10301060 MADISHF
ACT,2021-02-18 07:15,,,,10.00,11.00,,30.22,,8.00,,OVC,,,,1600.00,,,,,,,,,,,,KACT 180715Z AUTO 01011KT 8SM OVC016 M03/M06 A3021 RMK T10301060 MADISHF
ACT,2021-02-18 07:20,,,,10.00,10.00,,30.24,,8.00,,OVC,,,,1600.00,,,,,,,,,,,,KACT 180720Z AUTO 01010KT 8SM OVC016 M03/M06 A3023 RMK T10301060 MADISHF
ACT,2021-02-18 07:25,,,,10.00,9.00,,30.24,,8.00,,OVC,,,,1600.00,,,,,,,,,,,,KACT 180725Z AUTO 01009KT 8SM OVC016 M03/M06 A3023 RMK T10301060 MADISHF
ACT,2021-02-18 07:30,,,,10.00,5.00,,30.24,,8.00,,OVC,,,,1699.00,,,,,,,,,,,,KACT 180730Z AUTO 01005KT 8SM OVC016 M03/M06 A3023 RMK T10301060 MADISHF
ACT,2021-02-18 07:35,,,,10.00,5.00,,30.24,,8.00,,OVC,,,,1699.00,,,,,,,,,,,,KACT 180735Z AUTO 01005KT 8SM OVC016 M03/M06 A3023 RMK T10301060 MADISHF
ACT,2021-02-18 07:40,,,,10.00,9.00,,30.24,,8.00,,OVC,,,,1699.00,,,,,,,,,,,,KACT 180740Z AUTO 01009KT 8SM OVC016 M03/M06 A3023 RMK T10301060 MADISHF
ACT,2021-02-18 07:45,,,,10.00,7.00,,30.24,,8.00,,OVC,,,,1699.00,,,,,,,,,,,,KACT 180745Z AUTO 01007KT 8SM OVC016 M03/M06 A3023 RMK T10301060 MADISHF
ACT,2021-02-18 07:50,,,,20.00,9.00,,30.25,,8.00,,OVC,,,,1699.00,,,,,,,,,,,,KACT 180750Z AUTO 02009KT 8SM OVC016 M03/M06 A3025 RMK T10301060 MADISHF
ACT,2021-02-18 07:51,27.00,21.00,77.80,20.00,9.00,0.00,30.25,1024.60,8.00,,OVC,,,,1700.00,,,,,,,,,,,17.30,KACT 180751Z AUTO 02009KT 8SM OVC017 M03/M06 A3025 RMK AO2 SLP246 T10281061 $
ACT,2021-02-18 07:55,,,,360.00,7.00,,30.25,,8.00,,OVC,,,,1699.00,,,,,,,,,,,,KACT 180755Z AUTO 36007KT 8SM OVC016 M03/M06 A3025 RMK T10301060 MADISHF
ACT,2021-02-18 08:00,,,,20.00,7.00,,30.24,,8.00,,OVC,,,,1699.00,,,,,,,,,,,,KACT 180800Z AUTO 02007KT 8SM OVC016 M03/M06 A3023 RMK T10301060 MADISHF
ACT,2021-02-18 08:05,,,,20.00,8.00,,30.24,,8.00,,OVC,,,,1699.00,,,,,,,,,,,,KACT 180805Z AUTO 02008KT 8SM OVC016 M03/M06 A3023 RMK T10301060 MADISHF
ACT,2021-02-18 08:10,,,,30.00,7.00,,30.24,,8.00,,OVC,,,,1699.00,,,,,,,,,,,,KACT 180810Z AUTO 03007KT 8SM OVC016 M03/M06 A3023 RMK T10301060 MADISHF
ACT,2021-02-18 08:15,,,,20.00,8.00,,30.24,,8.00,,OVC,,,,1699.00,,,,,,,,,,,,KACT 180815Z AUTO 02008KT 8SM OVC016 M03/M06 A3023 RMK T10301060 MADISHF
ACT,2021-02-18 08:20,,,,20.00,9.00,,30.22,,8.00,,OVC,,,,1699.00,,,,,,,,,,,,KACT 180820Z AUTO 02009KT 8SM OVC016 M03/M06 A3021 RMK T10301060 MADISHF
ACT,2021-02-18 08:25,,,,10.00,8.00,,30.21,,8.00,,OVC,,,,1699.00,,,,,,,,,,,,KACT 180825Z AUTO 01008KT 8SM OVC016 M03/M06 A3020 RMK T10301060 MADISHF
ACT,2021-02-18 08:30,,,,10.00,8.00,,30.22,,8.00,,OVC,,,,1699.00,,,,,,,,,,,,KACT 180830Z AUTO 01008KT 8SM OVC016 M03/M06 A3021 RMK T10301060 MADISHF
ACT,2021-02-18 08:35,,,,10.00,7.00,,30.24,,8.00,,OVC,,,,1699.00,,,,,,,,,,,,KACT 180835Z AUTO 01007KT 8SM OVC016 M03/M06 A3023 RMK T10301060 MADISHF
ACT,2021-02-18 08:40,,,,360.00,7.00,,30.25,,8.00,,OVC,,,,1699.00,,,,,,,,,,,,KACT 180840Z AUTO 36007KT 8SM OVC016 M03/M06 A3025 RMK T10301060 MADISHF
ACT,2021-02-18 08:45,,,,360.00,9.00,,30.23,,8.00,,OVC,,,,1699.00,,,,,,,,,,,,KACT 180845Z AUTO 36009KT 8SM OVC016 M03/M06 A3022 RMK T10301060 MADISHF
ACT,2021-02-18 08:50,,,,360.00,11.00,,30.21,,8.00,,OVC,,,,1699.00,,,,,,,,,,,,KACT 180850Z AUTO 36011KT 8SM OVC016 M03/M06 A3020 RMK T10301060 MADISHF
ACT,2021-02-18 08:51,27.00,21.00,77.80,360.00,10.00,0.00,30.22,1023.50,8.00,,OVC,,,,1700.00,,,,,,,,,,,16.70,KACT 180851Z AUTO 36010KT 8SM OVC017 M03/M06 A3022 RMK AO2 SLP235 T10281061 50022 $
ACT,2021-02-18 08:55,,,,360.00,8.00,,30.24,,8.00,,OVC,,,,1699.00,,,,,,,,,,,,KACT 180855Z AUTO 36008KT 8SM OVC016 M03/M06 A3023 RMK T10301060 MADISHF
ACT,2021-02-18 09:00,,,,360.00,9.00,,30.23,,8.00,,OVC,,,,1699.00,,,,,,,,,,,,KACT 180900Z AUTO 36009KT 8SM OVC016 M03/M06 A3022 RMK T10301060 MADISHF
ACT,2021-02-18 09:05,,,,10.00,10.00,,30.22,,8.00,,OVC,,,,1699.00,,,,,,,,,,,,KACT 180905Z AUTO 01010KT 8SM OVC016 M03/M06 A3021 RMK T10301060 MADISHF
ACT,2021-02-18 09:10,,,,10.00,5.00,,30.24,,8.00,,OVC,,,,1800.00,,,,,,,,,,,,KACT 180910Z AUTO 01005KT 8SM OVC018 M03/M06 A3023 RMK T10301060 MADISHF
ACT,2021-02-18 09:15,,,,10.00,7.00,,30.24,,8.00,,OVC,,,,1800.00,,,,,,,,,,,,KACT 180915Z AUTO 01007KT 8SM OVC018 M03/M06 A3023 RMK T10301060 MADISHF
ACT,2021-02-18 09:20,,,,360.00,7.00,,30.25,,8.00,,OVC,,,,1800.00,,,,,,,,,,,,KACT 180920Z AUTO 36007KT 8SM OVC018 M03/M06 A3025 RMK T10301060 MADISHF
ACT,2021-02-18 09:25,,,,350.00,8.00,,30.25,,8.00,,OVC,,,,1800.00,,,,,,,,,,,,KACT 180925Z AUTO 35008KT 8SM OVC018 M03/M06 A3025 RMK T10301060 MADISHF
ACT,2021-02-18 09:30,,,,340.00,10.00,,30.27,,8.00,,OVC,,,,1800.00,,,,,,,,,,,,KACT 180930Z AUTO 34010KT 8SM OVC018 M03/M06 A3027 RMK T10301060 MADISHF
ACT,2021-02-18 09:35,,,,330.00,8.00,,30.27,,8.00,,OVC,,,,1800.00,,,,,,,,,,,,KACT 180935Z AUTO 33008KT 8SM OVC018 M03/M06 A3027 RMK T10301060 MADISHF
ACT,2021-02-18 09:40,,,,320.00,8.00,,30.28,,9.00,,OVC,,,,1800.00,,,,,,,,,,,,KACT 180940Z AUTO 32008KT 9SM OVC018 M03/M06 A3028 RMK T10301060 MADISHF
ACT,2021-02-18 09:45,,,,330.00,5.00,,30.28,,9.00,,OVC,,,,1800.00,,,,,,,,,,,,KACT 180945Z AUTO 33005KT 9SM OVC018 M03/M06 A3028 RMK T10301060 MADISHF
ACT,2021-02-18 09:50,,,,330.00,5.00,,30.28,,9.00,,OVC,,,,1800.00,,,,,,,,,,,,KACT 180950Z AUTO 33005KT 9SM OVC018 M03/M06 A3028 RMK T10301060 MADISHF
ACT,2021-02-18 09:51,27.00,21.00,77.80,330.00,6.00,0.00,30.28,1025.70,9.00,,OVC,,,,1800.00,,,,,,,,,,,19.51,KACT 180951Z AUTO 33006KT 9SM OVC018 M03/M06 A3028 RMK AO2 SLP257 T10281061 $
ACT,2021-02-18 09:55,,,,340.00,9.00,,30.27,,9.00,,OVC,,,,1800.00,,,,,,,,,,,,KACT 180955Z AUTO 34009KT 9SM OVC018 M03/M06 A3027 RMK T10301060 MADISHF
ACT,2021-02-18 10:00,,,,340.00,7.00,,30.27,,9.00,,OVC,,,,1800.00,,,,,,,,,,,,KACT 181000Z AUTO 34007KT 9SM OVC018 M03/M06 A3027 RMK T10301060 MADISHF
ACT,2021-02-18 10:05,,,,350.00,9.00,,30.26,,9.00,,OVC,,,,1800.00,,,,,,,,,,,,KACT 181005Z AUTO 35009KT 9SM OVC018 M03/M06 A3026 RMK T10301060 MADISHF
ACT,2021-02-18 10:10,,,,340.00,9.00,,30.26,,9.00,,OVC,,,,1800.00,,,,,,,,,,,,KACT 181010Z AUTO 34009KT 9SM OVC018 M03/M06 A3026 RMK T10301060 MADISHF
ACT,2021-02-18 10:15,,,,350.00,10.00,,30.25,,9.00,,OVC,,,,1800.00,,,,,,,,,,,,KACT 181015Z AUTO 35010KT 9SM OVC018 M03/M06 A3025 RMK T10301060 MADISHF
ACT,2021-02-18 10:20,,,,340.00,10.00,,30.25,,9.00,,BKN,OVC,,,1800.00,3500.00,,,,,,,,,,,KACT 181020Z AUTO 34010KT 9SM BKN018 OVC035 M03/M06 A3025 RMK T10301060 MADISHF
ACT,2021-02-18 10:25,,,,340.00,11.00,,30.25,,9.00,,BKN,OVC,,,1800.00,3500.00,,,,,,,,,,,KACT 181025Z AUTO 34011KT 9SM BKN018 OVC035 M03/M06 A3025 RMK T10301060 MADISHF
ACT,2021-02-18 10:30,,,,340.00,11.00,,30.25,,9.00,,SCT,OVC,,,1800.00,3500.00,,,,,,,,,,,KACT 181030Z AUTO 34011KT 9SM SCT018 OVC035 M03/M07 A3025 RMK T10301070 MADISHF
ACT,2021-02-18 10:32,27.00,19.90,74.25,340.00,13.00,0.00,30.24,,9.00,,SCT,OVC,,,1800.00,3500.00,,,,,,,,,,15.16,KACT 181032Z AUTO 34013KT 9SM SCT018 OVC035 M03/M07 A3024 RMK AO2 T10281067 $
ACT,2021-02-18 10:35,,,,340.00,13.00,,30.24,,9.00,,FEW,OVC,,,1800.00,3399.00,,,,,,,,,,,KACT 181035Z AUTO 34013KT 9SM FEW018 OVC033 M03/M07 A3023 RMK T10301070 MADISHF
ACT,2021-02-18 10:40,,,,350.00,13.00,,30.23,,9.00,,FEW,OVC,,,1800.00,3399.00,,,,,,,,,,,KACT 181040Z AUTO 35013KT 9SM FEW018 OVC033 M03/M07 A3022 RMK T10301070 MADISHF
ACT,2021-02-18 10:45,,,,350.00,13.00,,30.23,,9.00,,OVC,,,,3399.00,,,,,,,,,,,,KACT 181045Z AUTO 35013KT 9SM OVC033 M03/M07 A3022 RMK T10301070 MADISHF
ACT,2021-02-18 10:50,,,,340.00,11.00,,30.24,,9.00,,OVC,,,,3399.00,,,,,,,,,,,,KACT 181050Z AUTO 34011KT 9SM OVC033 M03/M07 A3023 RMK T10301070 MADISHF
ACT,2021-02-18 10:51,27.00,19.90,74.25,340.00,12.00,0.00,30.24,1024.30,9.00,,OVC,,,,3400.00,,,,,,,,,,,15.64,KACT 181051Z AUTO 34012KT 9SM OVC034 M03/M07 A3024 RMK AO2 SLP243 T10281067 $
ACT,2021-02-18 10:55,,,,340.00,11.00,,30.24,,9.00,,OVC,,,,3399.00,,,,,,,,,,,,KACT 181055Z AUTO 34011KT 9SM OVC033 M03/M07 A3023 RMK T10301070 MADISHF
ACT,2021-02-18 11:00,,,,340.00,11.00,,30.25,,9.00,,OVC,,,,3399.00,,,,,,,,,,,,KACT 181100Z AUTO 34011KT 9SM OVC033 M03/M07 A3025 RMK T10301070 MADISHF
ACT,2021-02-18 11:05,,,,340.00,11.00,,30.26,,9.00,,OVC,,,,3399.00,,,,,,,,,,,,KACT 181105Z AUTO 34011KT 9SM OVC033 M03/M07 A3026 RMK T10301070 MADISHF
ACT,2021-02-18 11:10,,,,340.00,13.00,,30.26,,9.00,,OVC,,,,3300.00,,,,,,,,,,,,KACT 181110Z AUTO 34013KT 9SM OVC033 M03/M07 A3026 RMK T10301070 MADISHF
ACT,2021-02-18 11:15,,,,350.00,11.00,,30.25,,9.00,,OVC,,,,3300.00,,,,,,,,,,,,KACT 181115Z AUTO 35011KT 9SM OVC033 M03/M07 A3025 RMK T10301070 MADISHF
ACT,2021-02-18 11:20,,,,350.00,11.00,,30.24,,9.00,,OVC,,,,3300.00,,,,,,,,,,,,KACT 181120Z AUTO 35011KT 9SM OVC033 M03/M07 A3023 RMK T10301070 MADISHF
ACT,2021-02-18 11:25,,,,350.00,11.00,,30.24,,9.00,,OVC,,,,3300.00,,,,,,,,,,,,KACT 181125Z AUTO 35011KT 9SM OVC033 M03/M07 A3023 RMK T10301070 MADISHF
ACT,2021-02-18 11:30,,,,350.00,11.00,,30.24,,9.00,,OVC,,,,3399.00,,,,,,,,,,,,KACT 181130Z AUTO 35011KT 9SM OVC033 M03/M07 A3023 RMK T10301070 MADISHF
ACT,2021-02-18 11:35,,,,350.00,11.00,,30.24,,9.00,,OVC,,,,3399.00,,,,,,,,,,,,KACT 181135Z AUTO 35011KT 9SM OVC033 M03/M07 A3023 RMK T10301070 MADISHF
ACT,2021-02-18 11:40,,,,350.00,11.00,,30.24,,9.00,,OVC,,,,3399.00,,,,,,,,,,,,KACT 181140Z AUTO 35011KT 9SM OVC033 M03/M07 A3023 RMK T10301070 MADISHF
ACT,2021-02-18 11:45,,,,350.00,11.00,,30.25,,9.00,,OVC,,,,3500.00,,,,,,,,,,,,KACT 181145Z AUTO 35011KT 9SM OVC035 M03/M07 A3025 RMK T10301070 MADISHF
ACT,2021-02-18 11:50,,,,350.00,11.00,,30.25,,9.00,,FEW,OVC,,,1800.00,3500.00,,,,,,,,,,,KACT 181150Z AUTO 35011KT 9SM FEW018 OVC035 M03/M07 A3025 RMK T10301070 MADISHF
ACT,2021-02-18 11:51,27.00,19.90,74.25,350.00,10.00,0.00,30.26,1025.00,9.00,,FEW,OVC,,,1800.00,3500.00,,,,,,,,,,16.70,KACT 181151Z AUTO 35010KT 9SM FEW018 OVC035 M03/M07 A3026 RMK AO2 SLP250 T10281067 11028 21033 51015 $
ACT,2021-02-18 11:55,,,,340.00,10.00,,30.28,,9.00,,FEW,OVC,,,1800.00,3399.00,,,,,,,,,,,KACT 181155Z AUTO 34010KT 9SM FEW018 OVC033 M03/M07 A3028 RMK T10301070 MADISHF
ACT,2021-02-18 12:00,,,,330.00,10.00,,30.29,,9.00,,FEW,OVC,,,1800.00,3399.00,,,,,,,,,,,KACT 181200Z AUTO 33010KT 9SM FEW018 OVC033 M03/M07 A3029 RMK T10301070 MADISHF
ACT,2021-02-18 12:05,,,,320.00,10.00,,30.31,,9.00,,FEW,OVC,,,1800.00,3399.00,,,,,,,,,,,KACT 181205Z AUTO 32010KT 9SM FEW018 OVC033 M03/M07 A3030 RMK T10301070 MADISHF
ACT,2021-02-18 12:10,,,,330.00,10.00,,30.31,,9.00,,SCT,OVC,,,1800.00,3399.00,,,,,,,,,,,KACT 181210Z AUTO 33010KT 9SM SCT018 OVC033 M03/M07 A3030 RMK T10301070 MADISHF
ACT,2021-02-18 12:15,,,,330.00,10.00,,30.31,,9.00,,BKN,OVC,,,1800.00,3399.00,,,,,,,,,,,KACT 181215Z AUTO 33010KT 9SM BKN018 OVC033 M03/M07 A3030 RMK T10301070 MADISHF
ACT,2021-02-18 12:20,,,,340.00,10.00,,30.29,,9.00,,BKN,OVC,,,1900.00,3399.00,,,,,,,,,,,KACT 181220Z AUTO 34010KT 9SM BKN019 OVC033 M03/M07 A3029 RMK T10301070 MADISHF
ACT,2021-02-18 12:21,27.00,19.90,74.25,350.00,11.00,0.00,30.29,,9.00,,BKN,OVC,,,1900.00,3400.00,,,,,,,,,,16.15,KACT 181221Z 35011KT 9SM BKN019 OVC034 M03/M07 A3029 RMK AO2 T10281067 $
ACT,2021-02-18 12:25,,,,340.00,13.00,,30.28,,9.00,,BKN,OVC,,,1900.00,3399.00,,,,,,,,,,,KACT 181225Z AUTO 34013KT 9SM BKN019 OVC033 M03/M07 A3028 RMK T10301070 MADISHF
ACT,2021-02-18 12:30,,,,350.00,13.00,,30.27,,10.00,,BKN,OVC,,,1900.00,3399.00,,,,,,,,,,,KACT 181230Z AUTO 35013KT 10SM BKN019 OVC033 M03/M07 A3027 RMK T10301070 MADISHF
ACT,2021-02-18 12:35,,,,350.00,11.00,,30.28,,10.00,,SCT,OVC,,,1900.00,3399.00,,,,,,,,,,,KACT 181235Z AUTO 35011KT 10SM SCT019 OVC033 M03/M07 A3028 RMK T10301070 MADISHF
ACT,2021-02-18 12:38,27.00,19.90,74.25,350.00,11.00,0.00,30.28,,10.00,,SCT,OVC,,,1900.00,3400.00,,,,,,,,,,16.15,KACT 181238Z 35011KT 10SM SCT019 OVC034 M03/M07 A3028 RMK AO2 T10281067 $
ACT,2021-02-18 12:40,,,,350.00,11.00,,30.28,,10.00,,FEW,OVC,,,1900.00,3399.00,,,,,,,,,,,KACT 181240Z AUTO 35011KT 10SM FEW019 OVC033 M03/M07 A3028 RMK T10301070 MADISHF
ACT,2021-02-18 12:45,,,,350.00,9.00,,30.29,,10.00,,FEW,OVC,,,1900.00,3399.00,,,,,,,,,,,KACT 181245Z AUTO 35009KT 10SM FEW019 OVC033 M03/M07 A3029 RMK T10301070 MADISHF
ACT,2021-02-18 12:50,,,,350.00,11.00,,30.29,,10.00,,FEW,OVC,,,1900.00,3399.00,,,,,,,,,,,KACT 181250Z AUTO 35011KT 10SM FEW019 OVC033 M03/M07 A3029 RMK T10301070 MADISHF
ACT,2021-02-18 12:51,27.00,19.90,74.25,350.00,11.00,0.00,30.29,1026.00,10.00,,FEW,OVC,,,1900.00,3400.00,,,,,,,,,,16.15,KACT 181251Z 35011KT 10SM FEW019 OVC034 M03/M07 A3029 RMK AO2 SLP260 T10281067
ACT,2021-02-18 12:55,,,,350.00,11.00,,30.29,,10.00,,FEW,OVC,,,1900.00,3399.00,,,,,,,,,,,KACT 181255Z AUTO 35011KT 10SM FEW019 OVC033 M03/M07 A3029 RMK T10301070 MADISHF
ACT,2021-02-18 13:00,,,,350.00,10.00,,30.28,,10.00,,FEW,OVC,,,1900.00,3399.00,,,,,,,,,,,KACT 181300Z AUTO 35010KT 10SM FEW019 OVC033 M03/M07 A3028 RMK T10301070 MADISHF
ACT,2021-02-18 13:05,,,,340.00,13.00,,30.30,,10.00,,FEW,OVC,,,1999.00,3399.00,,,,,,,,,,,KACT 181305Z AUTO 34013KT 10SM FEW019 OVC033 M03/M07 A3029 RMK T10301070 MADISHF
ACT,2021-02-18 13:10,,,,340.00,11.00,,30.29,,10.00,,FEW,OVC,,,1999.00,3399.00,,,,,,,,,,,KACT 181310Z AUTO 34011KT 10SM FEW019 OVC033 M03/M07 A3029 RMK T10301070 MADISHF
ACT,2021-02-18 13:15,,,,350.00,13.00,,30.28,,10.00,,OVC,,,,3300.00,,,,,,,,,,,,KACT 181315Z AUTO 35013KT 10SM OVC033 M03/M07 A3028 RMK T10301070 MADISHF
ACT,2021-02-18 13:20,,,,350.00,13.00,,30.27,,9.00,,OVC,,,,3300.00,,,,,,,,,,,,KACT 181320Z AUTO 35013KT 9SM OVC033 M03/M07 A3027 RMK T10301070 MADISHF
ACT,2021-02-18 13:25,,,,350.00,13.00,,30.28,,9.00,,OVC,,,,3300.00,,,,,,,,,,,,KACT 181325Z AUTO 35013KT 9SM OVC033 M03/M07 A3028 RMK T10301070 MADISHF
ACT,2021-02-18 13:30,,,,350.00,11.00,,30.28,,9.00,,OVC,,,,3300.00,,,,,,,,,,,,KACT 181330Z AUTO 35011KT 9SM OVC033 M03/M07 A3028 RMK T10301070 MADISHF
ACT,2021-02-18 13:35,,,,340.00,13.00,,30.30,,9.00,,OVC,,,,3300.00,,,,,,,,,,,,KACT 181335Z AUTO 34013KT 9SM OVC033 M03/M07 A3029 RMK T10301070 MADISHF
ACT,2021-02-18 13:40,,,,350.00,13.00,,30.29,,9.00,,OVC,,,,3300.00,,,,,,,,,,,,KACT 181340Z AUTO 35013KT 9SM OVC033 M03/M07 A3029 RMK T10301070 MADISHF
ACT,2021-02-18 13:45,,,,350.00,13.00,,30.29,,9.00,,OVC,,,,3300.00,,,,,,,,,,,,KACT 181345Z AUTO 35013KT 9SM OVC033 M03/M07 A3029 RMK T10301070 MADISHF
ACT,2021-02-18 13:50,,,,340.00,15.00,,30.29,,9.00,,OVC,,,,3300.00,,,,,,,,,,,,KACT 181350Z AUTO 34015KT 9SM OVC033 M03/M07 A3029 RMK T10301070 MADISHF
ACT,2021-02-18 13:51,27.00,19.90,74.25,340.00,15.00,0.00,30.29,1026.10,9.00,,OVC,,,,3300.00,,,,,,,,,,,14.30,KACT 181351Z 34015KT 9SM OVC033 M03/M07 A3029 RMK AO2 SLP261 T10281067
ACT,2021-02-18 13:55,,,,340.00,14.00,,30.30,,9.00,19.00,OVC,,,,3300.00,,,,,,,,,,,,KACT 181355Z AUTO 34014G19KT 9SM OVC033 M03/M07 A3029 RMK T10301070 MADISHF
ACT,2021-02-18 14:00,,,,340.00,13.00,,30.31,,9.00,,OVC,,,,3300.00,,,,,,,,,,,,KACT 181400Z AUTO 34013KT 9SM OVC033 M03/M07 A3030 RMK T10301070 MADISHF
ACT,2021-02-18 14:05,,,,340.00,13.00,,30.31,,9.00,18.00,OVC,,,,3300.00,,,,,,,,,,,,KACT 181405Z AUTO 34013G18KT 9SM OVC033 M03/M07 A3030 RMK T10301070 MADISHF
ACT,2021-02-18 14:10,,,,340.00,15.00,,30.31,,9.00,,OVC,,,,3300.00,,,,,,,,,,,,KACT 181410Z AUTO 34015KT 9SM OVC033 M03/M07 A3030 RMK T10301070 MADISHF
ACT,2021-02-18 14:15,,,,350.00,14.00,,30.31,,9.00,,OVC,,,,3399.00,,,,,,,,,,,,KACT 181415Z AUTO 35014KT 9SM OVC033 M03/M07 A3030 RMK T10301070 MADISHF
ACT,2021-02-18 14:20,,,,340.00,18.00,,30.32,,10.00,23.00,OVC,,,,3399.00,,,,,,,,,,,,KACT 181420Z AUTO 34018G23KT 10SM OVC033 M03/M07 A3031 RMK T10301070 MADISHF
ACT,2021-02-18 14:25,,,,350.00,14.00,,30.32,,10.00,,OVC,,,,3399.00,,,,,,,,,,,,KACT 181425Z AUTO 35014KT 10SM OVC033 M03/M07 A3031 RMK T10301070 MADISHF
ACT,2021-02-18 14:30,,,,350.00,14.00,,30.32,,10.00,,OVC,,,,3399.00,,,,,,,,,,,,KACT 181430Z AUTO 35014KT 10SM OVC033 M03/M07 A3031 RMK T10301070 MADISHF
ACT,2021-02-18 14:35,,,,350.00,14.00,,30.32,,10.00,,OVC,,,,3399.00,,,,,,,,,,,,KACT 181435Z AUTO 35014KT 10SM OVC033 M03/M07 A3031 RMK T10301070 MADISHF
ACT,2021-02-18 14:40,,,,350.00,16.00,,30.33,,10.00,,OVC,,,,3399.00,,,,,,,,,,,,KACT 181440Z AUTO 35016KT 10SM OVC033 M03/M07 A3032 RMK T10301070 MADISHF
ACT,2021-02-18 14:45,,,,350.00,16.00,,30.33,,10.00,21.00,OVC,,,,3399.00,,,,,,,,,,,,KACT 181445Z AUTO 35016G21KT 10SM OVC033 M03/M07 A3032 RMK T10301070 MADISHF
ACT,2021-02-18 14:50,,,,350.00,14.00,,30.34,,10.00,,OVC,,,,3500.00,,,,,,,,,,,,KACT 181450Z AUTO 35014KT 10SM OVC035 M03/M07 A3034 RMK T10301070 MADISHF
ACT,2021-02-18 14:51,27.00,19.00,71.45,340.00,13.00,0.00,30.34,1027.90,10.00,22.00,OVC,,,,3500.00,,,,,,,,,,,15.16,KACT 181451Z 34013G22KT 10SM OVC035 M03/M07 A3034 RMK AO2 PRESRR SLP279 T10281072 53028
ACT,2021-02-18 14:55,,,,340.00,14.00,,30.35,,10.00,,OVC,,,,3500.00,,,,,,,,,,,,KACT 181455Z AUTO 34014KT 10SM OVC035 M03/M07 A3035 RMK T10301070 MADISHF
ACT,2021-02-18 15:00,,,,340.00,15.00,,30.35,,10.00,,OVC,,,,3500.00,,,,,,,,,,,,KACT 181500Z AUTO 34015KT 10SM OVC035 M03/M07 A3035 RMK T10301070 MADISHF
ACT,2021-02-18 15:05,,,,330.00,15.00,,30.36,,10.00,,OVC,,,,3500.00,,,,,,,,,,,,KACT 181505Z AUTO 33015KT 10SM OVC035 M03/M07 A3036 RMK T10301070 MADISHF
ACT,2021-02-18 15:10,,,,340.00,16.00,,30.37,,10.00,,OVC,,,,3500.00,,,,,,,,,,,,KACT 181510Z AUTO 34016KT 10SM OVC035 M03/M07 A3037 RMK T10301070 MADISHF
ACT,2021-02-18 15:15,,,,340.00,14.00,,30.37,,10.00,,OVC,,,,3500.00,,,,,,,,,,,,KACT 181515Z AUTO 34014KT 10SM OVC035 M03/M07 A3037 RMK T10301070 MADISHF
ACT,2021-02-18 15:20,,,,350.00,13.00,,30.37,,10.00,,OVC,,,,3500.00,,,,,,,,,,,,KACT 181520Z AUTO 35013KT 10SM OVC035 M03/M07 A3037 RMK T10301070 MADISHF
ACT,2021-02-18 15:25,,,,350.00,15.00,,30.37,,10.00,,OVC,,,,3500.00,,,,,,,,,,,,KACT 181525Z AUTO 35015KT 10SM OVC035 M03/M07 A3037 RMK T10301070 MADISHF
ACT,2021-02-18 15:30,,,,350.00,15.00,,30.38,,10.00,21.00,OVC,,,,3500.00,,,,,,,,,,,,KACT 181530Z AUTO 35015G21KT 10SM OVC035 M03/M07 A3037 RMK T10301070 MADISHF
ACT,2021-02-18 15:35,,,,340.00,16.00,,30.38,,10.00,,OVC,,,,3600.00,,,,,,,,,,,,KACT 181535Z AUTO 34016KT 10SM OVC036 M03/M08 A3037 RMK T10301080 MADISHF
ACT,2021-02-18 15:40,,,,350.00,16.00,,30.37,,10.00,21.00,OVC,,,,3600.00,,,,,,,,,,,,KACT 181540Z AUTO 35016G21KT 10SM OVC036 M03/M07 A3037 RMK T10301070 MADISHF
ACT,2021-02-18 15:45,,,,350.00,14.00,,30.38,,10.00,,OVC,,,,3600.00,,,,,,,,,,,,KACT 181545Z AUTO 35014KT 10SM OVC036 M03/M07 A3037 RMK T10301070 MADISHF
ACT,2021-02-18 15:50,,,,340.00,17.00,,30.38,,10.00,22.00,OVC,,,,3700.00,,,,,,,,,,,,KACT 181550Z AUTO 34017G22KT 10SM OVC037 M03/M07 A3037 RMK T10301070 MADISHF
ACT,2021-02-18 15:51,27.00,19.00,71.45,340.00,18.00,0.00,30.38,1029.20,10.00,22.00,OVC,,,,3700.00,,,,,,,,,,,13.17,KACT 181551Z 34018G22KT 10SM OVC037 M03/M07 A3038 RMK AO2 SLP292 T10281072
ACT,2021-02-18 15:55,,,,350.00,16.00,,30.39,,10.00,,OVC,,,,3700.00,,,,,,,,,,,,KACT 181555Z AUTO 35016KT 10SM OVC037 M02/M07 A3038 RMK T10201070 MADISHF
ACT,2021-02-18 16:00,,,,350.00,13.00,,30.38,,10.00,,OVC,,,,3700.00,,,,,,,,,,,,KACT 181600Z AUTO 35013KT 10SM OVC037 M02/M07 A3037 RMK T10201070 MADISHF
ACT,2021-02-18 16:05,,,,340.00,11.00,,30.38,,10.00,,BKN,OVC,,,3700.00,12000.00,,,,,,,,,,,KACT 181605Z AUTO 34011KT 10SM BKN037 OVC120 M02/M07 A3037 RMK T10201070 MADISHF
ACT,2021-02-18 16:10,,,,,17.00,,30.38,,10.00,,FEW,OVC,,,2100.00,3700.00,,,,,,,,,,,KACT 181610Z AUTO ///17KT 10SM FEW021 OVC037 M02/M07 A3037 RMK T10201070 MADISHF
ACT,2021-02-18 16:15,,,,360.00,13.00,,30.38,,10.00,,FEW,OVC,,,2100.00,3700.00,,,,,,,,,,,KACT 181615Z AUTO 36013KT 10SM FEW021 OVC037 M02/M07 A3037 RMK T10201070 MADISHF
ACT,2021-02-18 16:20,,,,,16.00,,30.39,,10.00,,FEW,OVC,,,2100.00,3700.00,,,,,,,,,,,KACT 181620Z AUTO ///16KT 10SM FEW021 OVC037 M02/M07 A3038 RMK T10201070 MADISHF
ACT,2021-02-18 16:25,,,,350.00,15.00,,30.39,,10.00,,FEW,OVC,,,2100.00,3700.00,,,,,,,,,,,KACT 181625Z AUTO 35015KT 10SM FEW021 OVC037 M02/M07 A3038 RMK T10201070 MADISHF
ACT,2021-02-18 16:30,,,,350.00,13.00,,30.39,,10.00,,FEW,OVC,,,2100.00,3700.00,,,,,,,,,,,KACT 181630Z AUTO 35013KT 10SM FEW021 OVC037 M02/M07 A3038 RMK T10201070 MADISHF
ACT,2021-02-18 16:35,,,,360.00,14.00,,30.39,,10.00,,FEW,OVC,,,2100.00,3700.00,,,,,,,,,,,KACT 181635Z AUTO 36014KT 10SM FEW021 OVC037 M02/M07 A3038 RMK T10201070 MADISHF
ACT,2021-02-18 16:40,,,,350.00,14.00,,30.40,,10.00,,OVC,,,,3700.00,,,,,,,,,,,,KACT 181640Z AUTO 35014KT 10SM OVC037 M02/M07 A3039 RMK T10201070 MADISHF
ACT,2021-02-18 16:45,,,,340.00,11.00,,30.41,,10.00,,FEW,OVC,,,2200.00,3700.00,,,,,,,,,,,KACT 181645Z AUTO 34011KT 10SM FEW022 OVC037 M02/M07 A3040 RMK T10201070 MADISHF
ACT,2021-02-18 16:50,,,,340.00,13.00,,30.41,,10.00,,FEW,OVC,,,2200.00,3700.00,,,,,,,,,,,KACT 181650Z AUTO 34013KT 10SM FEW022 OVC037 M02/M07 A3040 RMK T10201070 MADISHF
ACT,2021-02-18 16:51,28.00,19.00,68.57,340.00,14.00,0.00,30.41,1030.00,10.00,,FEW,OVC,,,2200.00,3700.00,,,,,,,,,,16.01,KACT 181651Z 34014KT 10SM FEW022 OVC037 M02/M07 A3041 RMK AO2 SLP300 T10221072
ACT,2021-02-18 16:55,,,,340.00,14.00,,30.41,,10.00,,OVC,,,,3700.00,,,,,,,,,,,,KACT 181655Z AUTO 34014KT 10SM OVC037 M02/M07 A3040 RMK T10201070 MADISHF
ACT,2021-02-18 17:00,,,,350.00,14.00,,30.41,,10.00,,OVC,,,,3700.00,,,,,,,,,,,,KACT 181700Z AUTO 35014KT 10SM OVC037 M02/M07 A3040 RMK T10201070 MADISHF
ACT,2021-02-18 17:05,,,,350.00,11.00,,30.41,,10.00,,OVC,,,,3700.00,,,,,,,,,,,,KACT 181705Z AUTO 35011KT 10SM OVC037 M02/M07 A3040 RMK T10201070 MADISHF
ACT,2021-02-18 17:10,,,,340.00,13.00,,30.42,,10.00,,OVC,,,,3700.00,,,,,,,,,,,,KACT 181710Z AUTO 34013KT 10SM OVC037 M02/M07 A3042 RMK T10201070 MADISHF
ACT,2021-02-18 17:15,,,,350.00,13.00,,30.41,,10.00,,OVC,,,,3700.00,,,,,,,,,,,,KACT 181715Z AUTO 35013KT 10SM OVC037 M02/M07 A3040 RMK T10201070 MADISHF
ACT,2021-02-18 17:20,,,,340.00,15.00,,30.41,,10.00,,OVC,,,,3700.00,,,,,,,,,,,,KACT 181720Z AUTO 34015KT 10SM OVC037 M02/M07 A3040 RMK T10201070 MADISHF
ACT,2021-02-18 17:25,,,,340.00,13.00,,30.41,,10.00,,OVC,,,,3700.00,,,,,,,,,,,,KACT 181725Z AUTO 34013KT 10SM OVC037 M02/M08 A3040 RMK T10201080 MADISHF
ACT,2021-02-18 17:30,,,,350.00,15.00,,30.41,,10.00,,OVC,,,,3700.00,,,,,,,,,,,,KACT 181730Z AUTO 35015KT 10SM OVC037 M02/M08 A3040 RMK T10201080 MADISHF
ACT,2021-02-18 17:35,,,,350.00,14.00,,30.41,,10.00,,OVC,,,,3700.00,,,,,,,,,,,,KACT 181735Z AUTO 35014KT 10SM OVC037 M02/M08 A3040 RMK T10201080 MADISHF
ACT,2021-02-18 17:40,,,,360.00,15.00,,30.40,,10.00,,OVC,,,,3700.00,,,,,,,,,,,,KACT 181740Z AUTO 36015KT 10SM OVC037 M02/M08 A3039 RMK T10201080 MADISHF
ACT,2021-02-18 17:45,,,,,16.00,,30.40,,10.00,,OVC,,,,3700.00,,,,,,,,,,,,KACT 181745Z AUTO ///16KT 10SM OVC037 M02/M08 A3039 RMK T10201080 MADISHF
ACT,2021-02-18 17:50,,,,350.00,15.00,,30.40,,10.00,,OVC,,,,3700.00,,,,,,,,,,,,KACT 181750Z AUTO 35015KT 10SM OVC037 M02/M08 A3039 RMK T10201080 MADISHF
ACT,2021-02-18 17:51,28.90,17.10,60.90,350.00,14.00,0.00,30.40,1029.90,10.00,,OVC,,,,3700.00,,,,,,,,,,,17.17,KACT 181751Z 35014KT 10SM OVC037 M02/M08 A3040 RMK AO2 SLP299 T10171083 11017 21033 50020
ACT,2021-02-18 17:55,,,,340.00,14.00,,30.40,,10.00,,OVC,,,,3700.00,,,,,,,,,,,,KACT 181755Z AUTO 34014KT 10SM OVC037 M02/M08 A3039 RMK T10201080 MADISHF
ACT,2021-02-18 18:00,,,,360.00,15.00,,30.40,,10.00,,OVC,,,,3700.00,,,,,,,,,,,,KACT 181800Z AUTO 36015KT 10SM OVC037 M02/M08 A3039 RMK T10201080 MADISHF
ACT,2021-02-18 18:05,,,,350.00,16.00,,30.40,,10.00,,OVC,,,,3700.00,,,,,,,,,,,,KACT 181805Z AUTO 35016KT 10SM OVC037 M02/M08 A3039 RMK T10201080 MADISHF
ACT,2021-02-18 18:10,,,,350.00,15.00,,30.41,,10.00,,OVC,,,,3700.00,,,,,,,,,,,,KACT 181810Z AUTO 35015KT 10SM OVC037 M02/M08 A3040 RMK T10201080 MADISHF
ACT,2021-02-18 18:15,,,,350.00,11.00,,30.41,,10.00,,OVC,,,,3700.00,,,,,,,,,,,,KACT 181815Z AUTO 35011KT 10SM OVC037 M02/M08 A3040 RMK T10201080 MADISHF
ACT,2021-02-18 18:20,,,,350.00,14.00,,30.42,,10.00,,OVC,,,,3700.00,,,,,,,,,,,,KACT 181820Z AUTO 35014KT 10SM OVC037 M01/M07 A3042 RMK T10101070 MADISHF
ACT,2021-02-18 18:25,,,,340.00,14.00,,30.42,,10.00,,OVC,,,,3700.00,,,,,,,,,,,,KACT 181825Z AUTO 34014KT 10SM OVC037 M01/M08 A3042 RMK T10101080 MADISHF
ACT,2021-02-18 18:30,,,,,15.00,,30.41,,10.00,,OVC,,,,3700.00,,,,,,,,,,,,KACT 181830Z AUTO ///15KT 10SM OVC037 M02/M08 A3040 RMK T10201080 MADISHF
ACT,2021-02-18 18:35,,,,340.00,13.00,,30.42,,10.00,,OVC,,,,3700.00,,,,,,,,,,,,KACT 181835Z AUTO 34013KT 10SM OVC037 M01/M08 A3042 RMK T10101080 MADISHF
ACT,2021-02-18 18:40,,,,350.00,15.00,,30.41,,10.00,,OVC,,,,3700.00,,,,,,,,,,,,KACT 181840Z AUTO 35015KT 10SM OVC037 M01/M08 A3040 RMK T10101080 MADISHF
ACT,2021-02-18 18:45,,,,360.00,13.00,,30.41,,10.00,,OVC,,,,3700.00,,,,,,,,,,,,KACT 181845Z AUTO 36013KT 10SM OVC037 M02/M08 A3040 RMK T10201080 MADISHF
ACT,2021-02-18 18:50,,,,360.00,11.00,,30.41,,10.00,,OVC,,,,3700.00,,,,,,,,,,,,KACT 181850Z AUTO 36011KT 10SM OVC037 M02/M08 A3040 RMK T10201080 MADISHF
ACT,2021-02-18 18:51,28.90,18.00,63.31,360.00,13.00,0.00,30.41,1030.20,10.00,,OVC,,,,3700.00,,,,,,,,,,,17.60,KACT 181851Z 36013KT 10SM OVC037 M02/M08 A3041 RMK AO2 SLP302 T10171078
ACT,2021-02-18 18:55,,,,350.00,16.00,,30.41,,10.00,,OVC,,,,3700.00,,,,,,,,,,,,KACT 181855Z AUTO 35016KT 10SM OVC037 M02/M08 A3040 RMK T10201080 MADISHF
ACT,2021-02-18 19:00,,,,350.00,15.00,,30.41,,10.00,,BKN,,,,3700.00,,,,,,,,,,,,KACT 181900Z AUTO 35015KT 10SM BKN037 M02/M08 A3040 RMK T10201080 MADISHF
ACT,2021-02-18 19:05,,,,350.00,15.00,,30.41,,10.00,,BKN,,,,3700.00,,,,,,,,,,,,KACT 181905Z AUTO 35015KT 10SM BKN037 M02/M08 A3040 RMK T10201080 MADISHF
ACT,2021-02-18 19:10,,,,350.00,15.00,,30.41,,10.00,,BKN,BKN,,,3600.00,11000.00,,,,,,,,,,,KACT 181910Z AUTO 35015KT 10SM BKN036 BKN110 M02/M08 A3040 RMK T10201080 MADISHF
ACT,2021-02-18 19:15,,,,350.00,15.00,,30.40,,10.00,,SCT,BKN,,,3600.00,11000.00,,,,,,,,,,,KACT 181915Z AUTO 35015KT 10SM SCT036 BKN110 M02/M08 A3039 RMK T10201080 MADISHF
ACT,2021-02-18 19:20,,,,350.00,18.00,,30.40,,10.00,,FEW,SCT,,,3600.00,11000.00,,,,,,,,,,,KACT 181920Z AUTO 35018KT 10SM FEW036 SCT110 M02/M08 A3039 RMK T10201080 MADISHF
ACT,2021-02-18 19:25,,,,340.00,15.00,,30.41,,10.00,,FEW,SCT,,,3600.00,11000.00,,,,,,,,,,,KACT 181925Z AUTO 34015KT 10SM FEW036 SCT110 M02/M09 A3040 RMK T10201090 MADISHF
ACT,2021-02-18 19:30,,,,360.00,16.00,,30.41,,10.00,,FEW,SCT,,,3600.00,11000.00,,,,,,,,,,,KACT 181930Z AUTO 36016KT 10SM FEW036 SCT110 M02/M09 A3040 RMK T10201090 MADISHF
ACT,2021-02-18 19:35,,,,360.00,15.00,,30.40,,10.00,,SCT,,,,11000.00,,,,,,,,,,,,KACT 181935Z AUTO 36015KT 10SM SCT110 M02/M09 A3039 RMK T10201090 MADISHF
ACT,2021-02-18 19:40,,,,360.00,14.00,,30.40,,10.00,19.00,SCT,,,,11000.00,,,,,,,,,,,,KACT 181940Z AUTO 36014G19KT 10SM SCT110 M02/M09 A3039 RMK T10201090 MADISHF
ACT,2021-02-18 19:45,,,,350.00,16.00,,30.40,,10.00,,FEW,,,,11000.00,,,,,,,,,,,,KACT 181945Z AUTO 35016KT 10SM FEW110 M02/M09 A3039 RMK T10201090 MADISHF
ACT,2021-02-18 19:50,,,,350.00,15.00,,30.40,,10.00,,FEW,,,,11000.00,,,,,,,,,,,,KACT 181950Z AUTO 35015KT 10SM FEW110 M02/M09 A3039 RMK T10201090 MADISHF
ACT,2021-02-18 19:51,28.90,17.10,60.90,360.00,15.00,0.00,30.40,1029.70,10.00,,FEW,,,,11000.00,,,,,,,,,,,16.76,KACT 181951Z 36015KT 10SM FEW110 M02/M08 A3040 RMK AO2 SLP297 T10171083
ACT,2021-02-18 19:55,,,,350.00,13.00,,30.40,,10.00,,FEW,,,,11000.00,,,,,,,,,,,,KACT 181955Z AUTO 35013KT 10SM FEW110 M02/M09 A3039 RMK T10201090 MADISHF
ACT,2021-02-18 20:00,,,,350.00,14.00,,30.40,,10.00,,FEW,,,,11000.00,,,,,,,,,,,,KACT 182000Z AUTO 35014KT 10SM FEW110 M02/M08 A3039 RMK T10201080 MADISHF
ACT,2021-02-18 20:05,,,,360.00,15.00,,30.41,,10.00,,FEW,,,,11000.00,,,,,,,,,,,,KACT 182005Z AUTO 36015KT 10SM FEW110 M02/M08 A3040 RMK T10201080 MADISHF
ACT,2021-02-18 20:10,,,,,16.00,,30.40,,10.00,,FEW,,,,11000.00,,,,,,,,,,,,KACT 182010Z AUTO ///16KT 10SM FEW110 M02/M08 A3039 RMK T10201080 MADISHF
ACT,2021-02-18 20:15,,,,350.00,15.00,,30.40,,10.00,,SCT,,,,11000.00,,,,,,,,,,,,KACT 182015Z AUTO 35015KT 10SM SCT110 M01/M08 A3039 RMK T10101080 MADISHF
ACT,2021-02-18 20:20,,,,360.00,14.00,,30.40,,10.00,,SCT,,,,11000.00,,,,,,,,,,,,KACT 182020Z AUTO 36014KT 10SM SCT110 M01/M08 A3039 RMK T10101080 MADISHF
ACT,2021-02-18 20:25,,,,360.00,15.00,,30.40,,10.00,,FEW,,,,11000.00,,,,,,,,,,,,KACT 182025Z AUTO 36015KT 10SM FEW110 M01/M08 A3039 RMK T10101080 MADISHF
ACT,2021-02-18 20:30,,,,350.00,11.00,,30.40,,10.00,,FEW,,,,11000.00,,,,,,,,,,,,KACT 182030Z AUTO 35011KT 10SM FEW110 M01/M08 A3039 RMK T10101080 MADISHF
ACT,2021-02-18 20:35,,,,360.00,14.00,,30.40,,10.00,,FEW,,,,11000.00,,,,,,,,,,,,KACT 182035Z AUTO 36014KT 10SM FEW110 M01/M08 A3039 RMK T10101080 MADISHF
ACT,2021-02-18 20:40,,,,350.00,13.00,,30.40,,10.00,19.00,FEW,,,,11000.00,,,,,,,,,,,,KACT 182040Z AUTO 35013G19KT 10SM FEW110 M01/M08 A3039 RMK T10101080 MADISHF
ACT,2021-02-18 20:45,,,,350.00,13.00,,30.40,,10.00,,CLR,,,,,,,,,,,,,,,,KACT 182045Z AUTO 35013KT 10SM CLR M01/M08 A3039 RMK T10101080 MADISHF
ACT,2021-02-18 20:50,,,,340.00,14.00,,30.40,,10.00,,FEW,,,,12000.00,,,,,,,,,,,,KACT 182050Z AUTO 34014KT 10SM FEW120 M01/M08 A3039 RMK T10101080 MADISHF
ACT,2021-02-18 20:51,30.00,17.10,58.23,350.00,14.00,0.00,30.40,1029.80,10.00,,FEW,,,,12000.00,,,,,,,,,,,18.58,KACT 182051Z 35014KT 10SM FEW120 M01/M08 A3040 RMK AO2 SLP298 T10111083 58002
ACT,2021-02-18 20:55,,,,350.00,14.00,,30.40,,10.00,,SCT,,,,12000.00,,,,,,,,,,,,KACT 182055Z AUTO 35014KT 10SM SCT120 M01/M08 A3039 RMK T10101080 MADISHF
ACT,2021-02-18 21:00,,,,360.00,14.00,,30.40,,10.00,,SCT,,,,12000.00,,,,,,,,,,,,KACT 182100Z AUTO 36014KT 10SM SCT120 M01/M08 A3039 RMK T10101080 MADISHF
ACT,2021-02-18 21:05,,,,360.00,14.00,,30.40,,10.00,,SCT,,,,12000.00,,,,,,,,,,,,KACT 182105Z AUTO 36014KT 10SM SCT120 M01/M08 A3039 RMK T10101080 MADISHF
ACT,2021-02-18 21:10,,,,,15.00,,30.40,,10.00,,SCT,,,,12000.00,,,,,,,,,,,,KACT 182110Z AUTO ///15KT 10SM SCT120 M01/M08 A3039 RMK T10101080 MADISHF
ACT,2021-02-18 21:15,,,,360.00,13.00,,30.40,,10.00,,BKN,,,,12000.00,,,,,,,,,,,,KACT 182115Z AUTO 36013KT 10SM BKN120 M01/M08 A3039 RMK T10101080 MADISHF
ACT,2021-02-18 21:20,,,,340.00,11.00,,30.40,,10.00,,BKN,,,,12000.00,,,,,,,,,,,,KACT 182120Z AUTO 34011KT 10SM BKN120 M01/M08 A3039 RMK T10101080 MADISHF
ACT,2021-02-18 21:25,,,,350.00,13.00,,30.40,,10.00,,BKN,,,,12000.00,,,,,,,,,,,,KACT 182125Z AUTO 35013KT 10SM BKN120 M01/M08 A3039 RMK T10101080 MADISHF
ACT,2021-02-18 21:30,,,,340.00,11.00,,30.40,,10.00,,BKN,,,,12000.00,,,,,,,,,,,,KACT 182130Z AUTO 34011KT 10SM BKN120 M01/M08 A3039 RMK T10101080 MADISHF
ACT,2021-02-18 21:35,,,,340.00,13.00,,30.40,,10.00,,BKN,,,,12000.00,,,,,,,,,,,,KACT 182135Z AUTO 34013KT 10SM BKN120 M01/M08 A3039 RMK T10101080 MADISHF
ACT,2021-02-18 21:40,,,,340.00,14.00,,30.40,,10.00,,SCT,,,,12000.00,,,,,,,,,,,,KACT 182140Z AUTO 34014KT 10SM SCT120 M01/M08 A3039 RMK T10101080 MADISHF
ACT,2021-02-18 21:45,,,,340.00,14.00,,30.41,,10.00,,FEW,,,,12000.00,,,,,,,,,,,,KACT 182145Z AUTO 34014KT 10SM FEW120 M01/M08 A3040 RMK T10101080 MADISHF
ACT,2021-02-18 21:50,,,,340.00,15.00,,30.40,,10.00,,FEW,,,,12000.00,,,,,,,,,,,,KACT 182150Z AUTO 34015KT 10SM FEW120 M01/M08 A3039 RMK T10101080 MADISHF
ACT,2021-02-18 21:51,30.00,17.10,58.23,340.00,14.00,0.00,30.40,1029.90,10.00,,FEW,,,,12000.00,,,,,,,,,,,18.58,KACT 182151Z AUTO 34014KT 10SM FEW120 M01/M08 A3040 RMK AO2 SLP299 T10111083
ACT,2021-02-18 21:55,,,,340.00,14.00,,30.40,,10.00,,FEW,,,,12000.00,,,,,,,,,,,,KACT 182155Z AUTO 34014KT 10SM FEW120 M01/M08 A3039 RMK T10101080 MADISHF
ACT,2021-02-18 22:00,,,,350.00,14.00,,30.41,,10.00,,CLR,,,,,,,,,,,,,,,,KACT 182200Z AUTO 35014KT 10SM CLR M01/M08 A3040 RMK T10101080 MADISHF
ACT,2021-02-18 22:05,,,,350.00,14.00,,30.41,,10.00,21.00,CLR,,,,,,,,,,,,,,,,KACT 182205Z AUTO 35014G21KT 10SM CLR M01/M08 A3040 RMK T10101080 MADISHF
ACT,2021-02-18 22:10,,,,340.00,14.00,,30.40,,10.00,,CLR,,,,,,,,,,,,,,,,KACT 182210Z AUTO 34014KT 10SM CLR M01/M08 A3039 RMK T10101080 MADISHF
ACT,2021-02-18 22:15,,,,340.00,14.00,,30.41,,10.00,,CLR,,,,,,,,,,,,,,,,KACT 182215Z AUTO 34014KT 10SM CLR M01/M08 A3040 RMK T10101080 MADISHF
ACT,2021-02-18 22:20,,,,350.00,14.00,,30.40,,10.00,,CLR,,,,,,,,,,,,,,,,KACT 182220Z AUTO 35014KT 10SM CLR M01/M08 A3039 RMK T10101080 MADISHF
ACT,2021-02-18 22:25,,,,350.00,14.00,,30.40,,10.00,,CLR,,,,,,,,,,,,,,,,KACT 182225Z AUTO 35014KT 10SM CLR M01/M08 A3039 RMK T10101080 MADISHF
ACT,2021-02-18 22:30,,,,350.00,13.00,,30.40,,10.00,,CLR,,,,,,,,,,,,,,,,KACT 182230Z AUTO 35013KT 10SM CLR M01/M08 A3039 RMK T10101080 MADISHF
ACT,2021-02-18 22:35,,,,350.00,11.00,,30.40,,10.00,,CLR,,,,,,,,,,,,,,,,KACT 182235Z AUTO 35011KT 10SM CLR M01/M08 A3039 RMK T10101080 MADISHF
ACT,2021-02-18 22:40,,,,350.00,16.00,,30.40,,10.00,,CLR,,,,,,,,,,,,,,,,KACT 182240Z AUTO 35016KT 10SM CLR M01/M08 A3039 RMK T10101080 MADISHF
ACT,2021-02-18 22:45,,,,350.00,14.00,,30.40,,10.00,,CLR,,,,,,,,,,,,,,,,KACT 182245Z AUTO 35014KT 10SM CLR M01/M08 A3039 RMK T10101080 MADISHF
ACT,2021-02-18 22:50,,,,350.00,13.00,,30.41,,10.00,19.00,CLR,,,,,,,,,,,,,,,,KACT 182250Z AUTO 35013G19KT 10SM CLR M01/M08 A3040 RMK T10101080 MADISHF
ACT,2021-02-18 22:51,30.90,17.10,56.14,350.00,15.00,0.00,30.41,1030.00,10.00,,CLR,,,,,,,,,,,,,,,19.35,KACT 182251Z 35015KT 10SM CLR M01/M08 A3041 RMK AO2 SLP300 T10061083
ACT,2021-02-18 22:55,,,,350.00,16.00,,30.41,,10.00,,CLR,,,,,,,,,,,,,,,,KACT 182255Z AUTO 35016KT 10SM CLR M01/M08 A3040 RMK T10101080 MADISHF
ACT,2021-02-18 23:00,,,,350.00,13.00,,30.41,,10.00,18.00,CLR,,,,,,,,,,,,,,,,KACT 182300Z AUTO 35013G18KT 10SM CLR M01/M08 A3040 RMK T10101080 MADISHF
ACT,2021-02-18 23:05,,,,350.00,14.00,,30.42,,10.00,,CLR,,,,,,,,,,,,,,,,KACT 182305Z AUTO 35014KT 10SM CLR M01/M08 A3042 RMK T10101080 MADISHF
ACT,2021-02-18 23:10,,,,350.00,15.00,,30.42,,10.00,,CLR,,,,,,,,,,,,,,,,KACT 182310Z AUTO 35015KT 10SM CLR M01/M08 A3042 RMK T10101080 MADISHF
ACT,2021-02-18 23:15,,,,350.00,11.00,,30.42,,10.00,,CLR,,,,,,,,,,,,,,,,KACT 182315Z AUTO 35011KT 10SM CLR M01/M08 A3042 RMK T10101080 MADISHF
ACT,2021-02-18 23:20,,,,350.00,11.00,,30.42,,10.00,16.00,CLR,,,,,,,,,,,,,,,,KACT 182320Z AUTO 35011G16KT 10SM CLR M01/M08 A3042 RMK T10101080 MADISHF
ACT,2021-02-18 23:25,,,,350.00,11.00,,30.42,,10.00,,CLR,,,,,,,,,,,,,,,,KACT 182325Z AUTO 35011KT 10SM CLR M01/M08 A3042 RMK T10101080 MADISHF
ACT,2021-02-18 23:30,,,,350.00,13.00,,30.42,,10.00,,CLR,,,,,,,,,,,,,,,,KACT 182330Z AUTO 35013KT 10SM CLR M01/M08 A3042 RMK T10101080 MADISHF
ACT,2021-02-18 23:35,,,,350.00,11.00,,30.42,,10.00,,CLR,,,,,,,,,,,,,,,,KACT 182335Z AUTO 35011KT 10SM CLR M01/M08 A3042 RMK T10101080 MADISHF
ACT,2021-02-18 23:40,,,,350.00,11.00,,30.42,,10.00,,CLR,,,,,,,,,,,,,,,,KACT 182340Z AUTO 35011KT 10SM CLR M01/M08 A3042 RMK T10101080 MADISHF
ACT,2021-02-18 23:45,,,,350.00,13.00,,30.43,,10.00,,CLR,,,,,,,,,,,,,,,,KACT 182345Z AUTO 35013KT 10SM CLR M01/M08 A3043 RMK T10101080 MADISHF
ACT,2021-02-18 23:50,,,,360.00,13.00,,30.43,,10.00,,CLR,,,,,,,,,,,,,,,,KACT 182350Z AUTO 36013KT 10SM CLR M01/M08 A3043 RMK T10101080 MADISHF
ACT,2021-02-18 23:51,30.00,17.10,58.23,360.00,13.00,0.00,30.43,1030.80,10.00,,CLR,,,,,,,,,,,,,,,19.01,KACT 182351Z 36013KT 10SM CLR M01/M08 A3043 RMK AO2 SLP308 T10111083 11006 21017 53010
ACT,2021-02-18 23:55,,,,350.00,11.00,,30.43,,10.00,18.00,CLR,,,,,,,,,,,,,,,,KACT 182355Z AUTO 35011G18KT 10SM CLR M01/M08 A3043 RMK T10101080 MADISHF

