station,valid,tmpf,dwpf,relh,drct,sknt,p01i,alti,mslp,vsby,gust,skyc1,skyc2,skyc3,skyc4,skyl1,skyl2,skyl3,skyl4,wxcodes,ice_accretion_1hr,ice_accretion_3hr,ice_accretion_6hr,peak_wind_gust,peak_wind_drct,peak_wind_time,feel,metar
DFW,2021-02-07 00:00,,,,,15.00,,29.97,,10.00,,OVC,,,,3300.00,,,,,,,,,,,,KDFW 070000Z AUTO ///15KT 10SM OVC033 11/04 A2996 RMK T01100040 MADISHF
DFW,2021-02-07 00:05,,,,,15.00,,29.97,,10.00,,OVC,,,,3300.00,,,,,,,,,,,,KDFW 070005Z AUTO ///15KT 10SM OVC033 11/04 A2996 RMK T01100040 MADISHF
DFW,2021-02-07 00:10,,,,,16.00,,29.97,,10.00,,OVC,,,,3300.00,,,,,,,,,,,,KDFW 070010Z AUTO ///16KT 10SM OVC033 11/04 A2996 RMK T01100040 MADISHF
DFW,2021-02-07 00:15,,,,,13.00,,29.96,,10.00,18.00,OVC,,,,3300.00,,,,,,,,,,,,KDFW 070015Z AUTO ///13G18KT 10SM OVC033 11/04 A2995 RMK T01100040 MADISHF
DFW,2021-02-07 00:20,,,,,15.00,,29.96,,10.00,,OVC,,,,3200.00,,,,,,,,,,,,KDFW 070020Z AUTO ///15KT 10SM OVC032 10/04 A2995 RMK T01000040 MADISHF
DFW,2021-02-07 00:25,,,,,14.00,,29.97,,10.00,,OVC,,,,3200.00,,,,,,,,,,,,KDFW 070025Z AUTO ///14KT 10SM OVC032 10/04 A2996 RMK T01000040 MADISHF
DFW,2021-02-07 00:30,,,,360.00,11.00,,29.97,,10.00,17.00,OVC,,,,3200.00,,,,,,,,,,,,KDFW 070030Z AUTO 36011G17KT 10SM OVC032 10/04 A2996 RMK T01000040 MADISHF
DFW,2021-02-07 00:35,,,,,16.00,,29.98,,10.00,21.00,OVC,,,,3200.00,,,,,,,,,,,,KDFW 070035Z AUTO ///16G21KT 10SM OVC032 10/04 A2997 RMK T01000040 MADISHF
DFW,2021-02-07 00:40,,,,,17.00,,29.98,,10.00,22.00,OVC,,,,3100.00,,,,,,,,,,,,KDFW 070040Z AUTO ///17G22KT 10SM OVC031 10/04 A2997 RMK T01000040 MADISHF
DFW,2021-02-07 00:45,,,,,15.00,,29.98,,10.00,,OVC,,,,3100.00,,,,,,,,,,,,KDFW 070045Z AUTO ///15KT 10SM OVC031 10/03 A2997 RMK T01000030 MADISHF
DFW,2021-02-07 00:50,,,,,13.00,,29.98,,10.00,,BKN,,,,3100.00,,,,,,,,,,,,KDFW 070050Z AUTO ///13KT 10SM BKN031 10/03 A2997 RMK T01000030 MADISHF
DFW,2021-02-07 00:53,50.00,37.90,62.98,360.00,14.00,0.00,29.99,1015.30,10.00,,BKN,,,,3100.00,,,,,,,,,,,,KDFW 070053Z 36014KT 10SM BKN031 10/03 A2999 RMK AO2 SLP153 T01000033
DFW,2021-02-07 00:55,,,,360.00,11.00,,29.99,,10.00,,OVC,,,,3000.00,,,,,,,,,,,,KDFW 070055Z AUTO 36011KT 10SM OVC030 10/03 A2998 RMK T01000030 MADISHF
DFW,2021-02-07 01:00,,,,360.00,13.00,,29.99,,10.00,,OVC,,,,3000.00,,,,,,,,,,,,KDFW 070100Z AUTO 36013KT 10SM OVC030 09/03 A2998 RMK T00900030 MADISHF
DFW,2021-02-07 01:05,,,,20.00,14.00,,29.99,,10.00,,OVC,,,,2900.00,,,,,,,,,,,,KDFW 070105Z AUTO 02014KT 10SM OVC029 09/03 A2998 RMK T00900030 MADISHF
DFW,2021-02-07 01:10,,,,10.00,13.00,,30.00,,10.00,,BKN,,,,2900.00,,,,,,,,,,,,KDFW 070110Z AUTO 01013KT 10SM BKN029 09/03 A3000 RMK T00900030 MADISHF
DFW,2021-02-07 01:11,48.90,37.90,65.62,10.00,11.00,0.00,30.00,,10.00,,BKN,,,,2900.00,,,,,,,,,,,43.82,KDFW 070111Z 01011KT 10SM BKN029 09/03 A3000 RMK AO2 T00940033
DFW,2021-02-07 01:15,,,,10.00,9.00,,30.00,,10.00,,BKN,,,,2900.00,,,,,,,,,,,,KDFW 070115Z AUTO 01009KT 10SM BKN029 09/04 A3000 RMK T00900040 MADISHF
DFW,2021-02-07 01:20,,,,10.00,7.00,,30.00,,10.00,,BKN,,,,2900.00,,,,,,,,,,,,KDFW 070120Z AUTO 01007KT 10SM BKN029 09/04 A3000 RMK T00900040 MADISHF
DFW,2021-02-07 01:25,,,,10.00,7.00,,30.00,,10.00,,BKN,,,,2900.00,,,,,,,,,,,,KDFW 070125Z AUTO 01007KT 10SM BKN029 09/04 A3000 RMK T00900040 MADISHF
DFW,2021-02-07 01:30,,,,20.00,8.00,,30.01,,10.00,,BKN,,,,3300.00,,,,,,,,,,,,KDFW 070130Z AUTO 02008KT 10SM BKN033 09/04 A3001 RMK T00900040 MADISHF
DFW,2021-02-07 01:33,48.90,39.00,68.51,20.00,9.00,0.00,30.01,,10.00,,BKN,,,,3300.00,,,,,,,,,,,44.53,KDFW 070133Z 02009KT 10SM BKN033 09/04 A3001 RMK AO2 T00940039
DFW,2021-02-07 01:35,,,,20.00,9.00,,30.01,,10.00,,BKN,,,,3300.00,,,,,,,,,,,,KDFW 070135Z AUTO 02009KT 10SM BKN033 09/04 A3001 RMK T00900040 MADISHF
DFW,2021-02-07 01:40,,,,10.00,8.00,,30.01,,10.00,,BKN,,,,3300.00,,,,,,,,,,,,KDFW 070140Z AUTO 01008KT 10SM BKN033 09/04 A3001 RMK T00900040 MADISHF
DFW,2021-02-07 01:45,,,,360.00,10.00,,30.02,,10.00,,BKN,,,,3300.00,,,,,,,,,,,,KDFW 070145Z AUTO 36010KT 10SM BKN033 09/04 A3002 RMK T00900040 MADISHF
DFW,2021-02-07 01:50,,,,360.00,10.00,,30.02,,10.00,,BKN,,,,3300.00,,,,,,,,,,,,KDFW 070150Z AUTO 36010KT 10SM BKN033 09/04 A3002 RMK T00900040 MADISHF
DFW,2021-02-07 01:53,48.00,39.00,70.85,10.00,10.00,0.00,30.01,1016.20,10.00,,BKN,,,,3300.00,,,,,,,,,,,43.03,KDFW 070153Z 01010KT 10SM BKN033 09/04 A3001 RMK AO2 SLP162 T00890039
DFW,2021-02-07 01:55,,,,20.00,11.00,,30.01,,10.00,,OVC,,,,3300.00,,,,,,,,,,,,KDFW 070155Z AUTO 02011KT 10SM OVC033 09/04 A3001 RMK T00900040 MADISHF
DFW,2021-02-07 02:00,,,,10.00,11.00,,30.01,,10.00,,OVC,,,,3399.00,,,,,,,,,,,,KDFW 070200Z AUTO 01011KT 10SM OVC033 09/03 A3001 RMK T00900030 MADISHF
DFW,2021-02-07 02:05,,,,20.00,9.00,,30.01,,10.00,,OVC,,,,3399.00,,,,,,,,,,,,KDFW 070205Z AUTO 02009KT 10SM OVC033 09/03 A3001 RMK T00900030 MADISHF
DFW,2021-02-07 02:10,,,,30.00,8.00,,30.02,,10.00,,OVC,,,,3500.00,,,,,,,,,,,,KDFW 070210Z AUTO 03008KT 10SM OVC035 09/03 A3002 RMK T00900030 MADISHF
DFW,2021-02-07 02:15,,,,20.00,10.00,,30.02,,10.00,,OVC,,,,3500.00,,,,,,,,,,,,KDFW 070215Z AUTO 02010KT 10SM OVC035 09/04 A3002 RMK T00900040 MADISHF
DFW,2021-02-07 02:20,,,,10.00,11.00,,30.02,,10.00,,OVC,,,,3500.00,,,,,,,,,,,,KDFW 070220Z AUTO 01011KT 10SM OVC035 09/03 A3002 RMK T00900030 MADISHF
DFW,2021-02-07 02:25,,,,20.00,8.00,,30.02,,10.00,,OVC,,,,3500.00,,,,,,,,,,,,KDFW 070225Z AUTO 02008KT 10SM OVC035 08/03 A3002 RMK T00800030 MADISHF
DFW,2021-02-07 02:30,,,,20.00,8.00,,30.02,,10.00,,OVC,,,,3600.00,,,,,,,,,,,,KDFW 070230Z AUTO 02008KT 10SM OVC036 08/03 A3002 RMK T00800030 MADISHF
DFW,2021-02-07 02:35,,,,10.00,8.00,,30.03,,10.00,,OVC,,,,3600.00,,,,,,,,,,,,KDFW 070235Z AUTO 01008KT 10SM OVC036 08/03 A3003 RMK T00800030 MADISHF
DFW,2021-02-07 02:40,,,,10.00,8.00,,30.03,,10.00,,OVC,,,,3600.00,,,,,,,,,,,,KDFW 070240Z AUTO 01008KT 10SM OVC036 08/03 A3003 RMK T00800030 MADISHF
DFW,2021-02-07 02:45,,,,10.00,11.00,,30.03,,10.00,,OVC,,,,3600.00,,,,,,,,,,,,KDFW 070245Z AUTO 01011KT 10SM OVC036 08/03 A3003 RMK T00800030 MADISHF
DFW,2021-02-07 02:50,,,,10.00,9.00,,30.03,,10.00,,BKN,,,,3600.00,,,,,,,,,,,,KDFW 070250Z AUTO 01009KT 10SM BKN036 08/03 A3003 RMK T00800030 MADISHF
DFW,2021-02-07 02:53,46.00,37.90,73.18,20.00,10.00,0.00,30.03,1016.80,10.00,,BKN,,,,3600.00,,,,,,,,,,,40.52,KDFW 070253Z 02010KT 10SM BKN036 08/03 A3003 RMK AO2 SLP168 T00780033 51023
DFW,2021-02-07 02:55,,,,20.00,11.00,,30.03,,10.00,,BKN,,,,3600.00,,,,,,,,,,,,KDFW 070255Z AUTO 02011KT 10SM BKN036 08/03 A3003 RMK T00800030 MADISHF
DFW,2021-02-07 03:00,,,,20.00,11.00,,30.04,,10.00,,BKN,,,,3600.00,,,,,,,,,,,,KDFW 070300Z AUTO 02011KT 10SM BKN036 08/03 A3004 RMK T00800030 MADISHF
DFW,2021-02-07 03:05,,,,20.00,15.00,,30.04,,10.00,,BKN,,,,3600.00,,,,,,,,,,,,KDFW 070305Z AUTO 02015KT 10SM BKN036 08/03 A3004 RMK T00800030 MADISHF
DFW,2021-02-07 03:10,,,,20.00,10.00,,30.04,,10.00,,BKN,,,,3600.00,,,,,,,,,,,,KDFW 070310Z AUTO 02010KT 10SM BKN036 08/03 A3004 RMK T00800030 MADISHF
DFW,2021-02-07 03:15,,,,30.00,13.00,,30.04,,10.00,,BKN,,,,3600.00,,,,,,,,,,,,KDFW 070315Z AUTO 03013KT 10SM BKN036 07/03 A3004 RMK T00700030 MADISHF
DFW,2021-02-07 03:20,,,,20.00,11.00,,30.04,,10.00,,BKN,,,,3600.00,,,,,,,,,,,,KDFW 070320Z AUTO 02011KT 10SM BKN036 07/03 A3004 RMK T00700030 MADISHF
DFW,2021-02-07 03:25,,,,20.00,10.00,,30.05,,10.00,,SCT,,,,3600.00,,,,,,,,,,,,KDFW 070325Z AUTO 02010KT 10SM SCT036 07/03 A3004 RMK T00700030 MADISHF
DFW,2021-02-07 03:30,,,,30.00,9.00,,30.05,,10.00,,SCT,,,,3700.00,,,,,,,,,,,,KDFW 070330Z AUTO 03009KT 10SM SCT037 07/03 A3004 RMK T00700030 MADISHF
DFW,2021-02-07 03:35,,,,20.00,10.00,,30.06,,10.00,,BKN,,,,3700.00,,,,,,,,,,,,KDFW 070335Z AUTO 02010KT 10SM BKN037 07/03 A3005 RMK T00700030 MADISHF
DFW,2021-02-07 03:40,,,,20.00,9.00,,30.07,,10.00,,BKN,,,,3700.00,,,,,,,,,,,,KDFW 070340Z AUTO 02009KT 10SM BKN037 07/03 A3006 RMK T00700030 MADISHF
DFW,2021-02-07 03:45,,,,30.00,9.00,,30.07,,10.00,,BKN,,,,3900.00,,,,,,,,,,,,KDFW 070345Z AUTO 03009KT 10SM BKN039 07/03 A3006 RMK T00700030 MADISHF
DFW,2021-02-07 03:50,,,,20.00,9.00,,30.07,,10.00,,BKN,,,,3900.00,,,,,,,,,,,,KDFW 070350Z AUTO 02009KT 10SM BKN039 07/03 A3006 RMK T00700030 MADISHF
DFW,2021-02-07 03:53,44.10,37.90,78.66,20.00,11.00,0.00,30.07,1018.30,10.00,,BKN,,,,3900.00,,,,,,,,,,,37.76,KDFW 070353Z 02011KT 10SM BKN039 07/03 A3007 RMK AO2 SLP183 T00670033
DFW,2021-02-07 03:55,,,,20.00,11.00,,30.08,,10.00,,BKN,,,,3900.00,,,,,,,,,,,,KDFW 070355Z AUTO 02011KT 10SM BKN039 07/03 A3007 RMK T00700030 MADISHF
DFW,2021-02-07 04:00,,,,10.00,8.00,,30.08,,10.00,,BKN,,,,3800.00,,,,,,,,,,,,KDFW 070400Z AUTO 01008KT 10SM BKN038 07/03 A3007 RMK T00700030 MADISHF
DFW,2021-02-07 04:05,,,,10.00,10.00,,30.08,,10.00,,BKN,,,,3800.00,,,,,,,,,,,,KDFW 070405Z AUTO 01010KT 10SM BKN038 07/03 A3007 RMK T00700030 MADISHF
DFW,2021-02-07 04:10,,,,10.00,10.00,,30.08,,10.00,,BKN,,,,3800.00,,,,,,,,,,,,KDFW 070410Z AUTO 01010KT 10SM BKN038 07/03 A3007 RMK T00700030 MADISHF
DFW,2021-02-07 04:15,,,,10.00,7.00,,30.09,,10.00,,BKN,,,,3700.00,,,,,,,,,,,,KDFW 070415Z AUTO 01007KT 10SM BKN037 07/03 A3009 RMK T00700030 MADISHF
DFW,2021-02-07 04:20,,,,20.00,8.00,,30.08,,10.00,,BKN,,,,3700.00,,,,,,,,,,,,KDFW 070420Z AUTO 02008KT 10SM BKN037 07/03 A3007 RMK T00700030 MADISHF
DFW,2021-02-07 04:25,,,,30.00,5.00,,30.08,,10.00,,OVC,,,,3700.00,,,,,,,,,,,,KDFW 070425Z AUTO 03005KT 10SM OVC037 07/03 A3007 RMK T00700030 MADISHF
DFW,2021-02-07 04:30,,,,20.00,5.00,,30.08,,10.00,,FEW,BKN,,,1200.00,3700.00,,,,,,,,,,,KDFW 070430Z AUTO 02005KT 10SM FEW012 BKN037 06/03 A3007 RMK T00600030 MADISHF
DFW,2021-02-07 04:35,,,,10.00,7.00,,30.08,,10.00,,FEW,BKN,,,1200.00,3700.00,,,,,,,,,,,KDFW 070435Z AUTO 01007KT 10SM FEW012 BKN037 06/03 A3007 RMK T00600030 MADISHF
DFW,2021-02-07 04:40,,,,10.00,7.00,,30.08,,10.00,,FEW,BKN,,,1200.00,3700.00,,,,,,,,,,,KDFW 070440Z AUTO 01007KT 10SM FEW012 BKN037 06/03 A3007 RMK T00600030 MADISHF
DFW,2021-02-07 04:45,,,,10.00,8.00,,30.08,,10.00,,FEW,BKN,,,1200.00,3700.00,,,,,,,,,,,KDFW 070445Z AUTO 01008KT 10SM FEW012 BKN037 06/03 A3007 RMK T00600030 MADISHF
DFW,2021-02-07 04:50,,,,10.00,5.00,,30.08,,10.00,,FEW,BKN,,,1200.00,3700.00,,,,,,,,,,,KDFW 070450Z AUTO 01005KT 10SM FEW012 BKN037 05/03 A3007 RMK T00500030 MADISHF
DFW,2021-02-07 04:53,41.00,36.00,82.22,10.00,7.00,0.00,30.08,1018.60,10.00,,FEW,BKN,,,1200.00,3700.00,,,,,,,,,,35.75,KDFW 070453Z 01007KT 10SM FEW012 BKN037 05/02 A3008 RMK AO2 SLP186 T00500022
DFW,2021-02-07 04:55,,,,10.00,5.00,,30.08,,10.00,,SCT,,,,3700.00,,,,,,,,,,,,KDFW 070455Z AUTO 01005KT 10SM SCT037 04/02 A3007 RMK T00400020 MADISHF
DFW,2021-02-07 05:00,,,,20.00,5.00,,30.08,,10.00,,FEW,,,,3700.00,,,,,,,,,,,,KDFW 070500Z AUTO 02005KT 10SM FEW037 04/02 A3007 RMK T00400020 MADISHF
DFW,2021-02-07 05:05,,,,10.00,7.00,,30.08,,10.00,,FEW,,,,3700.00,,,,,,,,,,,,KDFW 070505Z AUTO 01007KT 10SM FEW037 04/02 A3007 RMK T00400020 MADISHF
DFW,2021-02-07 05:10,,,,20.00,5.00,,30.08,,10.00,,CLR,,,,,,,,,,,,,,,,KDFW 070510Z AUTO 02005KT 10SM CLR 04/02 A3007 RMK T00400020 MADISHF
DFW,2021-02-07 05:15,,,,20.00,7.00,,30.08,,10.00,,CLR,,,,,,,,,,,,,,,,KDFW 070515Z AUTO 02007KT 10SM CLR 04/02 A3007 RMK T00400020 MADISHF
DFW,2021-02-07 05:20,,,,20.00,8.00,,30.08,,10.00,,CLR,,,,,,,,,,,,,,,,KDFW 070520Z AUTO 02008KT 10SM CLR 04/02 A3007 RMK T00400020 MADISHF
DFW,2021-02-07 05:25,,,,20.00,7.00,,30.08,,10.00,,CLR,,,,,,,,,,,,,,,,KDFW 070525Z AUTO 02007KT 10SM CLR 04/02 A3007 RMK T00400020 MADISHF
DFW,2021-02-07 05:30,,,,30.00,7.00,,30.08,,10.00,,CLR,,,,,,,,,,,,,,,,KDFW 070530Z AUTO 03007KT 10SM CLR 04/02 A3007 RMK T00400020 MADISHF
DFW,2021-02-07 05:35,,,,30.00,7.00,,30.07,,10.00,,CLR,,,,,,,,,,,,,,,,KDFW 070535Z AUTO 03007KT 10SM CLR 04/02 A3006 RMK T00400020 MADISHF
DFW,2021-02-07 05:40,,,,30.00,5.00,,30.07,,10.00,,CLR,,,,,,,,,,,,,,,,KDFW 070540Z AUTO 03005KT 10SM CLR 04/02 A3006 RMK T00400020 MADISHF
DFW,2021-02-07 05:45,,,,50.00,5.00,,30.07,,10.00,,CLR,,,,,,,,,,,,,,,,KDFW 070545Z AUTO 05005KT 10SM CLR 04/02 A3006 RMK T00400020 MADISHF
DFW,2021-02-07 05:50,,,,50.00,5.00,,30.06,,10.00,,CLR,,,,,,,,,,,,,,,,KDFW 070550Z AUTO 05005KT 10SM CLR 03/02 A3005 RMK T00300020 MADISHF
DFW,2021-02-07 05:53,37.90,35.10,89.53,50.00,6.00,0.00,30.06,1018.00,10.00,,FEW,,,,2000.00,,,,,,,,,,,32.64,KDFW 070553Z 05006KT 10SM FEW020 03/02 A3006 RMK AO2 SLP180 T00330017 10106 20033 401500033 50011
DFW,2021-02-07 05:55,,,,50.00,5.00,,30.06,,10.00,,FEW,,,,1800.00,,,,,,,,,,,,KDFW 070555Z AUTO 05005KT 10SM FEW018 03/02 A3005 RMK T00300020 MADISHF
DFW,2021-02-07 06:00,,,,60.00,5.00,,30.06,,10.00,,FEW,,,,1800.00,,,,,,,,,,,,KDFW 070600Z AUTO 06005KT 10SM FEW018 03/02 A3005 RMK T00300020 MADISHF
DFW,2021-02-07 06:05,,,,70.00,5.00,,30.06,,10.00,,CLR,,,,,,,,,,,,,,,,KDFW 070605Z AUTO 07005KT 10SM CLR 04/02 A3005 RMK T00400020 MADISHF
DFW,2021-02-07 06:10,,,,60.00,5.00,,30.06,,10.00,,CLR,,,,,,,,,,,,,,,,KDFW 070610Z AUTO 06005KT 10SM CLR 04/02 A3005 RMK T00400020 MADISHF
DFW,2021-02-07 06:15,,,,70.00,5.00,,30.06,,10.00,,CLR,,,,,,,,,,,,,,,,KDFW 070615Z AUTO 07005KT 10SM CLR 04/02 A3005 RMK T00400020 MADISHF
DFW,2021-02-07 06:20,,,,80.00,5.00,,30.06,,10.00,,CLR,,,,,,,,,,,,,,,,KDFW 070620Z AUTO 08005KT 10SM CLR 04/02 A3005 RMK T00400020 MADISHF
DFW,2021-02-07 06:25,,,,70.00,7.00,,30.06,,10.00,,CLR,,,,,,,,,,,,,,,,KDFW 070625Z AUTO 07007KT 10SM CLR 04/02 A3005 RMK T00400020 MADISHF
DFW,2021-02-07 06:30,,,,60.00,8.00,,30.06,,10.00,,CLR,,,,,,,,,,,,,,,,KDFW 070630Z AUTO 06008KT 10SM CLR 04/02 A3005 RMK T00400020 MADISHF
DFW,2021-02-07 06:35,,,,60.00,7.00,,30.05,,10.00,,CLR,,,,,,,,,,,,,,,,KDFW 070635Z AUTO 06007KT 10SM CLR 04/02 A3004 RMK T00400020 MADISHF
DFW,2021-02-07 06:40,,,,60.00,8.00,,30.05,,10.00,,CLR,,,,,,,,,,,,,,,,KDFW 070640Z AUTO 06008KT 10SM CLR 03/02 A3004 RMK T00300020 MADISHF
DFW,2021-02-07 06:45,,,,60.00,7.00,,30.05,,10.00,,CLR,,,,,,,,,,,,,,,,KDFW 070645Z AUTO 06007KT 10SM CLR 03/02 A3004 RMK T00300020 MADISHF
DFW,2021-02-07 06:50,,,,70.00,7.00,,30.05,,10.00,,FEW,,,,1800.00,,,,,,,,,,,,KDFW 070650Z AUTO 07007KT 10SM FEW018 03/02 A3004 RMK T00300020 MADISHF
DFW,2021-02-07 06:53,37.90,34.00,85.69,70.00,6.00,0.00,30.05,1017.40,10.00,,FEW,,,,1800.00,,,,,,,,,,,32.64,KDFW 070653Z 07006KT 10SM FEW018 03/01 A3005 RMK AO2 SLP174 T00330011
DFW,2021-02-07 06:55,,,,70.00,5.00,,30.04,,10.00,,CLR,,,,,,,,,,,,,,,,KDFW 070655Z AUTO 07005KT 10SM CLR 03/01 A3004 RMK T00300010 MADISHF
DFW,2021-02-07 07:00,,,,70.00,7.00,,30.04,,10.00,,CLR,,,,,,,,,,,,,,,,KDFW 070700Z AUTO 07007KT 10SM CLR 03/01 A3004 RMK T00300010 MADISHF
DFW,2021-02-07 07:05,,,,60.00,7.00,,30.03,,10.00,,CLR,,,,,,,,,,,,,,,,KDFW 070705Z AUTO 06007KT 10SM CLR 03/01 A3003 RMK T00300010 MADISHF
DFW,2021-02-07 07:10,,,,60.00,5.00,,30.03,,10.00,,CLR,,,,,,,,,,,,,,,,KDFW 070710Z AUTO 06005KT 10SM CLR 03/01 A3003 RMK T00300010 MADISHF
DFW,2021-02-07 07:15,,,,60.00,5.00,,30.03,,10.00,,CLR,,,,,,,,,,,,,,,,KDFW 070715Z AUTO 06005KT 10SM CLR 03/01 A3003 RMK T00300010 MADISHF
DFW,2021-02-07 07:20,,,,60.00,5.00,,30.03,,10.00,,CLR,,,,,,,,,,,,,,,,KDFW 070720Z AUTO 06005KT 10SM CLR 03/01 A3003 RMK T00300010 MADISHF
DFW,2021-02-07 07:25,,,,60.00,5.00,,30.03,,10.00,,CLR,,,,,,,,,,,,,,,,KDFW 070725Z AUTO 06005KT 10SM CLR 03/01 A3003 RMK T00300010 MADISHF
DFW,2021-02-07 07:30,,,,70.00,4.00,,30.03,,10.00,,CLR,,,,,,,,,,,,,,,,KDFW 070730Z AUTO 07004KT 10SM CLR 03/01 A3003 RMK T00300010 MADISHF
DFW,2021-02-07 07:35,,,,80.00,2.00,,30.03,,10.00,,CLR,,,,,,,,,,,,,,,,KDFW 070735Z AUTO 08002KT 10SM CLR 03/01 A3003 RMK T00300010 MADISHF
DFW,2021-02-07 07:40,,,,80.00,2.00,,30.03,,10.00,,CLR,,,,,,,,,,,,,,,,KDFW 070740Z AUTO 08002KT 10SM CLR 04/02 A3003 RMK T00400020 MADISHF
DFW,2021-02-07 07:45,,,,100.00,2.00,,30.03,,10.00,,CLR,,,,,,,,,,,,,,,,KDFW 070745Z AUTO 10002KT 10SM CLR 03/01 A3003 RMK T00300010 MADISHF
DFW,2021-02-07 07:50,,,,80.00,2.00,,30.03,,10.00,,CLR,,,,,,,,,,,,,,,,KDFW 070750Z AUTO 08002KT 10SM CLR 03/02 A3003 RMK T00300020 MADISHF
DFW,2021-02-07 07:53,37.90,35.10,89.53,80.00,3.00,0.00,30.04,1016.90,10.00,,FEW,,,,1800.00,,,,,,,,,,,35.43,KDFW 070753Z 08003KT 10SM FEW018 03/02 A3004 RMK AO2 SLP169 T00330017
DFW,2021-02-07 07:55,,,,80.00,2.00,,30.04,,10.00,,CLR,,,,,,,,,,,,,,,,KDFW 070755Z AUTO 08002KT 10SM CLR 04/02 A3004 RMK T00400020 MADISHF
DFW,2021-02-07 08:00,,,,90.00,2.00,,30.04,,10.00,,CLR,,,,,,,,,,,,,,,,KDFW 070800Z AUTO 09002KT 10SM CLR 03/02 A3004 RMK T00300020 MADISHF
DFW,2021-02-07 08:05,,,,110.00,2.00,,30.04,,10.00,,CLR,,,,,,,,,,,,,,,,KDFW 070805Z AUTO 11002KT 10SM CLR 03/01 A3004 RMK T00300010 MADISHF
DFW,2021-02-07 08:10,,,,0.00,0.00,,30.04,,10.00,,CLR,,,,,,,,,,,,,,,,KDFW 070810Z AUTO 00000KT 10SM CLR 03/02 A3004 RMK T00300020 MADISHF
DFW,2021-02-07 08:15,,,,110.00,2.00,,30.04,,10.00,,CLR,,,,,,,,,,,,,,,,KDFW 070815Z AUTO 11002KT 10SM CLR 03/02 A3004 RMK T00300020 MADISHF
DFW,2021-02-07 08:20,,,,130.00,2.00,,30.04,,10.00,,CLR,,,,,,,,,,,,,,,,KDFW 070820Z AUTO 13002KT 10SM CLR 03/01 A3004 RMK T00300010 MADISHF
DFW,2021-02-07 08:25,,,,130.00,4.00,,30.03,,10.00,,CLR,,,,,,,,,,,,,,,,KDFW 070825Z AUTO 13004KT 10SM CLR 03/01 A3003 RMK T00300010 MADISHF
DFW,2021-02-07 08:30,,,,110.00,5.00,,30.03,,10.00,,CLR,,,,,,,,,,,,,,,,KDFW 070830Z AUTO 11005KT 10SM CLR 03/01 A3003 RMK T00300010 MADISHF
DFW,2021-02-07 08:35,,,,100.00,5.00,,30.02,,10.00,,CLR,,,,,,,,,,,,,,,,KDFW 070835Z AUTO 10005KT 10SM CLR 03/01 A3002 RMK T00300010 MADISHF
DFW,2021-02-07 08:40,,,,90.00,4.00,,30.02,,10.00,,CLR,,,,,,,,,,,,,,,,KDFW 070840Z AUTO 09004KT 10SM CLR 03/01 A3002 RMK T00300010 MADISHF
DFW,2021-02-07 08:45,,,,0.00,0.00,,30.02,,10.00,,CLR,,,,,,,,,,,,,,,,KDFW 070845Z AUTO 00000KT 10SM CLR 02/01 A3002 RMK T00200010 MADISHF
DFW,2021-02-07 08:50,,,,80.00,2.00,,30.02,,10.00,,FEW,,,,1800.00,,,,,,,,,,,,KDFW 070850Z AUTO 08002KT 10SM FEW018 02/01 A3002 RMK T00200010 MADISHF
DFW,2021-02-07 08:53,35.10,33.10,92.32,70.00,3.00,0.00,30.02,1016.40,10.00,,FEW,,,,1800.00,,,,,,,,,,,32.23,KDFW 070853Z 07003KT 10SM FEW018 02/01 A3002 RMK AO2 SLP164 T00170006 56014
DFW,2021-02-07 08:55,,,,0.00,0.00,,30.02,,10.00,,CLR,,,,,,,,,,,,,,,,KDFW 070855Z AUTO 00000KT 10SM CLR 02/01 A3002 RMK T00200010 MADISHF
DFW,2021-02-07 09:00,,,,90.00,2.00,,30.02,,10.00,,CLR,,,,,,,,,,,,,,,,KDFW 070900Z AUTO 09002KT 10SM CLR 02/01 A3002 RMK T00200010 MADISHF
DFW,2021-02-07 09:05,,,,90.00,4.00,,30.02,,10.00,,CLR,,,,,,,,,,,,,,,,KDFW 070905Z AUTO 09004KT 10SM CLR 02/01 A3002 RMK T00200010 MADISHF
DFW,2021-02-07 09:10,,,,90.00,2.00,,30.02,,10.00,,CLR,,,,,,,,,,,,,,,,KDFW 070910Z AUTO 09002KT 10SM CLR 02/01 A3002 RMK T00200010 MADISHF
DFW,2021-02-07 09:15,,,,100.00,2.00,,30.02,,10.00,,CLR,,,,,,,,,,,,,,,,KDFW 070915Z AUTO 10002KT 10SM CLR 02/01 A3002 RMK T00200010 MADISHF
DFW,2021-02-07 09:20,,,,90.00,2.00,,30.03,,10.00,,CLR,,,,,,,,,,,,,,,,KDFW 070920Z AUTO 09002KT 10SM CLR 03/01 A3003 RMK T00300010 MADISHF
DFW,2021-02-07 09:25,,,,90.00,4.00,,30.02,,10.00,,CLR,,,,,,,,,,,,,,,,KDFW 070925Z AUTO 09004KT 10SM CLR 03/01 A3002 RMK T00300010 MADISHF
DFW,2021-02-07 09:30,,,,90.00,4.00,,30.02,,10.00,,CLR,,,,,,,,,,,,,,,,KDFW 070930Z AUTO 09004KT 10SM CLR 02/01 A3002 RMK T00200010 MADISHF
DFW,2021-02-07 09:35,,,,80.00,4.00,,30.02,,10.00,,CLR,,,,,,,,,,,,,,,,KDFW 070935Z AUTO 08004KT 10SM CLR 02/01 A3002 RMK T00200010 MADISHF
DFW,2021-02-07 09:40,,,,80.00,4.00,,30.02,,10.00,,CLR,,,,,,,,,,,,,,,,KDFW 070940Z AUTO 08004KT 10SM CLR 02/01 A3002 RMK T00200010 MADISHF
DFW,2021-02-07 09:45,,,,90.00,2.00,,30.02,,10.00,,CLR,,,,,,,,,,,,,,,,KDFW 070945Z AUTO 09002KT 10SM CLR 02/01 A3002 RMK T00200010 MADISHF
DFW,2021-02-07 09:50,,,,100.00,4.00,,30.01,,10.00,,CLR,,,,,,,,,,,,,,,,KDFW 070950Z AUTO 10004KT 10SM CLR 02/01 A3001 RMK T00200010 MADISHF
DFW,2021-02-07 09:53,36.00,33.10,89.09,100.00,4.00,0.00,30.01,1016.30,7.00,,FEW,,,,1200.00,,,,,,,,,,,32.09,KDFW 070953Z 10004KT 7SM FEW012 02/01 A3001 RMK AO2 SLP163 T00220006
DFW,2021-02-07 09:55,,,,100.00,4.00,,30.01,,10.00,,CLR,,,,,,,,,,,,,,,,KDFW 070955Z AUTO 10004KT 10SM CLR 02/01 A3001 RMK T00200010 MADISHF
DFW,2021-02-07 10:00,,,,100.00,5.00,,30.01,,7.00,,FEW,,,,900.00,,,,,,,,,,,,KDFW 071000Z AUTO 10005KT 7SM FEW009 02/01 A3001 RMK T00200010 MADISHF
DFW,2021-02-07 10:02,36.00,33.10,89.09,100.00,7.00,0.00,30.01,,7.00,,FEW,,,,900.00,,,,,,,,,,,29.65,KDFW 071002Z 10007KT 7SM FEW009 02/01 A3001 RMK AO2 T00220006
DFW,2021-02-07 10:05,,,,90.00,7.00,,30.01,,7.00,,FEW,,,,900.00,,,,,,,,,,,,KDFW 071005Z AUTO 09007KT 7SM FEW009 03/01 A3001 RMK T00300010 MADISHF
DFW,2021-02-07 10:10,,,,100.00,5.00,,30.01,,7.00,,FEW,,,,900.00,,,,,,,,,,,,KDFW 071010Z AUTO 10005KT 7SM FEW009 03/02 A3001 RMK T00300020 MADISHF
DFW,2021-02-07 10:15,,,,100.00,5.00,,30.01,,7.00,,FEW,,,,900.00,,,,,,,,,,,,KDFW 071015Z AUTO 10005KT 7SM FEW009 03/02 A3001 RMK T00300020 MADISHF
DFW,2021-02-07 10:20,,,,100.00,7.00,,30.01,,7.00,,FEW,,,,900.00,,,,,,,,,,,,KDFW 071020Z AUTO 10007KT 7SM FEW009 03/02 A3001 RMK T00300020 MADISHF
DFW,2021-02-07 10:25,,,,100.00,5.00,,30.01,,7.00,,FEW,,,,900.00,,,,,,,,,,,,KDFW 071025Z AUTO 10005KT 7SM FEW009 02/02 A3001 RMK T00200020 MADISHF
DFW,2021-02-07 10:30,,,,100.00,8.00,,30.01,,7.00,,CLR,,,,,,,,,,,,,,,,KDFW 071030Z AUTO 10008KT 7SM CLR 02/02 A3001 RMK T00200020 MADISHF
DFW,2021-02-07 10:35,,,,100.00,8.00,,30.01,,7.00,,FEW,,,,900.00,,,,,,,,,,,,KDFW 071035Z AUTO 10008KT 7SM FEW009 02/01 A3001 RMK T00200010 MADISHF
DFW,2021-02-07 10:40,,,,90.00,7.00,,30.01,,7.00,,FEW,,,,900.00,,,,,,,,,,,,KDFW 071040Z AUTO 09007KT 7SM FEW009 02/02 A3001 RMK T00200020 MADISHF
DFW,2021-02-07 10:45,,,,90.00,7.00,,30.01,,7.00,,SCT,,,,800.00,,,,,,,,,,,,KDFW 071045Z AUTO 09007KT 7SM SCT008 03/02 A3001 RMK T00300020 MADISHF
DFW,2021-02-07 10:50,,,,90.00,7.00,,30.01,,7.00,,BKN,,,,800.00,,,,,,,,,,,,KDFW 071050Z AUTO 09007KT 7SM BKN008 03/02 A3001 RMK T00300020 MADISHF
DFW,2021-02-07 10:53,37.00,35.10,92.76,90.00,6.00,0.00,30.01,1016.30,7.00,,BKN,,,,800.00,,,,,,,,,,,31.55,KDFW 071053Z 09006KT 7SM BKN008 03/02 A3001 RMK AO2 SLP163 T00280017
DFW,2021-02-07 10:55,,,,90.00,5.00,,30.01,,10.00,,BKN,,,,800.00,,,,,,,,,,,,KDFW 071055Z AUTO 09005KT 10SM BKN008 03/02 A3001 RMK T00300020 MADISHF
DFW,2021-02-07 11:00,,,,100.00,9.00,,30.01,,10.00,,BKN,,,,800.00,,,,,,,,,,,,KDFW 071100Z AUTO 10009KT 10SM BKN008 03/02 A3001 RMK T00300020 MADISHF
DFW,2021-02-07 11:05,,,,100.00,8.00,,30.01,,10.00,,OVC,,,,800.00,,,,,,,,,,,,KDFW 071105Z AUTO 10008KT 10SM OVC008 03/02 A3001 RMK T00300020 MADISHF
DFW,2021-02-07 11:10,,,,100.00,8.00,,30.01,,10.00,,OVC,,,,800.00,,,,,,,,,,,,KDFW 071110Z AUTO 10008KT 10SM OVC008 03/02 A3001 RMK T00300020 MADISHF
DFW,2021-02-07 11:15,,,,100.00,8.00,,30.00,,10.00,,OVC,,,,800.00,,,,,,,,,,,,KDFW 071115Z AUTO 10008KT 10SM OVC008 03/02 A3000 RMK T00300020 MADISHF
DFW,2021-02-07 11:20,,,,90.00,8.00,,30.00,,10.00,,OVC,,,,800.00,,,,,,,,,,,,KDFW 071120Z AUTO 09008KT 10SM OVC008 03/02 A3000 RMK T00300020 MADISHF
DFW,2021-02-07 11:25,,,,90.00,8.00,,30.00,,10.00,,OVC,,,,800.00,,,,,,,,,,,,KDFW 071125Z AUTO 09008KT 10SM OVC008 03/02 A3000 RMK T00300020 MADISHF
DFW,2021-02-07 11:30,,,,90.00,7.00,,29.99,,10.00,,OVC,,,,800.00,,,,,,,,,,,,KDFW 071130Z AUTO 09007KT 10SM OVC008 03/02 A2998 RMK T00300020 MADISHF
DFW,2021-02-07 11:35,,,,110.00,8.00,,30.00,,10.00,,OVC,,,,800.00,,,,,,,,,,,,KDFW 071135Z AUTO 11008KT 10SM OVC008 03/02 A3000 RMK T00300020 MADISHF
DFW,2021-02-07 11:40,,,,110.00,8.00,,30.00,,10.00,,OVC,,,,800.00,,,,,,,,,,,,KDFW 071140Z AUTO 11008KT 10SM OVC008 03/02 A3000 RMK T00300020 MADISHF
DFW,2021-02-07 11:45,,,,100.00,8.00,,30.00,,10.00,,OVC,,,,800.00,,,,,,,,,,,,KDFW 071145Z AUTO 10008KT 10SM OVC008 03/02 A3000 RMK T00300020 MADISHF
DFW,2021-02-07 11:50,,,,110.00,7.00,,30.01,,10.00,,OVC,,,,800.00,,,,,,,,,,,,KDFW 071150Z AUTO 11007KT 10SM OVC008 03/02 A3001 RMK T00300020 MADISHF
DFW,2021-02-07 11:53,37.00,35.10,92.76,130.00,10.00,0.00,30.01,1016.10,10.00,,OVC,,,,800.00,,,,,,,,,,,29.24,KDFW 071153Z 13010KT 10SM OVC008 03/02 A3001 RMK AO2 SLP161 T00280017 10039 20017 58004
DFW,2021-02-07 11:55,,,,130.00,8.00,,30.01,,10.00,,OVC,,,,800.00,,,,,,,,,,,,KDFW 071155Z AUTO 13008KT 10SM OVC008 03/02 A3001 RMK T00300020 MADISHF
DFW,2021-02-07 12:00,,,,110.00,8.00,,30.01,,10.00,,OVC,,,,800.00,,,,,,,,,,,,KDFW 071200Z AUTO 11008KT 10SM OVC008 03/02 A3001 RMK T00300020 MADISHF
DFW,2021-02-07 12:05,,,,100.00,7.00,,30.01,,10.00,,OVC,,,,800.00,,,,,,,,,,,,KDFW 071205Z AUTO 10007KT 10SM OVC008 03/02 A3001 RMK T00300020 MADISHF
DFW,2021-02-07 12:10,,,,130.00,8.00,,30.01,,10.00,,OVC,,,,800.00,,,,,,,,,,,,KDFW 071210Z AUTO 13008KT 10SM OVC008 03/02 A3001 RMK T00300020 MADISHF
DFW,2021-02-07 12:15,,,,130.00,5.00,,30.01,,10.00,,OVC,,,,800.00,,,,,,,,,,,,KDFW 071215Z AUTO 13005KT 10SM OVC008 03/02 A3001 RMK T00300020 MADISHF
DFW,2021-02-07 12:20,,,,130.00,8.00,,30.01,,10.00,,OVC,,,,800.00,,,,,,,,,,,,KDFW 071220Z AUTO 13008KT 10SM OVC008 03/02 A3001 RMK T00300020 MADISHF
DFW,2021-02-07 12:25,,,,120.00,7.00,,30.02,,10.00,,OVC,,,,800.00,,,,,,,,,,,,KDFW 071225Z AUTO 12007KT 10SM OVC008 03/02 A3002 RMK T00300020 MADISHF
DFW,2021-02-07 12:30,,,,140.00,8.00,,30.02,,10.00,,OVC,,,,800.00,,,,,,,,,,,,KDFW 071230Z AUTO 14008KT 10SM OVC008 03/02 A3002 RMK T00300020 MADISHF
DFW,2021-02-07 12:35,,,,130.00,7.00,,30.02,,10.00,,OVC,,,,800.00,,,,,,,,,,,,KDFW 071235Z AUTO 13007KT 10SM OVC008 03/02 A3002 RMK T00300020 MADISHF
DFW,2021-02-07 12:40,,,,110.00,5.00,,30.02,,10.00,,OVC,,,,800.00,,,,,,,,,,,,KDFW 071240Z AUTO 11005KT 10SM OVC008 03/02 A3002 RMK T00300020 MADISHF
DFW,2021-02-07 12:45,,,,130.00,7.00,,30.02,,10.00,,OVC,,,,800.00,,,,,,,,,,,,KDFW 071245Z AUTO 13007KT 10SM OVC008 03/02 A3002 RMK T00300020 MADISHF
DFW,2021-02-07 12:50,,,,120.00,7.00,,30.02,,10.00,,OVC,,,,800.00,,,,,,,,,,,,KDFW 071250Z AUTO 12007KT 10SM OVC008 03/02 A3002 RMK T00300020 MADISHF
DFW,2021-02-07 12:53,37.00,35.10,92.76,110.00,5.00,0.00,30.02,1016.40,10.00,,OVC,,,,800.00,,,,,,,,,,,32.33,KDFW 071253Z 11005KT 10SM OVC008 03/02 A3002 RMK AO2 SLP164 T00280017
DFW,2021-02-07 12:55,,,,110.00,5.00,,30.02,,10.00,,OVC,,,,800.00,,,,,,,,,,,,KDFW 071255Z AUTO 11005KT 10SM OVC008 03/02 A3002 RMK T00300020 MADISHF
DFW,2021-02-07 13:00,,,,120.00,5.00,,30.02,,10.00,,OVC,,,,800.00,,,,,,,,,,,,KDFW 071300Z AUTO 12005KT 10SM OVC008 03/02 A3002 RMK T00300020 MADISHF
DFW,2021-02-07 13:05,,,,150.00,4.00,,30.02,,10.00,,OVC,,,,800.00,,,,,,,,,,,,KDFW 071305Z AUTO 15004KT 10SM OVC008 03/02 A3002 RMK T00300020 MADISHF
DFW,2021-02-07 13:10,,,,170.00,7.00,,30.03,,10.00,,OVC,,,,800.00,,,,,,,,,,,,KDFW 071310Z AUTO 17007KT 10SM OVC008 03/02 A3003 RMK T00300020 MADISHF
DFW,2021-02-07 13:15,,,,170.00,5.00,,30.03,,10.00,,OVC,,,,800.00,,,,,,,,,,,,KDFW 071315Z AUTO 17005KT 10SM OVC008 03/02 A3003 RMK T00300020 MADISHF
DFW,2021-02-07 13:20,,,,170.00,8.00,,30.03,,10.00,,OVC,,,,800.00,,,,,,,,,,,,KDFW 071320Z AUTO 17008KT 10SM OVC008 03/02 A3003 RMK T00300020 MADISHF
DFW,2021-02-07 13:25,,,,140.00,5.00,,30.03,,10.00,,OVC,,,,800.00,,,,,,,,,,,,KDFW 071325Z AUTO 14005KT 10SM OVC008 03/02 A3003 RMK T00300020 MADISHF
DFW,2021-02-07 13:30,,,,140.00,7.00,,30.03,,10.00,,OVC,,,,800.00,,,,,,,,,,,,KDFW 071330Z AUTO 14007KT 10SM OVC008 03/01 A3003 RMK T00300010 MADISHF
DFW,2021-02-07 13:35,,,,140.00,8.00,,30.03,,10.00,,OVC,,,,800.00,,,,,,,,,,,,KDFW 071335Z AUTO 14008KT 10SM OVC008 03/01 A3003 RMK T00300010 MADISHF
DFW,2021-02-07 13:40,,,,140.00,7.00,,30.04,,10.00,,OVC,,,,800.00,,,,,,,,,,,,KDFW 071340Z AUTO 14007KT 10SM OVC008 03/01 A3004 RMK T00300010 MADISHF
DFW,2021-02-07 13:45,,,,150.00,7.00,,30.04,,10.00,,OVC,,,,800.00,,,,,,,,,,,,KDFW 071345Z AUTO 15007KT 10SM OVC008 03/01 A3004 RMK T00300010 MADISHF
DFW,2021-02-07 13:50,,,,130.00,8.00,,30.04,,10.00,,OVC,,,,800.00,,,,,,,,,,,,KDFW 071350Z AUTO 13008KT 10SM OVC008 03/01 A3004 RMK T00300010 MADISHF
DFW,2021-02-07 13:53,37.00,34.00,88.78,130.00,6.00,0.00,30.04,1017.20,10.00,,OVC,,,,800.00,,,,,,,,,,,31.55,KDFW 071353Z 13006KT 10SM OVC008 03/01 A3004 RMK AO2 SLP172 T00280011
DFW,2021-02-07 13:55,,,,130.00,8.00,,30.04,,10.00,,OVC,,,,800.00,,,,,,,,,,,,KDFW 071355Z AUTO 13008KT 10SM OVC008 03/01 A3004 RMK T00300010 MADISHF
DFW,2021-02-07 14:00,,,,120.00,7.00,,30.04,,10.00,,OVC,,,,800.00,,,,,,,,,,,,KDFW 071400Z AUTO 12007KT 10SM OVC008 03/01 A3004 RMK T00300010 MADISHF
DFW,2021-02-07 14:05,,,,130.00,8.00,,30.04,,10.00,,OVC,,,,700.00,,,,,,,,,,,,KDFW 071405Z AUTO 13008KT 10SM OVC007 03/01 A3004 RMK T00300010 MADISHF
DFW,2021-02-07 14:10,,,,120.00,8.00,,30.05,,10.00,,OVC,,,,700.00,,,,,,,,,,,,KDFW 071410Z AUTO 12008KT 10SM OVC007 03/01 A3004 RMK T00300010 MADISHF
DFW,2021-02-07 14:15,,,,130.00,7.00,,30.05,,10.00,,OVC,,,,700.00,,,,,,,,,,,,KDFW 071415Z AUTO 13007KT 10SM OVC007 03/01 A3004 RMK T00300010 MADISHF
DFW,2021-02-07 14:20,,,,130.00,7.00,,30.05,,10.00,,OVC,,,,700.00,,,,,,,,,,,,KDFW 071420Z AUTO 13007KT 10SM OVC007 03/01 A3004 RMK T00300010 MADISHF
DFW,2021-02-07 14:25,,,,130.00,7.00,,30.05,,10.00,,OVC,,,,700.00,,,,,,,,,,,,KDFW 071425Z AUTO 13007KT 10SM OVC007 03/02 A3004 RMK T00300020 MADISHF
DFW,2021-02-07 14:30,,,,150.00,7.00,,30.05,,10.00,,OVC,,,,700.00,,,,,,,,,,,,KDFW 071430Z AUTO 15007KT 10SM OVC007 03/02 A3004 RMK T00300020 MADISHF
DFW,2021-02-07 14:35,,,,140.00,9.00,,30.05,,10.00,,OVC,,,,800.00,,,,,,,,,,,,KDFW 071435Z AUTO 14009KT 10SM OVC008 03/02 A3004 RMK T00300020 MADISHF
DFW,2021-02-07 14:40,,,,150.00,7.00,,30.06,,10.00,,OVC,,,,800.00,,,,,,,,,,,,KDFW 071440Z AUTO 15007KT 10SM OVC008 03/01 A3005 RMK T00300010 MADISHF
DFW,2021-02-07 14:45,,,,160.00,8.00,,30.06,,10.00,,OVC,,,,800.00,,,,,,,,,,,,KDFW 071445Z AUTO 16008KT 10SM OVC008 03/02 A3005 RMK T00300020 MADISHF
DFW,2021-02-07 14:50,,,,150.00,9.00,,30.06,,10.00,,OVC,,,,800.00,,,,,,,,,,,,KDFW 071450Z AUTO 15009KT 10SM OVC008 03/02 A3005 RMK T00300020 MADISHF
DFW,2021-02-07 14:53,37.90,34.00,85.69,160.00,10.00,0.00,30.06,1018.10,10.00,,OVC,,,,800.00,,,,,,,,,,,30.37,KDFW 071453Z 16010KT 10SM OVC008 03/01 A3006 RMK AO2 SLP181 T00330011 53019 $
DFW,2021-02-07 14:55,,,,160.00,9.00,,30.07,,10.00,,OVC,,,,900.00,,,,,,,,,,,,KDFW 071455Z AUTO 16009KT 10SM OVC009 03/01 A3006 RMK T00300010 MADISHF
DFW,2021-02-07 15:00,,,,150.00,7.00,,30.07,,10.00,,OVC,,,,900.00,,,,,,,,,,,,KDFW 071500Z AUTO 15007KT 10SM OVC009 03/01 A3006 RMK T00300010 MADISHF
DFW,2021-02-07 15:05,,,,150.00,7.00,,30.07,,10.00,,OVC,,,,900.00,,,,,,,,,,,,KDFW 071505Z AUTO 15007KT 10SM OVC009 03/02 A3006 RMK T00300020 MADISHF
DFW,2021-02-07 15:10,,,,170.00,10.00,,30.07,,10.00,,OVC,,,,900.00,,,,,,,,,,,,KDFW 071510Z AUTO 17010KT 10SM OVC009 03/02 A3006 RMK T00300020 MADISHF
DFW,2021-02-07 15:15,,,,160.00,8.00,,30.07,,10.00,,OVC,,,,900.00,,,,,,,,,,,,KDFW 071515Z AUTO 16008KT 10SM OVC009 03/02 A3006 RMK T00300020 MADISHF
DFW,2021-02-07 15:20,,,,160.00,10.00,,30.07,,10.00,,OVC,,,,999.00,,,,,,,,,,,,KDFW 071520Z AUTO 16010KT 10SM OVC009 03/02 A3006 RMK T00300020 MADISHF
DFW,2021-02-07 15:25,,,,160.00,10.00,,30.07,,10.00,,OVC,,,,999.00,,,,,,,,,,,,KDFW 071525Z AUTO 16010KT 10SM OVC009 03/02 A3006 RMK T00300020 MADISHF
DFW,2021-02-07 15:30,,,,160.00,8.00,,30.07,,10.00,,OVC,,,,999.00,,,,,,,,,,,,KDFW 071530Z AUTO 16008KT 10SM OVC009 04/02 A3006 RMK T00400020 MADISHF
DFW,2021-02-07 15:35,,,,170.00,9.00,,30.07,,10.00,,OVC,,,,999.00,,,,,,,,,,,,KDFW 071535Z AUTO 17009KT 10SM OVC009 04/02 A3006 RMK T00400020 MADISHF
DFW,2021-02-07 15:40,,,,170.00,9.00,,30.07,,10.00,,OVC,,,,999.00,,,,,,,,,,,,KDFW 071540Z AUTO 17009KT 10SM OVC009 04/02 A3006 RMK T00400020 MADISHF
DFW,2021-02-07 15:45,,,,150.00,10.00,,30.07,,10.00,,OVC,,,,999.00,,,,,,,,,,,,KDFW 071545Z AUTO 15010KT 10SM OVC009 04/02 A3006 RMK T00400020 MADISHF
DFW,2021-02-07 15:50,,,,150.00,9.00,,30.08,,10.00,,OVC,,,,1100.00,,,,,,,,,,,,KDFW 071550Z AUTO 15009KT 10SM OVC011 04/02 A3007 RMK T00400020 MADISHF
DFW,2021-02-07 15:53,39.90,35.10,82.80,160.00,8.00,0.00,30.08,1018.50,10.00,,OVC,,,,1100.00,,,,,,,,,,,33.84,KDFW 071553Z 16008KT 10SM OVC011 04/02 A3008 RMK AO2 SLP185 T00440017 $
DFW,2021-02-07 15:55,,,,160.00,8.00,,30.08,,10.00,,OVC,,,,1100.00,,,,,,,,,,,,KDFW 071555Z AUTO 16008KT 10SM OVC011 04/02 A3007 RMK T00400020 MADISHF
DFW,2021-02-07 16:00,,,,140.00,10.00,,30.07,,10.00,,OVC,,,,1100.00,,,,,,,,,,,,KDFW 071600Z AUTO 14010KT 10SM OVC011 04/02 A3006 RMK T00400020 MADISHF
DFW,2021-02-07 16:05,,,,150.00,10.00,,30.07,,10.00,,OVC,,,,1100.00,,,,,,,,,,,,KDFW 071605Z AUTO 15010KT 10SM OVC011 04/02 A3006 RMK T00400020 MADISHF
DFW,2021-02-07 16:10,,,,150.00,9.00,,30.07,,10.00,,OVC,,,,1100.00,,,,,,,,,,,,KDFW 071610Z AUTO 15009KT 10SM OVC011 04/02 A3006 RMK T00400020 MADISHF
DFW,2021-02-07 16:15,,,,150.00,10.00,,30.07,,10.00,,OVC,,,,1100.00,,,,,,,,,,,,KDFW 071615Z AUTO 15010KT 10SM OVC011 05/02 A3006 RMK T00500020 MADISHF
DFW,2021-02-07 16:20,,,,160.00,8.00,,30.07,,10.00,,OVC,,,,1200.00,,,,,,,,,,,,KDFW 071620Z AUTO 16008KT 10SM OVC012 04/01 A3006 RMK T00400010 MADISHF
DFW,2021-02-07 16:25,,,,150.00,8.00,,30.07,,10.00,,OVC,,,,1200.00,,,,,,,,,,,,KDFW 071625Z AUTO 15008KT 10SM OVC012 05/02 A3006 RMK T00500020 MADISHF
DFW,2021-02-07 16:30,,,,140.00,9.00,,30.07,,10.00,,OVC,,,,1300.00,,,,,,,,,,,,KDFW 071630Z AUTO 14009KT 10SM OVC013 05/02 A3006 RMK T00500020 MADISHF
DFW,2021-02-07 16:35,,,,150.00,11.00,,30.07,,10.00,,OVC,,,,1300.00,,,,,,,,,,,,KDFW 071635Z AUTO 15011KT 10SM OVC013 06/02 A3006 RMK T00600020 MADISHF
DFW,2021-02-07 16:40,,,,150.00,10.00,,30.07,,10.00,,OVC,,,,1300.00,,,,,,,,,,,,KDFW 071640Z AUTO 15010KT 10SM OVC013 06/02 A3006 RMK T00600020 MADISHF
DFW,2021-02-07 16:45,,,,150.00,11.00,,30.07,,10.00,,OVC,,,,1300.00,,,,,,,,,,,,KDFW 071645Z AUTO 15011KT 10SM OVC013 06/02 A3006 RMK T00600020 MADISHF
DFW,2021-02-07 16:50,,,,140.00,11.00,,30.07,,10.00,,OVC,,,,1400.00,,,,,,,,,,,,KDFW 071650Z AUTO 14011KT 10SM OVC014 06/02 A3006 RMK T00600020 MADISHF
DFW,2021-02-07 16:53,42.10,35.10,76.04,150.00,8.00,0.00,30.07,1018.20,10.00,,OVC,,,,1400.00,,,,,,,,,,,36.55,KDFW 071653Z 15008KT 10SM OVC014 06/02 A3007 RMK AO2 SLP182 T00560017 $
DFW,2021-02-07 16:55,,,,140.00,11.00,,30.06,,10.00,,OVC,,,,1400.00,,,,,,,,,,,,KDFW 071655Z AUTO 14011KT 10SM OVC014 06/02 A3005 RMK T00600020 MADISHF
DFW,2021-02-07 17:00,,,,140.00,10.00,,30.06,,10.00,,OVC,,,,1400.00,,,,,,,,,,,,KDFW 071700Z AUTO 14010KT 10SM OVC014 06/02 A3005 RMK T00600020 MADISHF
DFW,2021-02-07 17:05,,,,160.00,9.00,,30.06,,10.00,,OVC,,,,1500.00,,,,,,,,,,,,KDFW 071705Z AUTO 16009KT 10SM OVC015 06/02 A3005 RMK T00600020 MADISHF
DFW,2021-02-07 17:07,44.10,35.10,70.43,150.00,10.00,0.00,30.06,,10.00,,OVC,,,,1500.00,,,,,,,,,,,38.14,KDFW 071707Z 15010KT 10SM OVC015 07/02 A3006 RMK AO2 T00670017 $
DFW,2021-02-07 17:10,,,,150.00,9.00,,30.05,,10.00,,BKN,,,,1500.00,,,,,,,,,,,,KDFW 071710Z AUTO 15009KT 10SM BKN015 07/02 A3004 RMK T00700020 MADISHF
DFW,2021-02-07 17:15,,,,160.00,10.00,,30.05,,10.00,,BKN,,,,1500.00,,,,,,,,,,,,KDFW 071715Z AUTO 16010KT 10SM BKN015 07/02 A3004 RMK T00700020 MADISHF
DFW,2021-02-07 17:20,,,,180.00,11.00,,30.05,,10.00,,BKN,,,,1500.00,,,,,,,,,,,,KDFW 071720Z AUTO 18011KT 10SM BKN015 07/02 A3004 RMK T00700020 MADISHF
DFW,2021-02-07 17:25,,,,160.00,9.00,,30.05,,10.00,,BKN,,,,1500.00,,,,,,,,,,,,KDFW 071725Z AUTO 16009KT 10SM BKN015 07/02 A3004 RMK T00700020 MADISHF
DFW,2021-02-07 17:30,,,,160.00,7.00,,30.05,,10.00,,BKN,,,,1500.00,,,,,,,,,,,,KDFW 071730Z AUTO 16007KT 10SM BKN015 07/02 A3004 RMK T00700020 MADISHF
DFW,2021-02-07 17:35,,,,140.00,9.00,,30.04,,10.00,,BKN,,,,1500.00,,,,,,,,,,,,KDFW 071735Z AUTO 14009KT 10SM BKN015 07/02 A3004 RMK T00700020 MADISHF
DFW,2021-02-07 17:40,,,,130.00,10.00,,30.04,,10.00,,BKN,,,,1500.00,,,,,,,,,,,,KDFW 071740Z AUTO 13010KT 10SM BKN015 07/02 A3004 RMK T00700020 MADISHF
DFW,2021-02-07 17:45,,,,110.00,7.00,,30.04,,10.00,,BKN,,,,1500.00,,,,,,,,,,,,KDFW 071745Z AUTO 11007KT 10SM BKN015 07/02 A3004 RMK T00700020 MADISHF
DFW,2021-02-07 17:50,,,,120.00,10.00,,30.03,,10.00,,BKN,,,,1500.00,,,,,,,,,,,,KDFW 071750Z AUTO 12010KT 10SM BKN015 08/02 A3003 RMK T00800020 MADISHF
DFW,2021-02-07 17:53,46.00,35.10,65.52,150.00,7.00,0.00,30.03,1016.90,10.00,,SCT,,,,1800.00,,,,,,,,,,,41.84,KDFW 071753Z 15007KT 10SM SCT018 08/02 A3003 RMK AO2 SLP169 T00780017 10078 20028 58012 $
DFW,2021-02-07 17:55,,,,140.00,10.00,,30.03,,10.00,,SCT,,,,1800.00,,,,,,,,,,,,KDFW 071755Z AUTO 14010KT 10SM SCT018 08/02 A3003 RMK T00800020 MADISHF
DFW,2021-02-07 18:00,,,,140.00,7.00,,30.02,,10.00,,SCT,,,,1800.00,,,,,,,,,,,,KDFW 071800Z AUTO 14007KT 10SM SCT018 08/02 A3002 RMK T00800020 MADISHF
DFW,2021-02-07 18:05,,,,100.00,9.00,,30.02,,10.00,,FEW,,,,1800.00,,,,,,,,,,,,KDFW 071805Z AUTO 10009KT 10SM FEW018 08/02 A3002 RMK T00800020 MADISHF
DFW,2021-02-07 18:10,,,,110.00,7.00,,30.02,,10.00,,FEW,,,,1900.00,,,,,,,,,,,,KDFW 071810Z AUTO 11007KT 10SM FEW019 08/02 A3002 RMK T00800020 MADISHF
DFW,2021-02-07 18:15,,,,130.00,5.00,,30.01,,10.00,,FEW,,,,1900.00,,,,,,,,,,,,KDFW 071815Z AUTO 13005KT 10SM FEW019 08/02 A3001 RMK T00800020 MADISHF
DFW,2021-02-07 18:20,,,,130.00,8.00,,30.01,,10.00,,FEW,,,,2100.00,,,,,,,,,,,,KDFW 071820Z AUTO 13008KT 10SM FEW021 08/02 A3001 RMK T00800020 MADISHF
DFW,2021-02-07 18:25,,,,150.00,9.00,,,,10.00,,FEW,,,,2300.00,,,,,,,,,,,,KDFW 071825Z AUTO 15009KT 10SM FEW023 09/02 RMK T00900020 MADISHF
DFW,2021-02-07 18:30,,,,130.00,9.00,,,,10.00,,CLR,,,,,,,,,,,,,,,,KDFW 071830Z AUTO 13009KT 10SM CLR 09/02 RMK T00900020 MADISHF
DFW,2021-02-07 18:35,,,,150.00,8.00,,30.00,,10.00,,CLR,,,,,,,,,,,,,,,,KDFW 071835Z AUTO 15008KT 10SM CLR 09/02 A3000 RMK T00900020 MADISHF
DFW,2021-02-07 18:40,,,,170.00,9.00,,30.00,,10.00,,CLR,,,,,,,,,,,,,,,,KDFW 071840Z AUTO 17009KT 10SM CLR 09/02 A3000 RMK T00900020 MADISHF
DFW,2021-02-07 18:45,,,,130.00,10.00,,30.00,,10.00,,FEW,,,,2500.00,,,,,,,,,,,,KDFW 071845Z AUTO 13010KT 10SM FEW025 09/02 A3000 RMK T00900020 MADISHF
DFW,2021-02-07 18:50,,,,160.00,8.00,,29.99,,10.00,,FEW,,,,2500.00,,,,,,,,,,,,KDFW 071850Z AUTO 16008KT 10SM FEW025 09/02 A2998 RMK T00900020 MADISHF
DFW,2021-02-07 18:53,48.90,36.00,60.88,160.00,8.00,0.00,29.99,1015.50,10.00,15.00,FEW,,,,2500.00,,,,,,,,,,,44.93,KDFW 071853Z 16008G15KT 10SM FEW025 09/02 A2999 RMK AO2 SLP155 T00940022 $
DFW,2021-02-07 18:55,,,,120.00,9.00,,,,10.00,,CLR,,,,,,,,,,,,,,,,KDFW 071855Z AUTO 12009KT 10SM CLR 09/02 RMK T00900020 MADISHF
DFW,2021-02-07 19:00,,,,160.00,10.00,,29.98,,10.00,,CLR,,,,,,,,,,,,,,,,KDFW 071900Z AUTO 16010KT 10SM CLR 10/02 A2997 RMK T01000020 MADISHF
DFW,2021-02-07 19:05,,,,160.00,11.00,,29.98,,10.00,,CLR,,,,,,,,,,,,,,,,KDFW 071905Z AUTO 16011KT 10SM CLR 10/02 A2997 RMK T01000020 MADISHF
DFW,2021-02-07 19:10,,,,150.00,11.00,,29.97,,10.00,,CLR,,,,,,,,,,,,,,,,KDFW 071910Z AUTO 15011KT 10SM CLR 10/02 A2996 RMK T01000020 MADISHF
DFW,2021-02-07 19:15,,,,120.00,9.00,,29.97,,10.00,,FEW,,,,2500.00,,,,,,,,,,,,KDFW 071915Z AUTO 12009KT 10SM FEW025 10/02 A2996 RMK T01000020 MADISHF
DFW,2021-02-07 19:20,,,,160.00,8.00,,29.96,,10.00,,FEW,,,,2500.00,,,,,,,,,,,,KDFW 071920Z AUTO 16008KT 10SM FEW025 11/02 A2995 RMK T01100020 MADISHF
DFW,2021-02-07 19:25,,,,160.00,8.00,,29.96,,10.00,,FEW,,,,2500.00,,,,,,,,,,,,KDFW 071925Z AUTO 16008KT 10SM FEW025 11/02 A2995 RMK T01100020 WND 12V18  MADISHF
DFW,2021-02-07 19:30,,,,140.00,11.00,,29.95,,10.00,17.00,FEW,,,,2500.00,,,,,,,,,,,,KDFW 071930Z AUTO 14011G17KT 10SM FEW025 11/02 A2995 RMK T01100020 MADISHF
DFW,2021-02-07 19:35,,,,140.00,11.00,,29.95,,10.00,,FEW,,,,2500.00,,,,,,,,,,,,KDFW 071935Z AUTO 14011KT 10SM FEW025 11/02 A2995 RMK T01100020 MADISHF
DFW,2021-02-07 19:40,,,,120.00,11.00,,29.95,,10.00,,FEW,,,,2500.00,,,,,,,,,,,,KDFW 071940Z AUTO 12011KT 10SM FEW025 11/02 A2995 RMK T01100020 MADISHF
DFW,2021-02-07 19:45,,,,160.00,11.00,,29.94,,10.00,17.00,FEW,,,,2500.00,,,,,,,,,,,,KDFW 071945Z AUTO 16011G17KT 10SM FEW025 11/02 A2994 RMK T01100020 MADISHF
DFW,2021-02-07 19:50,,,,170.00,10.00,,29.95,,10.00,,FEW,,,,2500.00,,,,,,,,,,,,KDFW 071950Z AUTO 17010KT 10SM FEW025 12/02 A2995 RMK T01200020 MADISHF
DFW,2021-02-07 19:53,53.10,36.00,52.11,160.00,10.00,0.00,29.94,1013.90,10.00,20.00,CLR,,,,,,,,,,,,,,,,KDFW 071953Z 16010G20KT 10SM CLR 12/02 A2994 RMK AO2 SLP139 T01170022 $
DFW,2021-02-07 19:55,,,,150.00,11.00,,29.94,,10.00,,CLR,,,,,,,,,,,,,,,,KDFW 071955Z AUTO 15011KT 10SM CLR 11/02 A2994 RMK T01100020 MADISHF
DFW,2021-02-07 20:00,,,,150.00,11.00,,29.94,,10.00,,CLR,,,,,,,,,,,,,,,,KDFW 072000Z AUTO 15011KT 10SM CLR 12/02 A2994 RMK T01200020 MADISHF
DFW,2021-02-07 20:05,,,,150.00,9.00,,29.94,,10.00,,CLR,,,,,,,,,,,,,,,,KDFW 072005Z AUTO 15009KT 10SM CLR 12/02 A2994 RMK T01200020 MADISHF
DFW,2021-02-07 20:10,,,,150.00,11.00,,29.94,,10.00,17.00,CLR,,,,,,,,,,,,,,,,KDFW 072010Z AUTO 15011G17KT 10SM CLR 13/02 A2994 RMK T01300020 MADISHF
DFW,2021-02-07 20:15,,,,160.00,14.00,,29.94,,10.00,19.00,CLR,,,,,,,,,,,,,,,,KDFW 072015Z AUTO 16014G19KT 10SM CLR 12/02 A2994 RMK T01200020 MADISHF
DFW,2021-02-07 20:20,,,,150.00,11.00,,29.93,,10.00,,CLR,,,,,,,,,,,,,,,,KDFW 072020Z AUTO 15011KT 10SM CLR 12/02 A2993 RMK T01200020 MADISHF
DFW,2021-02-07 20:25,,,,170.00,13.00,,29.93,,10.00,,CLR,,,,,,,,,,,,,,,,KDFW 072025Z AUTO 17013KT 10SM CLR 12/02 A2993 RMK T01200020 MADISHF
DFW,2021-02-07 20:30,,,,170.00,13.00,,29.93,,10.00,,CLR,,,,,,,,,,,,,,,,KDFW 072030Z AUTO 17013KT 10SM CLR 12/02 A2993 RMK T01200020 MADISHF
DFW,2021-02-07 20:35,,,,160.00,11.00,,29.93,,10.00,,CLR,,,,,,,,,,,,,,,,KDFW 072035Z AUTO 16011KT 10SM CLR 13/02 A2993 RMK T01300020 MADISHF
DFW,2021-02-07 20:40,,,,160.00,11.00,,29.93,,10.00,17.00,CLR,,,,,,,,,,,,,,,,KDFW 072040Z AUTO 16011G17KT 10SM CLR 13/02 A2993 RMK T01300020 MADISHF
DFW,2021-02-07 20:45,,,,180.00,14.00,,29.92,,10.00,,CLR,,,,,,,,,,,,,,,,KDFW 072045Z AUTO 18014KT 10SM CLR 13/02 A2992 RMK T01300020 MADISHF
DFW,2021-02-07 20:50,,,,170.00,14.00,,29.92,,10.00,19.00,CLR,,,,,,,,,,,,,,,,KDFW 072050Z AUTO 17014G19KT 10SM CLR 13/02 A2992 RMK T01300020 MADISHF
DFW,2021-02-07 20:53,55.00,36.00,48.62,150.00,11.00,0.00,29.92,1013.10,10.00,,CLR,,,,,,,,,,,,,,,,KDFW 072053Z 15011KT 10SM CLR 13/02 A2992 RMK AO2 SLP131 T01280022 56036 $
DFW,2021-02-07 20:55,,,,180.00,11.00,,29.92,,10.00,18.00,CLR,,,,,,,,,,,,,,,,KDFW 072055Z AUTO 18011G18KT 10SM CLR 13/02 A2992 RMK T01300020 MADISHF
DFW,2021-02-07 21:00,,,,150.00,10.00,,29.92,,10.00,,CLR,,,,,,,,,,,,,,,,KDFW 072100Z AUTO 15010KT 10SM CLR 13/02 A2992 RMK T01300020 MADISHF
DFW,2021-02-07 21:05,,,,160.00,13.00,,29.91,,10.00,,CLR,,,,,,,,,,,,,,,,KDFW 072105Z AUTO 16013KT 10SM CLR 13/02 A2990 RMK T01300020 MADISHF
DFW,2021-02-07 21:10,,,,150.00,11.00,,29.91,,10.00,19.00,CLR,,,,,,,,,,,,,,,,KDFW 072110Z AUTO 15011G19KT 10SM CLR 13/02 A2990 RMK T01300020 MADISHF
DFW,2021-02-07 21:15,,,,160.00,14.00,,29.91,,10.00,,CLR,,,,,,,,,,,,,,,,KDFW 072115Z AUTO 16014KT 10SM CLR 13/02 A2990 RMK T01300020 MADISHF
DFW,2021-02-07 21:20,,,,160.00,10.00,,29.91,,10.00,,CLR,,,,,,,,,,,,,,,,KDFW 072120Z AUTO 16010KT 10SM CLR 13/02 A2990 RMK T01300020 MADISHF
DFW,2021-02-07 21:25,,,,170.00,13.00,,29.91,,10.00,,CLR,,,,,,,,,,,,,,,,KDFW 072125Z AUTO 17013KT 10SM CLR 13/02 A2990 RMK T01300020 MADISHF
DFW,2021-02-07 21:30,,,,160.00,13.00,,29.91,,10.00,,CLR,,,,,,,,,,,,,,,,KDFW 072130Z AUTO 16013KT 10SM CLR 13/02 A2990 RMK T01300020 MADISHF
DFW,2021-02-07 21:35,,,,170.00,11.00,,29.90,,10.00,,CLR,,,,,,,,,,,,,,,,KDFW 072135Z AUTO 17011KT 10SM CLR 14/02 A2989 RMK T01400020 MADISHF
DFW,2021-02-07 21:40,,,,170.00,9.00,,29.90,,10.00,,CLR,,,,,,,,,,,,,,,,KDFW 072140Z AUTO 17009KT 10SM CLR 14/02 A2989 RMK T01400020 MADISHF
DFW,2021-02-07 21:45,,,,160.00,14.00,,29.90,,10.00,,CLR,,,,,,,,,,,,,,,,KDFW 072145Z AUTO 16014KT 10SM CLR 14/02 A2989 RMK T01400020 MADISHF
DFW,2021-02-07 21:50,,,,150.00,14.00,,29.90,,10.00,,CLR,,,,,,,,,,,,,,,,KDFW 072150Z AUTO 15014KT 10SM CLR 14/02 A2989 RMK T01400020 MADISHF
DFW,2021-02-07 21:53,55.90,35.10,45.40,160.00,12.00,0.00,29.90,1012.40,10.00,22.00,CLR,,,,,,,,,,,,,,,,KDFW 072153Z 16012G22KT 10SM CLR 13/02 A2990 RMK AO2 SLP124 T01330017 $
DFW,2021-02-07 21:55,,,,180.00,13.00,,29.90,,10.00,,CLR,,,,,,,,,,,,,,,,KDFW 072155Z AUTO 18013KT 10SM CLR 14/02 A2989 RMK T01400020 MADISHF
DFW,2021-02-07 22:00,,,,160.00,11.00,,29.90,,10.00,,CLR,,,,,,,,,,,,,,,,KDFW 072200Z AUTO 16011KT 10SM CLR 14/02 A2989 RMK T01400020 MADISHF
DFW,2021-02-07 22:05,,,,170.00,13.00,,29.90,,10.00,,CLR,,,,,,,,,,,,,,,,KDFW 072205Z AUTO 17013KT 10SM CLR 14/02 A2989 RMK T01400020 MADISHF
DFW,2021-02-07 22:10,,,,170.00,14.00,,29.90,,10.00,19.00,CLR,,,,,,,,,,,,,,,,KDFW 072210Z AUTO 17014G19KT 10SM CLR 14/02 A2989 RMK T01400020 MADISHF
DFW,2021-02-07 22:15,,,,180.00,13.00,,29.90,,10.00,18.00,CLR,,,,,,,,,,,,,,,,KDFW 072215Z AUTO 18013G18KT 10SM CLR 14/02 A2989 RMK T01400020 MADISHF
DFW,2021-02-07 22:20,,,,170.00,13.00,,29.90,,10.00,,CLR,,,,,,,,,,,,,,,,KDFW 072220Z AUTO 17013KT 10SM CLR 14/02 A2989 RMK T01400020 MADISHF
DFW,2021-02-07 22:25,,,,170.00,9.00,,29.90,,10.00,,CLR,,,,,,,,,,,,,,,,KDFW 072225Z AUTO 17009KT 10SM CLR 14/02 A2989 RMK T01400020 MADISHF
DFW,2021-02-07 22:30,,,,170.00,9.00,,29.89,,10.00,,CLR,,,,,,,,,,,,,,,,KDFW 072230Z AUTO 17009KT 10SM CLR 14/02 A2988 RMK T01400020 MADISHF
DFW,2021-02-07 22:35,,,,180.00,10.00,,29.89,,10.00,,CLR,,,,,,,,,,,,,,,,KDFW 072235Z AUTO 18010KT 10SM CLR 14/02 A2988 RMK T01400020 MADISHF
DFW,2021-02-07 22:40,,,,160.00,11.00,,29.89,,10.00,,CLR,,,,,,,,,,,,,,,,KDFW 072240Z AUTO 16011KT 10SM CLR 14/02 A2988 RMK T01400020 MADISHF
DFW,2021-02-07 22:45,,,,160.00,11.00,,29.89,,10.00,,CLR,,,,,,,,,,,,,,,,KDFW 072245Z AUTO 16011KT 10SM CLR 14/02 A2988 RMK T01400020 MADISHF
DFW,2021-02-07 22:50,,,,150.00,10.00,,29.89,,10.00,,CLR,,,,,,,,,,,,,,,,KDFW 072250Z AUTO 15010KT 10SM CLR 14/02 A2988 RMK T01400020 MADISHF
DFW,2021-02-07 22:53,57.00,36.00,45.22,140.00,13.00,0.00,29.89,1012.00,10.00,,CLR,,,,,,,,,,,,,,,,KDFW 072253Z 14013KT 10SM CLR 14/02 A2989 RMK AO2 SLP120 T01390022 $
DFW,2021-02-07 22:55,,,,150.00,11.00,,29.89,,10.00,,CLR,,,,,,,,,,,,,,,,KDFW 072255Z AUTO 15011KT 10SM CLR 14/02 A2988 RMK T01400020 MADISHF
DFW,2021-02-07 23:00,,,,,13.00,,29.89,,10.00,,CLR,,,,,,,,,,,,,,,,KDFW 072300Z AUTO ///13KT 10SM CLR 14/02 A2988 RMK T01400020 MADISHF
DFW,2021-02-07 23:05,,,,130.00,11.00,,29.89,,10.00,,CLR,,,,,,,,,,,,,,,,KDFW 072305Z AUTO 13011KT 10SM CLR 14/02 A2988 RMK T01400020 MADISHF
DFW,2021-02-07 23:10,,,,140.00,9.00,,29.89,,10.00,14.00,CLR,,,,,,,,,,,,,,,,KDFW 072310Z AUTO 14009G14KT 10SM CLR 14/03 A2988 RMK T01400030 MADISHF
DFW,2021-02-07 23:15,,,,130.00,10.00,,29.89,,10.00,,CLR,,,,,,,,,,,,,,,,KDFW 072315Z AUTO 13010KT 10SM CLR 13/03 A2988 RMK T01300030 MADISHF
DFW,2021-02-07 23:20,,,,140.00,10.00,,29.89,,10.00,,CLR,,,,,,,,,,,,,,,,KDFW 072320Z AUTO 14010KT 10SM CLR 13/03 A2988 RMK T01300030 MADISHF
DFW,2021-02-07 23:25,,,,140.00,9.00,,29.89,,10.00,,CLR,,,,,,,,,,,,,,,,KDFW 072325Z AUTO 14009KT 10SM CLR 13/03 A2988 RMK T01300030 MADISHF
DFW,2021-02-07 23:30,,,,130.00,9.00,,29.89,,10.00,,CLR,,,,,,,,,,,,,,,,KDFW 072330Z AUTO 13009KT 10SM CLR 13/03 A2988 RMK T01300030 MADISHF
DFW,2021-02-07 23:35,,,,130.00,9.00,,29.89,,10.00,,CLR,,,,,,,,,,,,,,,,KDFW 072335Z AUTO 13009KT 10SM CLR 13/03 A2988 RMK T01300030 MADISHF
DFW,2021-02-07 23:40,,,,130.00,9.00,,29.89,,10.00,,CLR,,,,,,,,,,,,,,,,KDFW 072340Z AUTO 13009KT 10SM CLR 13/03 A2988 RMK T01300030 MADISHF
DFW,2021-02-07 23:45,,,,140.00,8.00,,29.89,,10.00,,CLR,,,,,,,,,,,,,,,,KDFW 072345Z AUTO 14008KT 10SM CLR 13/03 A2988 RMK T01300030 MADISHF
DFW,2021-02-07 23:50,,,,120.00,7.00,,29.89,,10.00,,,,,,,,,,,,,,,,,,KDFW 072350Z AUTO 12007KT 10SM 13/03 A2988 RMK T01300030 MADISHF
DFW,2021-02-07 23:53,55.00,37.00,50.58,110.00,8.00,0.00,29.89,1011.90,10.00,,FEW,,,,25000.00,,,,,,,,,,,,KDFW 072353Z 11008KT 10SM FEW250 13/03 A2989 RMK AO2 SLP119 T01280028 10139 20078 56012 $
DFW,2021-02-07 23:55,,,,110.00,8.00,,29.89,,10.00,,CLR,,,,,,,,,,,,,,,,KDFW 072355Z AUTO 11008KT 10SM CLR 12/03 A2988 RMK T01200030 MADISHF
DFW,2021-02-08 00:00,,,,110.00,8.00,,29.89,,10.00,,CLR,,,,,,,,,,,,,,,,KDFW 080000Z AUTO 11008KT 10SM CLR 12/03 A2988 RMK T01200030 MADISHF
DFW,2021-02-08 00:05,,,,120.00,7.00,,29.89,,10.00,,CLR,,,,,,,,,,,,,,,,KDFW 080005Z AUTO 12007KT 10SM CLR 12/03 A2988 RMK T01200030 MADISHF
DFW,2021-02-08 00:10,,,,110.00,5.00,,29.89,,10.00,,CLR,,,,,,,,,,,,,,,,KDFW 080010Z AUTO 11005KT 10SM CLR 11/03 A2988 RMK T01100030 MADISHF
DFW,2021-02-08 00:15,,,,110.00,8.00,,29.89,,10.00,,CLR,,,,,,,,,,,,,,,,KDFW 080015Z AUTO 11008KT 10SM CLR 11/03 A2988 RMK T01100030 MADISHF
DFW,2021-02-08 00:20,,,,110.00,7.00,,29.89,,10.00,,CLR,,,,,,,,,,,,,,,,KDFW 080020Z AUTO 11007KT 10SM CLR 11/03 A2988 RMK T01100030 MADISHF
DFW,2021-02-08 00:25,,,,110.00,7.00,,29.90,,10.00,,CLR,,,,,,,,,,,,,,,,KDFW 080025Z AUTO 11007KT 10SM CLR 11/03 A2989 RMK T01100030 MADISHF
DFW,2021-02-08 00:30,,,,110.00,7.00,,29.90,,10.00,,CLR,,,,,,,,,,,,,,,,KDFW 080030Z AUTO 11007KT 10SM CLR 11/03 A2989 RMK T01100030 MADISHF
DFW,2021-02-08 00:35,,,,110.00,7.00,,29.90,,10.00,,CLR,,,,,,,,,,,,,,,,KDFW 080035Z AUTO 11007KT 10SM CLR 11/03 A2989 RMK T01100030 MADISHF
DFW,2021-02-08 00:40,,,,110.00,7.00,,29.90,,10.00,,CLR,,,,,,,,,,,,,,,,KDFW 080040Z AUTO 11007KT 10SM CLR 11/03 A2989 RMK T01100030 MADISHF
DFW,2021-02-08 00:45,,,,110.00,8.00,,29.90,,10.00,,CLR,,,,,,,,,,,,,,,,KDFW 080045Z AUTO 11008KT 10SM CLR 11/03 A2989 RMK T01100030 MADISHF
DFW,2021-02-08 00:50,,,,120.00,9.00,,29.90,,10.00,,,,,,,,,,,,,,,,,,KDFW 080050Z AUTO 12009KT 10SM 11/03 A2989 RMK T01100030 MADISHF
DFW,2021-02-08 00:53,51.10,37.00,58.36,120.00,9.00,0.00,29.90,1012.30,10.00,,FEW,,,,25000.00,,,,,,,,,,,,KDFW 080053Z 12009KT 10SM FEW250 11/03 A2990 RMK AO2 SLP123 T01060028 $
DFW,2021-02-08 00:55,,,,120.00,8.00,,29.90,,10.00,,CLR,,,,,,,,,,,,,,,,KDFW 080055Z AUTO 12008KT 10SM CLR 11/03 A2989 RMK T01100030 MADISHF
DFW,2021-02-08 01:00,,,,110.00,5.00,,29.90,,10.00,,CLR,,,,,,,,,,,,,,,,KDFW 080100Z AUTO 11005KT 10SM CLR 10/03 A2989 RMK T01000030 MADISHF
DFW,2021-02-08 01:05,,,,110.00,5.00,,29.90,,10.00,,CLR,,,,,,,,,,,,,,,,KDFW 080105Z AUTO 11005KT 10SM CLR 09/03 A2989 RMK T00900030 MADISHF
DFW,2021-02-08 01:10,,,,100.00,5.00,,29.90,,10.00,,CLR,,,,,,,,,,,,,,,,KDFW 080110Z AUTO 10005KT 10SM CLR 10/03 A2989 RMK T01000030 MADISHF
DFW,2021-02-08 01:15,,,,90.00,4.00,,29.90,,10.00,,CLR,,,,,,,,,,,,,,,,KDFW 080115Z AUTO 09004KT 10SM CLR 11/03 A2989 RMK T01100030 MADISHF
DFW,2021-02-08 01:20,,,,90.00,5.00,,29.90,,10.00,,CLR,,,,,,,,,,,,,,,,KDFW 080120Z AUTO 09005KT 10SM CLR 11/03 A2989 RMK T01100030 MADISHF
DFW,2021-02-08 01:25,,,,100.00,5.00,,29.90,,10.00,,CLR,,,,,,,,,,,,,,,,KDFW 080125Z AUTO 10005KT 10SM CLR 11/03 A2989 RMK T01100030 MADISHF
DFW,2021-02-08 01:30,,,,100.00,7.00,,29.90,,10.00,,CLR,,,,,,,,,,,,,,,,KDFW 080130Z AUTO 10007KT 10SM CLR 09/03 A2989 RMK T00900030 MADISHF
DFW,2021-02-08 01:35,,,,100.00,7.00,,29.90,,10.00,,CLR,,,,,,,,,,,,,,,,KDFW 080135Z AUTO 10007KT 10SM CLR 09/03 A2989 RMK T00900030 MADISHF
DFW,2021-02-08 01:40,,,,90.00,5.00,,29.90,,10.00,,CLR,,,,,,,,,,,,,,,,KDFW 080140Z AUTO 09005KT 10SM CLR 10/03 A2989 RMK T01000030 MADISHF
DFW,2021-02-08 01:45,,,,90.00,5.00,,29.90,,10.00,,CLR,,,,,,,,,,,,,,,,KDFW 080145Z AUTO 09005KT 10SM CLR 10/03 A2989 RMK T01000030 MADISHF
DFW,2021-02-08 01:50,,,,90.00,7.00,,29.91,,10.00,,,,,,,,,,,,,,,,,,KDFW 080150Z AUTO 09007KT 10SM 10/03 A2990 RMK T01000030 MADISHF
DFW,2021-02-08 01:53,51.10,37.90,60.46,90.00,7.00,0.00,29.91,1012.60,10.00,,FEW,,,,25000.00,,,,,,,,,,,,KDFW 080153Z 09007KT 10SM FEW250 11/03 A2991 RMK AO2 SLP126 T01060033 $
DFW,2021-02-08 01:55,,,,90.00,7.00,,29.91,,10.00,,CLR,,,,,,,,,,,,,,,,KDFW 080155Z AUTO 09007KT 10SM CLR 11/03 A2990 RMK T01100030 MADISHF
DFW,2021-02-08 02:00,,,,90.00,7.00,,29.91,,10.00,,CLR,,,,,,,,,,,,,,,,KDFW 080200Z AUTO 09007KT 10SM CLR 11/03 A2990 RMK T01100030 MADISHF
DFW,2021-02-08 02:05,,,,100.00,7.00,,29.91,,10.00,,CLR,,,,,,,,,,,,,,,,KDFW 080205Z AUTO 10007KT 10SM CLR 11/03 A2990 RMK T01100030 MADISHF
DFW,2021-02-08 02:10,,,,100.00,7.00,,29.91,,10.00,,CLR,,,,,,,,,,,,,,,,KDFW 080210Z AUTO 10007KT 10SM CLR 10/03 A2990 RMK T01000030 MADISHF
DFW,2021-02-08 02:15,,,,100.00,7.00,,29.91,,10.00,,CLR,,,,,,,,,,,,,,,,KDFW 080215Z AUTO 10007KT 10SM CLR 10/03 A2990 RMK T01000030 MADISHF
DFW,2021-02-08 02:20,,,,100.00,7.00,,29.91,,10.00,,CLR,,,,,,,,,,,,,,,,KDFW 080220Z AUTO 10007KT 10SM CLR 10/03 A2990 RMK T01000030 MADISHF
DFW,2021-02-08 02:25,,,,100.00,7.00,,29.91,,10.00,,CLR,,,,,,,,,,,,,,,,KDFW 080225Z AUTO 10007KT 10SM CLR 10/03 A2990 RMK T01000030 MADISHF
DFW,2021-02-08 02:30,,,,100.00,8.00,,29.92,,10.00,,CLR,,,,,,,,,,,,,,,,KDFW 080230Z AUTO 10008KT 10SM CLR 10/03 A2992 RMK T01000030 MADISHF
DFW,2021-02-08 02:35,,,,100.00,9.00,,29.91,,10.00,,CLR,,,,,,,,,,,,,,,,KDFW 080235Z AUTO 10009KT 10SM CLR 10/03 A2990 RMK T01000030 MADISHF
DFW,2021-02-08 02:40,,,,100.00,8.00,,29.91,,10.00,,CLR,,,,,,,,,,,,,,,,KDFW 080240Z AUTO 10008KT 10SM CLR 10/03 A2990 RMK T01000030 MADISHF
DFW,2021-02-08 02:45,,,,100.00,8.00,,29.92,,10.00,,CLR,,,,,,,,,,,,,,,,KDFW 080245Z AUTO 10008KT 10SM CLR 10/03 A2992 RMK T01000030 MADISHF
DFW,2021-02-08 02:50,,,,100.00,8.00,,29.92,,10.00,,,,,,,,,,,,,,,,,,KDFW 080250Z AUTO 10008KT 10SM 10/03 A2992 RMK T01000030 MADISHF
DFW,2021-02-08 02:53,50.00,37.00,60.79,110.00,8.00,0.00,29.92,1013.00,10.00,,SCT,,,,25000.00,,,,,,,,,,,,KDFW 080253Z 11008KT 10SM SCT250 10/03 A2992 RMK AO2 SLP130 T01000028 51010 $
DFW,2021-02-08 02:55,,,,110.00,9.00,,29.92,,10.00,,CLR,,,,,,,,,,,,,,,,KDFW 080255Z AUTO 11009KT 10SM CLR 10/03 A2992 RMK T01000030 MADISHF
DFW,2021-02-08 03:00,,,,110.00,9.00,,29.92,,10.00,,CLR,,,,,,,,,,,,,,,,KDFW 080300Z AUTO 11009KT 10SM CLR 10/03 A2992 RMK T01000030 MADISHF
DFW,2021-02-08 03:05,,,,110.00,8.00,,29.92,,10.00,,CLR,,,,,,,,,,,,,,,,KDFW 080305Z AUTO 11008KT 10SM CLR 10/03 A2992 RMK T01000030 MADISHF
DFW,2021-02-08 03:10,,,,100.00,7.00,,29.92,,10.00,,CLR,,,,,,,,,,,,,,,,KDFW 080310Z AUTO 10007KT 10SM CLR 09/03 A2992 RMK T00900030 MADISHF
DFW,2021-02-08 03:15,,,,100.00,8.00,,29.92,,10.00,,CLR,,,,,,,,,,,,,,,,KDFW 080315Z AUTO 10008KT 10SM CLR 09/03 A2992 RMK T00900030 MADISHF
DFW,2021-02-08 03:20,,,,100.00,8.00,,29.92,,10.00,,CLR,,,,,,,,,,,,,,,,KDFW 080320Z AUTO 10008KT 10SM CLR 09/03 A2992 RMK T00900030 MADISHF
DFW,2021-02-08 03:25,,,,110.00,8.00,,29.92,,10.00,,CLR,,,,,,,,,,,,,,,,KDFW 080325Z AUTO 11008KT 10SM CLR 09/03 A2992 RMK T00900030 MADISHF
DFW,2021-02-08 03:30,,,,110.00,8.00,,29.92,,10.00,,CLR,,,,,,,,,,,,,,,,KDFW 080330Z AUTO 11008KT 10SM CLR 09/03 A2992 RMK T00900030 MADISHF
DFW,2021-02-08 03:35,,,,110.00,7.00,,29.93,,10.00,,CLR,,,,,,,,,,,,,,,,KDFW 080335Z AUTO 11007KT 10SM CLR 09/03 A2993 RMK T00900030 MADISHF
DFW,2021-02-08 03:40,,,,110.00,7.00,,29.92,,10.00,,CLR,,,,,,,,,,,,,,,,KDFW 080340Z AUTO 11007KT 10SM CLR 09/03 A2992 RMK T00900030 MADISHF
DFW,2021-02-08 03:45,,,,120.00,7.00,,29.92,,10.00,,CLR,,,,,,,,,,,,,,,,KDFW 080345Z AUTO 12007KT 10SM CLR 08/03 A2992 RMK T00800030 MADISHF
DFW,2021-02-08 03:50,,,,120.00,7.00,,29.92,,10.00,,,,,,,,,,,,,,,,,,KDFW 080350Z AUTO 12007KT 10SM 08/03 A2992 RMK T00800030 MADISHF
DFW,2021-02-08 03:53,46.00,37.00,70.64,120.00,8.00,0.00,29.92,1013.20,10.00,,SCT,,,,25000.00,,,,,,,,,,,41.36,KDFW 080353Z 12008KT 10SM SCT250 08/03 A2992 RMK AO2 SLP132 T00780028 $
DFW,2021-02-08 03:55,,,,120.00,8.00,,29.92,,10.00,,CLR,,,,,,,,,,,,,,,,KDFW 080355Z AUTO 12008KT 10SM CLR 08/03 A2992 RMK T00800030 MADISHF
DFW,2021-02-08 04:00,,,,130.00,8.00,,29.92,,10.00,,CLR,,,,,,,,,,,,,,,,KDFW 080400Z AUTO 13008KT 10SM CLR 08/03 A2992 RMK T00800030 MADISHF
DFW,2021-02-08 04:05,,,,120.00,9.00,,29.92,,10.00,,CLR,,,,,,,,,,,,,,,,KDFW 080405Z AUTO 12009KT 10SM CLR 09/03 A2992 RMK T00900030 MADISHF
DFW,2021-02-08 04:10,,,,120.00,11.00,,29.92,,10.00,,CLR,,,,,,,,,,,,,,,,KDFW 080410Z AUTO 12011KT 10SM CLR 09/03 A2992 RMK T00900030 MADISHF
DFW,2021-02-08 04:15,,,,120.00,10.00,,29.92,,10.00,,CLR,,,,,,,,,,,,,,,,KDFW 080415Z AUTO 12010KT 10SM CLR 11/03 A2992 RMK T01100030 MADISHF
DFW,2021-02-08 04:20,,,,110.00,10.00,,29.92,,10.00,15.00,CLR,,,,,,,,,,,,,,,,KDFW 080420Z AUTO 11010G15KT 10SM CLR 10/03 A2992 RMK T01000030 MADISHF
DFW,2021-02-08 04:25,,,,110.00,10.00,,29.92,,10.00,,CLR,,,,,,,,,,,,,,,,KDFW 080425Z AUTO 11010KT 10SM CLR 11/03 A2992 RMK T01100030 MADISHF
DFW,2021-02-08 04:30,,,,110.00,10.00,,29.92,,10.00,,CLR,,,,,,,,,,,,,,,,KDFW 080430Z AUTO 11010KT 10SM CLR 11/03 A2992 RMK T01100030 MADISHF
DFW,2021-02-08 04:35,,,,120.00,11.00,,29.92,,10.00,,CLR,,,,,,,,,,,,,,,,KDFW 080435Z AUTO 12011KT 10SM CLR 11/03 A2992 RMK T01100030 MADISHF
DFW,2021-02-08 04:40,,,,120.00,13.00,,29.92,,10.00,18.00,,,,,,,,,,,,,,,,,KDFW 080440Z AUTO 12013G18KT 10SM 11/03 A2992 RMK T01100030 MADISHF
DFW,2021-02-08 04:45,,,,130.00,11.00,,29.92,,10.00,,,,,,,,,,,,,,,,,,KDFW 080445Z AUTO 13011KT 10SM 11/03 A2992 RMK T01100030 MADISHF
DFW,2021-02-08 04:50,,,,120.00,10.00,,29.92,,10.00,16.00,,,,,,,,,,,,,,,,,KDFW 080450Z AUTO 12010G16KT 10SM 11/03 A2992 RMK T01100030 MADISHF
DFW,2021-02-08 04:53,51.10,37.90,60.46,120.00,11.00,0.00,29.92,1012.90,10.00,,SCT,,,,25000.00,,,,,,,,,,,,KDFW 080453Z 12011KT 10SM SCT250 11/03 A2992 RMK AO2 SLP129 T01060033 $
DFW,2021-02-08 04:55,,,,120.00,11.00,,29.92,,10.00,17.00,CLR,,,,,,,,,,,,,,,,KDFW 080455Z AUTO 12011G17KT 10SM CLR 11/03 A2992 RMK T01100030 MADISHF
DFW,2021-02-08 05:00,,,,110.00,10.00,,29.92,,10.00,,CLR,,,,,,,,,,,,,,,,KDFW 080500Z AUTO 11010KT 10SM CLR 11/03 A2992 RMK T01100030 MADISHF
DFW,2021-02-08 05:05,,,,110.00,9.00,,29.91,,10.00,,CLR,,,,,,,,,,,,,,,,KDFW 080505Z AUTO 11009KT 10SM CLR 10/03 A2990 RMK T01000030 MADISHF
DFW,2021-02-08 05:10,,,,120.00,9.00,,29.91,,10.00,,CLR,,,,,,,,,,,,,,,,KDFW 080510Z AUTO 12009KT 10SM CLR 10/03 A2990 RMK T01000030 MADISHF
DFW,2021-02-08 05:15,,,,110.00,9.00,,29.91,,10.00,,CLR,,,,,,,,,,,,,,,,KDFW 080515Z AUTO 11009KT 10SM CLR 10/03 A2990 RMK T01000030 MADISHF
DFW,2021-02-08 05:20,,,,100.00,8.00,,29.91,,10.00,,CLR,,,,,,,,,,,,,,,,KDFW 080520Z AUTO 10008KT 10SM CLR 10/03 A2990 RMK T01000030 MADISHF
DFW,2021-02-08 05:25,,,,110.00,10.00,,29.91,,10.00,,CLR,,,,,,,,,,,,,,,,KDFW 080525Z AUTO 11010KT 10SM CLR 10/03 A2990 RMK T01000030 MADISHF
DFW,2021-02-08 05:30,,,,110.00,8.00,,29.91,,10.00,,CLR,,,,,,,,,,,,,,,,KDFW 080530Z AUTO 11008KT 10SM CLR 10/03 A2990 RMK T01000030 MADISHF
DFW,2021-02-08 05:35,,,,120.00,8.00,,29.91,,10.00,,CLR,,,,,,,,,,,,,,,,KDFW 080535Z AUTO 12008KT 10SM CLR 09/03 A2990 RMK T00900030 MADISHF
DFW,2021-02-08 05:40,,,,90.00,10.00,,29.91,,10.00,,CLR,,,,,,,,,,,,,,,,KDFW 080540Z AUTO 09010KT 10SM CLR 09/03 A2990 RMK T00900030 MADISHF
DFW,2021-02-08 05:45,,,,100.00,9.00,,29.92,,10.00,,CLR,,,,,,,,,,,,,,,,KDFW 080545Z AUTO 10009KT 10SM CLR 09/03 A2992 RMK T00900030 MADISHF
DFW,2021-02-08 05:50,,,,100.00,9.00,,29.92,,10.00,14.00,CLR,,,,,,,,,,,,,,,,KDFW 080550Z AUTO 10009G14KT 10SM CLR 09/03 A2992 RMK T00900030 MADISHF
DFW,2021-02-08 05:53,48.00,37.90,67.87,100.00,10.00,0.00,29.91,1012.70,10.00,,SCT,,,,25000.00,,,,,,,,,,,43.03,KDFW 080553Z 10010KT 10SM SCT250 09/03 A2991 RMK AO2 SLP127 T00890033 10122 20078 401390017 58001 $
DFW,2021-02-08 05:55,,,,110.00,10.00,,29.92,,10.00,,CLR,,,,,,,,,,,,,,,,KDFW 080555Z AUTO 11010KT 10SM CLR 09/03 A2992 RMK T00900030 MADISHF
DFW,2021-02-08 06:00,,,,110.00,7.00,,29.92,,10.00,,CLR,,,,,,,,,,,,,,,,KDFW 080600Z AUTO 11007KT 10SM CLR 09/03 A2992 RMK T00900030 MADISHF
DFW,2021-02-08 06:05,,,,120.00,9.00,,29.92,,10.00,,CLR,,,,,,,,,,,,,,,,KDFW 080605Z AUTO 12009KT 10SM CLR 09/03 A2992 RMK T00900030 MADISHF
DFW,2021-02-08 06:10,,,,130.00,9.00,,29.92,,10.00,,CLR,,,,,,,,,,,,,,,,KDFW 080610Z AUTO 13009KT 10SM CLR 09/03 A2992 RMK T00900030 MADISHF
DFW,2021-02-08 06:15,,,,120.00,10.00,,29.92,,10.00,,CLR,,,,,,,,,,,,,,,,KDFW 080615Z AUTO 12010KT 10SM CLR 09/03 A2992 RMK T00900030 MADISHF
DFW,2021-02-08 06:20,,,,130.00,11.00,,29.92,,10.00,19.00,CLR,,,,,,,,,,,,,,,,KDFW 080620Z AUTO 13011G19KT 10SM CLR 09/03 A2992 RMK T00900030 MADISHF
DFW,2021-02-08 06:25,,,,130.00,11.00,,29.92,,10.00,,CLR,,,,,,,,,,,,,,,,KDFW 080625Z AUTO 13011KT 10SM CLR 09/03 A2992 RMK T00900030 MADISHF
DFW,2021-02-08 06:30,,,,120.00,10.00,,29.92,,10.00,,CLR,,,,,,,,,,,,,,,,KDFW 080630Z AUTO 12010KT 10SM CLR 09/03 A2992 RMK T00900030 MADISHF
DFW,2021-02-08 06:35,,,,120.00,11.00,,29.92,,10.00,16.00,CLR,,,,,,,,,,,,,,,,KDFW 080635Z AUTO 12011G16KT 10SM CLR 09/03 A2992 RMK T00900030 MADISHF
DFW,2021-02-08 06:40,,,,130.00,11.00,,29.92,,10.00,,CLR,,,,,,,,,,,,,,,,KDFW 080640Z AUTO 13011KT 10SM CLR 09/03 A2992 RMK T00900030 MADISHF
DFW,2021-02-08 06:45,,,,120.00,11.00,,29.92,,10.00,,CLR,,,,,,,,,,,,,,,,KDFW 080645Z AUTO 12011KT 10SM CLR 09/03 A2992 RMK T00900030 MADISHF
DFW,2021-02-08 06:50,,,,120.00,11.00,,29.92,,10.00,,CLR,,,,,,,,,,,,,,,,KDFW 080650Z AUTO 12011KT 10SM CLR 09/04 A2992 RMK T00900040 MADISHF
DFW,2021-02-08 06:53,48.00,39.00,70.85,130.00,11.00,0.00,29.92,1012.90,10.00,,FEW,,,,25000.00,,,,,,,,,,,42.69,KDFW 080653Z 13011KT 10SM FEW250 09/04 A2992 RMK AO2 SLP129 T00890039 $
DFW,2021-02-08 06:55,,,,120.00,11.00,,29.92,,10.00,,CLR,,,,,,,,,,,,,,,,KDFW 080655Z AUTO 12011KT 10SM CLR 09/04 A2992 RMK T00900040 MADISHF
DFW,2021-02-08 07:00,,,,120.00,11.00,,29.92,,10.00,16.00,CLR,,,,,,,,,,,,,,,,KDFW 080700Z AUTO 12011G16KT 10SM CLR 09/04 A2992 RMK T00900040 MADISHF
DFW,2021-02-08 07:05,,,,120.00,11.00,,29.92,,10.00,,CLR,,,,,,,,,,,,,,,,KDFW 080705Z AUTO 12011KT 10SM CLR 09/04 A2992 RMK T00900040 MADISHF
DFW,2021-02-08 07:10,,,,120.00,11.00,,29.92,,10.00,,CLR,,,,,,,,,,,,,,,,KDFW 080710Z AUTO 12011KT 10SM CLR 08/04 A2992 RMK T00800040 MADISHF
DFW,2021-02-08 07:15,,,,120.00,11.00,,29.92,,10.00,,CLR,,,,,,,,,,,,,,,,KDFW 080715Z AUTO 12011KT 10SM CLR 08/04 A2992 RMK T00800040 MADISHF
DFW,2021-02-08 07:20,,,,120.00,10.00,,29.92,,10.00,,CLR,,,,,,,,,,,,,,,,KDFW 080720Z AUTO 12010KT 10SM CLR 08/04 A2992 RMK T00800040 MADISHF
DFW,2021-02-08 07:25,,,,120.00,10.00,,29.92,,10.00,,CLR,,,,,,,,,,,,,,,,KDFW 080725Z AUTO 12010KT 10SM CLR 08/04 A2992 RMK T00800040 MADISHF
DFW,2021-02-08 07:30,,,,120.00,10.00,,29.92,,10.00,,CLR,,,,,,,,,,,,,,,,KDFW 080730Z AUTO 12010KT 10SM CLR 08/04 A2992 RMK T00800040 MADISHF
DFW,2021-02-08 07:35,,,,130.00,10.00,,29.92,,10.00,,CLR,,,,,,,,,,,,,,,,KDFW 080735Z AUTO 13010KT 10SM CLR 08/04 A2992 RMK T00800040 MADISHF
DFW,2021-02-08 07:40,,,,120.00,10.00,,29.92,,10.00,,CLR,,,,,,,,,,,,,,,,KDFW 080740Z AUTO 12010KT 10SM CLR 08/04 A2992 RMK T00800040 MADISHF
DFW,2021-02-08 07:45,,,,130.00,9.00,,29.92,,10.00,,CLR,,,,,,,,,,,,,,,,KDFW 080745Z AUTO 13009KT 10SM CLR 08/04 A2992 RMK T00800040 MADISHF
DFW,2021-02-08 07:50,,,,130.00,11.00,,29.92,,10.00,,CLR,,,,,,,,,,,,,,,,KDFW 080750Z AUTO 13011KT 10SM CLR 08/04 A2992 RMK T00800040 MADISHF
DFW,2021-02-08 07:53,48.00,39.90,73.38,130.00,10.00,0.00,29.92,1013.10,10.00,,SCT,,,,25000.00,,,,,,,,,,,43.03,KDFW 080753Z 13010KT 10SM SCT250 09/04 A2992 RMK AO2 SLP131 T00890044 $
DFW,2021-02-08 07:55,,,,120.00,10.00,,29.92,,10.00,,CLR,,,,,,,,,,,,,,,,KDFW 080755Z AUTO 12010KT 10SM CLR 08/04 A2992 RMK T00800040 MADISHF
DFW,2021-02-08 08:00,,,,120.00,9.00,,29.92,,10.00,,CLR,,,,,,,,,,,,,,,,KDFW 080800Z AUTO 12009KT 10SM CLR 08/04 A2992 RMK T00800040 MADISHF
DFW,2021-02-08 08:05,,,,130.00,8.00,,29.92,,10.00,,CLR,,,,,,,,,,,,,,,,KDFW 080805Z AUTO 13008KT 10SM CLR 08/04 A2992 RMK T00800040 MADISHF
DFW,2021-02-08 08:10,,,,130.00,10.00,,29.92,,10.00,,CLR,,,,,,,,,,,,,,,,KDFW 080810Z AUTO 13010KT 10SM CLR 08/04 A2992 RMK T00800040 MADISHF
DFW,2021-02-08 08:15,,,,130.00,9.00,,29.92,,10.00,,CLR,,,,,,,,,,,,,,,,KDFW 080815Z AUTO 13009KT 10SM CLR 08/05 A2992 RMK T00800050 MADISHF
DFW,2021-02-08 08:20,,,,130.00,11.00,,29.92,,10.00,,FEW,,,,2100.00,,,,,,,,,,,,KDFW 080820Z AUTO 13011KT 10SM FEW021 08/05 A2992 RMK T00800050 MADISHF
DFW,2021-02-08 08:25,,,,130.00,10.00,,29.92,,10.00,,SCT,,,,2100.00,,,,,,,,,,,,KDFW 080825Z AUTO 13010KT 10SM SCT021 08/05 A2992 RMK T00800050 MADISHF
DFW,2021-02-08 08:30,,,,130.00,9.00,,29.92,,10.00,,SCT,,,,2100.00,,,,,,,,,,,,KDFW 080830Z AUTO 13009KT 10SM SCT021 08/05 A2992 RMK T00800050 MADISHF
DFW,2021-02-08 08:35,,,,130.00,11.00,,29.92,,10.00,,BKN,,,,2100.00,,,,,,,,,,,,KDFW 080835Z AUTO 13011KT 10SM BKN021 08/05 A2992 RMK T00800050 MADISHF
DFW,2021-02-08 08:37,46.90,41.00,79.82,130.00,12.00,0.00,29.91,,10.00,,BKN,,,,2100.00,,,,,,,,,,,40.97,KDFW 080837Z 13012KT 10SM BKN021 08/05 A2991 RMK AO2 T00830050 $
DFW,2021-02-08 08:40,,,,130.00,10.00,,29.91,,10.00,,BKN,,,,2100.00,,,,,,,,,,,,KDFW 080840Z AUTO 13010KT 10SM BKN021 09/05 A2990 RMK T00900050 MADISHF
DFW,2021-02-08 08:45,,,,140.00,10.00,,29.91,,10.00,,BKN,,,,2100.00,,,,,,,,,,,,KDFW 080845Z AUTO 14010KT 10SM BKN021 08/05 A2990 RMK T00800050 MADISHF
DFW,2021-02-08 08:50,,,,140.00,10.00,,29.91,,10.00,,BKN,,,,1900.00,,,,,,,,,,,,KDFW 080850Z AUTO 14010KT 10SM BKN019 09/05 A2990 RMK T00900050 MADISHF
DFW,2021-02-08 08:53,48.00,41.00,76.58,130.00,12.00,0.00,29.91,1012.60,10.00,,BKN,,,,1900.00,,,,,,,,,,,42.37,KDFW 080853Z 13012KT 10SM BKN019 09/05 A2991 RMK AO2 SLP126 T00890050 58001 $
DFW,2021-02-08 08:55,,,,130.00,11.00,,29.91,,10.00,,OVC,,,,1900.00,,,,,,,,,,,,KDFW 080855Z AUTO 13011KT 10SM OVC019 09/05 A2990 RMK T00900050 MADISHF
DFW,2021-02-08 09:00,,,,130.00,10.00,,29.91,,10.00,,OVC,,,,1900.00,,,,,,,,,,,,KDFW 080900Z AUTO 13010KT 10SM OVC019 09/05 A2990 RMK T00900050 MADISHF
DFW,2021-02-08 09:05,,,,130.00,11.00,,29.91,,10.00,,OVC,,,,1800.00,,,,,,,,,,,,KDFW 080905Z AUTO 13011KT 10SM OVC018 09/05 A2990 RMK T00900050 MADISHF
DFW,2021-02-08 09:10,,,,130.00,11.00,,29.90,,10.00,,OVC,,,,1800.00,,,,,,,,,,,,KDFW 080910Z AUTO 13011KT 10SM OVC018 09/06 A2989 RMK T00900060 MADISHF
DFW,2021-02-08 09:15,,,,130.00,11.00,,29.90,,10.00,,OVC,,,,1699.00,,,,,,,,,,,,KDFW 080915Z AUTO 13011KT 10SM OVC016 09/06 A2989 RMK T00900060 MADISHF
DFW,2021-02-08 09:20,,,,130.00,11.00,,29.90,,10.00,,OVC,,,,1699.00,,,,,,,,,,,,KDFW 080920Z AUTO 13011KT 10SM OVC016 09/06 A2989 RMK T00900060 MADISHF
DFW,2021-02-08 09:25,,,,140.00,11.00,,29.90,,10.00,,OVC,,,,1699.00,,,,,,,,,,,,KDFW 080925Z AUTO 14011KT 10SM OVC016 09/06 A2989 RMK T00900060 MADISHF
DFW,2021-02-08 09:30,,,,140.00,11.00,,29.90,,10.00,,OVC,,,,1699.00,,,,,,,,,,,,KDFW 080930Z AUTO 14011KT 10SM OVC016 09/06 A2989 RMK T00900060 MADISHF
DFW,2021-02-08 09:35,,,,140.00,11.00,,29.90,,10.00,,OVC,,,,1699.00,,,,,,,,,,,,KDFW 080935Z AUTO 14011KT 10SM OVC016 09/06 A2989 RMK T00900060 MADISHF
DFW,2021-02-08 09:40,,,,130.00,11.00,,29.90,,10.00,,OVC,,,,1699.00,,,,,,,,,,,,KDFW 080940Z AUTO 13011KT 10SM OVC016 09/06 A2989 RMK T00900060 MADISHF
DFW,2021-02-08 09:45,,,,140.00,9.00,,29.90,,10.00,,OVC,,,,1600.00,,,,,,,,,,,,KDFW 080945Z AUTO 14009KT 10SM OVC016 09/06 A2989 RMK T00900060 MADISHF
DFW,2021-02-08 09:50,,,,140.00,10.00,,29.90,,10.00,,OVC,,,,1600.00,,,,,,,,,,,,KDFW 080950Z AUTO 14010KT 10SM OVC016 09/06 A2989 RMK T00900060 MADISHF
DFW,2021-02-08 09:53,48.00,43.00,82.72,140.00,10.00,0.00,29.90,1012.30,10.00,,OVC,,,,1500.00,,,,,,,,,,,43.03,KDFW 080953Z 14010KT 10SM OVC015 09/06 A2990 RMK AO2 SLP123 T00890061 $
DFW,2021-02-08 09:55,,,,140.00,9.00,,29.90,,10.00,,OVC,,,,1500.00,,,,,,,,,,,,KDFW 080955Z AUTO 14009KT 10SM OVC015 09/06 A2989 RMK T00900060 MADISHF
DFW,2021-02-08 10:00,,,,150.00,9.00,,29.90,,10.00,,OVC,,,,1500.00,,,,,,,,,,,,KDFW 081000Z AUTO 15009KT 10SM OVC015 09/06 A2989 RMK T00900060 MADISHF
DFW,2021-02-08 10:05,,,,140.00,10.00,,29.90,,10.00,,OVC,,,,1500.00,,,,,,,,,,,,KDFW 081005Z AUTO 14010KT 10SM OVC015 09/06 A2989 RMK T00900060 MADISHF
DFW,2021-02-08 10:10,,,,150.00,10.00,,29.90,,10.00,,OVC,,,,1400.00,,,,,,,,,,,,KDFW 081010Z AUTO 15010KT 10SM OVC014 09/06 A2989 RMK T00900060 MADISHF
DFW,2021-02-08 10:15,,,,160.00,11.00,,29.90,,10.00,,OVC,,,,1400.00,,,,,,,,,,,,KDFW 081015Z AUTO 16011KT 10SM OVC014 09/06 A2989 RMK T00900060 MADISHF
DFW,2021-02-08 10:16,48.00,43.00,82.72,160.00,11.00,0.00,29.90,,10.00,,OVC,,,,1400.00,,,,,,,,,,,42.69,KDFW 081016Z 16011KT 10SM OVC014 09/06 A2990 RMK AO2 T00890061 $
DFW,2021-02-08 10:20,,,,150.00,13.00,,29.89,,10.00,,OVC,,,,1400.00,,,,,,,,,,,,KDFW 081020Z AUTO 15013KT 10SM OVC014 09/07 A2988 RMK T00900070 MADISHF
DFW,2021-02-08 10:25,,,,160.00,13.00,,29.90,,10.00,,OVC,,,,1300.00,,,,,,,,,,,,KDFW 081025Z AUTO 16013KT 10SM OVC013 09/07 A2989 RMK T00900070 MADISHF
DFW,2021-02-08 10:30,,,,150.00,11.00,,29.90,,10.00,,OVC,,,,1300.00,,,,,,,,,,,,KDFW 081030Z AUTO 15011KT 10SM OVC013 09/07 A2989 RMK T00900070 MADISHF
DFW,2021-02-08 10:35,,,,160.00,11.00,,29.90,,10.00,,OVC,,,,1200.00,,,,,,,,,,,,KDFW 081035Z AUTO 16011KT 10SM OVC012 09/07 A2989 RMK T00900070 MADISHF
DFW,2021-02-08 10:40,,,,150.00,11.00,,29.90,,10.00,,OVC,,,,999.00,,,,,,,,,,,,KDFW 081040Z AUTO 15011KT 10SM OVC009 09/07 A2989 RMK T00900070 MADISHF
DFW,2021-02-08 10:45,,,,150.00,10.00,,29.90,,10.00,,OVC,,,,999.00,,,,,,,,,,,,KDFW 081045Z AUTO 15010KT 10SM OVC009 09/07 A2989 RMK T00900070 MADISHF
DFW,2021-02-08 10:50,,,,150.00,13.00,,29.90,,10.00,18.00,OVC,,,,999.00,,,,,,,,,,,,KDFW 081050Z AUTO 15013G18KT 10SM OVC009 09/07 A2989 RMK T00900070 MADISHF
DFW,2021-02-08 10:53,48.90,45.00,86.33,160.00,11.00,0.00,29.90,1012.10,10.00,19.00,OVC,,,,1000.00,,,,,,,,,,,43.82,KDFW 081053Z 16011G19KT 10SM OVC010 09/07 A2990 RMK AO2 SLP121 T00940072 $
DFW,2021-02-08 10:55,,,,160.00,11.00,,29.90,,10.00,,OVC,,,,999.00,,,,,,,,,,,,KDFW 081055Z AUTO 16011KT 10SM OVC009 09/07 A2989 RMK T00900070 MADISHF
DFW,2021-02-08 11:00,,,,150.00,11.00,,29.90,,10.00,,OVC,,,,999.00,,,,,,,,,,,,KDFW 081100Z AUTO 15011KT 10SM OVC009 09/07 A2989 RMK T00900070 MADISHF
DFW,2021-02-08 11:05,,,,150.00,11.00,,29.90,,10.00,,OVC,,,,900.00,,,,,,,,,,,,KDFW 081105Z AUTO 15011KT 10SM OVC009 09/07 A2989 RMK T00900070 MADISHF
DFW,2021-02-08 11:09,48.90,45.00,86.33,160.00,13.00,0.00,29.90,,10.00,,OVC,,,,900.00,,,,,,,,,,,43.22,KDFW 081109Z 16013KT 10SM OVC009 09/07 A2990 RMK AO2 T00940072 $
DFW,2021-02-08 11:10,,,,150.00,11.00,,29.90,,10.00,,OVC,,,,900.00,,,,,,,,,,,,KDFW 081110Z AUTO 15011KT 10SM OVC009 09/07 A2989 RMK T00900070 MADISHF
DFW,2021-02-08 11:15,,,,160.00,11.00,,29.90,,10.00,,OVC,,,,900.00,,,,,,,,,,,,KDFW 081115Z AUTO 16011KT 10SM OVC009 09/08 A2989 RMK T00900080 MADISHF
DFW,2021-02-08 11:20,,,,160.00,11.00,,29.90,,10.00,,OVC,,,,900.00,,,,,,,,,,,,KDFW 081120Z AUTO 16011KT 10SM OVC009 09/08 A2989 RMK T00900080 MADISHF
DFW,2021-02-08 11:25,,,,160.00,11.00,,29.90,,10.00,,OVC,,,,800.00,,,,,,,,,,,,KDFW 081125Z AUTO 16011KT 10SM OVC008 09/08 A2989 RMK T00900080 MADISHF
DFW,2021-02-08 11:30,,,,160.00,14.00,,29.90,,9.00,,OVC,,,,800.00,,,,,,,,,,,,KDFW 081130Z AUTO 16014KT 9SM OVC008 09/08 A2989 RMK T00900080 MADISHF
DFW,2021-02-08 11:35,,,,170.00,14.00,,29.90,,9.00,,OVC,,,,800.00,,,,,,,,,,,,KDFW 081135Z AUTO 17014KT 9SM OVC008 09/08 A2989 RMK T00900080 MADISHF
DFW,2021-02-08 11:40,,,,170.00,13.00,,29.90,,8.00,,OVC,,,,700.00,,,,,,,,,,,,KDFW 081140Z AUTO 17013KT 8SM OVC007 09/08 A2989 RMK T00900080 MADISHF
DFW,2021-02-08 11:45,,,,160.00,11.00,,29.90,,8.00,,OVC,,,,700.00,,,,,,,,,,,,KDFW 081145Z AUTO 16011KT 8SM OVC007 09/08 A2989 RMK T00900080 MADISHF
DFW,2021-02-08 11:50,,,,160.00,11.00,,29.90,,7.00,,OVC,,,,700.00,,,,,,,,,,,,KDFW 081150Z AUTO 16011KT 7SM OVC007 09/08 A2989 RMK T00900080 MADISHF
DFW,2021-02-08 11:53,48.90,46.90,92.77,160.00,12.00,0.00,29.90,1012.20,7.00,,OVC,,,,700.00,,,,,,,,,,,43.51,KDFW 081153Z 16012KT 7SM OVC007 09/08 A2990 RMK AO2 SLP122 T00940083 10094 20083 55004 $
DFW,2021-02-08 11:55,,,,160.00,13.00,,29.90,,7.00,18.00,OVC,,,,700.00,,,,,,,,,,,,KDFW 081155Z AUTO 16013G18KT 7SM OVC007 09/08 A2989 RMK T00900080 MADISHF
DFW,2021-02-08 12:00,,,,160.00,14.00,,29.90,,6.00,,OVC,,,,600.00,,,,BR,,,,,,,,KDFW 081200Z AUTO 16014KT 6SM BR OVC006 09/08 A2989 RMK T00900080 MADISHF
DFW,2021-02-08 12:05,,,,160.00,11.00,,29.90,,6.00,,OVC,,,,600.00,,,,BR,,,,,,,,KDFW 081205Z AUTO 16011KT 6SM BR OVC006 09/09 A2989 RMK T00900090 MADISHF
DFW,2021-02-08 12:10,,,,160.00,11.00,,29.90,,6.00,,OVC,,,,600.00,,,,BR,,,,,,,,KDFW 081210Z AUTO 16011KT 6SM BR OVC006 09/09 A2989 RMK T00900090 MADISHF
DFW,2021-02-08 12:15,,,,160.00,13.00,,29.90,,6.00,,OVC,,,,600.00,,,,BR,,,,,,,,KDFW 081215Z AUTO 16013KT 6SM BR OVC006 09/09 A2989 RMK T00900090 MADISHF
DFW,2021-02-08 12:20,,,,160.00,11.00,,29.90,,6.00,,OVC,,,,600.00,,,,BR,,,,,,,,KDFW 081220Z AUTO 16011KT 6SM BR OVC006 09/09 A2989 RMK T00900090 MADISHF
DFW,2021-02-08 12:25,,,,160.00,13.00,,29.90,,6.00,,OVC,,,,499.00,,,,BR,,,,,,,,KDFW 081225Z AUTO 16013KT 6SM BR OVC004 09/09 A2989 RMK T00900090 MADISHF
DFW,2021-02-08 12:30,,,,160.00,11.00,,29.90,,6.00,,OVC,,,,499.00,,,,BR,,,,,,,,KDFW 081230Z AUTO 16011KT 6SM BR OVC004 09/09 A2989 RMK T00900090 MADISHF
DFW,2021-02-08 12:35,,,,160.00,15.00,,29.91,,5.00,21.00,OVC,,,,499.00,,,,BR,,,,,,,,KDFW 081235Z AUTO 16015G21KT 5SM BR OVC004 09/09 A2990 RMK T00900090 MADISHF
DFW,2021-02-08 12:40,,,,160.00,14.00,,29.91,,5.00,,OVC,,,,499.00,,,,BR,,,,,,,,KDFW 081240Z AUTO 16014KT 5SM BR OVC004 09/09 A2990 RMK T00900090 MADISHF
DFW,2021-02-08 12:45,,,,160.00,11.00,,29.91,,4.00,,OVC,,,,499.00,,,,BR,,,,,,,,KDFW 081245Z AUTO 16011KT 4SM BR OVC004 09/09 A2990 RMK T00900090 MADISHF
DFW,2021-02-08 12:50,,,,160.00,13.00,,29.91,,4.00,,OVC,,,,499.00,,,,BR,,,,,,,,KDFW 081250Z AUTO 16013KT 4SM BR OVC004 09/09 A2990 RMK T00900090 MADISHF
DFW,2021-02-08 12:53,48.90,48.00,96.69,160.00,13.00,0.00,29.91,1012.60,4.00,,OVC,,,,500.00,,,,BR,,,,,,,43.22,KDFW 081253Z 16013KT 4SM BR OVC005 09/09 A2991 RMK AO2 SLP126 T00940089 $
DFW,2021-02-08 12:55,,,,170.00,13.00,,29.91,,4.00,18.00,OVC,,,,400.00,,,,BR,,,,,,,,KDFW 081255Z AUTO 17013G18KT 4SM BR OVC004 09/09 A2990 RMK T00900090 MADISHF
DFW,2021-02-08 13:00,,,,170.00,11.00,,29.91,,4.00,,OVC,,,,400.00,,,,BR,,,,,,,,KDFW 081300Z AUTO 17011KT 4SM BR OVC004 09/09 A2990 RMK T00900090 MADISHF
DFW,2021-02-08 13:05,,,,170.00,11.00,,29.91,,4.00,16.00,OVC,,,,400.00,,,,BR,,,,,,,,KDFW 081305Z AUTO 17011G16KT 4SM BR OVC004 09/09 A2990 RMK T00900090 MADISHF
DFW,2021-02-08 13:10,,,,160.00,11.00,,29.91,,3.50,,OVC,,,,400.00,,,,BR,,,,,,,,KDFW 081310Z AUTO 16011KT 3SM BR OVC004 09/09 A2990 RMK T00900090 MADISHF
DFW,2021-02-08 13:15,,,,160.00,11.00,,29.91,,3.50,,OVC,,,,400.00,,,,BR,,,,,,,,KDFW 081315Z AUTO 16011KT 3SM BR OVC004 09/09 A2990 RMK T00900090 MADISHF
DFW,2021-02-08 13:20,,,,160.00,10.00,,29.91,,4.00,,OVC,,,,400.00,,,,BR,,,,,,,,KDFW 081320Z AUTO 16010KT 4SM BR OVC004 09/09 A2990 RMK T00900090 MADISHF
DFW,2021-02-08 13:25,,,,160.00,13.00,,29.91,,4.00,,OVC,,,,400.00,,,,BR,,,,,,,,KDFW 081325Z AUTO 16013KT 4SM BR OVC004 09/09 A2990 RMK T00900090 MADISHF
DFW,2021-02-08 13:30,,,,160.00,11.00,,29.92,,4.00,,OVC,,,,400.00,,,,BR,,,,,,,,KDFW 081330Z AUTO 16011KT 4SM BR OVC004 09/09 A2992 RMK T00900090 MADISHF
DFW,2021-02-08 13:35,,,,160.00,10.00,,29.92,,4.00,,OVC,,,,400.00,,,,BR,,,,,,,,KDFW 081335Z AUTO 16010KT 4SM BR OVC004 09/09 A2992 RMK T00900090 MADISHF
DFW,2021-02-08 13:40,,,,160.00,11.00,,29.92,,4.00,,OVC,,,,400.00,,,,BR,,,,,,,,KDFW 081340Z AUTO 16011KT 4SM BR OVC004 09/09 A2992 RMK T00900090 MADISHF
DFW,2021-02-08 13:43,48.90,48.90,100.00,160.00,11.00,0.00,29.92,,2.00,,OVC,,,,400.00,,,,BR,,,,,,,43.82,KDFW 081343Z 16011KT 2SM BR OVC004 09/09 A2992 RMK AO2 T00940094 $
DFW,2021-02-08 13:45,,,,170.00,10.00,,29.92,,2.00,,OVC,,,,400.00,,,,BR,,,,,,,,KDFW 081345Z AUTO 17010KT 2SM BR OVC004 09/09 A2992 RMK T00900090 MADISHF
DFW,2021-02-08 13:50,,,,160.00,11.00,,29.92,,2.00,,OVC,,,,400.00,,,,BR,,,,,,,,KDFW 081350Z AUTO 16011KT 2SM BR OVC004 10/09 A2992 RMK T01000090 MADISHF
DFW,2021-02-08 13:53,50.00,48.90,95.98,170.00,12.00,T,29.92,1013.00,1.50,,OVC,,,,400.00,,,,-DZ BR,,,,,,,,KDFW 081353Z 17012KT 1 1/2SM -DZ BR OVC004 10/09 A2992 RMK AO2 TWR VIS 2 DZB52 SLP130 P0000 T01000094 $
DFW,2021-02-08 13:55,,,,160.00,11.00,,29.92,,1.75,,OVC,,,,400.00,,,,-DZ BR,,,,,,,,KDFW 081355Z AUTO 16011KT 2SM -DZ BR OVC004 10/09 A2992 RMK T01000090 MADISHF
DFW,2021-02-08 14:00,,,,160.00,11.00,,29.93,,1.50,16.00,OVC,,,,400.00,,,,-DZ BR,,,,,,,,KDFW 081400Z AUTO 16011G16KT 1 1/2SM -DZ BR OVC004 10/09 A2993 RMK T01000090 MADISHF
DFW,2021-02-08 14:05,,,,160.00,10.00,,29.93,,1.50,,OVC,,,,400.00,,,,-DZ BR,,,,,,,,KDFW 081405Z AUTO 16010KT 1 1/2SM -DZ BR OVC004 10/09 A2993 RMK T01000090 MADISHF
DFW,2021-02-08 14:10,,,,160.00,11.00,,29.93,,1.50,,OVC,,,,300.00,,,,-DZ BR,,,,,,,,KDFW 081410Z AUTO 16011KT 1 1/2SM -DZ BR OVC003 10/09 A2993 RMK T01000090 MADISHF
DFW,2021-02-08 14:15,,,,150.00,8.00,,29.94,,1.50,,OVC,,,,300.00,,,,-DZ BR,,,,,,,,KDFW 081415Z AUTO 15008KT 1 1/2SM -DZ BR OVC003 10/09 A2994 RMK T01000090 MADISHF
DFW,2021-02-08 14:20,,,,150.00,8.00,,29.94,,1.50,,OVC,,,,300.00,,,,-DZ BR,,,,,,,,KDFW 081420Z AUTO 15008KT 1 1/2SM -DZ BR OVC003 10/09 A2994 RMK T01000090 MADISHF
DFW,2021-02-08 14:25,,,,150.00,9.00,,29.94,,1.50,,OVC,,,,300.00,,,,-DZ BR,,,,,,,,KDFW 081425Z AUTO 15009KT 1 1/2SM -DZ BR OVC003 10/09 A2994 RMK T01000090 MADISHF
DFW,2021-02-08 14:27,50.00,48.90,95.98,150.00,8.00,T,29.95,,0.50,,OVC,,,,300.00,,,,-DZ BR,,,,,,,,KDFW 081427Z 15008KT 1/2SM R17C/6000VP6000FT -DZ BR OVC003 10/09 A2995 RMK AO2 SFC VIS 1 P0000 T01000094
DFW,2021-02-08 14:30,,,,150.00,9.00,,29.95,,1.00,,OVC,,,,300.00,,,,-DZ BR,,,,,,,,KDFW 081430Z AUTO 15009KT 1SM -DZ BR OVC003 10/09 A2995 RMK T01000090 MADISHF
DFW,2021-02-08 14:35,,,,150.00,8.00,,29.95,,1.50,,OVC,,,,300.00,,,,-DZ BR,,,,,,,,KDFW 081435Z AUTO 15008KT 1 1/2SM -DZ BR OVC003 10/09 A2995 RMK T01000090 MADISHF
DFW,2021-02-08 14:40,,,,150.00,9.00,,29.95,,1.25,,OVC,,,,300.00,,,,-DZ BR,,,,,,,,KDFW 081440Z AUTO 15009KT 1 1/2SM -DZ BR OVC003 10/09 A2995 RMK T01000090 MADISHF
DFW,2021-02-08 14:45,,,,150.00,8.00,,29.95,,1.25,,OVC,,,,300.00,,,,-DZ BR,,,,,,,,KDFW 081445Z AUTO 15008KT 1 1/2SM -DZ BR OVC003 10/10 A2995 RMK T01000100 MADISHF
DFW,2021-02-08 14:50,,,,140.00,9.00,,29.95,,1.25,,OVC,,,,300.00,,,,-DZ BR,,,,,,,,KDFW 081450Z AUTO 14009KT 1 1/2SM -DZ BR OVC003 10/10 A2995 RMK T01000100 MADISHF
DFW,2021-02-08 14:53,50.00,50.00,100.00,140.00,10.00,T,29.95,1014.00,0.50,,OVC,,,,300.00,,,,-DZ BR,,,,,,,,KDFW 081453Z 14010KT 1/2SM R17C/6000VP6000FT -DZ BR OVC003 10/10 A2995 RMK AO2 SFC VIS 1 1/4 SLP140 P0000 60000 T01000100 53017
DFW,2021-02-08 14:55,,,,150.00,10.00,,29.95,,1.50,,OVC,,,,300.00,,,,-DZ BR,,,,,,,,KDFW 081455Z AUTO 15010KT 1 1/2SM -DZ BR OVC003 10/10 A2995 RMK T01000100 MADISHF
DFW,2021-02-08 15:00,,,,150.00,9.00,,29.95,,1.25,14.00,OVC,,,,300.00,,,,-DZ BR,,,,,,,,KDFW 081500Z AUTO 15009G14KT 1 1/2SM -DZ BR OVC003 10/10 A2995 RMK T01000100 MADISHF
DFW,2021-02-08 15:05,,,,150.00,10.00,,29.95,,1.25,,OVC,,,,300.00,,,,-DZ BR,,,,,,,,KDFW 081505Z AUTO 15010KT 1 1/2SM -DZ BR OVC003 10/10 A2995 RMK T01000100 MADISHF
DFW,2021-02-08 15:10,,,,150.00,11.00,,29.95,,1.00,,OVC,,,,300.00,,,,-DZ BR,,,,,,,,KDFW 081510Z AUTO 15011KT 1SM -DZ BR OVC003 10/10 A2995 RMK T01000100 MADISHF
DFW,2021-02-08 15:15,,,,140.00,13.00,,29.94,,1.00,,OVC,,,,300.00,,,,-DZ BR,,,,,,,,KDFW 081515Z AUTO 14013KT 1SM -DZ BR OVC003 10/10 A2994 RMK T01000100 MADISHF
DFW,2021-02-08 15:20,,,,140.00,11.00,,29.94,,1.00,,OVC,,,,300.00,,,,-DZ BR,,,,,,,,KDFW 081520Z AUTO 14011KT 1SM -DZ BR OVC003 10/10 A2994 RMK T01000100 MADISHF
DFW,2021-02-08 15:25,,,,150.00,13.00,0.01,29.94,,1.25,,OVC,,,,300.00,,,,-DZ BR,,,,,,,,KDFW 081525Z AUTO 15013KT 1 1/2SM -DZ BR OVC003 10/10 A2994 RMK P0000 T01000100 MADISHF
DFW,2021-02-08 15:30,,,,150.00,10.00,0.01,29.94,,1.50,,OVC,,,,300.00,,,,-DZ BR,,,,,,,,KDFW 081530Z AUTO 15010KT 1 1/2SM -DZ BR OVC003 10/10 A2994 RMK P0000 T01000100 MADISHF
DFW,2021-02-08 15:35,,,,150.00,10.00,0.01,29.95,,1.75,,OVC,,,,300.00,,,,-DZ BR,,,,,,,,KDFW 081535Z AUTO 15010KT 2SM -DZ BR OVC003 10/10 A2995 RMK P0000 T01000100 MADISHF
DFW,2021-02-08 15:40,,,,140.00,9.00,0.01,29.95,,1.75,,OVC,,,,300.00,,,,-DZ BR,,,,,,,,KDFW 081540Z AUTO 14009KT 2SM -DZ BR OVC003 11/11 A2995 RMK P0000 T01100110 MADISHF
DFW,2021-02-08 15:45,,,,150.00,9.00,0.01,29.95,,2.00,,OVC,,,,300.00,,,,-DZ BR,,,,,,,,KDFW 081545Z AUTO 15009KT 2SM -DZ BR OVC003 11/11 A2995 RMK P0000 T01100110 MADISHF
DFW,2021-02-08 15:50,,,,150.00,10.00,0.01,29.95,,2.00,,OVC,,,,300.00,,,,-DZ BR,,,,,,,,KDFW 081550Z AUTO 15010KT 2SM -DZ BR OVC003 11/11 A2995 RMK P0000 T01100110 MADISHF
DFW,2021-02-08 15:53,51.10,51.10,100.00,150.00,8.00,0.01,29.95,1013.90,0.50,,OVC,,,,300.00,,,,-DZ BR,,,,,,,,KDFW 081553Z 15008KT 1/2SM R17C/P6000FT -DZ BR OVC003 11/11 A2995 RMK AO2 SFC VIS 1 1/2 SLP139 P0001 T01060106
DFW,2021-02-08 15:55,,,,150.00,8.00,,29.95,,2.50,,OVC,,,,300.00,,,,-DZ BR,,,,,,,,KDFW 081555Z AUTO 15008KT 2 1/2SM -DZ BR OVC003 11/11 A2995 RMK T01100110 MADISHF
DFW,2021-02-08 16:00,,,,150.00,7.00,,29.95,,2.50,,OVC,,,,300.00,,,,-DZ BR,,,,,,,,KDFW 081600Z AUTO 15007KT 2 1/2SM -DZ BR OVC003 11/11 A2995 RMK T01100110 MADISHF
DFW,2021-02-08 16:05,,,,150.00,8.00,,29.95,,3.00,,OVC,,,,300.00,,,,-DZ BR,,,,,,,,KDFW 081605Z AUTO 15008KT 3SM -DZ BR OVC003 11/11 A2995 RMK T01100110 MADISHF
DFW,2021-02-08 16:10,,,,150.00,10.00,,29.95,,3.00,,OVC,,,,300.00,,,,-DZ BR,,,,,,,,KDFW 081610Z AUTO 15010KT 3SM -DZ BR OVC003 11/11 A2995 RMK T01100110 MADISHF
DFW,2021-02-08 16:15,,,,150.00,8.00,,29.95,,3.00,,OVC,,,,300.00,,,,-DZ BR,,,,,,,,KDFW 081615Z AUTO 15008KT 3SM -DZ BR OVC003 11/11 A2995 RMK T01100110 MADISHF
DFW,2021-02-08 16:20,,,,150.00,8.00,,29.95,,2.50,,OVC,,,,300.00,,,,BR,,,,,,,,KDFW 081620Z AUTO 15008KT 2 1/2SM BR OVC003 11/11 A2995 RMK T01100110 MADISHF
DFW,2021-02-08 16:21,51.10,51.10,100.00,150.00,8.00,T,29.95,,2.00,,OVC,,,,300.00,,,,BR,,,,,,,,KDFW 081621Z 15008KT 2SM BR OVC003 11/11 A2995 RMK AO2 SFC VIS 2 1/2 DZE19 P0000 T01060106
DFW,2021-02-08 16:25,,,,160.00,8.00,,29.95,,2.50,,OVC,,,,400.00,,,,BR,,,,,,,,KDFW 081625Z AUTO 16008KT 2 1/2SM BR OVC004 11/11 A2995 RMK T01100110 MADISHF
DFW,2021-02-08 16:30,,,,150.00,7.00,,29.95,,2.50,,OVC,,,,400.00,,,,BR,,,,,,,,KDFW 081630Z AUTO 15007KT 2 1/2SM BR OVC004 11/11 A2995 RMK T01100110 MADISHF
DFW,2021-02-08 16:35,,,,160.00,9.00,,29.95,,2.50,,OVC,,,,400.00,,,,BR,,,,,,,,KDFW 081635Z AUTO 16009KT 2 1/2SM BR OVC004 11/11 A2995 RMK T01100110 MADISHF
DFW,2021-02-08 16:40,,,,150.00,10.00,,29.95,,2.50,,OVC,,,,400.00,,,,BR,,,,,,,,KDFW 081640Z AUTO 15010KT 2 1/2SM BR OVC004 11/11 A2995 RMK T01100110 MADISHF
DFW,2021-02-08 16:45,,,,150.00,10.00,,29.94,,4.00,,OVC,,,,400.00,,,,BR,,,,,,,,KDFW 081645Z AUTO 15010KT 4SM BR OVC004 11/11 A2994 RMK T01100110 MADISHF
DFW,2021-02-08 16:50,,,,150.00,10.00,,29.94,,4.00,,OVC,,,,400.00,,,,BR,,,,,,,,KDFW 081650Z AUTO 15010KT 4SM BR OVC004 11/11 A2994 RMK T01100110 MADISHF
DFW,2021-02-08 16:53,53.10,52.00,96.03,160.00,11.00,T,29.94,1013.60,3.00,,OVC,,,,500.00,,,,BR,,,,,,,,KDFW 081653Z 16011KT 3SM BR OVC005 12/11 A2994 RMK AO2 SFC VIS 4 DZE19 SLP136 P0000 T01170111
DFW,2021-02-08 16:55,,,,160.00,10.00,,29.94,,4.00,,OVC,,,,499.00,,,,BR,,,,,,,,KDFW 081655Z AUTO 16010KT 4SM BR OVC004 12/11 A2994 RMK T01200110 MADISHF
DFW,2021-02-08 17:00,,,,160.00,11.00,,29.94,,4.00,,OVC,,,,499.00,,,,BR,,,,,,,,KDFW 081700Z AUTO 16011KT 4SM BR OVC004 12/11 A2994 RMK T01200110 MADISHF
DFW,2021-02-08 17:05,,,,160.00,10.00,,29.94,,4.00,,OVC,,,,499.00,,,,BR,,,,,,,,KDFW 081705Z AUTO 16010KT 4SM BR OVC004 12/11 A2994 RMK T01200110 MADISHF
DFW,2021-02-08 17:10,,,,160.00,11.00,,29.94,,4.00,,OVC,,,,499.00,,,,BR,,,,,,,,KDFW 081710Z AUTO 16011KT 4SM BR OVC004 12/11 A2994 RMK T01200110 MADISHF
DFW,2021-02-08 17:15,,,,160.00,10.00,,29.94,,4.00,,OVC,,,,600.00,,,,BR,,,,,,,,KDFW 081715Z AUTO 16010KT 4SM BR OVC006 12/11 A2994 RMK T01200110 MADISHF
DFW,2021-02-08 17:20,,,,160.00,11.00,,29.93,,4.00,,OVC,,,,600.00,,,,BR,,,,,,,,KDFW 081720Z AUTO 16011KT 4SM BR OVC006 12/12 A2993 RMK T01200120 MADISHF
DFW,2021-02-08 17:25,,,,160.00,11.00,,29.93,,4.00,,BKN,OVC,,,800.00,1200.00,,,BR,,,,,,,,KDFW 081725Z AUTO 16011KT 4SM BR BKN008 OVC012 12/12 A2993 RMK T01200120 MADISHF
DFW,2021-02-08 17:30,,,,150.00,11.00,,29.92,,5.00,,OVC,,,,999.00,,,,BR,,,,,,,,KDFW 081730Z AUTO 15011KT 5SM BR OVC009 12/12 A2992 RMK T01200120 MADISHF
DFW,2021-02-08 17:35,,,,160.00,11.00,,29.93,,5.00,,OVC,,,,900.00,,,,BR,,,,,,,,KDFW 081735Z AUTO 16011KT 5SM BR OVC009 13/12 A2993 RMK T01300120 MADISHF
DFW,2021-02-08 17:40,,,,170.00,10.00,,29.93,,5.00,,BKN,OVC,,,900.00,1300.00,,,BR,,,,,,,,KDFW 081740Z AUTO 17010KT 5SM BR BKN009 OVC013 13/12 A2993 RMK T01300120 MADISHF
DFW,2021-02-08 17:45,,,,170.00,10.00,,29.92,,5.00,15.00,BKN,OVC,,,900.00,1300.00,,,BR,,,,,,,,KDFW 081745Z AUTO 17010G15KT 5SM BR BKN009 OVC013 13/12 A2992 RMK T01300120 MADISHF
DFW,2021-02-08 17:50,,,,170.00,10.00,,29.92,,6.00,,BKN,OVC,,,900.00,1300.00,,,BR,,,,,,,,KDFW 081750Z AUTO 17010KT 6SM BR BKN009 OVC013 13/12 A2992 RMK T01300120 MADISHF
DFW,2021-02-08 17:53,55.90,53.10,90.29,170.00,9.00,0.00,29.92,1013.00,6.00,,BKN,OVC,,,1000.00,1300.00,,,BR,,,,,,,,KDFW 081753Z 17009KT 6SM BR BKN010 OVC013 13/12 A2992 RMK AO2 SLP130 60001 T01330117 10133 20094 58009
DFW,2021-02-08 17:55,,,,170.00,8.00,,29.92,,6.00,,OVC,,,,1200.00,,,,BR,,,,,,,,KDFW 081755Z AUTO 17008KT 6SM BR OVC012 13/12 A2992 RMK T01300120 MADISHF
DFW,2021-02-08 18:05,,,,180.00,13.00,,29.92,,7.00,,OVC,,,,1200.00,,,,,,,,,,,,KDFW 081805Z AUTO 18013KT 7SM OVC012 14/12 A2992 RMK T01400120 MADISHF
DFW,2021-02-08 18:10,,,,,17.00,,29.92,,8.00,22.00,OVC,,,,1200.00,,,,,,,,,,,,KDFW 081810Z AUTO ///17G22KT 8SM OVC012 14/12 A2992 RMK T01400120 MADISHF
DFW,2021-02-08 18:15,,,,190.00,16.00,,29.91,,9.00,,OVC,,,,1400.00,,,,,,,,,,,,KDFW 081815Z AUTO 19016KT 9SM OVC014 14/12 A2990 RMK T01400120 MADISHF
DFW,2021-02-08 18:20,,,,,17.00,,29.92,,10.00,,OVC,,,,1400.00,,,,,,,,,,,,KDFW 081820Z AUTO ///17KT 10SM OVC014 14/12 A2992 RMK T01400120 MADISHF
DFW,2021-02-08 18:25,,,,180.00,16.00,,29.91,,10.00,,OVC,,,,1400.00,,,,,,,,,,,,KDFW 081825Z AUTO 18016KT 10SM OVC014 14/12 A2990 RMK T01400120 MADISHF
DFW,2021-02-08 18:30,,,,180.00,13.00,,29.92,,10.00,,OVC,,,,1400.00,,,,,,,,,,,,KDFW 081830Z AUTO 18013KT 10SM OVC014 14/12 A2992 RMK T01400120 MADISHF
DFW,2021-02-08 18:35,,,,190.00,11.00,,29.91,,10.00,,OVC,,,,1400.00,,,,,,,,,,,,KDFW 081835Z AUTO 19011KT 10SM OVC014 14/12 A2990 RMK T01400120 MADISHF
DFW,2021-02-08 18:40,,,,180.00,11.00,,29.91,,10.00,,OVC,,,,1400.00,,,,,,,,,,,,KDFW 081840Z AUTO 18011KT 10SM OVC014 14/12 A2990 RMK T01400120 MADISHF
DFW,2021-02-08 18:45,,,,180.00,13.00,,29.91,,10.00,,OVC,,,,1400.00,,,,,,,,,,,,KDFW 081845Z AUTO 18013KT 10SM OVC014 14/12 A2990 RMK T01400120 MADISHF
DFW,2021-02-08 18:50,,,,180.00,11.00,,29.90,,10.00,,OVC,,,,1400.00,,,,,,,,,,,,KDFW 081850Z AUTO 18011KT 10SM OVC014 14/12 A2989 RMK T01400120 MADISHF
DFW,2021-02-08 18:53,57.90,53.10,84.00,170.00,12.00,0.00,29.90,1012.30,8.00,,BKN,OVC,,,1600.00,2100.00,,,,,,,,,,,KDFW 081853Z 17012KT 8SM BKN016 OVC021 14/12 A2990 RMK AO2 SLP123 T01440117
DFW,2021-02-08 18:55,,,,180.00,11.00,,29.90,,10.00,18.00,OVC,,,,1600.00,,,,,,,,,,,,KDFW 081855Z AUTO 18011G18KT 10SM OVC016 14/12 A2989 RMK T01400120 MADISHF
DFW,2021-02-08 19:00,,,,180.00,15.00,,29.90,,10.00,,OVC,,,,1600.00,,,,,,,,,,,,KDFW 081900Z AUTO 18015KT 10SM OVC016 15/12 A2989 RMK T01500120 MADISHF
DFW,2021-02-08 19:05,,,,180.00,14.00,,29.90,,10.00,,OVC,,,,1600.00,,,,,,,,,,,,KDFW 081905Z AUTO 18014KT 10SM OVC016 15/12 A2989 RMK T01500120 MADISHF
DFW,2021-02-08 19:10,,,,190.00,13.00,,29.90,,10.00,,OVC,,,,1699.00,,,,,,,,,,,,KDFW 081910Z AUTO 19013KT 10SM OVC016 15/12 A2989 RMK T01500120 MADISHF
DFW,2021-02-08 19:15,,,,180.00,15.00,,29.90,,10.00,,OVC,,,,1699.00,,,,,,,,,,,,KDFW 081915Z AUTO 18015KT 10SM OVC016 15/12 A2989 RMK T01500120 MADISHF
DFW,2021-02-08 19:20,,,,180.00,13.00,,29.89,,10.00,,OVC,,,,1699.00,,,,,,,,,,,,KDFW 081920Z AUTO 18013KT 10SM OVC016 16/12 A2988 RMK T01600120 MADISHF
DFW,2021-02-08 19:25,,,,190.00,13.00,,29.89,,10.00,,OVC,,,,1699.00,,,,,,,,,,,,KDFW 081925Z AUTO 19013KT 10SM OVC016 16/12 A2988 RMK T01600120 MADISHF
DFW,2021-02-08 19:30,,,,180.00,11.00,,29.89,,10.00,,OVC,,,,1699.00,,,,,,,,,,,,KDFW 081930Z AUTO 18011KT 10SM OVC016 16/12 A2988 RMK T01600120 MADISHF
DFW,2021-02-08 19:35,,,,180.00,11.00,,29.88,,10.00,,OVC,,,,1699.00,,,,,,,,,,,,KDFW 081935Z AUTO 18011KT 10SM OVC016 16/12 A2987 RMK T01600120 MADISHF
DFW,2021-02-08 19:40,,,,190.00,13.00,,29.88,,10.00,18.00,OVC,,,,1699.00,,,,,,,,,,,,KDFW 081940Z AUTO 19013G18KT 10SM OVC016 16/12 A2987 RMK T01600120 MADISHF
DFW,2021-02-08 19:45,,,,180.00,13.00,,29.88,,10.00,,OVC,,,,1699.00,,,,,,,,,,,,KDFW 081945Z AUTO 18013KT 10SM OVC016 16/12 A2987 RMK T01600120 MADISHF
DFW,2021-02-08 19:50,,,,190.00,13.00,,29.88,,10.00,19.00,OVC,,,,1699.00,,,,,,,,,,,,KDFW 081950Z AUTO 19013G19KT 10SM OVC016 17/12 A2987 RMK T01700120 MADISHF
DFW,2021-02-08 19:53,62.10,54.00,74.75,190.00,17.00,0.00,29.88,1011.40,10.00,22.00,BKN,OVC,,,1700.00,4000.00,,,,,,,,,,,KDFW 081953Z 19017G22KT 10SM BKN017 OVC040 17/12 A2988 RMK AO2 SLP114 T01670122
DFW,2021-02-08 19:55,,,,190.00,14.00,,29.88,,10.00,,BKN,OVC,,,1699.00,3999.00,,,,,,,,,,,KDFW 081955Z AUTO 19014KT 10SM BKN016 OVC039 17/12 A2987 RMK T01700120 MADISHF
DFW,2021-02-08 20:00,,,,,15.00,,29.87,,10.00,,BKN,OVC,,,1699.00,4200.00,,,,,,,,,,,KDFW 082000Z AUTO ///15KT 10SM BKN016 OVC042 17/12 A2987 RMK T01700120 MADISHF
DFW,2021-02-08 20:05,,,,180.00,16.00,,29.87,,10.00,22.00,BKN,OVC,,,1800.00,4200.00,,,,,,,,,,,KDFW 082005Z AUTO 18016G22KT 10SM BKN018 OVC042 17/12 A2987 RMK T01700120 MADISHF
DFW,2021-02-08 20:10,,,,,18.00,,29.87,,10.00,,BKN,OVC,,,1800.00,4200.00,,,,,,,,,,,KDFW 082010Z AUTO ///18KT 10SM BKN018 OVC042 17/12 A2987 RMK T01700120 MADISHF
DFW,2021-02-08 20:15,,,,200.00,15.00,,29.87,,10.00,21.00,BKN,OVC,,,1800.00,4200.00,,,,,,,,,,,KDFW 082015Z AUTO 20015G21KT 10SM BKN018 OVC042 17/12 A2987 RMK T01700120 MADISHF
DFW,2021-02-08 20:20,,,,200.00,16.00,,29.87,,10.00,,BKN,OVC,,,1999.00,4200.00,,,,,,,,,,,KDFW 082020Z AUTO 20016KT 10SM BKN019 OVC042 17/12 A2987 RMK T01700120 MADISHF
DFW,2021-02-08 20:25,,,,200.00,15.00,,29.87,,10.00,,BKN,OVC,,,1999.00,4200.00,,,,,,,,,,,KDFW 082025Z AUTO 20015KT 10SM BKN019 OVC042 17/12 A2987 RMK T01700120 MADISHF
DFW,2021-02-08 20:30,,,,200.00,11.00,,29.87,,10.00,,BKN,OVC,,,1999.00,4200.00,,,,,,,,,,,KDFW 082030Z AUTO 20011KT 10SM BKN019 OVC042 17/12 A2987 RMK T01700120 MADISHF
DFW,2021-02-08 20:35,,,,200.00,11.00,,29.87,,10.00,,BKN,OVC,,,2200.00,4200.00,,,,,,,,,,,KDFW 082035Z AUTO 20011KT 10SM BKN022 OVC042 17/12 A2987 RMK T01700120 MADISHF
DFW,2021-02-08 20:40,,,,200.00,14.00,,29.88,,10.00,,BKN,OVC,,,2200.00,4200.00,,,,,,,,,,,KDFW 082040Z AUTO 20014KT 10SM BKN022 OVC042 17/12 A2987 RMK T01700120 MADISHF
DFW,2021-02-08 20:45,,,,200.00,11.00,,29.87,,10.00,,BKN,OVC,,,2200.00,4200.00,,,,,,,,,,,KDFW 082045Z AUTO 20011KT 10SM BKN022 OVC042 17/12 A2987 RMK T01700120 MADISHF
DFW,2021-02-08 20:50,,,,190.00,13.00,,29.87,,10.00,,BKN,BKN,OVC,,2200.00,2900.00,4100.00,,,,,,,,,,KDFW 082050Z AUTO 19013KT 10SM BKN022 BKN029 OVC041 18/12 A2987 RMK T01800120 MADISHF
DFW,2021-02-08 20:53,63.00,54.00,72.42,190.00,14.00,0.00,29.87,1011.20,10.00,,BKN,BKN,OVC,,2200.00,2700.00,4200.00,,,,,,,,,,KDFW 082053Z 19014KT 10SM BKN022 BKN027 OVC042 17/12 A2987 RMK AO2 SLP112 T01720122 56017
DFW,2021-02-08 20:55,,,,190.00,13.00,,29.87,,10.00,,BKN,BKN,OVC,,2200.00,2700.00,4200.00,,,,,,,,,,KDFW 082055Z AUTO 19013KT 10SM BKN022 BKN027 OVC042 17/12 A2987 RMK T01700120 MADISHF
DFW,2021-02-08 21:00,,,,180.00,13.00,,29.87,,10.00,,SCT,BKN,BKN,,2200.00,2700.00,4200.00,,,,,,,,,,KDFW 082100Z AUTO 18013KT 10SM SCT022 BKN027 BKN042 17/12 A2987 RMK T01700120 MADISHF
DFW,2021-02-08 21:05,,,,190.00,13.00,,29.87,,10.00,,SCT,BKN,BKN,,2200.00,2700.00,4200.00,,,,,,,,,,KDFW 082105Z AUTO 19013KT 10SM SCT022 BKN027 BKN042 18/12 A2987 RMK T01800120 MADISHF
DFW,2021-02-08 21:10,,,,190.00,11.00,,29.87,,10.00,,SCT,BKN,BKN,,2200.00,2700.00,4200.00,,,,,,,,,,KDFW 082110Z AUTO 19011KT 10SM SCT022 BKN027 BKN042 18/12 A2987 RMK T01800120 MADISHF
DFW,2021-02-08 21:15,,,,200.00,11.00,,29.87,,10.00,,SCT,BKN,BKN,,2200.00,2700.00,4200.00,,,,,,,,,,KDFW 082115Z AUTO 20011KT 10SM SCT022 BKN027 BKN042 18/12 A2987 RMK T01800120 MADISHF
DFW,2021-02-08 21:19,64.90,54.00,67.76,190.00,14.00,0.00,29.87,,10.00,,FEW,FEW,SCT,,2200.00,2700.00,4200.00,,,,,,,,,,KDFW 082119Z 19014KT 10SM FEW022 FEW027 SCT042 18/12 A2987 RMK AO2 T01830122
DFW,2021-02-08 21:20,,,,200.00,13.00,,29.87,,10.00,,FEW,FEW,SCT,,2200.00,2700.00,4200.00,,,,,,,,,,KDFW 082120Z AUTO 20013KT 10SM FEW022 FEW027 SCT042 18/12 A2987 RMK T01800120 MADISHF
DFW,2021-02-08 21:25,,,,190.00,11.00,,29.87,,10.00,,FEW,FEW,SCT,,2200.00,2700.00,4200.00,,,,,,,,,,KDFW 082125Z AUTO 19011KT 10SM FEW022 FEW027 SCT042 17/12 A2987 RMK T01700120 MADISHF
DFW,2021-02-08 21:30,,,,190.00,13.00,,29.87,,10.00,,FEW,SCT,BKN,,2100.00,3200.00,4200.00,,,,,,,,,,KDFW 082130Z AUTO 19013KT 10SM FEW021 SCT032 BKN042 18/12 A2987 RMK T01800120 MADISHF
DFW,2021-02-08 21:35,,,,190.00,11.00,,29.87,,10.00,,FEW,SCT,BKN,,2100.00,3200.00,4200.00,,,,,,,,,,KDFW 082135Z AUTO 19011KT 10SM FEW021 SCT032 BKN042 19/13 A2987 RMK T01900130 MADISHF
DFW,2021-02-08 21:40,,,,190.00,11.00,,29.87,,10.00,,FEW,SCT,BKN,,2100.00,3200.00,4200.00,,,,,,,,,,KDFW 082140Z AUTO 19011KT 10SM FEW021 SCT032 BKN042 19/13 A2987 RMK T01900130 MADISHF
DFW,2021-02-08 21:45,,,,200.00,10.00,,29.87,,10.00,,FEW,SCT,BKN,,2100.00,3200.00,4200.00,,,,,,,,,,KDFW 082145Z AUTO 20010KT 10SM FEW021 SCT032 BKN042 19/13 A2987 RMK T01900130 MADISHF
DFW,2021-02-08 21:50,,,,190.00,8.00,,29.88,,10.00,,FEW,BKN,BKN,,2100.00,3200.00,4800.00,,,,,,,,,,KDFW 082150Z AUTO 19008KT 10SM FEW021 BKN032 BKN048 19/12 A2987 RMK T01900120 MADISHF
DFW,2021-02-08 21:53,66.00,54.00,65.21,190.00,9.00,0.00,29.88,1011.30,10.00,,BKN,BKN,,,2900.00,4800.00,,,,,,,,,,,KDFW 082153Z 19009KT 10SM BKN029 BKN048 19/12 A2988 RMK AO2 SLP113 T01890122
DFW,2021-02-08 21:55,,,,200.00,8.00,,29.88,,10.00,,BKN,,,,2900.00,,,,,,,,,,,,KDFW 082155Z AUTO 20008KT 10SM BKN029 19/12 A2987 RMK T01900120 MADISHF
DFW,2021-02-08 22:00,,,,190.00,10.00,,29.87,,10.00,,BKN,,,,2900.00,,,,,,,,,,,,KDFW 082200Z AUTO 19010KT 10SM BKN029 18/12 A2987 RMK T01800120 MADISHF
DFW,2021-02-08 22:05,,,,190.00,10.00,,29.87,,10.00,,SCT,,,,2900.00,,,,,,,,,,,,KDFW 082205Z AUTO 19010KT 10SM SCT029 19/12 A2987 RMK T01900120 MADISHF
DFW,2021-02-08 22:10,,,,180.00,11.00,,29.87,,10.00,,BKN,,,,2900.00,,,,,,,,,,,,KDFW 082210Z AUTO 18011KT 10SM BKN029 19/12 A2987 RMK T01900120 MADISHF
DFW,2021-02-08 22:15,,,,190.00,11.00,,29.87,,10.00,,SCT,SCT,,,2900.00,4800.00,,,,,,,,,,,KDFW 082215Z AUTO 19011KT 10SM SCT029 SCT048 19/12 A2987 RMK T01900120 MADISHF
DFW,2021-02-08 22:19,64.90,54.00,67.76,180.00,12.00,0.00,29.87,,10.00,,SCT,SCT,,,2900.00,4800.00,,,,,,,,,,,KDFW 082219Z 18012KT 10SM SCT029 SCT048 18/12 A2987 RMK AO2 T01830122
DFW,2021-02-08 22:20,,,,180.00,11.00,,29.87,,10.00,,SCT,SCT,,,2900.00,4800.00,,,,,,,,,,,KDFW 082220Z AUTO 18011KT 10SM SCT029 SCT048 18/12 A2987 RMK T01800120 MADISHF
DFW,2021-02-08 22:25,,,,,11.00,,29.87,,10.00,,SCT,SCT,,,2900.00,4800.00,,,,,,,,,,,KDFW 082225Z AUTO ///11KT 10SM SCT029 SCT048 19/13 A2987 RMK T01900130 MADISHF
DFW,2021-02-08 22:30,,,,,11.00,,29.87,,10.00,,SCT,SCT,,,2900.00,4800.00,,,,,,,,,,,KDFW 082230Z AUTO ///11KT 10SM SCT029 SCT048 19/13 A2987 RMK T01900130 MADISHF
DFW,2021-02-08 22:35,,,,,11.00,,29.87,,10.00,,SCT,SCT,,,2900.00,4800.00,,,,,,,,,,,KDFW 082235Z AUTO ///11KT 10SM SCT029 SCT048 19/13 A2987 RMK T01900130 MADISHF
DFW,2021-02-08 22:40,,,,180.00,10.00,,29.87,,10.00,,SCT,SCT,,,2900.00,4800.00,,,,,,,,,,,KDFW 082240Z AUTO 18010KT 10SM SCT029 SCT048 19/13 A2987 RMK T01900130 MADISHF
DFW,2021-02-08 22:45,,,,170.00,10.00,,29.87,,10.00,,SCT,SCT,,,2900.00,4800.00,,,,,,,,,,,KDFW 082245Z AUTO 17010KT 10SM SCT029 SCT048 19/13 A2987 RMK T01900130 MADISHF
DFW,2021-02-08 22:50,,,,,11.00,,29.88,,10.00,,SCT,SCT,,,2900.00,4800.00,,,,,,,,,,,KDFW 082250Z AUTO ///11KT 10SM SCT029 SCT048 19/13 A2987 RMK T01900130 MADISHF
DFW,2021-02-08 22:53,64.90,55.00,70.28,180.00,11.00,0.00,29.87,1011.20,10.00,,SCT,SCT,,,2900.00,4800.00,,,,,,,,,,,KDFW 082253Z 18011KT 10SM SCT029 SCT048 18/13 A2987 RMK AO2 SLP112 T01830128
DFW,2021-02-08 22:55,,,,,11.00,,29.87,,10.00,,CLR,,,,,,,,,,,,,,,,KDFW 082255Z AUTO ///11KT 10SM CLR 18/13 A2987 RMK T01800130 MADISHF
DFW,2021-02-08 23:00,,,,,10.00,,29.88,,10.00,,FEW,SCT,,,3100.00,4200.00,,,,,,,,,,,KDFW 082300Z AUTO ///10KT 10SM FEW031 SCT042 18/13 A2987 RMK T01800130 MADISHF
DFW,2021-02-08 23:05,,,,,9.00,,29.88,,10.00,,SCT,BKN,,,3100.00,4200.00,,,,,,,,,,,KDFW 082305Z AUTO ///09KT 10SM SCT031 BKN042 18/13 A2987 RMK T01800130 MADISHF
DFW,2021-02-08 23:10,,,,,9.00,,29.88,,10.00,,SCT,BKN,,,3100.00,4200.00,,,,,,,,,,,KDFW 082310Z AUTO ///09KT 10SM SCT031 BKN042 19/13 A2987 RMK T01900130 MADISHF
DFW,2021-02-08 23:15,,,,,9.00,,29.88,,10.00,,SCT,BKN,,,3100.00,3700.00,,,,,,,,,,,KDFW 082315Z AUTO ///09KT 10SM SCT031 BKN037 19/13 A2987 RMK T01900130 MADISHF
DFW,2021-02-08 23:20,,,,,9.00,,29.88,,10.00,,SCT,BKN,,,3000.00,3700.00,,,,,,,,,,,KDFW 082320Z AUTO ///09KT 10SM SCT030 BKN037 18/13 A2987 RMK T01800130 MADISHF
DFW,2021-02-08 23:21,64.90,55.00,70.28,190.00,9.00,0.00,29.88,,10.00,,SCT,BKN,,,3000.00,3700.00,,,,,,,,,,,KDFW 082321Z 19009KT 10SM SCT030 BKN037 18/13 A2988 RMK AO2 T01830128
DFW,2021-02-08 23:25,,,,,8.00,,29.88,,10.00,,SCT,BKN,,,3000.00,3700.00,,,,,,,,,,,KDFW 082325Z AUTO ///08KT 10SM SCT030 BKN037 18/13 A2987 RMK T01800130 MADISHF
DFW,2021-02-08 23:30,,,,,8.00,,29.88,,10.00,,SCT,BKN,,,3000.00,3700.00,,,,,,,,,,,KDFW 082330Z AUTO ///08KT 10SM SCT030 BKN037 18/13 A2987 RMK T01800130 MADISHF
DFW,2021-02-08 23:35,,,,200.00,5.00,,29.89,,10.00,,SCT,BKN,,,3000.00,3700.00,,,,,,,,,,,KDFW 082335Z AUTO 20005KT 10SM SCT030 BKN037 18/13 A2988 RMK T01800130 MADISHF
DFW,2021-02-08 23:40,,,,240.00,5.00,,29.89,,10.00,,FEW,BKN,,,3300.00,4200.00,,,,,,,,,,,KDFW 082340Z AUTO 24005KT 10SM FEW033 BKN042 18/13 A2988 RMK T01800130 VRB06KT  MADISHF
DFW,2021-02-08 23:45,,,,310.00,14.00,,29.90,,10.00,,SCT,BKN,,,2900.00,4200.00,,,,,,,,,,,KDFW 082345Z AUTO 31014KT 10SM SCT029 BKN042 16/09 A2989 RMK T01600090  WSHFT 42 MADISHF
DFW,2021-02-08 23:50,,,,320.00,19.00,,29.90,,10.00,23.00,SCT,BKN,BKN,,2700.00,3200.00,4300.00,,,,,,,,,,KDFW 082350Z AUTO 32019G23KT 10SM SCT027 BKN032 BKN043 15/07 A2989 RMK T01500070  WSHFT 42 MADISHF
DFW,2021-02-08 23:53,57.90,45.00,62.07,330.00,20.00,0.00,29.90,1012.30,10.00,24.00,BKN,BKN,BKN,,2700.00,3200.00,4300.00,,,,,,,,,,KDFW 082353Z 33020G24KT 10SM BKN027 BKN032 BKN043 14/07 A2990 RMK AO2 SLP123 WSHFT 42 FROPA T01440072 10194 20133 53010
DFW,2021-02-08 23:55,,,,,17.00,,29.90,,10.00,,BKN,BKN,OVC,,2700.00,3200.00,4300.00,,,,,,,,,,KDFW 082355Z AUTO ///17KT 10SM BKN027 BKN032 OVC043 14/07 A2989 RMK T01400070 MADISHF
DFW,2021-02-09 00:00,,,,320.00,14.00,,29.91,,10.00,,BKN,OVC,,,2700.00,4300.00,,,,,,,,,,,KDFW 090000Z AUTO 32014KT 10SM BKN027 OVC043 14/07 A2990 RMK T01400070 MADISHF
DFW,2021-02-09 00:05,,,,330.00,17.00,,29.91,,10.00,,BKN,OVC,,,2700.00,4300.00,,,,,,,,,,,KDFW 090005Z AUTO 33017KT 10SM BKN027 OVC043 14/06 A2990 RMK T01400060 MADISHF
DFW,2021-02-09 00:10,,,,330.00,15.00,,29.92,,10.00,,BKN,BKN,OVC,,2700.00,3300.00,4300.00,,,,,,,,,,KDFW 090010Z AUTO 33015KT 10SM BKN027 BKN033 OVC043 13/06 A2992 RMK T01300060 MADISHF
DFW,2021-02-09 00:15,,,,330.00,17.00,,29.92,,10.00,,BKN,BKN,BKN,,2700.00,3500.00,4300.00,,,,,,,,,,KDFW 090015Z AUTO 33017KT 10SM BKN027 BKN035 BKN043 13/06 A2992 RMK T01300060 MADISHF
DFW,2021-02-09 00:20,,,,320.00,16.00,,29.92,,10.00,,SCT,BKN,,,2700.00,3500.00,,,,,,,,,,,KDFW 090020Z AUTO 32016KT 10SM SCT027 BKN035 12/06 A2992 RMK T01200060 MADISHF
DFW,2021-02-09 00:24,53.10,41.00,63.38,330.00,17.00,0.00,29.93,,10.00,,SCT,BKN,,,2900.00,3500.00,,,,,,,,,,,KDFW 090024Z 33017KT 10SM SCT029 BKN035 12/05 A2993 RMK AO2 WSHFT 2342 T01170050
DFW,2021-02-09 00:25,,,,,18.00,,29.93,,10.00,22.00,SCT,BKN,BKN,,2900.00,3500.00,4300.00,,,,,,,,,,KDFW 090025Z AUTO ///18G22KT 10SM SCT029 BKN035 BKN043 12/05 A2993 RMK T01200050 MADISHF
DFW,2021-02-09 00:30,,,,,19.00,,29.93,,10.00,,SCT,BKN,,,2900.00,3500.00,,,,,,,,,,,KDFW 090030Z AUTO ///19KT 10SM SCT029 BKN035 11/04 A2993 RMK T01100040 MADISHF
DFW,2021-02-09 00:35,,,,,17.00,,29.94,,10.00,,BKN,,,,3300.00,,,,,,,,,,,,KDFW 090035Z AUTO ///17KT 10SM BKN033 11/04 A2994 RMK T01100040 MADISHF
DFW,2021-02-09 00:40,,,,330.00,16.00,,29.94,,10.00,21.00,SCT,,,,3300.00,,,,,,,,,,,,KDFW 090040Z AUTO 33016G21KT 10SM SCT033 10/04 A2994 RMK T01000040 MADISHF
DFW,2021-02-09 00:45,,,,330.00,17.00,,29.94,,10.00,22.00,SCT,,,,3300.00,,,,,,,,,,,,KDFW 090045Z AUTO 33017G22KT 10SM SCT033 10/04 A2994 RMK T01000040 MADISHF
DFW,2021-02-09 00:50,,,,,17.00,,29.95,,10.00,,FEW,FEW,,,3000.00,3500.00,,,,,,,,,,,KDFW 090050Z AUTO ///17KT 10SM FEW030 FEW035 09/04 A2995 RMK T00900040 MADISHF
DFW,2021-02-09 00:53,48.00,39.00,70.85,340.00,17.00,0.00,29.96,1014.20,10.00,,FEW,FEW,,,3000.00,3700.00,,,,,,,,,,41.04,KDFW 090053Z 34017KT 10SM FEW030 FEW037 09/04 A2996 RMK AO2 WSHFT 2342 SLP142 T00890039
DFW,2021-02-09 00:55,,,,340.00,15.00,,29.96,,10.00,,FEW,,,,3300.00,,,,,,,,,,,,KDFW 090055Z AUTO 34015KT 10SM FEW033 09/04 A2995 RMK T00900040 MADISHF
DFW,2021-02-09 01:00,,,,,18.00,,29.96,,10.00,,FEW,,,,3500.00,,,,,,,,,,,,KDFW 090100Z AUTO ///18KT 10SM FEW035 08/04 A2995 RMK T00800040 MADISHF
DFW,2021-02-09 01:05,,,,,17.00,,29.96,,10.00,,CLR,,,,,,,,,,,,,,,,KDFW 090105Z AUTO ///17KT 10SM CLR 08/04 A2995 RMK T00800040 MADISHF
DFW,2021-02-09 01:10,,,,340.00,14.00,,29.97,,10.00,,CLR,,,,,,,,,,,,,,,,KDFW 090110Z AUTO 34014KT 10SM CLR 08/03 A2996 RMK T00800030 MADISHF
DFW,2021-02-09 01:15,,,,330.00,14.00,,29.97,,10.00,,CLR,,,,,,,,,,,,,,,,KDFW 090115Z AUTO 33014KT 10SM CLR 08/03 A2996 RMK T00800030 MADISHF
DFW,2021-02-09 01:20,,,,,15.00,,29.97,,10.00,,CLR,,,,,,,,,,,,,,,,KDFW 090120Z AUTO ///15KT 10SM CLR 07/03 A2996 RMK T00700030 MADISHF
DFW,2021-02-09 01:25,,,,,16.00,,29.98,,10.00,,CLR,,,,,,,,,,,,,,,,KDFW 090125Z AUTO ///16KT 10SM CLR 07/03 A2997 RMK T00700030 MADISHF
DFW,2021-02-09 01:30,,,,,17.00,,29.98,,10.00,22.00,CLR,,,,,,,,,,,,,,,,KDFW 090130Z AUTO ///17G22KT 10SM CLR 07/03 A2997 RMK T00700030 MADISHF
DFW,2021-02-09 01:35,,,,,17.00,,29.98,,10.00,,CLR,,,,,,,,,,,,,,,,KDFW 090135Z AUTO ///17KT 10SM CLR 07/03 A2997 RMK T00700030 MADISHF
DFW,2021-02-09 01:40,,,,,20.00,,29.99,,10.00,,FEW,,,,3100.00,,,,,,,,,,,,KDFW 090140Z AUTO ///20KT 10SM FEW031 07/03 A2998 RMK T00700030 MADISHF
DFW,2021-02-09 01:45,,,,,16.00,,29.99,,10.00,22.00,SCT,,,,3100.00,,,,,,,,,,,,KDFW 090145Z AUTO ///16G22KT 10SM SCT031 06/02 A2998 RMK T00600020 MADISHF
DFW,2021-02-09 01:50,,,,,18.00,,29.99,,10.00,,BKN,,,,3100.00,,,,,,,,,,,,KDFW 090150Z AUTO ///18KT 10SM BKN031 06/02 A2998 RMK T00600020 MADISHF
DFW,2021-02-09 01:53,43.00,36.00,76.12,340.00,16.00,0.00,29.99,1015.40,10.00,,BKN,,,,3200.00,,,,,,,,,,,34.76,KDFW 090153Z 34016KT 10SM BKN032 06/02 A2999 RMK AO2 SLP154 T00610022
DFW,2021-02-09 01:55,,,,,16.00,,29.99,,10.00,21.00,BKN,,,,3200.00,,,,,,,,,,,,KDFW 090155Z AUTO ///16G21KT 10SM BKN032 06/02 A2998 RMK T00600020 MADISHF
DFW,2021-02-09 02:00,,,,330.00,16.00,,29.99,,10.00,,BKN,,,,3200.00,,,,,,,,,,,,KDFW 090200Z AUTO 33016KT 10SM BKN032 06/02 A2998 RMK T00600020 MADISHF
DFW,2021-02-09 02:05,,,,330.00,13.00,,29.99,,10.00,,OVC,,,,3300.00,,,,,,,,,,,,KDFW 090205Z AUTO 33013KT 10SM OVC033 06/02 A2998 RMK T00600020 MADISHF
DFW,2021-02-09 02:10,,,,330.00,15.00,,30.00,,10.00,,OVC,,,,3300.00,,,,,,,,,,,,KDFW 090210Z AUTO 33015KT 10SM OVC033 06/03 A3000 RMK T00600030 MADISHF
DFW,2021-02-09 02:15,,,,330.00,13.00,,30.00,,10.00,,OVC,,,,3300.00,,,,,,,,,,,,KDFW 090215Z AUTO 33013KT 10SM OVC033 06/03 A3000 RMK T00600030 MADISHF
DFW,2021-02-09 02:20,,,,330.00,13.00,,30.00,,10.00,,OVC,,,,3300.00,,,,,,,,,,,,KDFW 090220Z AUTO 33013KT 10SM OVC033 06/02 A3000 RMK T00600020 MADISHF
DFW,2021-02-09 02:25,,,,330.00,13.00,,30.00,,10.00,,OVC,,,,3399.00,,,,,,,,,,,,KDFW 090225Z AUTO 33013KT 10SM OVC033 06/02 A3000 RMK T00600020 MADISHF
DFW,2021-02-09 02:30,,,,330.00,14.00,,30.00,,10.00,,BKN,,,,3399.00,,,,,,,,,,,,KDFW 090230Z AUTO 33014KT 10SM BKN033 06/02 A3000 RMK T00600020 MADISHF
DFW,2021-02-09 02:35,,,,330.00,14.00,,30.00,,10.00,,BKN,,,,3399.00,,,,,,,,,,,,KDFW 090235Z AUTO 33014KT 10SM BKN033 05/02 A3000 RMK T00500020 MADISHF
DFW,2021-02-09 02:40,,,,330.00,13.00,,30.01,,10.00,,BKN,,,,3500.00,,,,,,,,,,,,KDFW 090240Z AUTO 33013KT 10SM BKN035 05/02 A3001 RMK T00500020 MADISHF
DFW,2021-02-09 02:45,,,,330.00,13.00,,30.01,,10.00,,FEW,SCT,,,1100.00,3500.00,,,,,,,,,,,KDFW 090245Z AUTO 33013KT 10SM FEW011 SCT035 05/02 A3001 RMK T00500020 MADISHF
DFW,2021-02-09 02:50,,,,340.00,11.00,,30.00,,10.00,,FEW,SCT,,,1100.00,3500.00,,,,,,,,,,,KDFW 090250Z AUTO 34011KT 10SM FEW011 SCT035 05/02 A3000 RMK T00500020 MADISHF
DFW,2021-02-09 02:53,41.00,36.00,82.22,340.00,13.00,0.00,30.01,1016.00,10.00,,SCT,,,,3700.00,,,,,,,,,,,33.10,KDFW 090253Z 34013KT 10SM SCT037 05/02 A3001 RMK AO2 SLP160 T00500022 51035
DFW,2021-02-09 02:55,,,,330.00,13.00,,30.01,,10.00,,FEW,,,,3700.00,,,,,,,,,,,,KDFW 090255Z AUTO 33013KT 10SM FEW037 05/02 A3001 RMK T00500020 MADISHF
DFW,2021-02-09 03:00,,,,340.00,11.00,,30.01,,10.00,,FEW,,,,3700.00,,,,,,,,,,,,KDFW 090300Z AUTO 34011KT 10SM FEW037 05/02 A3001 RMK T00500020 MADISHF
DFW,2021-02-09 03:05,,,,340.00,10.00,,30.01,,10.00,,FEW,SCT,,,1100.00,3700.00,,,,,,,,,,,KDFW 090305Z AUTO 34010KT 10SM FEW011 SCT037 05/02 A3001 RMK T00500020 MADISHF
DFW,2021-02-09 03:10,,,,340.00,11.00,,30.01,,10.00,,SCT,BKN,,,1100.00,3700.00,,,,,,,,,,,KDFW 090310Z AUTO 34011KT 10SM SCT011 BKN037 04/02 A3001 RMK T00400020 MADISHF
DFW,2021-02-09 03:15,,,,340.00,11.00,,30.01,,10.00,,SCT,BKN,,,1100.00,3700.00,,,,,,,,,,,KDFW 090315Z AUTO 34011KT 10SM SCT011 BKN037 04/02 A3001 RMK T00400020 MADISHF
DFW,2021-02-09 03:20,,,,340.00,11.00,,30.01,,10.00,,BKN,BKN,,,1100.00,3700.00,,,,,,,,,,,KDFW 090320Z AUTO 34011KT 10SM BKN011 BKN037 05/02 A3001 RMK T00500020 MADISHF
DFW,2021-02-09 03:22,41.00,36.00,82.22,350.00,11.00,0.00,30.01,,10.00,,BKN,BKN,,,1100.00,3700.00,,,,,,,,,,33.84,KDFW 090322Z 35011KT 10SM BKN011 BKN037 05/02 A3001 RMK AO2 T00500022
DFW,2021-02-09 03:25,,,,340.00,11.00,,30.02,,10.00,16.00,BKN,BKN,,,1100.00,3700.00,,,,,,,,,,,KDFW 090325Z AUTO 34011G16KT 10SM BKN011 BKN037 05/02 A3002 RMK T00500020 MADISHF
DFW,2021-02-09 03:30,,,,340.00,11.00,,30.02,,10.00,,BKN,OVC,,,999.00,3700.00,,,,,,,,,,,KDFW 090330Z AUTO 34011KT 10SM BKN009 OVC037 05/02 A3002 RMK T00500020 MADISHF
DFW,2021-02-09 03:35,,,,330.00,13.00,,30.02,,10.00,,OVC,,,,999.00,,,,,,,,,,,,KDFW 090335Z AUTO 33013KT 10SM OVC009 05/02 A3002 RMK T00500020 MADISHF
DFW,2021-02-09 03:40,,,,340.00,11.00,,30.03,,10.00,,OVC,,,,999.00,,,,,,,,,,,,KDFW 090340Z AUTO 34011KT 10SM OVC009 04/02 A3003 RMK T00400020 MADISHF
DFW,2021-02-09 03:45,,,,340.00,11.00,,30.02,,10.00,,OVC,,,,1100.00,,,,,,,,,,,,KDFW 090345Z AUTO 34011KT 10SM OVC011 05/02 A3002 RMK T00500020 MADISHF
DFW,2021-02-09 03:50,,,,340.00,10.00,,30.02,,10.00,,OVC,,,,1100.00,,,,,,,,,,,,KDFW 090350Z AUTO 34010KT 10SM OVC011 05/02 A3002 RMK T00500020 MADISHF
DFW,2021-02-09 03:53,39.90,36.00,85.81,340.00,10.00,0.00,30.02,1016.70,10.00,,OVC,,,,1100.00,,,,,,,,,,,32.87,KDFW 090353Z 34010KT 10SM OVC011 04/02 A3002 RMK AO2 SLP167 T00440022
DFW,2021-02-09 03:55,,,,340.00,8.00,,30.03,,10.00,,OVC,,,,1100.00,,,,,,,,,,,,KDFW 090355Z AUTO 34008KT 10SM OVC011 04/02 A3003 RMK T00400020 MADISHF
DFW,2021-02-09 04:00,,,,350.00,11.00,,30.03,,10.00,,OVC,,,,1100.00,,,,,,,,,,,,KDFW 090400Z AUTO 35011KT 10SM OVC011 05/02 A3003 RMK T00500020 MADISHF
DFW,2021-02-09 04:05,,,,,11.00,,30.03,,10.00,,OVC,,,,1100.00,,,,,,,,,,,,KDFW 090405Z AUTO ///11KT 10SM OVC011 04/02 A3003 RMK T00400020 MADISHF
DFW,2021-02-09 04:10,,,,,11.00,,30.03,,10.00,,OVC,,,,999.00,,,,,,,,,,,,KDFW 090410Z AUTO ///11KT 10SM OVC009 04/02 A3003 RMK T00400020 MADISHF
DFW,2021-02-09 04:15,,,,,13.00,,30.03,,10.00,,OVC,,,,999.00,,,,,,,,,,,,KDFW 090415Z AUTO ///13KT 10SM OVC009 04/02 A3003 RMK T00400020 MADISHF
DFW,2021-02-09 04:20,,,,360.00,11.00,,30.03,,10.00,,OVC,,,,999.00,,,,,,,,,,,,KDFW 090420Z AUTO 36011KT 10SM OVC009 04/02 A3003 RMK T00400020 MADISHF
DFW,2021-02-09 04:25,,,,,13.00,,30.03,,10.00,,OVC,,,,900.00,,,,,,,,,,,,KDFW 090425Z AUTO ///13KT 10SM OVC009 04/02 A3003 RMK T00400020 MADISHF
DFW,2021-02-09 04:30,,,,,13.00,,30.04,,10.00,,OVC,,,,900.00,,,,,,,,,,,,KDFW 090430Z AUTO ///13KT 10SM OVC009 04/02 A3004 RMK T00400020 MADISHF
DFW,2021-02-09 04:31,39.90,36.00,85.81,350.00,13.00,0.00,30.04,,10.00,,OVC,,,,900.00,,,,,,,,,,,31.69,KDFW 090431Z 35013KT 10SM OVC009 04/02 A3004 RMK AO2 T00440022
DFW,2021-02-09 04:35,,,,350.00,11.00,,30.04,,10.00,,OVC,,,,900.00,,,,,,,,,,,,KDFW 090435Z AUTO 35011KT 10SM OVC009 04/02 A3004 RMK T00400020 MADISHF
DFW,2021-02-09 04:40,,,,,13.00,,30.04,,10.00,,OVC,,,,900.00,,,,,,,,,,,,KDFW 090440Z AUTO ///13KT 10SM OVC009 04/02 A3004 RMK T00400020 MADISHF
DFW,2021-02-09 04:45,,,,,13.00,,30.04,,10.00,,OVC,,,,900.00,,,,,,,,,,,,KDFW 090445Z AUTO ///13KT 10SM OVC009 04/02 A3004 RMK T00400020 MADISHF
DFW,2021-02-09 04:50,,,,350.00,11.00,,30.04,,10.00,,OVC,,,,900.00,,,,,,,,,,,,KDFW 090450Z AUTO 35011KT 10SM OVC009 04/02 A3004 RMK T00400020 MADISHF
DFW,2021-02-09 04:53,39.90,36.00,85.81,350.00,12.00,0.00,30.04,1017.10,10.00,,OVC,,,,900.00,,,,,,,,,,,32.06,KDFW 090453Z 35012KT 10SM OVC009 04/02 A3004 RMK AO2 SLP171 T00440022
DFW,2021-02-09 04:55,,,,,14.00,,30.04,,10.00,,OVC,,,,900.00,,,,,,,,,,,,KDFW 090455Z AUTO ///14KT 10SM OVC009 04/02 A3004 RMK T00400020 MADISHF
DFW,2021-02-09 05:00,,,,350.00,11.00,,30.04,,10.00,,OVC,,,,800.00,,,,,,,,,,,,KDFW 090500Z AUTO 35011KT 10SM OVC008 04/02 A3004 RMK T00400020 MADISHF
DFW,2021-02-09 05:05,,,,,13.00,,30.04,,10.00,,OVC,,,,800.00,,,,,,,,,,,,KDFW 090505Z AUTO ///13KT 10SM OVC008 04/02 A3004 RMK T00400020 MADISHF
DFW,2021-02-09 05:10,,,,350.00,10.00,,30.04,,10.00,,OVC,,,,800.00,,,,,,,,,,,,KDFW 090510Z AUTO 35010KT 10SM OVC008 04/02 A3004 RMK T00400020 MADISHF
DFW,2021-02-09 05:15,,,,350.00,11.00,,30.05,,10.00,,OVC,,,,800.00,,,,,,,,,,,,KDFW 090515Z AUTO 35011KT 10SM OVC008 04/02 A3004 RMK T00400020 MADISHF
DFW,2021-02-09 05:20,,,,340.00,11.00,,30.05,,10.00,,OVC,,,,800.00,,,,,,,,,,,,KDFW 090520Z AUTO 34011KT 10SM OVC008 04/02 A3004 RMK T00400020 MADISHF
DFW,2021-02-09 05:25,,,,350.00,11.00,,30.04,,10.00,,OVC,,,,800.00,,,,,,,,,,,,KDFW 090525Z AUTO 35011KT 10SM OVC008 04/02 A3004 RMK T00400020 MADISHF
DFW,2021-02-09 05:30,,,,340.00,11.00,,30.05,,10.00,,OVC,,,,800.00,,,,,,,,,,,,KDFW 090530Z AUTO 34011KT 10SM OVC008 04/02 A3004 RMK T00400020 MADISHF
DFW,2021-02-09 05:35,,,,350.00,10.00,,30.05,,10.00,,OVC,,,,800.00,,,,,,,,,,,,KDFW 090535Z AUTO 35010KT 10SM OVC008 04/02 A3004 RMK T00400020 MADISHF
DFW,2021-02-09 05:40,,,,340.00,11.00,,30.05,,10.00,,OVC,,,,800.00,,,,,,,,,,,,KDFW 090540Z AUTO 34011KT 10SM OVC008 04/02 A3004 RMK T00400020 MADISHF
DFW,2021-02-09 05:45,,,,340.00,11.00,,30.05,,10.00,,OVC,,,,800.00,,,,,,,,,,,,KDFW 090545Z AUTO 34011KT 10SM OVC008 04/02 A3004 RMK T00400020 MADISHF
DFW,2021-02-09 05:50,,,,350.00,9.00,,30.05,,10.00,,OVC,,,,800.00,,,,,,,,,,,,KDFW 090550Z AUTO 35009KT 10SM OVC008 04/02 A3004 RMK T00400020 MADISHF
DFW,2021-02-09 05:53,39.00,36.00,88.87,350.00,9.00,0.00,30.05,1017.50,10.00,,OVC,,,,800.00,,,,,,,,,,,32.22,KDFW 090553Z 35009KT 10SM OVC008 04/02 A3005 RMK AO2 SLP175 T00390022 10144 20039 401940039 51015
DFW,2021-02-09 05:55,,,,340.00,10.00,,30.05,,10.00,,OVC,,,,800.00,,,,,,,,,,,,KDFW 090555Z AUTO 34010KT 10SM OVC008 04/02 A3004 RMK T00400020 MADISHF
DFW,2021-02-09 06:00,,,,340.00,10.00,,30.05,,10.00,,OVC,,,,700.00,,,,,,,,,,,,KDFW 090600Z AUTO 34010KT 10SM OVC007 04/02 A3004 RMK T00400020 MADISHF
DFW,2021-02-09 06:05,,,,340.00,9.00,,30.05,,10.00,,OVC,,,,700.00,,,,,,,,,,,,KDFW 090605Z AUTO 34009KT 10SM OVC007 04/02 A3004 RMK T00400020 MADISHF
DFW,2021-02-09 06:10,,,,350.00,8.00,,30.05,,10.00,,OVC,,,,700.00,,,,,,,,,,,,KDFW 090610Z AUTO 35008KT 10SM OVC007 04/02 A3004 RMK T00400020 MADISHF
DFW,2021-02-09 06:15,,,,340.00,10.00,,30.05,,10.00,,OVC,,,,700.00,,,,,,,,,,,,KDFW 090615Z AUTO 34010KT 10SM OVC007 04/02 A3004 RMK T00400020 MADISHF
DFW,2021-02-09 06:20,,,,350.00,9.00,,30.05,,10.00,,OVC,,,,700.00,,,,,,,,,,,,KDFW 090620Z AUTO 35009KT 10SM OVC007 04/02 A3004 RMK T00400020 MADISHF
DFW,2021-02-09 06:25,,,,340.00,10.00,,30.05,,10.00,,OVC,,,,700.00,,,,,,,,,,,,KDFW 090625Z AUTO 34010KT 10SM OVC007 04/02 A3004 RMK T00400020 MADISHF
DFW,2021-02-09 06:30,,,,350.00,9.00,,30.06,,10.00,,OVC,,,,700.00,,,,,,,,,,,,KDFW 090630Z AUTO 35009KT 10SM OVC007 04/02 A3005 RMK T00400020 MADISHF
DFW,2021-02-09 06:35,,,,10.00,10.00,,30.05,,10.00,,OVC,,,,700.00,,,,,,,,,,,,KDFW 090635Z AUTO 01010KT 10SM OVC007 04/02 A3004 RMK T00400020 MADISHF
DFW,2021-02-09 06:40,,,,10.00,9.00,,30.05,,9.00,,OVC,,,,600.00,,,,,,,,,,,,KDFW 090640Z AUTO 01009KT 9SM OVC006 03/02 A3004 RMK T00300020 MADISHF
DFW,2021-02-09 06:45,,,,10.00,7.00,,30.06,,9.00,,OVC,,,,600.00,,,,,,,,,,,,KDFW 090645Z AUTO 01007KT 9SM OVC006 03/02 A3005 RMK T00300020 MADISHF
DFW,2021-02-09 06:50,,,,360.00,11.00,,30.06,,10.00,,OVC,,,,600.00,,,,,,,,,,,,KDFW 090650Z AUTO 36011KT 10SM OVC006 04/02 A3005 RMK T00400020 MADISHF
DFW,2021-02-09 06:53,39.00,36.00,88.87,350.00,12.00,0.00,30.06,1017.60,10.00,,OVC,,,,600.00,,,,,,,,,,,30.91,KDFW 090653Z 35012KT 10SM OVC006 04/02 A3006 RMK AO2 SLP176 T00390022
DFW,2021-02-09 06:55,,,,340.00,10.00,,30.06,,10.00,,OVC,,,,600.00,,,,,,,,,,,,KDFW 090655Z AUTO 34010KT 10SM OVC006 04/02 A3005 RMK T00400020 MADISHF
DFW,2021-02-09 07:00,,,,350.00,11.00,,30.06,,10.00,,OVC,,,,600.00,,,,,,,,,,,,KDFW 090700Z AUTO 35011KT 10SM OVC006 03/02 A3005 RMK T00300020 MADISHF
DFW,2021-02-09 07:05,,,,350.00,11.00,,30.06,,10.00,,OVC,,,,600.00,,,,,,,,,,,,KDFW 090705Z AUTO 35011KT 10SM OVC006 03/02 A3005 RMK T00300020 MADISHF
DFW,2021-02-09 07:10,,,,360.00,10.00,,30.06,,10.00,,OVC,,,,600.00,,,,,,,,,,,,KDFW 090710Z AUTO 36010KT 10SM OVC006 03/02 A3005 RMK T00300020 MADISHF
DFW,2021-02-09 07:15,,,,350.00,13.00,,30.06,,10.00,,OVC,,,,600.00,,,,,,,,,,,,KDFW 090715Z AUTO 35013KT 10SM OVC006 03/02 A3005 RMK T00300020 MADISHF
DFW,2021-02-09 07:20,,,,360.00,10.00,,30.06,,10.00,,OVC,,,,700.00,,,,,,,,,,,,KDFW 090720Z AUTO 36010KT 10SM OVC007 03/02 A3005 RMK T00300020 MADISHF
DFW,2021-02-09 07:25,,,,360.00,10.00,,30.07,,10.00,,OVC,,,,700.00,,,,,,,,,,,,KDFW 090725Z AUTO 36010KT 10SM OVC007 03/02 A3006 RMK T00300020 MADISHF
DFW,2021-02-09 07:30,,,,350.00,11.00,,30.07,,10.00,,OVC,,,,800.00,,,,,,,,,,,,KDFW 090730Z AUTO 35011KT 10SM OVC008 03/02 A3006 RMK T00300020 MADISHF
DFW,2021-02-09 07:35,,,,330.00,11.00,,30.07,,10.00,,OVC,,,,800.00,,,,,,,,,,,,KDFW 090735Z AUTO 33011KT 10SM OVC008 03/02 A3006 RMK T00300020 MADISHF
DFW,2021-02-09 07:40,,,,340.00,11.00,,30.07,,10.00,,OVC,,,,900.00,,,,,,,,,,,,KDFW 090740Z AUTO 34011KT 10SM OVC009 03/02 A3006 RMK T00300020 MADISHF
DFW,2021-02-09 07:45,,,,340.00,11.00,,30.07,,10.00,,OVC,,,,900.00,,,,,,,,,,,,KDFW 090745Z AUTO 34011KT 10SM OVC009 03/02 A3006 RMK T00300020 MADISHF
DFW,2021-02-09 07:50,,,,340.00,11.00,,30.07,,10.00,,OVC,,,,900.00,,,,,,,,,,,,KDFW 090750Z AUTO 34011KT 10SM OVC009 03/02 A3006 RMK T00300020 MADISHF
DFW,2021-02-09 07:53,37.90,35.10,89.53,340.00,10.00,0.00,30.07,1018.10,10.00,,OVC,,,,900.00,,,,,,,,,,,30.37,KDFW 090753Z 34010KT 10SM OVC009 03/02 A3007 RMK AO2 SLP181 T00330017
DFW,2021-02-09 07:55,,,,340.00,11.00,,30.07,,10.00,,OVC,,,,900.00,,,,,,,,,,,,KDFW 090755Z AUTO 34011KT 10SM OVC009 03/02 A3006 RMK T00300020 MADISHF
DFW,2021-02-09 08:00,,,,360.00,11.00,,30.07,,10.00,,OVC,,,,900.00,,,,,,,,,,,,KDFW 090800Z AUTO 36011KT 10SM OVC009 03/01 A3006 RMK T00300010 MADISHF
DFW,2021-02-09 08:05,,,,340.00,10.00,,30.07,,10.00,,OVC,,,,900.00,,,,,,,,,,,,KDFW 090805Z AUTO 34010KT 10SM OVC009 03/01 A3006 RMK T00300010 MADISHF
DFW,2021-02-09 08:10,,,,340.00,13.00,,30.07,,10.00,,OVC,,,,900.00,,,,,,,,,,,,KDFW 090810Z AUTO 34013KT 10SM OVC009 03/01 A3006 RMK T00300010 MADISHF
DFW,2021-02-09 08:15,,,,340.00,11.00,,30.07,,10.00,,OVC,,,,900.00,,,,,,,,,,,,KDFW 090815Z AUTO 34011KT 10SM OVC009 03/01 A3006 RMK T00300010 MADISHF
DFW,2021-02-09 08:20,,,,350.00,11.00,,30.07,,10.00,,OVC,,,,900.00,,,,,,,,,,,,KDFW 090820Z AUTO 35011KT 10SM OVC009 03/01 A3006 RMK T00300010 MADISHF
DFW,2021-02-09 08:25,,,,350.00,11.00,,30.07,,10.00,,OVC,,,,900.00,,,,,,,,,,,,KDFW 090825Z AUTO 35011KT 10SM OVC009 03/01 A3006 RMK T00300010 MADISHF
DFW,2021-02-09 08:30,,,,350.00,11.00,,30.06,,10.00,,OVC,,,,900.00,,,,,,,,,,,,KDFW 090830Z AUTO 35011KT 10SM OVC009 03/01 A3005 RMK T00300010 MADISHF
DFW,2021-02-09 08:35,,,,350.00,13.00,,30.06,,9.00,,OVC,,,,900.00,,,,,,,,,,,,KDFW 090835Z AUTO 35013KT 9SM OVC009 03/01 A3005 RMK T00300010 MADISHF
DFW,2021-02-09 08:40,,,,350.00,11.00,,30.07,,8.00,,OVC,,,,900.00,,,,,,,,,,,,KDFW 090840Z AUTO 35011KT 8SM OVC009 03/01 A3006 RMK T00300010 MADISHF
DFW,2021-02-09 08:45,,,,360.00,11.00,,30.07,,6.00,,OVC,,,,900.00,,,,BR,,,,,,,,KDFW 090845Z AUTO 36011KT 6SM BR OVC009 03/01 A3006 RMK T00300010 MADISHF
DFW,2021-02-09 08:50,,,,360.00,11.00,,30.07,,6.00,,OVC,,,,900.00,,,,BR,,,,,,,,KDFW 090850Z AUTO 36011KT 6SM BR OVC009 02/01 A3006 RMK T00200010 MADISHF
DFW,2021-02-09 08:53,36.00,34.00,92.35,340.00,12.00,T,30.07,1018.20,6.00,,OVC,,,,900.00,,,,-DZ BR,,,,,,,27.09,KDFW 090853Z 34012KT 6SM -DZ BR OVC009 02/01 A3007 RMK AO2 DZB53 SLP182 P0000 60000 T00220011 52007
DFW,2021-02-09 08:55,,,,330.00,11.00,,30.07,,7.00,,OVC,,,,900.00,,,,-DZ,,,,,,,,KDFW 090855Z AUTO 33011KT 7SM -DZ OVC009 03/01 A3006 RMK T00300010 MADISHF
DFW,2021-02-09 09:00,,,,340.00,11.00,,30.07,,7.00,,OVC,,,,900.00,,,,-DZ,,,,,,,,KDFW 090900Z AUTO 34011KT 7SM -DZ OVC009 02/01 A3006 RMK T00200010 MADISHF
DFW,2021-02-09 09:05,,,,330.00,13.00,,30.08,,6.00,,OVC,,,,800.00,,,,-DZ BR,,,,,,,,KDFW 090905Z AUTO 33013KT 6SM -DZ BR OVC008 02/01 A3007 RMK T00200010 MADISHF
DFW,2021-02-09 09:10,,,,340.00,11.00,,30.08,,4.00,,OVC,,,,800.00,,,,-DZ BR,,,,,,,,KDFW 090910Z AUTO 34011KT 4SM -DZ BR OVC008 02/01 A3007 RMK T00200010 MADISHF
DFW,2021-02-09 09:15,,,,330.00,13.00,,30.08,,3.50,,OVC,,,,700.00,,,,-DZ BR,,,,,,,,KDFW 090915Z AUTO 33013KT 3SM -DZ BR OVC007 02/01 A3007 RMK T00200010 MADISHF
DFW,2021-02-09 09:20,,,,340.00,11.00,,30.08,,3.00,,OVC,,,,700.00,,,,-DZ BR,,,,,,,,KDFW 090920Z AUTO 34011KT 3SM -DZ BR OVC007 02/01 A3007 RMK T00200010 MADISHF
DFW,2021-02-09 09:25,,,,340.00,13.00,,30.08,,2.50,,OVC,,,,499.00,,,,-DZ BR,,,,,,,,KDFW 090925Z AUTO 34013KT 2 1/2SM -DZ BR OVC004 02/01 A3007 RMK T00200010 MADISHF
DFW,2021-02-09 09:30,,,,340.00,11.00,,30.09,,2.50,,OVC,,,,499.00,,,,-DZ BR,,,,,,,,KDFW 090930Z AUTO 34011KT 2 1/2SM -DZ BR OVC004 02/01 A3009 RMK T00200010 MADISHF
DFW,2021-02-09 09:35,,,,330.00,13.00,,30.08,,2.50,,OVC,,,,499.00,,,,-DZ BR,,,,,,,,KDFW 090935Z AUTO 33013KT 2 1/2SM -DZ BR OVC004 02/01 A3007 RMK T00200010 MADISHF
DFW,2021-02-09 09:40,,,,330.00,11.00,,30.08,,2.00,,OVC,,,,499.00,,,,-DZ BR,,,,,,,,KDFW 090940Z AUTO 33011KT 2SM -DZ BR OVC004 01/01 A3007 RMK T00100010 MADISHF
DFW,2021-02-09 09:45,,,,330.00,13.00,,30.08,,2.00,,OVC,,,,499.00,,,,-DZ BR,,,,,,,,KDFW 090945Z AUTO 33013KT 2SM -DZ BR OVC004 01/01 A3007 RMK T00100010 MADISHF
DFW,2021-02-09 09:50,,,,340.00,11.00,,30.09,,2.00,,OVC,,,,499.00,,,,-DZ BR,,,,,,,,KDFW 090950Z AUTO 34011KT 2SM -DZ BR OVC004 01/01 A3009 RMK T00100010 MADISHF
DFW,2021-02-09 09:53,34.00,34.00,100.00,340.00,12.00,T,30.09,1018.70,2.00,,OVC,,,,500.00,,,,-DZ BR,,,,,,,24.55,KDFW 090953Z 34012KT 2SM -DZ BR OVC005 01/01 A3009 RMK AO2 SLP187 P0000 T00110011
DFW,2021-02-09 09:55,,,,340.00,13.00,,30.09,,2.00,,OVC,,,,400.00,,,,-DZ BR,,,,,,,,KDFW 090955Z AUTO 34013KT 2SM -DZ BR OVC004 01/01 A3009 RMK T00100010 MADISHF
DFW,2021-02-09 10:00,,,,340.00,13.00,,30.09,,2.50,,OVC,,,,400.00,,,,-DZ BR,,,,,,,,KDFW 091000Z AUTO 34013KT 2 1/2SM -DZ BR OVC004 01/01 A3009 RMK T00100010 MADISHF
DFW,2021-02-09 10:01,34.00,33.10,96.46,340.00,14.00,T,30.09,,2.50,,OVC,,,,400.00,,,,-DZ BR,,,,,,,23.74,KDFW 091001Z 34014KT 2 1/2SM -DZ BR OVC004 01/01 A3009 RMK AO2 P0000 T00110006
DFW,2021-02-09 10:05,,,,340.00,13.00,,30.09,,2.50,,OVC,,,,400.00,,,,-DZ BR,,,,,,,,KDFW 091005Z AUTO 34013KT 2 1/2SM -DZ BR OVC004 01/01 A3009 RMK T00100010 MADISHF
DFW,2021-02-09 10:10,,,,340.00,15.00,,30.09,,2.50,,OVC,,,,400.00,,,,-DZ BR,,,,,,,,KDFW 091010Z AUTO 34015KT 2 1/2SM -DZ BR OVC004 01/01 A3009 RMK T00100010 MADISHF
DFW,2021-02-09 10:14,33.10,32.00,95.67,340.00,14.00,T,30.09,,3.00,,OVC,,,,600.00,,,,-DZ BR,,,,,,,22.58,KDFW 091014Z 34014KT 3SM -DZ BR OVC006 01/00 A3009 RMK AO2 P0000 T00060000
DFW,2021-02-09 10:15,,,,340.00,15.00,,30.09,,3.00,,OVC,,,,600.00,,,,-DZ BR,,,,,,,,KDFW 091015Z AUTO 34015KT 3SM -DZ BR OVC006 01/00 A3009 RMK T00100000 MADISHF
DFW,2021-02-09 10:20,,,,350.00,13.00,,30.09,,3.00,,OVC,,,,600.00,,,,-DZ BR,,,,,,,,KDFW 091020Z AUTO 35013KT 3SM -DZ BR OVC006 01/00 A3009 RMK T00100000 MADISHF
DFW,2021-02-09 10:25,,,,350.00,13.00,,30.10,,3.00,,OVC,,,,600.00,,,,-DZ BR,,,,,,,,KDFW 091025Z AUTO 35013KT 3SM -DZ BR OVC006 01/00 A3010 RMK T00100000 MADISHF
DFW,2021-02-09 10:30,,,,340.00,11.00,,30.09,,2.50,,OVC,,,,700.00,,,,-DZ BR,,,,,,,,KDFW 091030Z AUTO 34011KT 2 1/2SM -DZ BR OVC007 01/01 A3009 RMK T00100010 MADISHF
DFW,2021-02-09 10:35,,,,350.00,13.00,,30.09,,3.00,,BKN,OVC,,,499.00,900.00,,,-DZ BR,,,,,,,,KDFW 091035Z AUTO 35013KT 3SM -DZ BR BKN004 OVC009 01/00 A3009 RMK T00100000 MADISHF
DFW,2021-02-09 10:40,,,,350.00,11.00,,30.10,,3.50,,BKN,OVC,,,499.00,900.00,,,-DZ BR,,,,,,,,KDFW 091040Z AUTO 35011KT 3SM -DZ BR BKN004 OVC009 01/00 A3010 RMK T00100000 MADISHF
DFW,2021-02-09 10:45,,,,340.00,11.00,,30.10,,3.00,,OVC,,,,499.00,,,,-DZ BR,,,,,,,,KDFW 091045Z AUTO 34011KT 3SM -DZ BR OVC004 01/00 A3010 RMK T00100000 MADISHF
DFW,2021-02-09 10:50,,,,340.00,13.00,,30.11,,3.00,,OVC,,,,499.00,,,,-DZ BR,,,,,,,,KDFW 091050Z AUTO 34013KT 3SM -DZ BR OVC004 01/00 A3011 RMK T00100000 MADISHF
DFW,2021-02-09 10:53,33.10,32.00,95.67,340.00,13.00,T,30.11,1019.30,3.00,,OVC,,,,500.00,,,,-DZ BR,,,,,,,22.98,KDFW 091053Z 34013KT 3SM -DZ BR OVC005 01/00 A3011 RMK AO2 SLP193 P0000 T00060000
DFW,2021-02-09 10:55,,,,,14.00,,30.10,,3.50,,OVC,,,,499.00,,,,-DZ BR,,,,,,,,KDFW 091055Z AUTO ///14KT 3SM -DZ BR OVC004 01/00 A3010 RMK T00100000 MADISHF
DFW,2021-02-09 11:00,,,,340.00,10.00,,30.11,,4.00,,OVC,,,,499.00,,,,-DZ BR,,,,,,,,KDFW 091100Z AUTO 34010KT 4SM -DZ BR OVC004 01/00 A3011 RMK T00100000 MADISHF
DFW,2021-02-09 11:05,,,,,11.00,,30.11,,4.00,,OVC,,,,499.00,,,,-DZ BR,,,,,,,,KDFW 091105Z AUTO ///11KT 4SM -DZ BR OVC004 01/00 A3011 RMK T00100000 MADISHF
DFW,2021-02-09 11:10,,,,350.00,11.00,,30.11,,4.00,,OVC,,,,499.00,,,,-DZ BR,,,,,,,,KDFW 091110Z AUTO 35011KT 4SM -DZ BR OVC004 01/00 A3011 RMK T00100000 MADISHF
DFW,2021-02-09 11:15,,,,340.00,11.00,,30.11,,4.00,,OVC,,,,499.00,,,,-DZ BR,,,,,,,,KDFW 091115Z AUTO 34011KT 4SM -DZ BR OVC004 01/00 A3011 RMK T00100000 MADISHF
DFW,2021-02-09 11:20,,,,,15.00,,30.11,,4.00,,OVC,,,,499.00,,,,-DZ BR,,,,,,,,KDFW 091120Z AUTO ///15KT 4SM -DZ BR OVC004 00/00 A3011 RMK T00000000 MADISHF
DFW,2021-02-09 11:25,,,,340.00,13.00,,30.12,,5.00,,BKN,OVC,,,499.00,999.00,,,-DZ BR,,,,,,,,KDFW 091125Z AUTO 34013KT 5SM -DZ BR BKN004 OVC009 00/M01 A3012 RMK T00001010 MADISHF
DFW,2021-02-09 11:30,,,,350.00,11.00,,30.11,,7.00,,BKN,OVC,,,499.00,999.00,,,-DZ,,,,,,,,KDFW 091130Z AUTO 35011KT 7SM -DZ BKN004 OVC009 00/M01 A3011 RMK T00001010 MADISHF
DFW,2021-02-09 11:35,,,,340.00,11.00,,30.12,,5.00,,OVC,,,,499.00,,,,-DZ BR,,,,,,,,KDFW 091135Z AUTO 34011KT 5SM -DZ BR OVC004 00/M01 A3012 RMK T00001010 MADISHF
DFW,2021-02-09 11:40,,,,330.00,14.00,,30.12,,5.00,,BKN,OVC,,,499.00,999.00,,,-DZ BR,,,,,,,,KDFW 091140Z AUTO 33014KT 5SM -DZ BR BKN004 OVC009 00/M01 A3012 RMK T00001010 MADISHF
DFW,2021-02-09 11:45,,,,340.00,14.00,,30.12,,5.00,,OVC,,,,499.00,,,,-DZ BR,,,,,,,,KDFW 091145Z AUTO 34014KT 5SM -DZ BR OVC004 00/M01 A3012 RMK T00001010 MADISHF
DFW,2021-02-09 11:50,,,,340.00,15.00,,30.12,,6.00,,OVC,,,,499.00,,,,-DZ BR,,,,,,,,KDFW 091150Z AUTO 34015KT 6SM -DZ BR OVC004 00/M01 A3012 RMK T00001010 MADISHF
DFW,2021-02-09 11:53,32.00,30.00,92.22,340.00,15.00,T,30.12,1019.90,6.00,,OVC,,,,500.00,,,,-DZ BR,,,,,,,20.78,KDFW 091153Z 34015KT 6SM -DZ BR OVC005 00/M01 A3012 RMK AO2 SLP199 P0000 60000 70001 T00001011 10039 20000 52015
DFW,2021-02-09 11:55,,,,,14.00,,30.12,,6.00,,OVC,,,,600.00,,,,-DZ BR,,,,,,,,KDFW 091155Z AUTO ///14KT 6SM -DZ BR OVC006 00/M01 A3012 RMK T00001010 MADISHF
DFW,2021-02-09 12:00,,,,350.00,10.00,,30.13,,6.00,,OVC,,,,600.00,,,,-DZ BR,,,,,,,,KDFW 091200Z AUTO 35010KT 6SM -DZ BR OVC006 00/M01 A3012 RMK T00001010 MADISHF
DFW,2021-02-09 12:05,,,,350.00,11.00,,30.12,,5.00,,OVC,,,,600.00,,,,-DZ BR,,,,,,,,KDFW 091205Z AUTO 35011KT 5SM -DZ BR OVC006 00/M01 A3012 RMK T00001010 MADISHF
DFW,2021-02-09 12:10,,,,350.00,11.00,,30.12,,4.00,,OVC,,,,600.00,,,,-DZ BR,,,,,,,,KDFW 091210Z AUTO 35011KT 4SM -DZ BR OVC006 00/M01 A3012 RMK T00001010 MADISHF
DFW,2021-02-09 12:15,,,,350.00,11.00,,30.12,,4.00,,OVC,,,,600.00,,,,-DZ BR,,,,,,,,KDFW 091215Z AUTO 35011KT 4SM -DZ BR OVC006 00/M01 A3012 RMK T00001010 MADISHF
DFW,2021-02-09 12:20,,,,340.00,13.00,,30.12,,4.00,,BKN,OVC,,,499.00,800.00,,,-DZ BR,,,,,,,,KDFW 091220Z AUTO 34013KT 4SM -DZ BR BKN004 OVC008 M01/M01 A3012 RMK T10101010 MADISHF
DFW,2021-02-09 12:25,,,,340.00,14.00,,30.12,,3.50,,OVC,,,,499.00,,,,-DZ BR,,,,,,,,KDFW 091225Z AUTO 34014KT 3SM -DZ BR OVC004 M01/M01 A3012 RMK T10101010 MADISHF
DFW,2021-02-09 12:30,,,,340.00,14.00,,30.13,,3.00,,OVC,,,,499.00,,,,-DZ BR,,,,,,,,KDFW 091230Z AUTO 34014KT 3SM -DZ BR OVC004 M01/M01 A3012 RMK T10101010 MADISHF
DFW,2021-02-09 12:35,,,,340.00,13.00,,30.13,,3.00,,OVC,,,,499.00,,,,-DZ BR,,,,,,,,KDFW 091235Z AUTO 34013KT 3SM -DZ BR OVC004 M01/M01 A3012 RMK T10101010 MADISHF
DFW,2021-02-09 12:40,,,,340.00,13.00,,30.13,,3.50,,OVC,,,,499.00,,,,-DZ BR,,,,,,,,KDFW 091240Z AUTO 34013KT 3SM -DZ BR OVC004 M01/M01 A3012 RMK T10101010 MADISHF
DFW,2021-02-09 12:45,,,,340.00,14.00,,30.14,,3.50,,OVC,,,,499.00,,,,-DZ BR,,,,,,,,KDFW 091245Z AUTO 34014KT 3SM -DZ BR OVC004 M01/M01 A3013 RMK T10101010 MADISHF
DFW,2021-02-09 12:50,,,,330.00,11.00,,30.14,,4.00,,OVC,,,,499.00,,,,-DZ BR,,,,,,,,KDFW 091250Z AUTO 33011KT 4SM -DZ BR OVC004 M01/M01 A3013 RMK T10101010 MADISHF
DFW,2021-02-09 12:53,30.90,30.00,96.41,330.00,13.00,T,30.14,1020.70,4.00,,OVC,,,,500.00,,,,-DZ BR,,,,,,,20.16,KDFW 091253Z 33013KT 4SM -DZ BR OVC005 M01/M01 A3014 RMK AO2 SLP207 P0000 T10061011
DFW,2021-02-09 12:55,,,,330.00,11.00,,30.14,,4.00,,OVC,,,,499.00,,,,-DZ BR,,,,,,,,KDFW 091255Z AUTO 33011KT 4SM -DZ BR OVC004 M01/M01 A3013 RMK T10101010 MADISHF
DFW,2021-02-09 13:00,,,,340.00,11.00,,30.14,,4.00,,OVC,,,,499.00,,,,-DZ BR,,,,,,,,KDFW 091300Z AUTO 34011KT 4SM -DZ BR OVC004 M01/M01 A3013 RMK T10101010 MADISHF
DFW,2021-02-09 13:05,,,,340.00,11.00,,30.14,,3.50,,OVC,,,,499.00,,,,-DZ BR,,,,,,,,KDFW 091305Z AUTO 34011KT 3SM -DZ BR OVC004 M01/M01 A3013 RMK T10101010 MADISHF
DFW,2021-02-09 13:10,,,,350.00,11.00,,30.14,,3.50,,OVC,,,,499.00,,,,-DZ BR,,,,,,,,KDFW 091310Z AUTO 35011KT 3SM -DZ BR OVC004 M01/M01 A3013 RMK T10101010 MADISHF
DFW,2021-02-09 13:15,,,,340.00,11.00,,30.14,,3.50,,OVC,,,,499.00,,,,-DZ BR,,,,,,,,KDFW 091315Z AUTO 34011KT 3SM -DZ BR OVC004 M01/M02 A3013 RMK T10101020 MADISHF
DFW,2021-02-09 13:20,,,,330.00,14.00,,30.15,,4.00,,OVC,,,,499.00,,,,-DZ BR,,,,,,,,KDFW 091320Z AUTO 33014KT 4SM -DZ BR OVC004 M01/M02 A3014 RMK T10101020 MADISHF
DFW,2021-02-09 13:25,,,,340.00,11.00,,30.15,,4.00,,OVC,,,,499.00,,,,-DZ BR,,,,,,,,KDFW 091325Z AUTO 34011KT 4SM -DZ BR OVC004 M01/M02 A3014 RMK T10101020 MADISHF
DFW,2021-02-09 13:30,,,,330.00,11.00,,30.15,,4.00,,OVC,,,,499.00,,,,-RA BR,,,,,,,,KDFW 091330Z AUTO 33011KT 4SM -RA BR OVC004 M01/M02 A3014 RMK T10101020 MADISHF
DFW,2021-02-09 13:35,,,,340.00,13.00,,30.15,,4.00,,OVC,,,,499.00,,,,-RA BR,,,,,,,,KDFW 091335Z AUTO 34013KT 4SM -RA BR OVC004 M01/M02 A3014 RMK T10101020 MADISHF
DFW,2021-02-09 13:40,,,,340.00,11.00,,30.16,,4.00,,OVC,,,,499.00,,,,-RA BR,,,,,,,,KDFW 091340Z AUTO 34011KT 4SM -RA BR OVC004 M01/M02 A3015 RMK T10101020 MADISHF
DFW,2021-02-09 13:45,,,,330.00,13.00,,30.16,,4.00,,OVC,,,,499.00,,,,-RA BR,,,,,,,,KDFW 091345Z AUTO 33013KT 4SM -RA BR OVC004 M01/M02 A3015 RMK T10101020 MADISHF
DFW,2021-02-09 13:50,,,,340.00,11.00,,30.16,,4.00,,OVC,,,,499.00,,,,-DZ BR,,,,,,,,KDFW 091350Z AUTO 34011KT 4SM -DZ BR OVC004 M01/M02 A3015 RMK T10101020 MADISHF
DFW,2021-02-09 13:53,30.00,28.90,95.61,340.00,12.00,T,30.16,1021.50,3.00,,OVC,,,,500.00,,,,-DZ BR,0.01,,,,,,19.46,KDFW 091353Z 34012KT 3SM -DZ BR OVC005 M01/M02 A3016 RMK AO2 SFC VIS 4 DZE30B46RAB30E46 SLP215 P0000 I1001 T10111017
DFW,2021-02-09 13:55,,,,340.00,9.00,,30.16,,4.00,,OVC,,,,499.00,,,,-DZ BR,,,,,,,,KDFW 091355Z AUTO 34009KT 4SM -DZ BR OVC004 M01/M02 A3015 RMK T10101020 MADISHF
DFW,2021-02-09 14:00,,,,340.00,11.00,,30.16,,4.00,,OVC,,,,499.00,,,,-DZ BR,,,,,,,,KDFW 091400Z AUTO 34011KT 4SM -DZ BR OVC004 M01/M02 A3015 RMK T10101020 MADISHF
DFW,2021-02-09 14:05,,,,340.00,11.00,,30.16,,4.00,,OVC,,,,499.00,,,,-DZ BR,,,,,,,,KDFW 091405Z AUTO 34011KT 4SM -DZ BR OVC004 M01/M02 A3015 RMK T10101020 MADISHF
DFW,2021-02-09 14:10,,,,340.00,10.00,,30.16,,3.50,,OVC,,,,499.00,,,,-DZ BR,,,,,,,,KDFW 091410Z AUTO 34010KT 3SM -DZ BR OVC004 M01/M02 A3015 RMK T10101020 MADISHF
DFW,2021-02-09 14:15,,,,330.00,11.00,,30.16,,3.50,,OVC,,,,499.00,,,,-DZ BR,,,,,,,,KDFW 091415Z AUTO 33011KT 3SM -DZ BR OVC004 M01/M02 A3015 RMK T10101020 MADISHF
DFW,2021-02-09 14:20,,,,330.00,11.00,,30.17,,3.00,,OVC,,,,499.00,,,,-DZ BR,,,,,,,,KDFW 091420Z AUTO 33011KT 3SM -DZ BR OVC004 M01/M02 A3017 RMK T10101020 MADISHF
DFW,2021-02-09 14:25,,,,330.00,11.00,,30.17,,3.50,,OVC,,,,499.00,,,,-DZ BR,,,,,,,,KDFW 091425Z AUTO 33011KT 3SM -DZ BR OVC004 M01/M02 A3017 RMK T10101020 MADISHF
DFW,2021-02-09 14:30,,,,340.00,10.00,,30.18,,3.50,,OVC,,,,499.00,,,,-DZ BR,,,,,,,,KDFW 091430Z AUTO 34010KT 3SM -DZ BR OVC004 M01/M02 A3018 RMK T10101020 MADISHF
DFW,2021-02-09 14:35,,,,340.00,13.00,,30.18,,3.00,,OVC,,,,499.00,,,,-DZ BR,,,,,,,,KDFW 091435Z AUTO 34013KT 3SM -DZ BR OVC004 M01/M02 A3018 RMK T10101020 MADISHF
DFW,2021-02-09 14:40,,,,340.00,11.00,,30.18,,3.00,,OVC,,,,499.00,,,,-DZ BR,,,,,,,,KDFW 091440Z AUTO 34011KT 3SM -DZ BR OVC004 M01/M02 A3018 RMK T10101020 MADISHF
DFW,2021-02-09 14:45,,,,330.00,11.00,,30.18,,3.00,,OVC,,,,499.00,,,,-DZ BR,,,,,,,,KDFW 091445Z AUTO 33011KT 3SM -DZ BR OVC004 M01/M02 A3018 RMK T10101020 MADISHF
DFW,2021-02-09 14:50,,,,340.00,11.00,,30.18,,3.00,,OVC,,,,499.00,,,,-DZ BR,,,,,,,,KDFW 091450Z AUTO 34011KT 3SM -DZ BR OVC004 M01/M02 A3018 RMK T10101020 MADISHF
DFW,2021-02-09 14:53,30.00,28.90,95.61,340.00,11.00,T,30.18,1022.10,3.00,,OVC,,,,500.00,,,,-DZ BR,,0.01,,,,,19.94,KDFW 091453Z 34011KT 3SM -DZ BR OVC005 M01/M02 A3018 RMK AO2 SLP221 P0000 60000 I3001 T10111017 51020
DFW,2021-02-09 14:55,,,,330.00,11.00,,30.18,,3.00,,OVC,,,,499.00,,,,-DZ BR,,,,,,,,KDFW 091455Z AUTO 33011KT 3SM -DZ BR OVC004 M01/M02 A3018 RMK T10101020 MADISHF
DFW,2021-02-09 15:00,,,,330.00,11.00,,30.18,,3.00,,OVC,,,,499.00,,,,-DZ BR,,,,,,,,KDFW 091500Z AUTO 33011KT 3SM -DZ BR OVC004 M01/M02 A3018 RMK T10101020 MADISHF
DFW,2021-02-09 15:05,,,,340.00,11.00,,30.18,,3.50,,OVC,,,,499.00,,,,-DZ BR,,,,,,,,KDFW 091505Z AUTO 34011KT 3SM -DZ BR OVC004 M01/M02 A3018 RMK T10101020 MADISHF
DFW,2021-02-09 15:10,,,,340.00,11.00,,30.18,,4.00,,OVC,,,,499.00,,,,-DZ BR,,,,,,,,KDFW 091510Z AUTO 34011KT 4SM -DZ BR OVC004 M01/M02 A3018 RMK T10101020 MADISHF
DFW,2021-02-09 15:15,,,,340.00,11.00,,30.19,,4.00,,OVC,,,,499.00,,,,-DZ BR,,,,,,,,KDFW 091515Z AUTO 34011KT 4SM -DZ BR OVC004 M01/M02 A3019 RMK T10101020 MADISHF
DFW,2021-02-09 15:20,,,,340.00,11.00,,30.19,,3.50,,OVC,,,,499.00,,,,-DZ BR,,,,,,,,KDFW 091520Z AUTO 34011KT 3SM -DZ BR OVC004 M01/M02 A3019 RMK T10101020 MADISHF
DFW,2021-02-09 15:25,,,,330.00,11.00,,30.19,,3.50,,OVC,,,,499.00,,,,-DZ BR,,,,,,,,KDFW 091525Z AUTO 33011KT 3SM -DZ BR OVC004 M01/M02 A3019 RMK T10101020 MADISHF
DFW,2021-02-09 15:30,,,,330.00,11.00,,30.19,,4.00,,OVC,,,,499.00,,,,-DZ BR,,,,,,,,KDFW 091530Z AUTO 33011KT 4SM -DZ BR OVC004 M01/M02 A3019 RMK T10101020 MADISHF
DFW,2021-02-09 15:35,,,,340.00,11.00,,30.19,,4.00,,OVC,,,,499.00,,,,-DZ BR,,,,,,,,KDFW 091535Z AUTO 34011KT 4SM -DZ BR OVC004 M01/M02 A3019 RMK T10101020 MADISHF
DFW,2021-02-09 15:40,,,,330.00,10.00,,30.20,,4.00,,OVC,,,,499.00,,,,-DZ BR,,,,,,,,KDFW 091540Z AUTO 33010KT 4SM -DZ BR OVC004 M01/M02 A3020 RMK T10101020 MADISHF
DFW,2021-02-09 15:45,,,,340.00,11.00,,30.20,,5.00,,OVC,,,,499.00,,,,-DZ BR,,,,,,,,KDFW 091545Z AUTO 34011KT 5SM -DZ BR OVC004 M01/M02 A3020 RMK T10101020 MADISHF
DFW,2021-02-09 15:50,,,,340.00,11.00,,30.20,,5.00,,OVC,,,,499.00,,,,-DZ BR,,,,,,,,KDFW 091550Z AUTO 34011KT 5SM -DZ BR OVC004 M01/M02 A3020 RMK T10101020 MADISHF
DFW,2021-02-09 15:53,30.00,28.90,95.61,340.00,11.00,T,30.20,1022.90,5.00,,OVC,,,,500.00,,,,-DZ BR,,,,,,,19.94,KDFW 091553Z 34011KT 5SM -DZ BR OVC005 M01/M02 A3020 RMK AO2 SLP229 P0000 T10111017
DFW,2021-02-09 15:55,,,,340.00,11.00,,30.20,,6.00,,OVC,,,,499.00,,,,-DZ BR,,,,,,,,KDFW 091555Z AUTO 34011KT 6SM -DZ BR OVC004 M01/M02 A3020 RMK T10101020 MADISHF
DFW,2021-02-09 16:00,,,,340.00,11.00,,30.20,,6.00,,OVC,,,,499.00,,,,-DZ BR,,,,,,,,KDFW 091600Z AUTO 34011KT 6SM -DZ BR OVC004 M01/M02 A3020 RMK T10101020 MADISHF
DFW,2021-02-09 16:05,,,,330.00,10.00,,30.20,,7.00,,OVC,,,,600.00,,,,-DZ,,,,,,,,KDFW 091605Z AUTO 33010KT 7SM -DZ OVC006 M01/M02 A3020 RMK T10101020 MADISHF
DFW,2021-02-09 16:10,,,,330.00,11.00,,30.20,,8.00,,OVC,,,,600.00,,,,-DZ,,,,,,,,KDFW 091610Z AUTO 33011KT 8SM -DZ OVC006 M01/M02 A3020 RMK T10101020 MADISHF
DFW,2021-02-09 16:15,,,,330.00,10.00,,30.21,,8.00,,OVC,,,,600.00,,,,-DZ,,,,,,,,KDFW 091615Z AUTO 33010KT 8SM -DZ OVC006 M01/M02 A3020 RMK T10101020 MADISHF
DFW,2021-02-09 16:20,,,,340.00,11.00,,30.21,,9.00,,OVC,,,,600.00,,,,-DZ,,,,,,,,KDFW 091620Z AUTO 34011KT 9SM -DZ OVC006 M01/M02 A3020 RMK T10101020 MADISHF
DFW,2021-02-09 16:25,,,,340.00,11.00,,30.21,,10.00,,OVC,,,,600.00,,,,,,,,,,,,KDFW 091625Z AUTO 34011KT 10SM OVC006 M01/M02 A3020 RMK T10101020 MADISHF
DFW,2021-02-09 16:30,,,,340.00,11.00,,30.21,,10.00,,OVC,,,,600.00,,,,,,,,,,,,KDFW 091630Z AUTO 34011KT 10SM OVC006 M01/M02 A3020 RMK T10101020 MADISHF
DFW,2021-02-09 16:35,,,,350.00,10.00,,30.21,,10.00,,OVC,,,,600.00,,,,,,,,,,,,KDFW 091635Z AUTO 35010KT 10SM OVC006 M01/M02 A3020 RMK T10101020 MADISHF
DFW,2021-02-09 16:40,,,,350.00,11.00,,30.21,,10.00,,OVC,,,,600.00,,,,,,,,,,,,KDFW 091640Z AUTO 35011KT 10SM OVC006 M01/M02 A3020 RMK T10101020 MADISHF
DFW,2021-02-09 16:45,,,,340.00,11.00,,30.21,,10.00,,OVC,,,,600.00,,,,,,,,,,,,KDFW 091645Z AUTO 34011KT 10SM OVC006 M01/M02 A3020 RMK T10101020 MADISHF
DFW,2021-02-09 16:50,,,,340.00,11.00,,30.21,,10.00,,OVC,,,,700.00,,,,,,,,,,,,KDFW 091650Z AUTO 34011KT 10SM OVC007 M01/M02 A3020 RMK T10101020 MADISHF
DFW,2021-02-09 16:53,30.90,28.90,92.18,350.00,10.00,T,30.21,1023.00,10.00,,OVC,,,,700.00,,,,,,,,,,,21.59,KDFW 091653Z 35010KT 10SM OVC007 M01/M02 A3021 RMK AO2 DZE21 SLP230 P0000 T10061017
DFW,2021-02-09 16:55,,,,340.00,10.00,,30.21,,10.00,,OVC,,,,700.00,,,,,,,,,,,,KDFW 091655Z AUTO 34010KT 10SM OVC007 M01/M02 A3020 RMK T10101020 MADISHF
DFW,2021-02-09 17:00,,,,330.00,11.00,,30.21,,10.00,,OVC,,,,700.00,,,,,,,,,,,,KDFW 091700Z AUTO 33011KT 10SM OVC007 M01/M02 A3020 RMK T10101020 MADISHF
DFW,2021-02-09 17:05,,,,340.00,10.00,,30.21,,10.00,,OVC,,,,700.00,,,,,,,,,,,,KDFW 091705Z AUTO 34010KT 10SM OVC007 00/M02 A3020 RMK T00001020 MADISHF
DFW,2021-02-09 17:10,,,,10.00,5.00,,30.21,,10.00,,OVC,,,,700.00,,,,,,,,,,,,KDFW 091710Z AUTO 01005KT 10SM OVC007 A3020 RMK T1010 MADISHF
DFW,2021-02-09 17:15,,,,350.00,11.00,,30.21,,10.00,,OVC,,,,700.00,,,,,,,,,,,,KDFW 091715Z AUTO 35011KT 10SM OVC007 A3020 RMK T0000 MADISHF
DFW,2021-02-09 17:20,,,,350.00,11.00,,30.20,,10.00,,OVC,,,,700.00,,,,,,,,,,,,KDFW 091720Z AUTO 35011KT 10SM OVC007 00/M02 A3020 RMK T00001020 MADISHF
DFW,2021-02-09 17:25,,,,340.00,11.00,,30.21,,10.00,,OVC,,,,800.00,,,,,,,,,,,,KDFW 091725Z AUTO 34011KT 10SM OVC008 00/M02 A3020 RMK T00001020 MADISHF
DFW,2021-02-09 17:30,,,,330.00,11.00,,30.20,,10.00,,OVC,,,,800.00,,,,,,,,,,,,KDFW 091730Z AUTO 33011KT 10SM OVC008 00/M02 A3020 RMK T00001020 MADISHF
DFW,2021-02-09 17:35,,,,350.00,11.00,,30.20,,10.00,,OVC,,,,700.00,,,,,,,,,,,,KDFW 091735Z AUTO 35011KT 10SM OVC007 00/M02 A3020 RMK T00001020 MADISHF
DFW,2021-02-09 17:40,,,,340.00,11.00,,30.20,,10.00,,OVC,,,,700.00,,,,,,,,,,,,KDFW 091740Z AUTO 34011KT 10SM OVC007 00/M02 A3020 RMK T00001020 MADISHF
DFW,2021-02-09 17:45,,,,340.00,11.00,,30.20,,10.00,,OVC,,,,700.00,,,,,,,,,,,,KDFW 091745Z AUTO 34011KT 10SM OVC007 00/M02 A3020 RMK T00001020 MADISHF
DFW,2021-02-09 17:50,,,,330.00,11.00,,30.20,,10.00,,OVC,,,,700.00,,,,,,,,,,,,KDFW 091750Z AUTO 33011KT 10SM OVC007 00/M02 A3020 RMK T00001020 MADISHF
DFW,2021-02-09 17:53,32.00,28.00,84.98,340.00,12.00,0.00,30.20,1022.80,10.00,,OVC,,,,700.00,,,,,,,0.01,,,,22.00,KDFW 091753Z 34012KT 10SM OVC007 00/M02 A3020 RMK AO2 SLP228 60000 I6001 T00001022 10000 21011 50007
DFW,2021-02-09 17:55,,,,340.00,11.00,,30.20,,10.00,,OVC,,,,700.00,,,,,,,,,,,,KDFW 091755Z AUTO 34011KT 10SM OVC007 00/M02 A3020 RMK T00001020 MADISHF
DFW,2021-02-09 18:00,,,,360.00,11.00,,30.20,,10.00,,OVC,,,,700.00,,,,,,,,,,,,KDFW 091800Z AUTO 36011KT 10SM OVC007 00/M02 A3020 RMK T00001020 MADISHF
DFW,2021-02-09 18:05,,,,350.00,11.00,,30.19,,10.00,,OVC,,,,700.00,,,,,,,,,,,,KDFW 091805Z AUTO 35011KT 10SM OVC007 00/M02 A3019 RMK T00001020 MADISHF
DFW,2021-02-09 18:10,,,,350.00,13.00,,30.19,,10.00,,OVC,,,,700.00,,,,,,,,,,,,KDFW 091810Z AUTO 35013KT 10SM OVC007 01/M02 A3019 RMK T00101020 MADISHF
DFW,2021-02-09 18:15,,,,340.00,11.00,,30.19,,10.00,,OVC,,,,800.00,,,,,,,,,,,,KDFW 091815Z AUTO 34011KT 10SM OVC008 00/M02 A3019 RMK T00001020 MADISHF
DFW,2021-02-09 18:20,,,,340.00,11.00,,30.19,,10.00,,OVC,,,,800.00,,,,,,,,,,,,KDFW 091820Z AUTO 34011KT 10SM OVC008 01/M02 A3019 RMK T00101020 MADISHF
DFW,2021-02-09 18:25,,,,350.00,11.00,,30.18,,10.00,,OVC,,,,800.00,,,,,,,,,,,,KDFW 091825Z AUTO 35011KT 10SM OVC008 01/M02 A3018 RMK T00101020 MADISHF
DFW,2021-02-09 18:30,,,,340.00,11.00,,30.18,,10.00,,OVC,,,,800.00,,,,,,,,,,,,KDFW 091830Z AUTO 34011KT 10SM OVC008 01/M02 A3018 RMK T00101020 MADISHF
DFW,2021-02-09 18:35,,,,340.00,11.00,,30.18,,10.00,,OVC,,,,800.00,,,,,,,,,,,,KDFW 091835Z AUTO 34011KT 10SM OVC008 01/M02 A3018 RMK T00101020 MADISHF
DFW,2021-02-09 18:40,,,,340.00,11.00,,30.18,,10.00,,OVC,,,,800.00,,,,,,,,,,,,KDFW 091840Z AUTO 34011KT 10SM OVC008 01/M02 A3018 RMK T00101020 MADISHF
DFW,2021-02-09 18:45,,,,340.00,11.00,,30.18,,10.00,,OVC,,,,800.00,,,,,,,,,,,,KDFW 091845Z AUTO 34011KT 10SM OVC008 01/M02 A3018 RMK T00101020 MADISHF
DFW,2021-02-09 18:50,,,,340.00,10.00,,30.18,,10.00,,OVC,,,,800.00,,,,,,,,,,,,KDFW 091850Z AUTO 34010KT 10SM OVC008 01/M02 A3018 RMK T00101020 MADISHF
DFW,2021-02-09 18:53,33.10,28.90,84.36,340.00,10.00,0.00,30.17,1021.90,10.00,,OVC,,,,800.00,,,,,,,,,,,24.35,KDFW 091853Z 34010KT 10SM OVC008 01/M02 A3017 RMK AO2 SLP219 T00061017
DFW,2021-02-09 18:55,,,,360.00,11.00,,30.17,,10.00,,OVC,,,,800.00,,,,,,,,,,,,KDFW 091855Z AUTO 36011KT 10SM OVC008 01/M02 A3017 RMK T00101020 MADISHF
DFW,2021-02-09 19:00,,,,340.00,11.00,,30.17,,10.00,,OVC,,,,800.00,,,,,,,,,,,,KDFW 091900Z AUTO 34011KT 10SM OVC008 01/M02 A3017 RMK T00101020 MADISHF
DFW,2021-02-09 19:05,,,,340.00,11.00,,30.17,,10.00,,OVC,,,,800.00,,,,,,,,,,,,KDFW 091905Z AUTO 34011KT 10SM OVC008 01/M02 A3017 RMK T00101020 MADISHF
DFW,2021-02-09 19:10,,,,360.00,11.00,,30.17,,10.00,,OVC,,,,800.00,,,,,,,,,,,,KDFW 091910Z AUTO 36011KT 10SM OVC008 01/M02 A3017 RMK T00101020 MADISHF
DFW,2021-02-09 19:15,,,,360.00,10.00,,30.16,,10.00,,OVC,,,,800.00,,,,,,,,,,,,KDFW 091915Z AUTO 36010KT 10SM OVC008 01/M02 A3015 RMK T00101020 MADISHF
DFW,2021-02-09 19:20,,,,350.00,8.00,,30.16,,10.00,,OVC,,,,900.00,,,,,,,,,,,,KDFW 091920Z AUTO 35008KT 10SM OVC009 01/M02 A3015 RMK T00101020 MADISHF
DFW,2021-02-09 19:25,,,,330.00,9.00,,30.16,,10.00,,OVC,,,,900.00,,,,,,,,,,,,KDFW 091925Z AUTO 33009KT 10SM OVC009 01/M02 A3015 RMK T00101020 MADISHF
DFW,2021-02-09 19:30,,,,340.00,10.00,,30.16,,10.00,,OVC,,,,900.00,,,,,,,,,,,,KDFW 091930Z AUTO 34010KT 10SM OVC009 01/M02 A3015 RMK T00101020 MADISHF
DFW,2021-02-09 19:35,,,,330.00,10.00,,30.15,,10.00,,OVC,,,,900.00,,,,,,,,,,,,KDFW 091935Z AUTO 33010KT 10SM OVC009 01/M02 A3014 RMK T00101020 MADISHF
DFW,2021-02-09 19:40,,,,340.00,9.00,,30.15,,10.00,,OVC,,,,900.00,,,,,,,,,,,,KDFW 091940Z AUTO 34009KT 10SM OVC009 01/M02 A3014 RMK T00101020 MADISHF
DFW,2021-02-09 19:45,,,,350.00,10.00,,30.15,,10.00,,OVC,,,,900.00,,,,,,,,,,,,KDFW 091945Z AUTO 35010KT 10SM OVC009 01/M02 A3014 RMK T00101020 MADISHF
DFW,2021-02-09 19:50,,,,360.00,10.00,,30.15,,10.00,,OVC,,,,900.00,,,,,,,,,,,,KDFW 091950Z AUTO 36010KT 10SM OVC009 01/M02 A3014 RMK T00101020 MADISHF
DFW,2021-02-09 19:53,34.00,28.00,78.43,350.00,10.00,0.00,30.15,1021.20,10.00,,OVC,,,,900.00,,,,,,,,,,,25.48,KDFW 091953Z 35010KT 10SM OVC009 01/M02 A3015 RMK AO2 SLP212 T00111022
DFW,2021-02-09 19:55,,,,340.00,10.00,,30.15,,10.00,,OVC,,,,900.00,,,,,,,,,,,,KDFW 091955Z AUTO 34010KT 10SM OVC009 01/M02 A3014 RMK T00101020 MADISHF
DFW,2021-02-09 20:00,,,,10.00,9.00,,30.15,,10.00,,OVC,,,,900.00,,,,,,,,,,,,KDFW 092000Z AUTO 01009KT 10SM OVC009 01/M02 A3014 RMK T00101020 MADISHF
DFW,2021-02-09 20:05,,,,10.00,9.00,,30.15,,10.00,,OVC,,,,1100.00,,,,,,,,,,,,KDFW 092005Z AUTO 01009KT 10SM OVC011 01/M02 A3014 RMK T00101020 MADISHF
DFW,2021-02-09 20:08,34.00,28.00,78.43,360.00,10.00,0.00,30.15,,10.00,,OVC,,,,1100.00,,,,,,,,,,,25.48,KDFW 092008Z 36010KT 10SM OVC011 01/M02 A3015 RMK AO2 T00111022
DFW,2021-02-09 20:10,,,,350.00,11.00,,30.15,,10.00,,OVC,,,,1100.00,,,,,,,,,,,,KDFW 092010Z AUTO 35011KT 10SM OVC011 01/M02 A3014 RMK T00101020 MADISHF
DFW,2021-02-09 20:15,,,,350.00,10.00,,30.15,,10.00,,OVC,,,,1100.00,,,,,,,,,,,,KDFW 092015Z AUTO 35010KT 10SM OVC011 01/M02 A3014 RMK T00101020 MADISHF
DFW,2021-02-09 20:20,,,,350.00,9.00,,30.15,,10.00,,OVC,,,,1100.00,,,,,,,,,,,,KDFW 092020Z AUTO 35009KT 10SM OVC011 01/M02 A3014 RMK T00101020 MADISHF
DFW,2021-02-09 20:25,,,,360.00,11.00,,30.15,,10.00,,OVC,,,,1100.00,,,,,,,,,,,,KDFW 092025Z AUTO 36011KT 10SM OVC011 01/M02 A3014 RMK T00101020 MADISHF
DFW,2021-02-09 20:30,,,,10.00,8.00,,30.15,,10.00,,OVC,,,,1100.00,,,,,,,,,,,,KDFW 092030Z AUTO 01008KT 10SM OVC011 01/M02 A3014 RMK T00101020 MADISHF
DFW,2021-02-09 20:35,,,,350.00,9.00,,30.15,,10.00,,OVC,,,,1100.00,,,,,,,,,,,,KDFW 092035Z AUTO 35009KT 10SM OVC011 01/M02 A3014 RMK T00101020 MADISHF
DFW,2021-02-09 20:40,,,,350.00,10.00,,30.15,,10.00,,OVC,,,,1100.00,,,,,,,,,,,,KDFW 092040Z AUTO 35010KT 10SM OVC011 01/M02 A3014 RMK T00101020 MADISHF
DFW,2021-02-09 20:45,,,,350.00,8.00,,30.15,,10.00,,OVC,,,,1100.00,,,,,,,,,,,,KDFW 092045Z AUTO 35008KT 10SM OVC011 01/M02 A3014 RMK T00101020 MADISHF
DFW,2021-02-09 20:50,,,,340.00,10.00,,30.15,,10.00,,OVC,,,,1200.00,,,,,,,,,,,,KDFW 092050Z AUTO 34010KT 10SM OVC012 01/M02 A3014 RMK T00101020 MADISHF
DFW,2021-02-09 20:53,34.00,28.00,78.43,340.00,10.00,0.00,30.15,1021.20,10.00,,OVC,,,,1200.00,,,,,,,,,,,25.48,KDFW 092053Z 34010KT 10SM OVC012 01/M02 A3015 RMK AO2 SLP212 T00111022 56017
DFW,2021-02-09 20:55,,,,350.00,9.00,,30.15,,10.00,,OVC,,,,1200.00,,,,,,,,,,,,KDFW 092055Z AUTO 35009KT 10SM OVC012 01/M02 A3014 RMK T00101020 MADISHF
DFW,2021-02-09 21:00,,,,350.00,9.00,,30.15,,10.00,,OVC,,,,1200.00,,,,,,,,,,,,KDFW 092100Z AUTO 35009KT 10SM OVC012 01/M02 A3014 RMK T00101020 MADISHF
DFW,2021-02-09 21:05,,,,350.00,11.00,,30.14,,10.00,,OVC,,,,1200.00,,,,,,,,,,,,KDFW 092105Z AUTO 35011KT 10SM OVC012 02/M02 A3013 RMK T00201020 MADISHF
DFW,2021-02-09 21:10,,,,360.00,10.00,,30.14,,10.00,,OVC,,,,1200.00,,,,,,,,,,,,KDFW 092110Z AUTO 36010KT 10SM OVC012 01/M02 A3013 RMK T00101020 MADISHF
DFW,2021-02-09 21:15,,,,350.00,11.00,,30.14,,10.00,,OVC,,,,1200.00,,,,,,,,,,,,KDFW 092115Z AUTO 35011KT 10SM OVC012 02/M02 A3013 RMK T00201020 MADISHF
DFW,2021-02-09 21:20,,,,350.00,10.00,,30.14,,10.00,15.00,OVC,,,,1200.00,,,,,,,,,,,,KDFW 092120Z AUTO 35010G15KT 10SM OVC012 02/M02 A3013 RMK T00201020 MADISHF
DFW,2021-02-09 21:25,,,,350.00,11.00,,30.14,,10.00,,OVC,,,,1400.00,,,,,,,,,,,,KDFW 092125Z AUTO 35011KT 10SM OVC014 02/M02 A3013 RMK T00201020 MADISHF
DFW,2021-02-09 21:30,,,,360.00,11.00,,30.14,,10.00,,OVC,,,,1400.00,,,,,,,,,,,,KDFW 092130Z AUTO 36011KT 10SM OVC014 02/M02 A3013 RMK T00201020 MADISHF
DFW,2021-02-09 21:35,,,,360.00,10.00,,30.14,,10.00,,OVC,,,,1200.00,,,,,,,,,,,,KDFW 092135Z AUTO 36010KT 10SM OVC012 01/M02 A3013 RMK T00101020 MADISHF
DFW,2021-02-09 21:40,,,,350.00,11.00,,30.14,,10.00,,OVC,,,,1200.00,,,,,,,,,,,,KDFW 092140Z AUTO 35011KT 10SM OVC012 01/M02 A3013 RMK T00101020 MADISHF
DFW,2021-02-09 21:45,,,,10.00,11.00,,30.14,,10.00,,OVC,,,,1200.00,,,,,,,,,,,,KDFW 092145Z AUTO 01011KT 10SM OVC012 01/M02 A3013 RMK T00101020 MADISHF
DFW,2021-02-09 21:50,,,,350.00,11.00,,30.14,,10.00,,BKN,OVC,,,1200.00,1699.00,,,,,,,,,,,KDFW 092150Z AUTO 35011KT 10SM BKN012 OVC016 01/M02 A3013 RMK T00101020 MADISHF
DFW,2021-02-09 21:53,33.10,28.00,81.30,360.00,11.00,0.00,30.14,1020.80,10.00,,OVC,,,,1200.00,,,,,,,,,,,23.86,KDFW 092153Z 36011KT 10SM OVC012 01/M02 A3014 RMK AO2 SLP208 T00061022
DFW,2021-02-09 21:55,,,,350.00,11.00,,30.14,,10.00,,OVC,,,,1200.00,,,,,,,,,,,,KDFW 092155Z AUTO 35011KT 10SM OVC012 01/M02 A3013 RMK T00101020 MADISHF
DFW,2021-02-09 22:00,,,,360.00,11.00,,30.14,,10.00,,OVC,,,,999.00,,,,,,,,,,,,KDFW 092200Z AUTO 36011KT 10SM OVC009 01/M02 A3013 RMK T00101020 MADISHF
DFW,2021-02-09 22:05,,,,360.00,11.00,,30.14,,10.00,,OVC,,,,999.00,,,,,,,,,,,,KDFW 092205Z AUTO 36011KT 10SM OVC009 01/M02 A3013 RMK T00101020 MADISHF
DFW,2021-02-09 22:10,,,,360.00,10.00,,30.14,,10.00,,OVC,,,,999.00,,,,,,,,,,,,KDFW 092210Z AUTO 36010KT 10SM OVC009 01/M02 A3013 RMK T00101020 MADISHF
DFW,2021-02-09 22:15,,,,360.00,9.00,,30.14,,10.00,,OVC,,,,999.00,,,,,,,,,,,,KDFW 092215Z AUTO 36009KT 10SM OVC009 01/M02 A3013 RMK T00101020 MADISHF
DFW,2021-02-09 22:20,,,,350.00,11.00,,30.14,,10.00,,OVC,,,,999.00,,,,,,,,,,,,KDFW 092220Z AUTO 35011KT 10SM OVC009 01/M02 A3013 RMK T00101020 MADISHF
DFW,2021-02-09 22:25,,,,350.00,9.00,,30.14,,10.00,,OVC,,,,999.00,,,,,,,,,,,,KDFW 092225Z AUTO 35009KT 10SM OVC009 01/M02 A3013 RMK T00101020 MADISHF
DFW,2021-02-09 22:30,,,,360.00,9.00,,30.14,,10.00,,OVC,,,,999.00,,,,,,,,,,,,KDFW 092230Z AUTO 36009KT 10SM OVC009 01/M02 A3013 RMK T00101020 MADISHF
DFW,2021-02-09 22:35,,,,350.00,11.00,,30.14,,10.00,,OVC,,,,999.00,,,,,,,,,,,,KDFW 092235Z AUTO 35011KT 10SM OVC009 00/M02 A3013 RMK T00001020 MADISHF
DFW,2021-02-09 22:40,,,,350.00,10.00,,30.14,,10.00,,OVC,,,,999.00,,,,,,,,,,,,KDFW 092240Z AUTO 35010KT 10SM OVC009 01/M02 A3013 RMK T00101020 MADISHF
DFW,2021-02-09 22:45,,,,350.00,11.00,,30.14,,10.00,,OVC,,,,999.00,,,,,,,,,,,,KDFW 092245Z AUTO 35011KT 10SM OVC009 01/M02 A3013 RMK T00101020 MADISHF
DFW,2021-02-09 22:50,,,,,13.00,,30.14,,10.00,,OVC,,,,999.00,,,,,,,,,,,,KDFW 092250Z AUTO ///13KT 10SM OVC009 00/M02 A3013 RMK T00001020 MADISHF
DFW,2021-02-09 22:53,32.00,28.00,84.98,360.00,10.00,0.00,30.14,1020.80,10.00,,OVC,,,,1000.00,,,,,,,,,,,22.97,KDFW 092253Z 36010KT 10SM OVC010 00/M02 A3014 RMK AO2 SLP208 T00001022
DFW,2021-02-09 22:55,,,,360.00,10.00,,30.13,,10.00,,OVC,,,,999.00,,,,,,,,,,,,KDFW 092255Z AUTO 36010KT 10SM OVC009 00/M02 A3012 RMK T00001020 MADISHF
DFW,2021-02-09 23:00,,,,350.00,10.00,,30.13,,10.00,,OVC,,,,999.00,,,,,,,,,,,,KDFW 092300Z AUTO 35010KT 10SM OVC009 00/M02 A3012 RMK T00001020 MADISHF
DFW,2021-02-09 23:05,,,,350.00,11.00,,30.14,,10.00,,OVC,,,,999.00,,,,,,,,,,,,KDFW 092305Z AUTO 35011KT 10SM OVC009 00/M02 A3013 RMK T00001020 MADISHF
DFW,2021-02-09 23:10,,,,350.00,11.00,,30.14,,10.00,,OVC,,,,999.00,,,,,,,,,,,,KDFW 092310Z AUTO 35011KT 10SM OVC009 00/M02 A3013 RMK T00001020 MADISHF
DFW,2021-02-09 23:15,,,,350.00,11.00,,30.14,,10.00,,OVC,,,,900.00,,,,,,,,,,,,KDFW 092315Z AUTO 35011KT 10SM OVC009 00/M02 A3013 RMK T00001020 MADISHF
DFW,2021-02-09 23:20,,,,340.00,10.00,,30.14,,10.00,,OVC,,,,900.00,,,,,,,,,,,,KDFW 092320Z AUTO 34010KT 10SM OVC009 00/M03 A3013 RMK T00001030 MADISHF
DFW,2021-02-09 23:21,32.00,27.00,81.55,340.00,10.00,0.00,30.14,,10.00,,OVC,,,,900.00,,,,,,,,,,,22.97,KDFW 092321Z 34010KT 10SM OVC009 00/M03 A3014 RMK AO2 T00001028
DFW,2021-02-09 23:25,,,,340.00,11.00,,30.14,,10.00,,OVC,,,,900.00,,,,,,,,,,,,KDFW 092325Z AUTO 34011KT 10SM OVC009 00/M02 A3013 RMK T00001020 MADISHF
DFW,2021-02-09 23:30,,,,340.00,11.00,,30.14,,10.00,,OVC,,,,900.00,,,,,,,,,,,,KDFW 092330Z AUTO 34011KT 10SM OVC009 00/M03 A3013 RMK T00001030 MADISHF
DFW,2021-02-09 23:35,,,,350.00,9.00,,30.14,,10.00,,OVC,,,,900.00,,,,,,,,,,,,KDFW 092335Z AUTO 35009KT 10SM OVC009 00/M02 A3013 RMK T00001020 MADISHF
DFW,2021-02-09 23:40,,,,350.00,11.00,,30.14,,10.00,,OVC,,,,900.00,,,,,,,,,,,,KDFW 092340Z AUTO 35011KT 10SM OVC009 00/M02 A3013 RMK T00001020 MADISHF
DFW,2021-02-09 23:45,,,,350.00,9.00,,30.14,,10.00,,OVC,,,,900.00,,,,,,,,,,,,KDFW 092345Z AUTO 35009KT 10SM OVC009 00/M03 A3013 RMK T00001030 MADISHF
DFW,2021-02-09 23:50,,,,340.00,11.00,,30.14,,10.00,,OVC,,,,900.00,,,,,,,,,,,,KDFW 092350Z AUTO 34011KT 10SM OVC009 00/M03 A3013 RMK T00001030 MADISHF
DFW,2021-02-09 23:53,32.00,27.00,81.55,360.00,9.00,0.00,30.14,1021.00,10.00,,OVC,,,,900.00,,,,,,,,,,,23.51,KDFW 092353Z 36009KT 10SM OVC009 00/M03 A3014 RMK AO2 SLP210 T00001028 10017 20000 55002
DFW,2021-02-09 23:55,,,,350.00,10.00,,30.14,,10.00,,OVC,,,,900.00,,,,,,,,,,,,KDFW 092355Z AUTO 35010KT 10SM OVC009 00/M03 A3013 RMK T00001030 MADISHF
DFW,2021-02-10 00:00,,,,350.00,11.00,,30.14,,10.00,,OVC,,,,900.00,,,,,,,,,,,,KDFW 100000Z AUTO 35011KT 10SM OVC009 00/M03 A3013 RMK T00001030 MADISHF
DFW,2021-02-10 00:05,,,,350.00,10.00,,30.14,,10.00,,OVC,,,,900.00,,,,,,,,,,,,KDFW 100005Z AUTO 35010KT 10SM OVC009 00/M03 A3013 RMK T00001030 MADISHF
DFW,2021-02-10 00:10,,,,360.00,11.00,,30.13,,10.00,,OVC,,,,900.00,,,,,,,,,,,,KDFW 100010Z AUTO 36011KT 10SM OVC009 00/M03 A3012 RMK T00001030 MADISHF
DFW,2021-02-10 00:15,,,,350.00,11.00,,30.14,,10.00,,OVC,,,,900.00,,,,,,,,,,,,KDFW 100015Z AUTO 35011KT 10SM OVC009 00/M03 A3013 RMK T00001030 MADISHF
DFW,2021-02-10 00:20,,,,350.00,11.00,,30.14,,10.00,,OVC,,,,900.00,,,,,,,,,,,,KDFW 100020Z AUTO 35011KT 10SM OVC009 00/M03 A3013 RMK T00001030 MADISHF
DFW,2021-02-10 00:25,,,,350.00,10.00,,30.14,,10.00,,OVC,,,,900.00,,,,,,,,,,,,KDFW 100025Z AUTO 35010KT 10SM OVC009 00/M03 A3013 RMK T00001030 MADISHF
DFW,2021-02-10 00:30,,,,360.00,10.00,,30.14,,10.00,,OVC,,,,900.00,,,,,,,,,,,,KDFW 100030Z AUTO 36010KT 10SM OVC009 00/M03 A3013 RMK T00001030 MADISHF
DFW,2021-02-10 00:35,,,,360.00,10.00,,30.14,,10.00,,OVC,,,,900.00,,,,,,,,,,,,KDFW 100035Z AUTO 36010KT 10SM OVC009 00/M03 A3013 RMK T00001030 MADISHF
DFW,2021-02-10 00:40,,,,10.00,9.00,,30.14,,10.00,,OVC,,,,900.00,,,,,,,,,,,,KDFW 100040Z AUTO 01009KT 10SM OVC009 00/M03 A3013 RMK T00001030 MADISHF
DFW,2021-02-10 00:45,,,,10.00,10.00,,30.14,,10.00,,OVC,,,,900.00,,,,,,,,,,,,KDFW 100045Z AUTO 01010KT 10SM OVC009 00/M03 A3013 RMK T00001030 MADISHF
DFW,2021-02-10 00:50,,,,10.00,9.00,,30.14,,10.00,,OVC,,,,900.00,,,,,,,,,,,,KDFW 100050Z AUTO 01009KT 10SM OVC009 00/M03 A3013 RMK T00001030 MADISHF
DFW,2021-02-10 00:53,32.00,27.00,81.55,360.00,10.00,0.00,30.14,1021.00,10.00,,OVC,,,,900.00,,,,,,,,,,,22.97,KDFW 100053Z 36010KT 10SM OVC009 00/M03 A3014 RMK AO2 SLP210 T00001028
DFW,2021-02-10 00:55,,,,10.00,9.00,,30.14,,10.00,,OVC,,,,900.00,,,,,,,,,,,,KDFW 100055Z AUTO 01009KT 10SM OVC009 00/M03 A3013 RMK T00001030 MADISHF
DFW,2021-02-10 01:00,,,,10.00,10.00,,30.14,,10.00,,OVC,,,,900.00,,,,,,,,,,,,KDFW 100100Z AUTO 01010KT 10SM OVC009 00/M03 A3013 RMK T00001030 MADISHF
DFW,2021-02-10 01:05,,,,10.00,9.00,,30.14,,10.00,,OVC,,,,900.00,,,,,,,,,,,,KDFW 100105Z AUTO 01009KT 10SM OVC009 00/M03 A3013 RMK T00001030 MADISHF
DFW,2021-02-10 01:10,,,,360.00,9.00,,30.14,,10.00,,OVC,,,,900.00,,,,,,,,,,,,KDFW 100110Z AUTO 36009KT 10SM OVC009 00/M03 A3013 RMK T00001030 MADISHF
DFW,2021-02-10 01:15,,,,30.00,10.00,,30.13,,10.00,,OVC,,,,1100.00,,,,,,,,,,,,KDFW 100115Z AUTO 03010KT 10SM OVC011 00/M03 A3012 RMK T00001030 MADISHF
DFW,2021-02-10 01:18,32.00,27.00,81.55,20.00,9.00,0.00,30.14,,10.00,,OVC,,,,1100.00,,,,,,,,,,,23.51,KDFW 100118Z 02009KT 10SM OVC011 00/M03 A3014 RMK AO2 T00001028
DFW,2021-02-10 01:20,,,,20.00,9.00,,30.14,,10.00,,OVC,,,,1100.00,,,,,,,,,,,,KDFW 100120Z AUTO 02009KT 10SM OVC011 00/M03 A3013 RMK T00001030 MADISHF
DFW,2021-02-10 01:25,,,,20.00,8.00,,30.14,,10.00,,OVC,,,,1100.00,,,,,,,,,,,,KDFW 100125Z AUTO 02008KT 10SM OVC011 M01/M03 A3013 RMK T10101030 MADISHF
DFW,2021-02-10 01:30,,,,40.00,8.00,,30.15,,10.00,,OVC,,,,1100.00,,,,,,,,,,,,KDFW 100130Z AUTO 04008KT 10SM OVC011 M01/M03 A3014 RMK T10101030 MADISHF
DFW,2021-02-10 01:35,,,,30.00,8.00,,30.15,,10.00,,OVC,,,,999.00,,,,,,,,,,,,KDFW 100135Z AUTO 03008KT 10SM OVC009 M01/M03 A3014 RMK T10101030 MADISHF
DFW,2021-02-10 01:40,,,,30.00,8.00,,30.15,,10.00,,OVC,,,,999.00,,,,,,,,,,,,KDFW 100140Z AUTO 03008KT 10SM OVC009 M01/M03 A3014 RMK T10101030 MADISHF
DFW,2021-02-10 01:45,,,,30.00,8.00,,30.15,,10.00,,OVC,,,,999.00,,,,,,,,,,,,KDFW 100145Z AUTO 03008KT 10SM OVC009 M01/M03 A3014 RMK T10101030 MADISHF
DFW,2021-02-10 01:50,,,,40.00,7.00,,30.15,,10.00,,OVC,,,,999.00,,,,,,,,,,,,KDFW 100150Z AUTO 04007KT 10SM OVC009 M01/M03 A3014 RMK T10101030 MADISHF
DFW,2021-02-10 01:53,30.90,27.00,85.26,30.00,6.00,0.00,30.15,1021.50,10.00,,OVC,,,,1000.00,,,,,,,,,,,24.21,KDFW 100153Z 03006KT 10SM OVC010 M01/M03 A3015 RMK AO2 SLP215 T10061028
DFW,2021-02-10 01:55,,,,20.00,7.00,,30.15,,10.00,,OVC,,,,999.00,,,,,,,,,,,,KDFW 100155Z AUTO 02007KT 10SM OVC009 00/M03 A3014 RMK T00001030 MADISHF
DFW,2021-02-10 02:00,,,,20.00,7.00,,30.16,,10.00,,OVC,,,,999.00,,,,,,,,,,,,KDFW 100200Z AUTO 02007KT 10SM OVC009 M01/M03 A3015 RMK T10101030 MADISHF
DFW,2021-02-10 02:05,,,,20.00,8.00,,30.16,,10.00,,OVC,,,,999.00,,,,,,,,,,,,KDFW 100205Z AUTO 02008KT 10SM OVC009 M01/M03 A3015 RMK T10101030 MADISHF
DFW,2021-02-10 02:10,,,,360.00,8.00,,30.16,,10.00,,OVC,,,,999.00,,,,,,,,,,,,KDFW 100210Z AUTO 36008KT 10SM OVC009 M01/M03 A3015 RMK T10101030 MADISHF
DFW,2021-02-10 02:15,,,,350.00,11.00,,30.16,,10.00,,OVC,,,,999.00,,,,,,,,,,,,KDFW 100215Z AUTO 35011KT 10SM OVC009 00/M03 A3015 RMK T00001030 MADISHF
DFW,2021-02-10 02:20,,,,360.00,11.00,,30.15,,10.00,,OVC,,,,999.00,,,,,,,,,,,,KDFW 100220Z AUTO 36011KT 10SM OVC009 00/M03 A3014 RMK T00001030 MADISHF
DFW,2021-02-10 02:25,,,,360.00,11.00,,30.15,,10.00,,OVC,,,,999.00,,,,,,,,,,,,KDFW 100225Z AUTO 36011KT 10SM OVC009 M01/M03 A3014 RMK T10101030 MADISHF
DFW,2021-02-10 02:30,,,,360.00,11.00,,30.15,,10.00,,OVC,,,,999.00,,,,,,,,,,,,KDFW 100230Z AUTO 36011KT 10SM OVC009 M01/M03 A3014 RMK T10101030 MADISHF
DFW,2021-02-10 02:35,,,,360.00,9.00,,30.15,,10.00,,OVC,,,,999.00,,,,,,,,,,,,KDFW 100235Z AUTO 36009KT 10SM OVC009 M01/M03 A3014 RMK T10101030 MADISHF
DFW,2021-02-10 02:40,,,,360.00,10.00,,30.15,,10.00,,OVC,,,,999.00,,,,,,,,,,,,KDFW 100240Z AUTO 36010KT 10SM OVC009 M01/M03 A3014 RMK T10101030 MADISHF
DFW,2021-02-10 02:45,,,,10.00,9.00,,30.16,,10.00,,OVC,,,,999.00,,,,,,,,,,,,KDFW 100245Z AUTO 01009KT 10SM OVC009 M01/M03 A3015 RMK T10101030 MADISHF
DFW,2021-02-10 02:50,,,,10.00,8.00,,30.15,,10.00,,OVC,,,,999.00,,,,,,,,,,,,KDFW 100250Z AUTO 01008KT 10SM OVC009 M01/M03 A3014 RMK T10101030 MADISHF
DFW,2021-02-10 02:53,30.90,27.00,85.26,30.00,9.00,0.00,30.15,1021.50,10.00,,OVC,,,,1000.00,,,,,,,,,,,22.15,KDFW 100253Z 03009KT 10SM OVC010 M01/M03 A3015 RMK AO2 SLP215 T10061028 53004
DFW,2021-02-10 02:55,,,,10.00,9.00,,30.16,,10.00,,OVC,,,,999.00,,,,,,,,,,,,KDFW 100255Z AUTO 01009KT 10SM OVC009 M01/M03 A3015 RMK T10101030 MADISHF
DFW,2021-02-10 03:00,,,,360.00,10.00,,30.16,,10.00,,OVC,,,,1100.00,,,,,,,,,,,,KDFW 100300Z AUTO 36010KT 10SM OVC011 M01/M03 A3015 RMK T10101030 MADISHF
DFW,2021-02-10 03:05,,,,10.00,9.00,,30.16,,10.00,,OVC,,,,1100.00,,,,,,,,,,,,KDFW 100305Z AUTO 01009KT 10SM OVC011 M01/M03 A3015 RMK T10101030 MADISHF
DFW,2021-02-10 03:10,,,,360.00,9.00,,30.16,,10.00,,OVC,,,,1100.00,,,,,,,,,,,,KDFW 100310Z AUTO 36009KT 10SM OVC011 M01/M03 A3015 RMK T10101030 MADISHF
DFW,2021-02-10 03:15,,,,360.00,9.00,,30.16,,10.00,,OVC,,,,1100.00,,,,,,,,,,,,KDFW 100315Z AUTO 36009KT 10SM OVC011 M01/M03 A3015 RMK T10101030 MADISHF
DFW,2021-02-10 03:20,,,,20.00,11.00,,30.16,,10.00,,OVC,,,,1100.00,,,,,,,,,,,,KDFW 100320Z AUTO 02011KT 10SM OVC011 M01/M03 A3015 RMK T10101030 MADISHF
DFW,2021-02-10 03:25,,,,20.00,10.00,,30.16,,10.00,,OVC,,,,1100.00,,,,,,,,,,,,KDFW 100325Z AUTO 02010KT 10SM OVC011 M01/M03 A3015 RMK T10101030 MADISHF
DFW,2021-02-10 03:30,,,,10.00,9.00,,30.16,,10.00,,OVC,,,,1100.00,,,,,,,,,,,,KDFW 100330Z AUTO 01009KT 10SM OVC011 M01/M03 A3015 RMK T10101030 MADISHF
DFW,2021-02-10 03:35,,,,10.00,9.00,,30.15,,10.00,,OVC,,,,1100.00,,,,,,,,,,,,KDFW 100335Z AUTO 01009KT 10SM OVC011 M01/M03 A3014 RMK T10101030 MADISHF
DFW,2021-02-10 03:40,,,,20.00,9.00,,30.15,,10.00,,OVC,,,,1100.00,,,,,,,,,,,,KDFW 100340Z AUTO 02009KT 10SM OVC011 M01/M03 A3014 RMK T10101030 MADISHF
DFW,2021-02-10 03:45,,,,10.00,9.00,,30.15,,10.00,,OVC,,,,1100.00,,,,,,,,,,,,KDFW 100345Z AUTO 01009KT 10SM OVC011 M01/M03 A3014 RMK T10101030 MADISHF
DFW,2021-02-10 03:50,,,,10.00,10.00,,30.15,,10.00,,OVC,,,,1100.00,,,,,,,,,,,,KDFW 100350Z AUTO 01010KT 10SM OVC011 M01/M03 A3014 RMK T10101030 MADISHF
DFW,2021-02-10 03:53,30.90,27.00,85.26,20.00,9.00,0.00,30.15,1021.20,10.00,,OVC,,,,1100.00,,,,,,,,,,,22.15,KDFW 100353Z 02009KT 10SM OVC011 M01/M03 A3015 RMK AO2 SLP212 T10061028
DFW,2021-02-10 03:55,,,,10.00,9.00,,30.14,,10.00,,OVC,,,,1100.00,,,,,,,,,,,,KDFW 100355Z AUTO 01009KT 10SM OVC011 M01/M03 A3013 RMK T10101030 MADISHF
DFW,2021-02-10 04:00,,,,360.00,11.00,,30.14,,10.00,,OVC,,,,1100.00,,,,,,,,,,,,KDFW 100400Z AUTO 36011KT 10SM OVC011 M01/M03 A3013 RMK T10101030 MADISHF
DFW,2021-02-10 04:05,,,,10.00,10.00,,30.15,,10.00,,OVC,,,,1100.00,,,,,,,,,,,,KDFW 100405Z AUTO 01010KT 10SM OVC011 M01/M03 A3014 RMK T10101030 MADISHF
DFW,2021-02-10 04:10,,,,10.00,11.00,,30.14,,10.00,,OVC,,,,1100.00,,,,,,,,,,,,KDFW 100410Z AUTO 01011KT 10SM OVC011 M01/M03 A3013 RMK T10101030 MADISHF
DFW,2021-02-10 04:15,,,,10.00,10.00,,30.14,,10.00,,OVC,,,,999.00,,,,,,,,,,,,KDFW 100415Z AUTO 01010KT 10SM OVC009 M01/M03 A3013 RMK T10101030 MADISHF
DFW,2021-02-10 04:20,,,,10.00,10.00,,30.15,,10.00,,OVC,,,,999.00,,,,,,,,,,,,KDFW 100420Z AUTO 01010KT 10SM OVC009 M01/M03 A3014 RMK T10101030 MADISHF
DFW,2021-02-10 04:25,,,,10.00,10.00,,30.14,,10.00,,OVC,,,,999.00,,,,,,,,,,,,KDFW 100425Z AUTO 01010KT 10SM OVC009 M01/M03 A3013 RMK T10101030 MADISHF
DFW,2021-02-10 04:30,,,,10.00,8.00,,30.15,,10.00,,OVC,,,,999.00,,,,,,,,,,,,KDFW 100430Z AUTO 01008KT 10SM OVC009 M01/M03 A3014 RMK T10101030 MADISHF
DFW,2021-02-10 04:35,,,,360.00,10.00,,30.15,,10.00,,OVC,,,,999.00,,,,,,,,,,,,KDFW 100435Z AUTO 36010KT 10SM OVC009 M01/M03 A3014 RMK T10101030 MADISHF
DFW,2021-02-10 04:40,,,,10.00,9.00,,30.15,,10.00,,OVC,,,,999.00,,,,,,,,,,,,KDFW 100440Z AUTO 01009KT 10SM OVC009 M01/M03 A3014 RMK T10101030 MADISHF
DFW,2021-02-10 04:45,,,,10.00,8.00,,30.14,,10.00,,OVC,,,,999.00,,,,,,,,,,,,KDFW 100445Z AUTO 01008KT 10SM OVC009 M01/M03 A3013 RMK T10101030 MADISHF
DFW,2021-02-10 04:50,,,,360.00,9.00,,30.14,,10.00,,OVC,,,,999.00,,,,,,,,,,,,KDFW 100450Z AUTO 36009KT 10SM OVC009 M01/M03 A3013 RMK T10101030 MADISHF
DFW,2021-02-10 04:53,30.90,27.00,85.26,360.00,10.00,0.00,30.14,1021.10,10.00,,OVC,,,,1000.00,,,,,,,,,,,21.59,KDFW 100453Z 36010KT 10SM OVC010 M01/M03 A3014 RMK AO2 SLP211 T10061028
DFW,2021-02-10 04:55,,,,360.00,10.00,,30.14,,10.00,,OVC,,,,999.00,,,,,,,,,,,,KDFW 100455Z AUTO 36010KT 10SM OVC009 M01/M03 A3013 RMK T10101030 MADISHF
DFW,2021-02-10 05:00,,,,360.00,8.00,,30.16,,10.00,,OVC,,,,999.00,,,,,,,,,,,,KDFW 100500Z AUTO 36008KT 10SM OVC009 M01/M03 A3015 RMK T10101030 MADISHF
DFW,2021-02-10 05:05,,,,350.00,9.00,,30.16,,10.00,,OVC,,,,999.00,,,,,,,,,,,,KDFW 100505Z AUTO 35009KT 10SM OVC009 M01/M03 A3015 RMK T10101030 MADISHF
DFW,2021-02-10 05:10,,,,360.00,8.00,,30.16,,10.00,,OVC,,,,999.00,,,,,,,,,,,,KDFW 100510Z AUTO 36008KT 10SM OVC009 M01/M03 A3015 RMK T10101030 MADISHF
DFW,2021-02-10 05:15,,,,10.00,5.00,,30.16,,10.00,,OVC,,,,999.00,,,,,,,,,,,,KDFW 100515Z AUTO 01005KT 10SM OVC009 M01/M03 A3015 RMK T10101030 MADISHF
DFW,2021-02-10 05:20,,,,360.00,7.00,,30.16,,10.00,,OVC,,,,999.00,,,,,,,,,,,,KDFW 100520Z AUTO 36007KT 10SM OVC009 M01/M03 A3015 RMK T10101030 MADISHF
DFW,2021-02-10 05:25,,,,20.00,5.00,,30.16,,10.00,,OVC,,,,999.00,,,,,,,,,,,,KDFW 100525Z AUTO 02005KT 10SM OVC009 M01/M03 A3015 RMK T10101030 MADISHF
DFW,2021-02-10 05:30,,,,10.00,7.00,,30.16,,10.00,,OVC,,,,999.00,,,,,,,,,,,,KDFW 100530Z AUTO 01007KT 10SM OVC009 M01/M03 A3015 RMK T10101030 MADISHF
DFW,2021-02-10 05:35,,,,10.00,8.00,,30.16,,10.00,,OVC,,,,999.00,,,,,,,,,,,,KDFW 100535Z AUTO 01008KT 10SM OVC009 M01/M03 A3015 RMK T10101030 MADISHF
DFW,2021-02-10 05:40,,,,360.00,9.00,,30.15,,10.00,,OVC,,,,999.00,,,,,,,,,,,,KDFW 100540Z AUTO 36009KT 10SM OVC009 M01/M03 A3014 RMK T10101030 MADISHF
DFW,2021-02-10 05:45,,,,360.00,11.00,,30.14,,10.00,,OVC,,,,999.00,,,,,,,,,,,,KDFW 100545Z AUTO 36011KT 10SM OVC009 M01/M03 A3013 RMK T10101030 MADISHF
DFW,2021-02-10 05:50,,,,360.00,10.00,,30.14,,10.00,,OVC,,,,999.00,,,,,,,,,,,,KDFW 100550Z AUTO 36010KT 10SM OVC009 M01/M03 A3013 RMK T10101030 MADISHF
DFW,2021-02-10 05:53,30.90,27.00,85.26,10.00,11.00,0.00,30.14,1020.90,10.00,,OVC,,,,1000.00,,,,,,,,,,,21.08,KDFW 100553Z 01011KT 10SM OVC010 M01/M03 A3014 RMK AO2 SLP209 T10061028 10000 21006 400391011 56004
DFW,2021-02-10 05:55,,,,10.00,11.00,,30.14,,10.00,,OVC,,,,999.00,,,,,,,,,,,,KDFW 100555Z AUTO 01011KT 10SM OVC009 M01/M03 A3013 RMK T10101030 MADISHF
DFW,2021-02-10 06:00,,,,20.00,9.00,,30.14,,10.00,,OVC,,,,999.00,,,,,,,,,,,,KDFW 100600Z AUTO 02009KT 10SM OVC009 M01/M03 A3013 RMK T10101030 MADISHF
DFW,2021-02-10 06:05,,,,20.00,9.00,,30.15,,10.00,,OVC,,,,999.00,,,,,,,,,,,,KDFW 100605Z AUTO 02009KT 10SM OVC009 M01/M03 A3014 RMK T10101030 MADISHF
DFW,2021-02-10 06:10,,,,20.00,8.00,,30.14,,9.00,,OVC,,,,999.00,,,,,,,,,,,,KDFW 100610Z AUTO 02008KT 9SM OVC009 M01/M03 A3013 RMK T10101030 MADISHF
DFW,2021-02-10 06:15,,,,20.00,9.00,,30.14,,7.00,,OVC,,,,999.00,,,,,,,,,,,,KDFW 100615Z AUTO 02009KT 7SM OVC009 M01/M03 A3013 RMK T10101030 MADISHF
DFW,2021-02-10 06:20,,,,350.00,11.00,,30.14,,6.00,,OVC,,,,999.00,,,,BR,,,,,,,,KDFW 100620Z AUTO 35011KT 6SM BR OVC009 M01/M03 A3013 RMK T10101030 MADISHF
DFW,2021-02-10 06:25,,,,360.00,10.00,,30.15,,5.00,,OVC,,,,999.00,,,,BR,,,,,,,,KDFW 100625Z AUTO 36010KT 5SM BR OVC009 M01/M02 A3014 RMK T10101020 MADISHF
DFW,2021-02-10 06:30,,,,360.00,10.00,,30.15,,4.00,,OVC,,,,999.00,,,,BR,,,,,,,,KDFW 100630Z AUTO 36010KT 4SM BR OVC009 M01/M02 A3014 RMK T10101020 MADISHF
DFW,2021-02-10 06:35,,,,360.00,9.00,,30.15,,4.00,,OVC,,,,999.00,,,,BR,,,,,,,,KDFW 100635Z AUTO 36009KT 4SM BR OVC009 M01/M02 A3014 RMK T10101020 MADISHF
DFW,2021-02-10 06:38,30.00,28.00,92.15,350.00,9.00,T,30.15,,3.00,,OVC,,,,900.00,,,,-DZ BR,,,,,,,21.03,KDFW 100638Z 35009KT 3SM -DZ BR OVC009 M01/M02 A3015 RMK AO2 DZB38 P0000 T10111022
DFW,2021-02-10 06:40,,,,350.00,11.00,,30.15,,3.50,,OVC,,,,900.00,,,,-DZ BR,,,,,,,,KDFW 100640Z AUTO 35011KT 3SM -DZ BR OVC009 M01/M02 A3014 RMK T10101020 MADISHF
DFW,2021-02-10 06:45,,,,350.00,10.00,,30.15,,3.50,,OVC,,,,900.00,,,,-DZ BR,,,,,,,,KDFW 100645Z AUTO 35010KT 3SM -DZ BR OVC009 M01/M02 A3014 RMK T10101020 MADISHF
DFW,2021-02-10 06:50,,,,360.00,11.00,,30.15,,4.00,,OVC,,,,900.00,,,,-DZ BR,,,,,,,,KDFW 100650Z AUTO 36011KT 4SM -DZ BR OVC009 M01/M02 A3014 RMK T10101020 MADISHF
DFW,2021-02-10 06:53,30.00,28.00,92.15,350.00,11.00,T,30.14,1021.10,4.00,,OVC,,,,900.00,,,,-DZ BR,,,,,,,19.94,KDFW 100653Z 35011KT 4SM -DZ BR OVC009 M01/M02 A3014 RMK AO2 DZB38 SLP211 CIG 008V011 P0000 T10111022
DFW,2021-02-10 06:55,,,,350.00,9.00,,30.15,,4.00,,OVC,,,,900.00,,,,-DZ BR,,,,,,,,KDFW 100655Z AUTO 35009KT 4SM -DZ BR OVC009 M01/M02 A3014 RMK T10101020 MADISHF
DFW,2021-02-10 07:00,,,,340.00,10.00,,30.15,,3.50,,OVC,,,,800.00,,,,-DZ BR,,,,,,,,KDFW 100700Z AUTO 34010KT 3SM -DZ BR OVC008 M01/M02 A3014 RMK T10101020 MADISHF
DFW,2021-02-10 07:05,,,,340.00,9.00,,30.14,,2.50,,OVC,,,,800.00,,,,-DZ BR,,,,,,,,KDFW 100705Z AUTO 34009KT 2 1/2SM -DZ BR OVC008 M01/M02 A3013 RMK T10101020 MADISHF
DFW,2021-02-10 07:08,30.00,28.90,95.61,350.00,8.00,T,30.14,,2.50,,OVC,,,,600.00,,,,-FZDZ BR,T,,,,,,21.65,KDFW 100708Z 35008KT 2 1/2SM -FZDZ BR OVC006 M01/M02 A3014 RMK AO2 DZE08FZDZB08 P0000 I1000 T10111017
DFW,2021-02-10 07:10,,,,350.00,8.00,,30.15,,2.50,,OVC,,,,600.00,,,,-FZDZ BR,,,,,,,,KDFW 100710Z AUTO 35008KT 2 1/2SM -FZDZ BR OVC006 M01/M02 A3014 RMK T10101020 MADISHF
DFW,2021-02-10 07:15,,,,360.00,9.00,,30.14,,2.50,,OVC,,,,499.00,,,,-FZDZ BR,,,,,,,,KDFW 100715Z AUTO 36009KT 2 1/2SM -FZDZ BR OVC004 M01/M02 A3013 RMK T10101020  CIG 003V007 MADISHF
DFW,2021-02-10 07:20,,,,340.00,8.00,,30.14,,2.50,,OVC,,,,499.00,,,,-FZDZ BR,,,,,,,,KDFW 100720Z AUTO 34008KT 2 1/2SM -FZDZ BR OVC004 M01/M02 A3013 RMK T10101020  CIG 003V007 MADISHF
DFW,2021-02-10 07:25,,,,340.00,9.00,,30.14,,2.00,,OVC,,,,499.00,,,,-FZDZ BR,,,,,,,,KDFW 100725Z AUTO 34009KT 2SM -FZDZ BR OVC004 M01/M02 A3013 RMK T10101020  CIG 003V007 MADISHF
DFW,2021-02-10 07:30,,,,340.00,8.00,,30.14,,2.00,,OVC,,,,499.00,,,,-FZDZ BR,,,,,,,,KDFW 100730Z AUTO 34008KT 2SM -FZDZ BR OVC004 M01/M02 A3013 RMK T10101020  CIG 003V007 MADISHF
DFW,2021-02-10 07:35,,,,340.00,8.00,,30.14,,2.00,,OVC,,,,499.00,,,,-FZDZ BR,,,,,,,,KDFW 100735Z AUTO 34008KT 2SM -FZDZ BR OVC004 M01/M02 A3013 RMK T10101020  CIG 003V007 MADISHF
DFW,2021-02-10 07:40,,,,330.00,10.00,,30.14,,2.00,,OVC,,,,499.00,,,,-FZDZ BR,,,,,,,,KDFW 100740Z AUTO 33010KT 2SM -FZDZ BR OVC004 M01/M02 A3013 RMK T10101020  CIG 003V007 MADISHF
DFW,2021-02-10 07:45,,,,330.00,10.00,,30.14,,2.00,,OVC,,,,499.00,,,,-FZDZ BR,,,,,,,,KDFW 100745Z AUTO 33010KT 2SM -FZDZ BR OVC004 M01/M02 A3013 RMK T10101020  CIG 003V007 MADISHF
DFW,2021-02-10 07:50,,,,330.00,10.00,,30.15,,2.00,,OVC,,,,400.00,,,,-FZDZ BR,,,,,,,,KDFW 100750Z AUTO 33010KT 2SM -FZDZ BR OVC004 M02/M02 A3014 RMK T10201020  CIG 003V005 MADISHF
DFW,2021-02-10 07:53,28.90,28.00,96.38,340.00,11.00,T,30.15,1021.20,2.00,,OVC,,,,400.00,,,,-FZDZ BR,T,,,,,,18.55,KDFW 100753Z 34011KT 2SM -FZDZ BR OVC004 M02/M02 A3015 RMK AO2 DZE08FZDZB08 SLP212 CIG 003V005 P0000 I1000 T10171022
DFW,2021-02-10 07:55,,,,340.00,11.00,,30.14,,2.50,,OVC,,,,400.00,,,,-FZDZ BR,,,,,,,,KDFW 100755Z AUTO 34011KT 2 1/2SM -FZDZ BR OVC004 M02/M02 A3013 RMK T10201020  CIG 003V005 MADISHF
DFW,2021-02-10 08:00,,,,330.00,10.00,,30.15,,2.50,,OVC,,,,400.00,,,,-FZDZ BR,,,,,,,,KDFW 100800Z AUTO 33010KT 2 1/2SM -FZDZ BR OVC004 M02/M02 A3014 RMK T10201020  CIG 003V005 MADISHF
DFW,2021-02-10 08:05,,,,340.00,9.00,,30.15,,2.50,,OVC,,,,400.00,,,,-FZDZ BR,,,,,,,,KDFW 100805Z AUTO 34009KT 2 1/2SM -FZDZ BR OVC004 M02/M02 A3014 RMK T10201020  CIG 003V005 MADISHF
DFW,2021-02-10 08:10,,,,340.00,8.00,,30.15,,2.00,,OVC,,,,400.00,,,,-FZDZ BR,,,,,,,,KDFW 100810Z AUTO 34008KT 2SM -FZDZ BR OVC004 M02/M02 A3014 RMK T10201020  CIG 003V005 MADISHF
DFW,2021-02-10 08:15,,,,340.00,7.00,,30.15,,2.00,,OVC,,,,400.00,,,,-FZDZ BR,,,,,,,,KDFW 100815Z AUTO 34007KT 2SM -FZDZ BR OVC004 M02/M02 A3014 RMK T10201020  CIG 003V005 MADISHF
DFW,2021-02-10 08:20,,,,350.00,8.00,,30.14,,2.00,,OVC,,,,400.00,,,,-FZDZ BR,,,,,,,,KDFW 100820Z AUTO 35008KT 2SM -FZDZ BR OVC004 M01/M02 A3013 RMK T10101020  CIG 003V005 MADISHF
DFW,2021-02-10 08:25,,,,340.00,8.00,,30.15,,2.50,,OVC,,,,400.00,,,,-FZDZ BR,,,,,,,,KDFW 100825Z AUTO 34008KT 2 1/2SM -FZDZ BR OVC004 M02/M02 A3014 RMK T10201020  CIG 003V005 MADISHF
DFW,2021-02-10 08:30,,,,340.00,9.00,,30.14,,3.00,,OVC,,,,400.00,,,,-FZDZ BR,,,,,,,,KDFW 100830Z AUTO 34009KT 3SM -FZDZ BR OVC004 M02/M02 A3013 RMK T10201020  CIG 003V005 MADISHF
DFW,2021-02-10 08:35,,,,340.00,10.00,,30.14,,3.00,,OVC,,,,400.00,,,,-FZDZ BR,,,,,,,,KDFW 100835Z AUTO 34010KT 3SM -FZDZ BR OVC004 M02/M02 A3013 RMK T10201020  CIG 003V005 MADISHF
DFW,2021-02-10 08:36,28.90,28.00,96.38,340.00,9.00,T,30.14,,3.00,,OVC,,,,400.00,,,,-FZDZ BR,0.01,,,,,,19.66,KDFW 100836Z 34009KT 3SM -FZDZ BR OVC004 M02/M02 A3014 RMK AO2 CIG 003V005 P0000 I1001 T10171022
DFW,2021-02-10 08:40,,,,330.00,10.00,,30.14,,3.00,,OVC,,,,400.00,,,,-FZDZ BR,,,,,,,,KDFW 100840Z AUTO 33010KT 3SM -FZDZ BR OVC004 M02/M02 A3013 RMK T10201020  CIG 003V005 MADISHF
DFW,2021-02-10 08:45,,,,340.00,10.00,,30.14,,3.00,,OVC,,,,400.00,,,,-FZDZ BR,,,,,,,,KDFW 100845Z AUTO 34010KT 3SM -FZDZ BR OVC004 M02/M02 A3013 RMK T10201020  CIG 003V005 MADISHF
DFW,2021-02-10 08:50,,,,340.00,9.00,,30.14,,3.00,,OVC,,,,400.00,,,,-FZDZ BR,,,,,,,,KDFW 100850Z AUTO 34009KT 3SM -FZDZ BR OVC004 M02/M02 A3013 RMK T10201020  CIG 003V005 MADISHF
DFW,2021-02-10 08:53,28.90,28.00,96.38,340.00,9.00,T,30.14,1020.90,3.00,,OVC,,,,400.00,,,,-FZDZ BR,0.01,0.01,,,,,19.66,KDFW 100853Z 34009KT 3SM -FZDZ BR OVC004 M02/M02 A3014 RMK AO2 SLP209 CIG 003V005 P0000 60000 I1001 I3001 T10171022 58000
DFW,2021-02-10 08:55,,,,340.00,9.00,,30.14,,3.00,,OVC,,,,400.00,,,,-FZDZ BR,,,,,,,,KDFW 100855Z AUTO 34009KT 3SM -FZDZ BR OVC004 M02/M02 A3013 RMK T10201020  CIG 003V005 MADISHF
DFW,2021-02-10 09:00,,,,340.00,10.00,,30.14,,3.00,,OVC,,,,400.00,,,,-FZDZ BR,,,,,,,,KDFW 100900Z AUTO 34010KT 3SM -FZDZ BR OVC004 M02/M02 A3013 RMK T10201020  CIG 003V005 MADISHF
DFW,2021-02-10 09:05,,,,330.00,10.00,,30.14,,3.00,,OVC,,,,400.00,,,,-FZDZ BR,,,,,,,,KDFW 100905Z AUTO 33010KT 3SM -FZDZ BR OVC004 M02/M02 A3013 RMK T10201020  CIG 003V005 MADISHF
DFW,2021-02-10 09:10,,,,330.00,9.00,,30.14,,3.00,,OVC,,,,400.00,,,,-FZDZ BR,,,,,,,,KDFW 100910Z AUTO 33009KT 3SM -FZDZ BR OVC004 M02/M02 A3013 RMK T10201020  CIG 003V005 MADISHF
DFW,2021-02-10 09:15,,,,330.00,9.00,,30.14,,3.50,,OVC,,,,400.00,,,,-FZDZ BR,,,,,,,,KDFW 100915Z AUTO 33009KT 3SM -FZDZ BR OVC004 M02/M02 A3013 RMK T10201020  CIG 003V005 MADISHF
DFW,2021-02-10 09:20,,,,350.00,11.00,,30.14,,3.50,,OVC,,,,400.00,,,,-FZDZ BR,,,,,,,,KDFW 100920Z AUTO 35011KT 3SM -FZDZ BR OVC004 M02/M02 A3013 RMK T10201020  CIG 003V005 MADISHF
DFW,2021-02-10 09:23,28.90,28.00,96.38,350.00,10.00,T,30.14,,4.00,,OVC,,,,400.00,,,,BR,T,,,,,,19.08,KDFW 100923Z 35010KT 4SM BR OVC004 M02/M02 A3014 RMK AO2 FZDZE23 P0000 I1000 T10171022
DFW,2021-02-10 09:25,,,,350.00,10.00,,30.14,,4.00,,OVC,,,,400.00,,,,BR,,,,,,,,KDFW 100925Z AUTO 35010KT 4SM BR OVC004 M02/M02 A3013 RMK T10201020 MADISHF
DFW,2021-02-10 09:30,,,,350.00,11.00,,30.13,,6.00,,OVC,,,,400.00,,,,BR,,,,,,,,KDFW 100930Z AUTO 35011KT 6SM BR OVC004 M02/M02 A3012 RMK T10201020 MADISHF
DFW,2021-02-10 09:35,,,,350.00,11.00,,30.13,,7.00,,OVC,,,,400.00,,,,,,,,,,,,KDFW 100935Z AUTO 35011KT 7SM OVC004 M02/M02 A3012 RMK T10201020 MADISHF
DFW,2021-02-10 09:40,,,,360.00,10.00,,30.13,,7.00,,OVC,,,,499.00,,,,,,,,,,,,KDFW 100940Z AUTO 36010KT 7SM OVC004 M02/M02 A3012 RMK T10201020 MADISHF
DFW,2021-02-10 09:45,,,,340.00,10.00,,30.14,,5.00,,OVC,,,,499.00,,,,BR,,,,,,,,KDFW 100945Z AUTO 34010KT 5SM BR OVC004 M02/M02 A3013 RMK T10201020 MADISHF
DFW,2021-02-10 09:50,,,,350.00,8.00,,30.13,,5.00,,OVC,,,,499.00,,,,BR,,,,,,,,KDFW 100950Z AUTO 35008KT 5SM BR OVC004 M02/M02 A3012 RMK T10201020 MADISHF
DFW,2021-02-10 09:53,28.90,28.00,96.38,350.00,8.00,T,30.13,1020.60,5.00,,OVC,,,,500.00,,,,BR,T,,,,,,20.29,KDFW 100953Z 35008KT 5SM BR OVC005 M02/M02 A3013 RMK AO2 FZDZE23 SLP206 P0000 I1000 T10171022
DFW,2021-02-10 09:55,,,,350.00,10.00,,30.13,,5.00,,OVC,,,,499.00,,,,BR,,,,,,,,KDFW 100955Z AUTO 35010KT 5SM BR OVC004 M02/M02 A3012 RMK T10201020 MADISHF
DFW,2021-02-10 10:00,,,,340.00,11.00,,30.13,,4.00,,OVC,,,,499.00,,,,BR,,,,,,,,KDFW 101000Z AUTO 34011KT 4SM BR OVC004 M02/M02 A3012 RMK T10201020 MADISHF
DFW,2021-02-10 10:05,,,,330.00,11.00,,30.13,,4.00,,OVC,,,,400.00,,,,BR,,,,,,,,KDFW 101005Z AUTO 33011KT 4SM BR OVC004 M02/M02 A3012 RMK T10201020 MADISHF
DFW,2021-02-10 10:07,28.90,28.00,96.38,340.00,10.00,T,30.13,,4.00,,OVC,,,,400.00,,,,-FZDZ BR,T,,,,,,19.08,KDFW 101007Z 34010KT 4SM -FZDZ BR OVC004 M02/M02 A3013 RMK AO2 FZDZB07 P0000 I1000 T10171022
DFW,2021-02-10 10:10,,,,350.00,10.00,,30.13,,4.00,,OVC,,,,400.00,,,,-FZDZ BR,,,,,,,,KDFW 101010Z AUTO 35010KT 4SM -FZDZ BR OVC004 M02/M02 A3012 RMK T10201020 MADISHF
DFW,2021-02-10 10:15,,,,340.00,10.00,,30.13,,4.00,,OVC,,,,400.00,,,,-FZDZ BR,,,,,,,,KDFW 101015Z AUTO 34010KT 4SM -FZDZ BR OVC004 M02/M02 A3012 RMK T10201020 MADISHF
DFW,2021-02-10 10:20,,,,340.00,10.00,,30.12,,4.00,,OVC,,,,400.00,,,,-FZDZ BR,,,,,,,,KDFW 101020Z AUTO 34010KT 4SM -FZDZ BR OVC004 M02/M02 A3012 RMK T10201020 MADISHF
DFW,2021-02-10 10:25,,,,340.00,9.00,,30.13,,3.50,,OVC,,,,400.00,,,,-FZDZ BR,,,,,,,,KDFW 101025Z AUTO 34009KT 3SM -FZDZ BR OVC004 M02/M02 A3012 RMK T10201020 MADISHF
DFW,2021-02-10 10:30,,,,340.00,11.00,,30.12,,3.50,,OVC,,,,400.00,,,,-FZDZ BR,,,,,,,,KDFW 101030Z AUTO 34011KT 3SM -FZDZ BR OVC004 M02/M02 A3012 RMK T10201020 MADISHF
DFW,2021-02-10 10:35,,,,340.00,10.00,,30.13,,3.00,,OVC,,,,400.00,,,,-FZDZ BR,,,,,,,,KDFW 101035Z AUTO 34010KT 3SM -FZDZ BR OVC004 M02/M02 A3012 RMK T10201020 MADISHF
DFW,2021-02-10 10:40,,,,340.00,8.00,,30.13,,3.00,,OVC,,,,400.00,,,,-FZDZ BR,,,,,,,,KDFW 101040Z AUTO 34008KT 3SM -FZDZ BR OVC004 M02/M02 A3012 RMK T10201020 MADISHF
DFW,2021-02-10 10:45,,,,340.00,9.00,,30.12,,3.00,,OVC,,,,400.00,,,,-FZDZ BR,,,,,,,,KDFW 101045Z AUTO 34009KT 3SM -FZDZ BR OVC004 M02/M02 A3012 RMK T10201020 MADISHF
DFW,2021-02-10 10:50,,,,330.00,11.00,,30.12,,3.00,,OVC,,,,400.00,,,,-FZDZ BR,,,,,,,,KDFW 101050Z AUTO 33011KT 3SM -FZDZ BR OVC004 M02/M02 A3012 RMK T10201020 MADISHF
DFW,2021-02-10 10:53,28.90,28.00,96.38,350.00,11.00,T,30.12,1020.40,3.00,,OVC,,,,400.00,,,,-FZDZ BR,T,,,,,,18.55,KDFW 101053Z 35011KT 3SM -FZDZ BR OVC004 M02/M02 A3012 RMK AO2 FZDZB07 SLP204 P0000 I1000 T10171022
DFW,2021-02-10 10:55,,,,350.00,9.00,,30.12,,3.00,,OVC,,,,400.00,,,,-FZDZ BR,,,,,,,,KDFW 101055Z AUTO 35009KT 3SM -FZDZ BR OVC004 M02/M02 A3012 RMK T10201020 MADISHF
DFW,2021-02-10 11:00,,,,350.00,10.00,,30.12,,2.50,,OVC,,,,300.00,,,,-FZDZ BR,,,,,,,,KDFW 101100Z AUTO 35010KT 2 1/2SM -FZDZ BR OVC003 M02/M02 A3012 RMK T10201020 MADISHF
DFW,2021-02-10 11:05,,,,350.00,8.00,,30.12,,2.50,,OVC,,,,300.00,,,,-FZDZ BR,,,,,,,,KDFW 101105Z AUTO 35008KT 2 1/2SM -FZDZ BR OVC003 M02/M02 A3012 RMK T10201020 MADISHF
DFW,2021-02-10 11:06,28.90,28.00,96.38,350.00,7.00,T,30.12,,2.50,,OVC,,,,300.00,,,,-FZDZ BR,T,,,,,,21.00,KDFW 101106Z 35007KT 2 1/2SM -FZDZ BR OVC003 M02/M02 A3012 RMK AO2 P0000 I1000 T10171022
DFW,2021-02-10 11:10,,,,350.00,9.00,,30.12,,2.50,,OVC,,,,300.00,,,,-FZDZ BR,,,,,,,,KDFW 101110Z AUTO 35009KT 2 1/2SM -FZDZ BR OVC003 M02/M02 A3012 RMK T10201020 MADISHF
DFW,2021-02-10 11:15,,,,350.00,11.00,,30.12,,2.50,,OVC,,,,300.00,,,,-FZDZ BR,,,,,,,,KDFW 101115Z AUTO 35011KT 2 1/2SM -FZDZ BR OVC003 M02/M02 A3012 RMK T10201020 MADISHF
DFW,2021-02-10 11:20,,,,350.00,10.00,,30.13,,2.50,,OVC,,,,300.00,,,,-FZDZ BR,,,,,,,,KDFW 101120Z AUTO 35010KT 2 1/2SM -FZDZ BR OVC003 M02/M02 A3012 RMK T10201020 MADISHF
DFW,2021-02-10 11:25,,,,350.00,10.00,,30.13,,2.50,,OVC,,,,300.00,,,,-FZDZ BR,,,,,,,,KDFW 101125Z AUTO 35010KT 2 1/2SM -FZDZ BR OVC003 M02/M02 A3012 RMK T10201020 MADISHF
DFW,2021-02-10 11:30,,,,350.00,9.00,,30.13,,2.50,,OVC,,,,300.00,,,,-FZDZ BR,,,,,,,,KDFW 101130Z AUTO 35009KT 2 1/2SM -FZDZ BR OVC003 M02/M02 A3012 RMK T10201020 MADISHF
DFW,2021-02-10 11:35,,,,340.00,11.00,,30.13,,3.00,,OVC,,,,300.00,,,,-FZDZ BR,,,,,,,,KDFW 101135Z AUTO 34011KT 3SM -FZDZ BR OVC003 M02/M02 A3012 RMK T10201020 MADISHF
DFW,2021-02-10 11:38,28.90,28.00,96.38,340.00,10.00,T,30.13,,3.00,,OVC,,,,300.00,,,,-FZDZ BR,0.01,,,,,,19.08,KDFW 101138Z 34010KT 3SM -FZDZ BR OVC003 M02/M02 A3013 RMK AO2 P0000 I1001 T10171022
DFW,2021-02-10 11:40,,,,340.00,8.00,,30.13,,3.00,,OVC,,,,300.00,,,,-FZDZ BR,,,,,,,,KDFW 101140Z AUTO 34008KT 3SM -FZDZ BR OVC003 M02/M02 A3012 RMK T10201020 MADISHF
DFW,2021-02-10 11:45,,,,340.00,10.00,,30.13,,3.00,,OVC,,,,300.00,,,,-FZDZ BR,,,,,,,,KDFW 101145Z AUTO 34010KT 3SM -FZDZ BR OVC003 M02/M02 A3012 RMK T10201020 MADISHF
DFW,2021-02-10 11:50,,,,340.00,10.00,,30.13,,3.00,,OVC,,,,300.00,,,,-FZDZ BR,,,,,,,,KDFW 101150Z AUTO 34010KT 3SM -FZDZ BR OVC003 M02/M02 A3012 RMK T10201020 MADISHF
DFW,2021-02-10 11:53,28.00,28.00,100.00,350.00,10.00,T,30.12,1020.50,3.00,,OVC,,,,300.00,,,,-FZDZ BR,0.01,,0.02,,,,17.95,KDFW 101153Z 35010KT 3SM -FZDZ BR OVC003 M02/M02 A3012 RMK AO2 SLP205 P0000 60000 I1001 I6002 T10221022 11006 21022 55005
DFW,2021-02-10 11:55,,,,350.00,10.00,,30.12,,3.00,,OVC,,,,300.00,,,,-FZDZ BR,,,,,,,,KDFW 101155Z AUTO 35010KT 3SM -FZDZ BR OVC003 M02/M02 A3012 RMK T10201020 MADISHF
DFW,2021-02-10 12:00,,,,350.00,9.00,,30.13,,3.00,,OVC,,,,300.00,,,,-FZDZ BR,,,,,,,,KDFW 101200Z AUTO 35009KT 3SM -FZDZ BR OVC003 M02/M02 A3012 RMK T10201020 MADISHF
DFW,2021-02-10 12:05,,,,350.00,10.00,,30.13,,3.00,,OVC,,,,300.00,,,,-FZDZ BR,,,,,,,,KDFW 101205Z AUTO 35010KT 3SM -FZDZ BR OVC003 M02/M02 A3012 RMK T10201020 MADISHF
DFW,2021-02-10 12:10,,,,340.00,9.00,,30.13,,3.00,,OVC,,,,300.00,,,,-FZDZ BR,,,,,,,,KDFW 101210Z AUTO 34009KT 3SM -FZDZ BR OVC003 M02/M02 A3012 RMK T10201020 MADISHF
DFW,2021-02-10 12:15,,,,340.00,8.00,,30.13,,3.00,,OVC,,,,300.00,,,,-FZDZ BR,,,,,,,,KDFW 101215Z AUTO 34008KT 3SM -FZDZ BR OVC003 M02/M02 A3012 RMK T10201020 MADISHF
DFW,2021-02-10 12:19,28.00,28.00,100.00,340.00,11.00,T,30.13,,3.00,,OVC,,,,300.00,,,,BR,T,,,,,,17.41,KDFW 101219Z 34011KT 3SM BR OVC003 M02/M02 A3013 RMK AO2 FZDZE19 P0000 I1000 T10221022
DFW,2021-02-10 12:20,,,,340.00,11.00,,30.13,,3.00,,OVC,,,,300.00,,,,BR,,,,,,,,KDFW 101220Z AUTO 34011KT 3SM BR OVC003 M02/M02 A3012 RMK T10201020 MADISHF
DFW,2021-02-10 12:25,,,,340.00,9.00,,30.13,,3.00,,OVC,,,,300.00,,,,BR,,,,,,,,KDFW 101225Z AUTO 34009KT 3SM BR OVC003 M02/M02 A3012 RMK T10201020 MADISHF
DFW,2021-02-10 12:30,,,,330.00,11.00,,30.14,,3.00,,OVC,,,,300.00,,,,BR,,,,,,,,KDFW 101230Z AUTO 33011KT 3SM BR OVC003 M02/M02 A3013 RMK T10201020 MADISHF
DFW,2021-02-10 12:35,,,,340.00,11.00,,30.14,,3.00,,OVC,,,,300.00,,,,BR,,,,,,,,KDFW 101235Z AUTO 34011KT 3SM BR OVC003 M02/M02 A3013 RMK T10201020 MADISHF
DFW,2021-02-10 12:40,,,,330.00,11.00,,30.15,,3.50,,OVC,,,,300.00,,,,BR,,,,,,,,KDFW 101240Z AUTO 33011KT 3SM BR OVC003 M02/M03 A3014 RMK T10201030 MADISHF
DFW,2021-02-10 12:45,,,,340.00,13.00,,30.14,,3.50,,OVC,,,,300.00,,,,BR,,,,,,,,KDFW 101245Z AUTO 34013KT 3SM BR OVC003 M02/M03 A3013 RMK T10201030 MADISHF
DFW,2021-02-10 12:50,,,,340.00,11.00,,30.15,,3.50,,OVC,,,,300.00,,,,BR,,,,,,,,KDFW 101250Z AUTO 34011KT 3SM BR OVC003 M02/M03 A3014 RMK T10201030 MADISHF
DFW,2021-02-10 12:53,28.00,27.00,95.97,340.00,13.00,T,30.15,1021.30,3.00,,OVC,,,,300.00,,,,BR,T,,,,,,16.44,KDFW 101253Z 34013KT 3SM BR OVC003 M02/M03 A3015 RMK AO2 FZDZE19 SLP213 P0000 I1000 T10221028
DFW,2021-02-10 12:55,,,,340.00,11.00,,30.15,,3.00,,OVC,,,,300.00,,,,BR,,,,,,,,KDFW 101255Z AUTO 34011KT 3SM BR OVC003 M02/M03 A3014 RMK T10201030 MADISHF
DFW,2021-02-10 13:00,,,,340.00,11.00,,30.15,,3.00,,OVC,,,,300.00,,,,BR,,,,,,,,KDFW 101300Z AUTO 34011KT 3SM BR OVC003 M02/M03 A3014 RMK T10201030 MADISHF
DFW,2021-02-10 13:05,,,,330.00,14.00,,30.16,,2.50,,OVC,,,,300.00,,,,BR,,,,,,,,KDFW 101305Z AUTO 33014KT 2 1/2SM BR OVC003 M02/M03 A3015 RMK T10201030 MADISHF
DFW,2021-02-10 13:09,28.00,27.00,95.97,340.00,13.00,0.00,30.15,,2.00,,OVC,,,,300.00,,,,BR,,,,,,,16.44,KDFW 101309Z 34013KT 2SM BR OVC003 M02/M03 A3015 RMK AO2 T10221028
DFW,2021-02-10 13:10,,,,340.00,11.00,,30.15,,2.00,,OVC,,,,300.00,,,,BR,,,,,,,,KDFW 101310Z AUTO 34011KT 2SM BR OVC003 M02/M03 A3014 RMK T10201030 MADISHF
DFW,2021-02-10 13:15,,,,340.00,11.00,,30.16,,2.50,,OVC,,,,400.00,,,,BR,,,,,,,,KDFW 101315Z AUTO 34011KT 2 1/2SM BR OVC004 M02/M03 A3015 RMK T10201030 MADISHF
DFW,2021-02-10 13:20,,,,340.00,11.00,,30.15,,2.50,,OVC,,,,400.00,,,,BR,,,,,,,,KDFW 101320Z AUTO 34011KT 2 1/2SM BR OVC004 M02/M03 A3014 RMK T10201030 MADISHF
DFW,2021-02-10 13:25,,,,340.00,10.00,,30.16,,1.50,,OVC,,,,400.00,,,,BR,,,,,,,,KDFW 101325Z AUTO 34010KT 1 1/2SM BR OVC004 M02/M03 A3015 RMK T10201030 MADISHF
DFW,2021-02-10 13:30,,,,350.00,10.00,,30.16,,1.50,,OVC,,,,300.00,,,,BR,,,,,,,,KDFW 101330Z AUTO 35010KT 1 1/2SM BR OVC003 M02/M03 A3015 RMK T10201030 MADISHF
DFW,2021-02-10 13:35,,,,340.00,9.00,,30.16,,1.50,,OVC,,,,300.00,,,,BR,,,,,,,,KDFW 101335Z AUTO 34009KT 1 1/2SM BR OVC003 M02/M03 A3015 RMK T10201030 MADISHF
DFW,2021-02-10 13:40,,,,340.00,10.00,,30.16,,1.50,,OVC,,,,300.00,,,,BR,,,,,,,,KDFW 101340Z AUTO 34010KT 1 1/2SM BR OVC003 M02/M02 A3015 RMK T10201020 MADISHF
DFW,2021-02-10 13:45,,,,350.00,7.00,,30.15,,1.50,,OVC,,,,300.00,,,,BR,,,,,,,,KDFW 101345Z AUTO 35007KT 1 1/2SM BR OVC003 M02/M02 A3014 RMK T10201020 MADISHF
DFW,2021-02-10 13:50,,,,360.00,8.00,,30.14,,1.50,,OVC,,,,300.00,,,,BR,,,,,,,,KDFW 101350Z AUTO 36008KT 1 1/2SM BR OVC003 M02/M03 A3013 RMK T10201030 MADISHF
DFW,2021-02-10 13:53,28.00,27.00,95.97,360.00,6.00,0.00,30.14,1021.10,1.25,,OVC,,,,300.00,,,,BR,0.01,,,,,,20.71,KDFW 101353Z 36006KT 1 1/4SM BR OVC003 M02/M03 A3014 RMK AO2 SFC VIS 2 SLP211 I1001 T10221028
DFW,2021-02-10 13:55,,,,350.00,5.00,,30.15,,2.50,,OVC,,,,300.00,,,,BR,,,,,,,,KDFW 101355Z AUTO 35005KT 2 1/2SM BR OVC003 M02/M02 A3014 RMK T10201020 MADISHF
DFW,2021-02-10 14:00,,,,360.00,7.00,,30.15,,2.50,,OVC,,,,300.00,,,,BR,,,,,,,,KDFW 101400Z AUTO 36007KT 2 1/2SM BR OVC003 M02/M02 A3014 RMK T10201020 MADISHF
DFW,2021-02-10 14:05,,,,340.00,8.00,,30.15,,2.50,,OVC,,,,300.00,,,,BR,,,,,,,,KDFW 101405Z AUTO 34008KT 2 1/2SM BR OVC003 M02/M02 A3014 RMK T10201020 MADISHF
DFW,2021-02-10 14:10,,,,350.00,9.00,,30.15,,3.00,,OVC,,,,300.00,,,,BR,,,,,,,,KDFW 101410Z AUTO 35009KT 3SM BR OVC003 M02/M02 A3014 RMK T10201020 MADISHF
DFW,2021-02-10 14:15,,,,360.00,7.00,,30.15,,3.50,,OVC,,,,300.00,,,,BR,,,,,,,,KDFW 101415Z AUTO 36007KT 3SM BR OVC003 M02/M02 A3014 RMK T10201020 MADISHF
DFW,2021-02-10 14:20,,,,350.00,9.00,,30.15,,3.50,,OVC,,,,300.00,,,,BR,,,,,,,,KDFW 101420Z AUTO 35009KT 3SM BR OVC003 M02/M02 A3014 RMK T10201020 MADISHF
DFW,2021-02-10 14:25,,,,360.00,11.00,,30.14,,3.50,,OVC,,,,300.00,,,,BR,,,,,,,,KDFW 101425Z AUTO 36011KT 3SM BR OVC003 M02/M02 A3013 RMK T10201020 MADISHF
DFW,2021-02-10 14:30,,,,360.00,7.00,,30.14,,3.50,,OVC,,,,300.00,,,,BR,,,,,,,,KDFW 101430Z AUTO 36007KT 3SM BR OVC003 M02/M02 A3013 RMK T10201020 MADISHF
DFW,2021-02-10 14:35,,,,360.00,8.00,,30.15,,4.00,,OVC,,,,300.00,,,,BR,,,,,,,,KDFW 101435Z AUTO 36008KT 4SM BR OVC003 M02/M02 A3014 RMK T10201020 MADISHF
DFW,2021-02-10 14:40,,,,350.00,8.00,,30.15,,4.00,,OVC,,,,300.00,,,,BR,,,,,,,,KDFW 101440Z AUTO 35008KT 4SM BR OVC003 M02/M02 A3014 RMK T10201020 MADISHF
DFW,2021-02-10 14:45,,,,340.00,8.00,,30.15,,4.00,,OVC,,,,300.00,,,,BR,,,,,,,,KDFW 101445Z AUTO 34008KT 4SM BR OVC003 M02/M02 A3014 RMK T10201020 MADISHF
DFW,2021-02-10 14:50,,,,350.00,9.00,,30.15,,4.00,,OVC,,,,400.00,,,,BR,,,,,,,,KDFW 101450Z AUTO 35009KT 4SM BR OVC004 M02/M02 A3014 RMK T10201020 MADISHF
DFW,2021-02-10 14:53,28.90,28.00,96.38,340.00,10.00,0.00,30.16,1021.60,2.50,,OVC,,,,400.00,,,,BR,,0.01,,,,,19.08,KDFW 101453Z 34010KT 2 1/2SM BR OVC004 M02/M02 A3016 RMK AO2 SFC VIS 4 SLP216 60000 I3001 T10171022 51012
DFW,2021-02-10 14:55,,,,340.00,11.00,,30.16,,5.00,,OVC,,,,400.00,,,,BR,,,,,,,,KDFW 101455Z AUTO 34011KT 5SM BR OVC004 M02/M02 A3015 RMK T10201020 MADISHF
DFW,2021-02-10 15:00,,,,340.00,11.00,,30.16,,5.00,,OVC,,,,400.00,,,,BR,,,,,,,,KDFW 101500Z AUTO 34011KT 5SM BR OVC004 M01/M02 A3015 RMK T10101020 MADISHF
DFW,2021-02-10 15:05,,,,330.00,11.00,,30.17,,5.00,,OVC,,,,400.00,,,,BR,,,,,,,,KDFW 101505Z AUTO 33011KT 5SM BR OVC004 M02/M02 A3017 RMK T10201020 MADISHF
DFW,2021-02-10 15:10,,,,330.00,10.00,,30.16,,5.00,,OVC,,,,400.00,,,,BR,,,,,,,,KDFW 101510Z AUTO 33010KT 5SM BR OVC004 M02/M02 A3015 RMK T10201020 MADISHF
DFW,2021-02-10 15:15,,,,330.00,11.00,,30.18,,5.00,,OVC,,,,400.00,,,,BR,,,,,,,,KDFW 101515Z AUTO 33011KT 5SM BR OVC004 M01/M02 A3018 RMK T10101020 MADISHF
DFW,2021-02-10 15:20,,,,330.00,11.00,,30.18,,5.00,,OVC,,,,400.00,,,,BR,,,,,,,,KDFW 101520Z AUTO 33011KT 5SM BR OVC004 M01/M02 A3018 RMK T10101020 MADISHF
DFW,2021-02-10 15:25,,,,340.00,11.00,,30.17,,4.00,,OVC,,,,400.00,,,,BR,,,,,,,,KDFW 101525Z AUTO 34011KT 4SM BR OVC004 M01/M02 A3017 RMK T10101020 MADISHF
DFW,2021-02-10 15:30,,,,340.00,11.00,,30.16,,4.00,,OVC,,,,400.00,,,,BR,,,,,,,,KDFW 101530Z AUTO 34011KT 4SM BR OVC004 M01/M02 A3015 RMK T10101020 MADISHF
DFW,2021-02-10 15:35,,,,340.00,11.00,,30.17,,4.00,,OVC,,,,400.00,,,,BR,,,,,,,,KDFW 101535Z AUTO 34011KT 4SM BR OVC004 M02/M02 A3017 RMK T10201020 MADISHF
DFW,2021-02-10 15:40,,,,330.00,9.00,,30.17,,4.00,,OVC,,,,400.00,,,,BR,,,,,,,,KDFW 101540Z AUTO 33009KT 4SM BR OVC004 M02/M02 A3017 RMK T10201020 MADISHF
DFW,2021-02-10 15:45,,,,350.00,11.00,,30.17,,4.00,,OVC,,,,400.00,,,,BR,,,,,,,,KDFW 101545Z AUTO 35011KT 4SM BR OVC004 M02/M02 A3017 RMK T10201020 MADISHF
DFW,2021-02-10 15:50,,,,340.00,11.00,,30.17,,3.50,,OVC,,,,400.00,,,,BR,,,,,,,,KDFW 101550Z AUTO 34011KT 3SM BR OVC004 M02/M02 A3017 RMK T10201020 MADISHF
DFW,2021-02-10 15:53,28.90,28.00,96.38,340.00,11.00,0.00,30.17,1022.00,2.00,,OVC,,,,400.00,,,,BR,,,,,,,18.55,KDFW 101553Z 34011KT 2SM BR OVC004 M02/M02 A3017 RMK AO2 SFC VIS 2 1/2 SLP220 T10171022
DFW,2021-02-10 15:55,,,,360.00,10.00,,30.17,,3.00,,OVC,,,,400.00,,,,BR,,,,,,,,KDFW 101555Z AUTO 36010KT 3SM BR OVC004 M01/M02 A3017 RMK T10101020 MADISHF
DFW,2021-02-10 16:00,,,,350.00,11.00,,30.17,,3.00,,OVC,,,,400.00,,,,BR,,,,,,,,KDFW 101600Z AUTO 35011KT 3SM BR OVC004 M01/M02 A3017 RMK T10101020 MADISHF
DFW,2021-02-10 16:05,,,,350.00,9.00,,30.17,,3.00,,OVC,,,,400.00,,,,BR,,,,,,,,KDFW 101605Z AUTO 35009KT 3SM BR OVC004 M02/M02 A3017 RMK T10201020 MADISHF
DFW,2021-02-10 16:10,,,,330.00,11.00,,30.18,,3.00,,OVC,,,,400.00,,,,BR,,,,,,,,KDFW 101610Z AUTO 33011KT 3SM BR OVC004 M01/M02 A3018 RMK T10101020 MADISHF
DFW,2021-02-10 16:15,,,,330.00,10.00,,30.18,,3.00,,OVC,,,,400.00,,,,BR,,,,,,,,KDFW 101615Z AUTO 33010KT 3SM BR OVC004 M01/M02 A3018 RMK T10101020 MADISHF
DFW,2021-02-10 16:20,,,,330.00,11.00,,30.18,,3.00,,OVC,,,,400.00,,,,BR,,,,,,,,KDFW 101620Z AUTO 33011KT 3SM BR OVC004 M02/M02 A3018 RMK T10201020 MADISHF
DFW,2021-02-10 16:25,,,,330.00,13.00,,30.18,,2.50,,OVC,,,,400.00,,,,BR,,,,,,,,KDFW 101625Z AUTO 33013KT 2 1/2SM BR OVC004 M02/M02 A3018 RMK T10201020 MADISHF
DFW,2021-02-10 16:30,,,,350.00,11.00,,30.18,,2.50,,OVC,,,,400.00,,,,BR,,,,,,,,KDFW 101630Z AUTO 35011KT 2 1/2SM BR OVC004 M02/M02 A3018 RMK T10201020 MADISHF
DFW,2021-02-10 16:35,,,,340.00,11.00,,30.18,,2.50,,OVC,,,,400.00,,,,BR,,,,,,,,KDFW 101635Z AUTO 34011KT 2 1/2SM BR OVC004 M01/M02 A3018 RMK T10101020 MADISHF
DFW,2021-02-10 16:40,,,,340.00,11.00,,30.19,,2.50,,OVC,,,,400.00,,,,BR,,,,,,,,KDFW 101640Z AUTO 34011KT 2 1/2SM BR OVC004 M01/M02 A3019 RMK T10101020 MADISHF
DFW,2021-02-10 16:45,,,,340.00,11.00,,30.18,,2.50,,OVC,,,,400.00,,,,BR,,,,,,,,KDFW 101645Z AUTO 34011KT 2 1/2SM BR OVC004 M02/M02 A3018 RMK T10201020 MADISHF
DFW,2021-02-10 16:50,,,,340.00,13.00,,30.18,,2.50,,OVC,,,,400.00,,,,BR,,,,,,,,KDFW 101650Z AUTO 34013KT 2 1/2SM BR OVC004 M01/M02 A3018 RMK T10101020 MADISHF
DFW,2021-02-10 16:53,30.00,28.00,92.15,340.00,13.00,0.00,30.18,1022.40,1.25,,OVC,,,,400.00,,,,BR,,,,,,,19.01,KDFW 101653Z 34013KT 1 1/4SM BR OVC004 M01/M02 A3018 RMK AO2 SFC VIS 2 SLP224 T10111022
DFW,2021-02-10 16:55,,,,340.00,11.00,,30.18,,2.50,,OVC,,,,400.00,,,,BR,,,,,,,,KDFW 101655Z AUTO 34011KT 2 1/2SM BR OVC004 M02/M02 A3018 RMK T10201020 MADISHF
DFW,2021-02-10 17:00,,,,330.00,14.00,,30.18,,2.50,,OVC,,,,400.00,,,,BR,,,,,,,,KDFW 101700Z AUTO 33014KT 2 1/2SM BR OVC004 M01/M02 A3018 RMK T10101020 MADISHF
DFW,2021-02-10 17:05,,,,340.00,11.00,,30.18,,2.50,,OVC,,,,400.00,,,,BR,,,,,,,,KDFW 101705Z AUTO 34011KT 2 1/2SM BR OVC004 M01/M02 A3018 RMK T10101020 MADISHF
DFW,2021-02-10 17:10,,,,350.00,11.00,,30.18,,2.50,,OVC,,,,400.00,,,,BR,,,,,,,,KDFW 101710Z AUTO 35011KT 2 1/2SM BR OVC004 M01/M02 A3018 RMK T10101020 MADISHF
DFW,2021-02-10 17:15,,,,350.00,9.00,,30.17,,2.00,,OVC,,,,400.00,,,,BR,,,,,,,,KDFW 101715Z AUTO 35009KT 2SM BR OVC004 M01/M02 A3017 RMK T10101020 MADISHF
DFW,2021-02-10 17:20,,,,340.00,11.00,,30.17,,1.50,,OVC,,,,300.00,,,,BR,,,,,,,,KDFW 101720Z AUTO 34011KT 1 1/2SM BR OVC003 M01/M02 A3017 RMK T10101020 MADISHF
DFW,2021-02-10 17:25,,,,330.00,10.00,,30.18,,2.00,,OVC,,,,300.00,,,,BR,,,,,,,,KDFW 101725Z AUTO 33010KT 2SM BR OVC003 M02/M02 A3018 RMK T10201020 MADISHF
DFW,2021-02-10 17:30,,,,340.00,9.00,,30.18,,2.50,,OVC,,,,300.00,,,,BR,,,,,,,,KDFW 101730Z AUTO 34009KT 2 1/2SM BR OVC003 M01/M02 A3018 RMK T10101020 MADISHF
DFW,2021-02-10 17:35,,,,340.00,10.00,,30.18,,3.00,,OVC,,,,300.00,,,,BR,,,,,,,,KDFW 101735Z AUTO 34010KT 3SM BR OVC003 M01/M02 A3018 RMK T10101020 MADISHF
DFW,2021-02-10 17:40,,,,340.00,11.00,,30.17,,3.50,,OVC,,,,300.00,,,,BR,,,,,,,,KDFW 101740Z AUTO 34011KT 3SM BR OVC003 M01/M02 A3017 RMK T10101020 MADISHF
DFW,2021-02-10 17:45,,,,340.00,11.00,,30.17,,3.50,,OVC,,,,300.00,,,,BR,,,,,,,,KDFW 101745Z AUTO 34011KT 3SM BR OVC003 M01/M02 A3017 RMK T10101020 MADISHF
DFW,2021-02-10 17:50,,,,330.00,11.00,,30.17,,4.00,,OVC,,,,300.00,,,,BR,,,,,,,,KDFW 101750Z AUTO 33011KT 4SM BR OVC003 M01/M02 A3017 RMK T10101020 MADISHF
DFW,2021-02-10 17:53,30.00,28.00,92.15,340.00,13.00,0.00,30.17,1022.00,2.00,,OVC,,,,300.00,,,,BR,T,,0.01,,,,19.01,KDFW 101753Z 34013KT 2SM BR OVC003 M01/M02 A3017 RMK AO2 SFC VIS 2 1/2 SLP220 60000 I1000 I6001 T10111022 11011 21022 50003
DFW,2021-02-10 17:55,,,,340.00,13.00,,30.17,,4.00,,OVC,,,,300.00,,,,BR,,,,,,,,KDFW 101755Z AUTO 34013KT 4SM BR OVC003 M01/M02 A3017 RMK T10101020 MADISHF
DFW,2021-02-10 18:00,,,,340.00,11.00,,30.17,,3.50,,OVC,,,,400.00,,,,BR,,,,,,,,KDFW 101800Z AUTO 34011KT 3SM BR OVC004 M01/M02 A3017 RMK T10101020 MADISHF
DFW,2021-02-10 18:05,,,,330.00,11.00,,30.17,,3.50,,OVC,,,,400.00,,,,BR,,,,,,,,KDFW 101805Z AUTO 33011KT 3SM BR OVC004 M01/M02 A3017 RMK T10101020 MADISHF
DFW,2021-02-10 18:10,,,,330.00,13.00,,30.17,,3.50,,OVC,,,,400.00,,,,BR,,,,,,,,KDFW 101810Z AUTO 33013KT 3SM BR OVC004 M01/M02 A3017 RMK T10101020 MADISHF
DFW,2021-02-10 18:15,,,,340.00,13.00,,30.16,,3.50,,OVC,,,,400.00,,,,BR,,,,,,,,KDFW 101815Z AUTO 34013KT 3SM BR OVC004 M01/M02 A3015 RMK T10101020 MADISHF
DFW,2021-02-10 18:20,,,,,14.00,,30.16,,3.50,,OVC,,,,400.00,,,,BR,,,,,,,,KDFW 101820Z AUTO ///14KT 3SM BR OVC004 M01/M02 A3015 RMK T10101020 MADISHF
DFW,2021-02-10 18:25,,,,340.00,13.00,,30.16,,3.50,,OVC,,,,400.00,,,,BR,,,,,,,,KDFW 101825Z AUTO 34013KT 3SM BR OVC004 M01/M02 A3015 RMK T10101020 MADISHF
DFW,2021-02-10 18:30,,,,,13.00,,30.16,,3.00,,OVC,,,,400.00,,,,BR,,,,,,,,KDFW 101830Z AUTO ///13KT 3SM BR OVC004 M01/M02 A3015 RMK T10101020 MADISHF
DFW,2021-02-10 18:35,,,,,14.00,,30.15,,3.00,,OVC,,,,400.00,,,,BR,,,,,,,,KDFW 101835Z AUTO ///14KT 3SM BR OVC004 M01/M02 A3014 RMK T10101020 MADISHF
DFW,2021-02-10 18:40,,,,,13.00,,30.15,,3.00,,OVC,,,,400.00,,,,BR,,,,,,,,KDFW 101840Z AUTO ///13KT 3SM BR OVC004 M01/M02 A3014 RMK T10101020 MADISHF
DFW,2021-02-10 18:45,,,,340.00,11.00,,30.15,,2.50,,OVC,,,,499.00,,,,BR,,,,,,,,KDFW 101845Z AUTO 34011KT 2 1/2SM BR OVC004 M01/M02 A3014 RMK T10101020 MADISHF
DFW,2021-02-10 18:48,30.20,28.40,92.92,350.00,12.00,0.00,30.16,,2.00,,OVC,,,,500.00,,,,BR,,,,,,,19.71,KDFW 101848Z 35012KT 2SM BR OVC005 M01/M02 A3016 RMK AO2
DFW,2021-02-10 18:50,,,,350.00,13.00,,30.15,,2.00,,OVC,,,,499.00,,,,BR,,,,,,,,KDFW 101850Z AUTO 35013KT 2SM BR OVC004 M01/M02 A3014 RMK T10101020 MADISHF
DFW,2021-02-10 18:53,30.00,28.90,95.61,340.00,12.00,0.00,30.16,1021.70,2.00,,OVC,,,,500.00,,,,BR,,,,,,,19.46,KDFW 101853Z 34012KT 2SM BR OVC005 M01/M02 A3016 RMK AO2 TWR VIS 2 1/2 SLP217 T10111017
DFW,2021-02-10 18:55,,,,340.00,11.00,,30.16,,2.50,,OVC,,,,499.00,,,,BR,,,,,,,,KDFW 101855Z AUTO 34011KT 2 1/2SM BR OVC004 M01/M02 A3015 RMK T10101020 MADISHF
DFW,2021-02-10 19:00,,,,340.00,11.00,,30.16,,3.00,,OVC,,,,499.00,,,,BR,,,,,,,,KDFW 101900Z AUTO 34011KT 3SM BR OVC004 M01/M02 A3015 RMK T10101020 MADISHF
DFW,2021-02-10 19:05,,,,330.00,10.00,,30.16,,3.00,,OVC,,,,499.00,,,,BR,,,,,,,,KDFW 101905Z AUTO 33010KT 3SM BR OVC004 M01/M02 A3015 RMK T10101020 MADISHF
DFW,2021-02-10 19:10,,,,340.00,11.00,,30.15,,3.00,,OVC,,,,499.00,,,,BR,,,,,,,,KDFW 101910Z AUTO 34011KT 3SM BR OVC004 M01/M02 A3014 RMK T10101020 MADISHF
DFW,2021-02-10 19:15,,,,340.00,15.00,,30.14,,3.50,,OVC,,,,499.00,,,,BR,,,,,,,,KDFW 101915Z AUTO 34015KT 3SM BR OVC004 M01/M02 A3013 RMK T10101020 MADISHF
DFW,2021-02-10 19:20,,,,340.00,14.00,,30.14,,3.50,,OVC,,,,499.00,,,,BR,,,,,,,,KDFW 101920Z AUTO 34014KT 3SM BR OVC004 M01/M02 A3013 RMK T10101020 MADISHF
DFW,2021-02-10 19:25,,,,340.00,13.00,,30.14,,3.50,,OVC,,,,499.00,,,,BR,,,,,,,,KDFW 101925Z AUTO 34013KT 3SM BR OVC004 M01/M02 A3013 RMK T10101020 MADISHF
DFW,2021-02-10 19:30,,,,340.00,11.00,,30.14,,4.00,,OVC,,,,499.00,,,,BR,,,,,,,,KDFW 101930Z AUTO 34011KT 4SM BR OVC004 M01/M02 A3013 RMK T10101020 MADISHF
DFW,2021-02-10 19:35,,,,330.00,13.00,,30.13,,4.00,,OVC,,,,499.00,,,,BR,,,,,,,,KDFW 101935Z AUTO 33013KT 4SM BR OVC004 M01/M02 A3012 RMK T10101020 MADISHF
DFW,2021-02-10 19:40,,,,330.00,14.00,,30.13,,3.50,,OVC,,,,499.00,,,,BR,,,,,,,,KDFW 101940Z AUTO 33014KT 3SM BR OVC004 M01/M02 A3012 RMK T10101020 MADISHF
DFW,2021-02-10 19:45,,,,340.00,13.00,,30.13,,3.00,,OVC,,,,499.00,,,,BR,,,,,,,,KDFW 101945Z AUTO 34013KT 3SM BR OVC004 M01/M02 A3012 RMK T10101020 MADISHF
DFW,2021-02-10 19:50,,,,,15.00,,30.13,,3.00,,OVC,,,,499.00,,,,BR,,,,,,,,KDFW 101950Z AUTO ///15KT 3SM BR OVC004 M01/M02 A3012 RMK T10101020 MADISHF
DFW,2021-02-10 19:53,30.90,28.90,92.18,340.00,14.00,0.00,30.13,1020.60,2.50,,OVC,,,,500.00,,,,BR,T,,,,,,19.74,KDFW 101953Z 34014KT 2 1/2SM BR OVC005 M01/M02 A3013 RMK AO2 SLP206 I1000 T10061017
DFW,2021-02-10 19:55,,,,340.00,14.00,,30.13,,3.00,,OVC,,,,499.00,,,,BR,,,,,,,,KDFW 101955Z AUTO 34014KT 3SM BR OVC004 M01/M02 A3012 RMK T10101020 MADISHF
DFW,2021-02-10 20:00,,,,,15.00,,30.12,,3.50,,OVC,,,,499.00,,,,BR,,,,,,,,KDFW 102000Z AUTO ///15KT 3SM BR OVC004 M01/M02 A3012 RMK T10101020 MADISHF
DFW,2021-02-10 20:05,,,,340.00,14.00,,30.12,,3.50,,OVC,,,,499.00,,,,BR,,,,,,,,KDFW 102005Z AUTO 34014KT 3SM BR OVC004 M01/M02 A3012 RMK T10101020 MADISHF
DFW,2021-02-10 20:10,,,,340.00,14.00,,30.12,,3.00,,OVC,,,,499.00,,,,BR,,,,,,,,KDFW 102010Z AUTO 34014KT 3SM BR OVC004 M01/M02 A3012 RMK T10101020 MADISHF
DFW,2021-02-10 20:15,,,,340.00,11.00,,30.12,,3.00,,OVC,,,,499.00,,,,BR,,,,,,,,KDFW 102015Z AUTO 34011KT 3SM BR OVC004 M01/M02 A3012 RMK T10101020 MADISHF
DFW,2021-02-10 20:20,,,,330.00,13.00,,30.12,,3.50,,OVC,,,,499.00,,,,BR,,,,,,,,KDFW 102020Z AUTO 33013KT 3SM BR OVC004 M01/M02 A3012 RMK T10101020 MADISHF
DFW,2021-02-10 20:25,,,,,14.00,,30.12,,4.00,,OVC,,,,499.00,,,,BR,,,,,,,,KDFW 102025Z AUTO ///14KT 4SM BR OVC004 M01/M02 A3012 RMK T10101020 MADISHF
DFW,2021-02-10 20:30,,,,,13.00,,30.12,,4.00,,OVC,,,,499.00,,,,BR,,,,,,,,KDFW 102030Z AUTO ///13KT 4SM BR OVC004 M01/M02 A3012 RMK T10101020 MADISHF
DFW,2021-02-10 20:35,,,,,13.00,,30.12,,5.00,,OVC,,,,499.00,,,,BR,,,,,,,,KDFW 102035Z AUTO ///13KT 5SM BR OVC004 M01/M02 A3012 RMK T10101020 MADISHF
DFW,2021-02-10 20:40,,,,,13.00,,30.12,,6.00,,OVC,,,,499.00,,,,BR,,,,,,,,KDFW 102040Z AUTO ///13KT 6SM BR OVC004 M01/M02 A3012 RMK T10101020 MADISHF
DFW,2021-02-10 20:45,,,,,14.00,,30.12,,6.00,,OVC,,,,499.00,,,,BR,,,,,,,,KDFW 102045Z AUTO ///14KT 6SM BR OVC004 M01/M02 A3012 RMK T10101020 MADISHF
DFW,2021-02-10 20:50,,,,,13.00,,30.11,,7.00,,OVC,,,,499.00,,,,,,,,,,,,KDFW 102050Z AUTO ///13KT 7SM OVC004 M01/M02 A3011 RMK T10101020 MADISHF
DFW,2021-02-10 20:53,30.90,28.00,88.84,360.00,13.00,0.00,30.11,1020.00,3.00,,OVC,,,,500.00,,,,BR,,T,,,,,20.16,KDFW 102053Z 36013KT 3SM BR OVC005 M01/M02 A3011 RMK AO2 SFC VIS 5 SLP200 I3000 T10061022 58015
DFW,2021-02-10 20:55,,,,,13.00,,30.11,,7.00,,OVC,,,,499.00,,,,,,,,,,,,KDFW 102055Z AUTO ///13KT 7SM OVC004 M01/M02 A3011 RMK T10101020 MADISHF
DFW,2021-02-10 21:00,,,,,13.00,,30.11,,9.00,,OVC,,,,499.00,,,,,,,,,,,,KDFW 102100Z AUTO ///13KT 9SM OVC004 M01/M02 A3011 RMK T10101020 MADISHF
DFW,2021-02-10 21:05,,,,,14.00,,30.11,,10.00,,OVC,,,,600.00,,,,,,,,,,,,KDFW 102105Z AUTO ///14KT 10SM OVC006 M01/M02 A3011 RMK T10101020 MADISHF
DFW,2021-02-10 21:10,,,,,13.00,,30.11,,10.00,,OVC,,,,600.00,,,,,,,,,,,,KDFW 102110Z AUTO ///13KT 10SM OVC006 M01/M02 A3011 RMK T10101020 MADISHF
DFW,2021-02-10 21:15,,,,,16.00,,30.11,,10.00,,OVC,,,,600.00,,,,,,,,,,,,KDFW 102115Z AUTO ///16KT 10SM OVC006 M01/M02 A3011 RMK T10101020 MADISHF
DFW,2021-02-10 21:20,,,,,14.00,,30.11,,10.00,,OVC,,,,600.00,,,,,,,,,,,,KDFW 102120Z AUTO ///14KT 10SM OVC006 M01/M02 A3011 RMK T10101020 MADISHF
DFW,2021-02-10 21:25,,,,,15.00,,30.11,,10.00,,OVC,,,,600.00,,,,,,,,,,,,KDFW 102125Z AUTO ///15KT 10SM OVC006 M01/M02 A3011 RMK T10101020 MADISHF
DFW,2021-02-10 21:30,,,,,15.00,,30.10,,10.00,,OVC,,,,600.00,,,,,,,,,,,,KDFW 102130Z AUTO ///15KT 10SM OVC006 M01/M02 A3010 RMK T10101020 MADISHF
DFW,2021-02-10 21:35,,,,,15.00,,30.10,,10.00,,OVC,,,,600.00,,,,,,,,,,,,KDFW 102135Z AUTO ///15KT 10SM OVC006 M01/M02 A3010 RMK T10101020 MADISHF
DFW,2021-02-10 21:40,,,,,15.00,,30.10,,10.00,,OVC,,,,600.00,,,,,,,,,,,,KDFW 102140Z AUTO ///15KT 10SM OVC006 M01/M02 A3010 RMK T10101020 MADISHF
DFW,2021-02-10 21:45,,,,340.00,11.00,,30.11,,10.00,,OVC,,,,600.00,,,,,,,,,,,,KDFW 102145Z AUTO 34011KT 10SM OVC006 M01/M02 A3011 RMK T10101020 MADISHF
DFW,2021-02-10 21:50,,,,340.00,14.00,,30.10,,10.00,,OVC,,,,600.00,,,,,,,,,,,,KDFW 102150Z AUTO 34014KT 10SM OVC006 M01/M02 A3010 RMK T10101020 MADISHF
DFW,2021-02-10 21:53,30.90,28.00,88.84,350.00,13.00,0.00,30.10,1019.50,10.00,,OVC,,,,600.00,,,,,,,,,,,20.16,KDFW 102153Z 35013KT 10SM OVC006 M01/M02 A3010 RMK AO2 SLP195 T10061022
DFW,2021-02-10 21:55,,,,,14.00,,30.10,,10.00,,OVC,,,,600.00,,,,,,,,,,,,KDFW 102155Z AUTO ///14KT 10SM OVC006 M01/M02 A3010 RMK T10101020 MADISHF
DFW,2021-02-10 22:00,,,,,15.00,,30.09,,10.00,,OVC,,,,600.00,,,,,,,,,,,,KDFW 102200Z AUTO ///15KT 10SM OVC006 M01/M02 A3009 RMK T10101020 MADISHF
DFW,2021-02-10 22:05,,,,,16.00,,30.09,,10.00,,OVC,,,,600.00,,,,,,,,,,,,KDFW 102205Z AUTO ///16KT 10SM OVC006 M01/M02 A3009 RMK T10101020 MADISHF
DFW,2021-02-10 22:10,,,,,15.00,,30.10,,10.00,,OVC,,,,600.00,,,,,,,,,,,,KDFW 102210Z AUTO ///15KT 10SM OVC006 M01/M02 A3010 RMK T10101020 MADISHF
DFW,2021-02-10 22:15,,,,,16.00,,30.10,,10.00,,OVC,,,,600.00,,,,,,,,,,,,KDFW 102215Z AUTO ///16KT 10SM OVC006 M01/M02 A3010 RMK T10101020 MADISHF
DFW,2021-02-10 22:20,,,,,15.00,,30.10,,10.00,,OVC,,,,600.00,,,,,,,,,,,,KDFW 102220Z AUTO ///15KT 10SM OVC006 M01/M02 A3010 RMK T10101020 MADISHF
DFW,2021-02-10 22:25,,,,350.00,14.00,,30.09,,10.00,19.00,OVC,,,,600.00,,,,,,,,,,,,KDFW 102225Z AUTO 35014G19KT 10SM OVC006 M01/M02 A3009 RMK T10101020 MADISHF
DFW,2021-02-10 22:30,,,,350.00,15.00,,30.08,,10.00,,OVC,,,,600.00,,,,,,,,,,,,KDFW 102230Z AUTO 35015KT 10SM OVC006 M01/M02 A3007 RMK T10101020 MADISHF
DFW,2021-02-10 22:35,,,,350.00,13.00,,30.10,,10.00,,OVC,,,,600.00,,,,,,,,,,,,KDFW 102235Z AUTO 35013KT 10SM OVC006 M01/M02 A3010 RMK T10101020 MADISHF
DFW,2021-02-10 22:40,,,,340.00,10.00,,30.11,,10.00,,OVC,,,,600.00,,,,,,,,,,,,KDFW 102240Z AUTO 34010KT 10SM OVC006 M01/M02 A3011 RMK T10101020 MADISHF
DFW,2021-02-10 22:45,,,,340.00,11.00,,30.11,,10.00,,OVC,,,,600.00,,,,,,,,,,,,KDFW 102245Z AUTO 34011KT 10SM OVC006 M01/M02 A3011 RMK T10101020 MADISHF
DFW,2021-02-10 22:50,,,,350.00,13.00,,30.11,,10.00,,OVC,,,,600.00,,,,,,,,,,,,KDFW 102250Z AUTO 35013KT 10SM OVC006 M01/M02 A3011 RMK T10101020 MADISHF
DFW,2021-02-10 22:53,30.90,28.00,88.84,340.00,13.00,0.00,30.11,1020.00,10.00,,OVC,,,,600.00,,,,,,,,,,,20.16,KDFW 102253Z 34013KT 10SM OVC006 M01/M02 A3011 RMK AO2 SLP200 T10061022
DFW,2021-02-10 22:55,,,,,14.00,,30.11,,10.00,,OVC,,,,600.00,,,,,,,,,,,,KDFW 102255Z AUTO ///14KT 10SM OVC006 M01/M02 A3011 RMK T10101020 MADISHF
DFW,2021-02-10 23:00,,,,,15.00,,30.10,,10.00,,OVC,,,,600.00,,,,,,,,,,,,KDFW 102300Z AUTO ///15KT 10SM OVC006 M01/M02 A3010 RMK T10101020 MADISHF
DFW,2021-02-10 23:05,,,,,16.00,,30.09,,10.00,,OVC,,,,600.00,,,,,,,,,,,,KDFW 102305Z AUTO ///16KT 10SM OVC006 M01/M02 A3009 RMK T10101020 MADISHF
DFW,2021-02-10 23:10,,,,,16.00,,30.10,,10.00,,OVC,,,,600.00,,,,,,,,,,,,KDFW 102310Z AUTO ///16KT 10SM OVC006 M01/M02 A3010 RMK T10101020 MADISHF
DFW,2021-02-10 23:15,,,,,16.00,,30.11,,10.00,,OVC,,,,600.00,,,,,,,,,,,,KDFW 102315Z AUTO ///16KT 10SM OVC006 M01/M02 A3011 RMK T10101020 MADISHF
DFW,2021-02-10 23:20,,,,,16.00,,30.11,,10.00,,OVC,,,,700.00,,,,,,,,,,,,KDFW 102320Z AUTO ///16KT 10SM OVC007 M01/M02 A3011 RMK T10101020 MADISHF
DFW,2021-02-10 23:25,,,,340.00,16.00,,30.11,,10.00,,OVC,,,,700.00,,,,,,,,,,,,KDFW 102325Z AUTO 34016KT 10SM OVC007 M01/M02 A3011 RMK T10101020 MADISHF
DFW,2021-02-10 23:30,,,,360.00,15.00,,30.11,,10.00,,OVC,,,,700.00,,,,,,,,,,,,KDFW 102330Z AUTO 36015KT 10SM OVC007 M01/M02 A3011 RMK T10101020 MADISHF
DFW,2021-02-10 23:35,,,,350.00,16.00,,30.11,,10.00,,OVC,,,,700.00,,,,,,,,,,,,KDFW 102335Z AUTO 35016KT 10SM OVC007 M01/M02 A3011 RMK T10101020 MADISHF
DFW,2021-02-10 23:40,,,,350.00,15.00,,30.11,,10.00,,OVC,,,,700.00,,,,,,,,,,,,KDFW 102340Z AUTO 35015KT 10SM OVC007 M01/M02 A3011 RMK T10101020 MADISHF
DFW,2021-02-10 23:45,,,,350.00,13.00,,30.12,,10.00,18.00,OVC,,,,700.00,,,,,,,,,,,,KDFW 102345Z AUTO 35013G18KT 10SM OVC007 M01/M02 A3012 RMK T10101020 MADISHF
DFW,2021-02-10 23:50,,,,350.00,15.00,,30.12,,10.00,,OVC,,,,700.00,,,,,,,,,,,,KDFW 102350Z AUTO 35015KT 10SM OVC007 M01/M02 A3012 RMK T10101020 MADISHF
DFW,2021-02-10 23:53,30.00,28.00,92.15,350.00,14.00,0.00,30.12,1020.50,10.00,,OVC,,,,700.00,,,,,,,T,,,,18.58,KDFW 102353Z 35014KT 10SM OVC007 M01/M02 A3012 RMK AO2 SLP205 I6000 T10111022 11006 21011 53005
DFW,2021-02-10 23:55,,,,350.00,15.00,,30.12,,10.00,,OVC,,,,700.00,,,,,,,,,,,,KDFW 102355Z AUTO 35015KT 10SM OVC007 M01/M02 A3012 RMK T10101020 MADISHF
DFW,2021-02-11 00:00,,,,340.00,14.00,,30.12,,10.00,,OVC,,,,700.00,,,,,,,,,,,,KDFW 110000Z AUTO 34014KT 10SM OVC007 M01/M02 A3012 RMK T10101020 MADISHF
DFW,2021-02-11 00:05,,,,350.00,14.00,,30.13,,10.00,,OVC,,,,700.00,,,,,,,,,,,,KDFW 110005Z AUTO 35014KT 10SM OVC007 M01/M03 A3012 RMK T10101030 MADISHF
DFW,2021-02-11 00:10,,,,360.00,11.00,,30.13,,10.00,,OVC,,,,700.00,,,,,,,,,,,,KDFW 110010Z AUTO 36011KT 10SM OVC007 M01/M03 A3012 RMK T10101030 MADISHF
DFW,2021-02-11 00:15,,,,350.00,13.00,,30.13,,10.00,,OVC,,,,700.00,,,,,,,,,,,,KDFW 110015Z AUTO 35013KT 10SM OVC007 M01/M03 A3012 RMK T10101030 MADISHF
DFW,2021-02-11 00:20,,,,350.00,13.00,,30.13,,10.00,,OVC,,,,700.00,,,,,,,,,,,,KDFW 110020Z AUTO 35013KT 10SM OVC007 M01/M03 A3012 RMK T10101030 MADISHF
DFW,2021-02-11 00:25,,,,,14.00,,30.13,,9.00,,OVC,,,,700.00,,,,,,,,,,,,KDFW 110025Z AUTO ///14KT 9SM OVC007 M01/M03 A3012 RMK T10101030 MADISHF
DFW,2021-02-11 00:30,,,,,14.00,,30.13,,9.00,,OVC,,,,700.00,,,,,,,,,,,,KDFW 110030Z AUTO ///14KT 9SM OVC007 M01/M03 A3012 RMK T10101030 MADISHF
DFW,2021-02-11 00:35,,,,,14.00,,30.13,,9.00,,OVC,,,,700.00,,,,,,,,,,,,KDFW 110035Z AUTO ///14KT 9SM OVC007 M01/M03 A3012 RMK T10101030 MADISHF
DFW,2021-02-11 00:40,,,,350.00,13.00,,30.13,,9.00,,OVC,,,,700.00,,,,,,,,,,,,KDFW 110040Z AUTO 35013KT 9SM OVC007 M01/M03 A3012 RMK T10101030 MADISHF
DFW,2021-02-11 00:45,,,,360.00,10.00,,30.13,,9.00,,OVC,,,,700.00,,,,,,,,,,,,KDFW 110045Z AUTO 36010KT 9SM OVC007 M01/M03 A3012 RMK T10101030 MADISHF
DFW,2021-02-11 00:50,,,,10.00,11.00,,30.13,,8.00,16.00,OVC,,,,700.00,,,,-DZ,,,,,,,,KDFW 110050Z AUTO 01011G16KT 8SM -DZ OVC007 M01/M03 A3012 RMK T10101030 MADISHF
DFW,2021-02-11 00:53,30.00,27.00,88.44,10.00,13.00,T,30.14,1020.90,8.00,20.00,OVC,,,,700.00,,,,-DZ,,,,,,,19.01,KDFW 110053Z 01013G20KT 8SM -DZ OVC007 M01/M03 A3014 RMK AO2 DZB49 SLP209 P0000 T10111028
DFW,2021-02-11 00:55,,,,,11.00,,30.14,,8.00,,OVC,,,,700.00,,,,-DZ,,,,,,,,KDFW 110055Z AUTO ///11KT 8SM -DZ OVC007 M01/M03 A3013 RMK T10101030 MADISHF
DFW,2021-02-11 01:00,,,,350.00,10.00,,30.14,,8.00,,OVC,,,,700.00,,,,-DZ,,,,,,,,KDFW 110100Z AUTO 35010KT 8SM -DZ OVC007 M01/M03 A3013 RMK T10101030 MADISHF
DFW,2021-02-11 01:05,,,,,13.00,,30.14,,8.00,,OVC,,,,700.00,,,,-DZ,,,,,,,,KDFW 110105Z AUTO ///13KT 8SM -DZ OVC007 M01/M03 A3013 RMK T10101030 MADISHF
DFW,2021-02-11 01:10,,,,,15.00,,30.14,,7.00,,OVC,,,,700.00,,,,-DZ,,,,,,,,KDFW 110110Z AUTO ///15KT 7SM -DZ OVC007 M01/M03 A3013 RMK T10101030 MADISHF
DFW,2021-02-11 01:15,,,,,15.00,,30.14,,8.00,,OVC,,,,700.00,,,,-DZ,,,,,,,,KDFW 110115Z AUTO ///15KT 8SM -DZ OVC007 M01/M03 A3013 RMK T10101030 MADISHF
DFW,2021-02-11 01:20,,,,10.00,13.00,,30.15,,9.00,,OVC,,,,700.00,,,,-DZ,,,,,,,,KDFW 110120Z AUTO 01013KT 9SM -DZ OVC007 M01/M03 A3014 RMK T10101030 MADISHF
DFW,2021-02-11 01:25,,,,360.00,11.00,,30.15,,9.00,,OVC,,,,700.00,,,,-DZ,,,,,,,,KDFW 110125Z AUTO 36011KT 9SM -DZ OVC007 M01/M03 A3014 RMK T10101030 MADISHF
DFW,2021-02-11 01:30,,,,10.00,14.00,,30.15,,9.00,,OVC,,,,800.00,,,,-DZ,,,,,,,,KDFW 110130Z AUTO 01014KT 9SM -DZ OVC008 M01/M03 A3014 RMK T10101030 MADISHF
DFW,2021-02-11 01:35,,,,360.00,13.00,,30.16,,8.00,,OVC,,,,800.00,,,,-DZ,,,,,,,,KDFW 110135Z AUTO 36013KT 8SM -DZ OVC008 M01/M03 A3015 RMK T10101030 MADISHF
DFW,2021-02-11 01:40,,,,360.00,13.00,,30.16,,8.00,,OVC,,,,800.00,,,,-DZ,,,,,,,,KDFW 110140Z AUTO 36013KT 8SM -DZ OVC008 M02/M03 A3015 RMK T10201030 MADISHF
DFW,2021-02-11 01:45,,,,360.00,15.00,,30.16,,7.00,,OVC,,,,800.00,,,,-DZ,,,,,,,,KDFW 110145Z AUTO 36015KT 7SM -DZ OVC008 M02/M03 A3015 RMK T10201030 MADISHF
DFW,2021-02-11 01:50,,,,360.00,11.00,,30.16,,6.00,,OVC,,,,800.00,,,,-DZ BR,,,,,,,,KDFW 110150Z AUTO 36011KT 6SM -DZ BR OVC008 M02/M03 A3015 RMK T10201030 MADISHF
DFW,2021-02-11 01:53,28.90,27.00,92.49,360.00,11.00,T,30.16,1021.80,7.00,,OVC,,,,800.00,,,,-DZ,,,,,,,18.55,KDFW 110153Z 36011KT 7SM -DZ OVC008 M02/M03 A3016 RMK AO2 SLP218 P0000 T10171028
DFW,2021-02-11 01:55,,,,360.00,13.00,,30.16,,7.00,18.00,OVC,,,,800.00,,,,-DZ,,,,,,,,KDFW 110155Z AUTO 36013G18KT 7SM -DZ OVC008 M02/M03 A3015 RMK T10201030 MADISHF
DFW,2021-02-11 02:00,,,,360.00,18.00,,30.16,,7.00,,OVC,,,,800.00,,,,-DZ,,,,,,,,KDFW 110200Z AUTO 36018KT 7SM -DZ OVC008 M02/M03 A3015 RMK T10201030 MADISHF
DFW,2021-02-11 02:05,,,,,14.00,,30.16,,7.00,,OVC,,,,800.00,,,,-DZ,,,,,,,,KDFW 110205Z AUTO ///14KT 7SM -DZ OVC008 M02/M03 A3015 RMK T10201030 MADISHF
DFW,2021-02-11 02:10,,,,360.00,11.00,,30.16,,7.00,,OVC,,,,800.00,,,,-DZ,,,,,,,,KDFW 110210Z AUTO 36011KT 7SM -DZ OVC008 M02/M03 A3015 RMK T10201030 MADISHF
DFW,2021-02-11 02:15,,,,360.00,11.00,,30.17,,7.00,,OVC,,,,800.00,,,,-DZ,,,,,,,,KDFW 110215Z AUTO 36011KT 7SM -DZ OVC008 M02/M03 A3017 RMK T10201030 MADISHF
DFW,2021-02-11 02:20,,,,360.00,15.00,,30.17,,7.00,,OVC,,,,800.00,,,,-DZ,,,,,,,,KDFW 110220Z AUTO 36015KT 7SM -DZ OVC008 M02/M03 A3017 RMK T10201030 MADISHF
DFW,2021-02-11 02:25,,,,10.00,14.00,,30.17,,7.00,,OVC,,,,800.00,,,,-DZ,,,,,,,,KDFW 110225Z AUTO 01014KT 7SM -DZ OVC008 M02/M03 A3017 RMK T10201030 MADISHF
DFW,2021-02-11 02:30,,,,10.00,16.00,,30.17,,7.00,,OVC,,,,800.00,,,,-DZ,,,,,,,,KDFW 110230Z AUTO 01016KT 7SM -DZ OVC008 M02/M03 A3017 RMK T10201030 MADISHF
DFW,2021-02-11 02:35,,,,10.00,15.00,,30.17,,7.00,,OVC,,,,800.00,,,,-DZ,,,,,,,,KDFW 110235Z AUTO 01015KT 7SM -DZ OVC008 M02/M03 A3017 RMK T10201030 MADISHF
DFW,2021-02-11 02:40,,,,10.00,14.00,,30.17,,7.00,,OVC,,,,800.00,,,,-DZ,,,,,,,,KDFW 110240Z AUTO 01014KT 7SM -DZ OVC008 M02/M03 A3017 RMK T10201030 MADISHF
DFW,2021-02-11 02:45,,,,10.00,15.00,,30.17,,6.00,,OVC,,,,800.00,,,,-DZ BR,,,,,,,,KDFW 110245Z AUTO 01015KT 6SM -DZ BR OVC008 M02/M03 A3017 RMK T10201030 MADISHF
DFW,2021-02-11 02:50,,,,10.00,13.00,,30.17,,6.00,18.00,OVC,,,,800.00,,,,-DZ BR,,,,,,,,KDFW 110250Z AUTO 01013G18KT 6SM -DZ BR OVC008 M02/M03 A3017 RMK T10201030 MADISHF
DFW,2021-02-11 02:53,28.90,26.10,89.12,360.00,14.00,T,30.17,1021.90,6.00,,OVC,,,,800.00,,,,-DZ BR,,,,,,,17.17,KDFW 110253Z 36014KT 6SM -DZ BR OVC008 M02/M03 A3017 RMK AO2 SLP219 P0000 60000 T10171033 51014
DFW,2021-02-11 02:55,,,,360.00,15.00,,30.17,,7.00,,OVC,,,,800.00,,,,-DZ,,,,,,,,KDFW 110255Z AUTO 36015KT 7SM -DZ OVC008 M02/M03 A3017 RMK T10201030 MADISHF
DFW,2021-02-11 03:00,,,,,14.00,,30.17,,7.00,,OVC,,,,800.00,,,,-DZ,,,,,,,,KDFW 110300Z AUTO ///14KT 7SM -DZ OVC008 M02/M03 A3017 RMK T10201030 MADISHF
DFW,2021-02-11 03:05,,,,,15.00,,30.17,,7.00,,OVC,,,,900.00,,,,-DZ,,,,,,,,KDFW 110305Z AUTO ///15KT 7SM -DZ OVC009 M02/M03 A3017 RMK T10201030 MADISHF
DFW,2021-02-11 03:10,,,,,14.00,,30.17,,7.00,,OVC,,,,900.00,,,,-DZ,,,,,,,,KDFW 110310Z AUTO ///14KT 7SM -DZ OVC009 M02/M03 A3017 RMK T10201030 MADISHF
DFW,2021-02-11 03:15,,,,,15.00,,30.16,,7.00,,OVC,,,,900.00,,,,-DZ,,,,,,,,KDFW 110315Z AUTO ///15KT 7SM -DZ OVC009 M02/M03 A3015 RMK T10201030 MADISHF
DFW,2021-02-11 03:20,,,,,15.00,,30.17,,8.00,,OVC,,,,900.00,,,,-DZ,,,,,,,,KDFW 110320Z AUTO ///15KT 8SM -DZ OVC009 M02/M03 A3017 RMK T10201030 MADISHF
DFW,2021-02-11 03:25,,,,360.00,17.00,,30.17,,8.00,,OVC,,,,900.00,,,,-DZ,,,,,,,,KDFW 110325Z AUTO 36017KT 8SM -DZ OVC009 M02/M03 A3017 RMK T10201030 MADISHF
DFW,2021-02-11 03:30,,,,10.00,13.00,,30.17,,8.00,,OVC,,,,900.00,,,,-DZ,,,,,,,,KDFW 110330Z AUTO 01013KT 8SM -DZ OVC009 M02/M03 A3017 RMK T10201030 MADISHF
DFW,2021-02-11 03:35,,,,20.00,13.00,,30.17,,8.00,,OVC,,,,900.00,,,,-DZ,,,,,,,,KDFW 110335Z AUTO 02013KT 8SM -DZ OVC009 M02/M03 A3017 RMK T10201030 MADISHF
DFW,2021-02-11 03:40,,,,10.00,11.00,,30.18,,8.00,,OVC,,,,800.00,,,,-DZ,,,,,,,,KDFW 110340Z AUTO 01011KT 8SM -DZ OVC008 M02/M03 A3018 RMK T10201030 MADISHF
DFW,2021-02-11 03:45,,,,360.00,11.00,,30.18,,8.00,,OVC,,,,800.00,,,,-DZ,,,,,,,,KDFW 110345Z AUTO 36011KT 8SM -DZ OVC008 M02/M03 A3018 RMK T10201030 MADISHF
DFW,2021-02-11 03:50,,,,360.00,11.00,,30.18,,8.00,,OVC,,,,800.00,,,,-DZ,,,,,,,,KDFW 110350Z AUTO 36011KT 8SM -DZ OVC008 M02/M03 A3018 RMK T10201030 MADISHF
DFW,2021-02-11 03:53,28.90,26.10,89.12,10.00,14.00,T,30.18,1022.20,8.00,,OVC,,,,800.00,,,,-DZ,,,,,,,17.17,KDFW 110353Z 01014KT 8SM -DZ OVC008 M02/M03 A3018 RMK AO2 SLP222 P0000 T10171033
DFW,2021-02-11 03:55,,,,360.00,15.00,,30.18,,8.00,,OVC,,,,800.00,,,,-DZ,,,,,,,,KDFW 110355Z AUTO 36015KT 8SM -DZ OVC008 M02/M04 A3018 RMK T10201040 MADISHF
DFW,2021-02-11 04:00,,,,10.00,14.00,,30.18,,9.00,,OVC,,,,800.00,,,,-DZ,,,,,,,,KDFW 110400Z AUTO 01014KT 9SM -DZ OVC008 M02/M04 A3018 RMK T10201040 MADISHF
DFW,2021-02-11 04:05,,,,10.00,11.00,,30.18,,9.00,17.00,OVC,,,,999.00,,,,-DZ,,,,,,,,KDFW 110405Z AUTO 01011G17KT 9SM -DZ OVC009 M02/M04 A3018 RMK T10201040 MADISHF
DFW,2021-02-11 04:10,,,,10.00,15.00,,30.18,,10.00,,OVC,,,,999.00,,,,-DZ,,,,,,,,KDFW 110410Z AUTO 01015KT 10SM -DZ OVC009 M02/M04 A3018 RMK T10201040 MADISHF
DFW,2021-02-11 04:15,,,,10.00,13.00,,30.18,,10.00,,OVC,,,,999.00,,,,-DZ,,,,,,,,KDFW 110415Z AUTO 01013KT 10SM -DZ OVC009 M02/M04 A3018 RMK T10201040 MADISHF
DFW,2021-02-11 04:20,,,,360.00,13.00,,30.18,,10.00,,OVC,,,,999.00,,,,-DZ,,,,,,,,KDFW 110420Z AUTO 36013KT 10SM -DZ OVC009 M02/M04 A3018 RMK T10201040 MADISHF
DFW,2021-02-11 04:25,,,,360.00,13.00,,30.19,,10.00,,OVC,,,,1100.00,,,,-DZ,,,,,,,,KDFW 110425Z AUTO 36013KT 10SM -DZ OVC011 M02/M04 A3019 RMK T10201040 MADISHF
DFW,2021-02-11 04:30,,,,350.00,14.00,,30.19,,10.00,,OVC,,,,1100.00,,,,,,,,,,,,KDFW 110430Z AUTO 35014KT 10SM OVC011 M02/M04 A3019 RMK T10201040 MADISHF
DFW,2021-02-11 04:35,,,,360.00,13.00,,30.18,,10.00,,OVC,,,,1100.00,,,,,,,,,,,,KDFW 110435Z AUTO 36013KT 10SM OVC011 M02/M04 A3018 RMK T10201040 MADISHF
DFW,2021-02-11 04:40,,,,,16.00,,30.18,,9.00,,OVC,,,,1100.00,,,,,,,,,,,,KDFW 110440Z AUTO ///16KT 9SM OVC011 M02/M04 A3018 RMK T10201040 MADISHF
DFW,2021-02-11 04:45,,,,360.00,16.00,,30.19,,9.00,,OVC,,,,1100.00,,,,,,,,,,,,KDFW 110445Z AUTO 36016KT 9SM OVC011 M02/M04 A3019 RMK T10201040 MADISHF
DFW,2021-02-11 04:50,,,,360.00,16.00,,30.18,,9.00,,OVC,,,,1100.00,,,,,,,,,,,,KDFW 110450Z AUTO 36016KT 9SM OVC011 M02/M04 A3018 RMK T10201040 MADISHF
DFW,2021-02-11 04:53,28.00,24.10,85.08,360.00,16.00,T,30.18,1022.50,9.00,,OVC,,,,1100.00,,,,-DZ,,,,,,,15.20,KDFW 110453Z 36016KT 9SM -DZ OVC011 M02/M04 A3018 RMK AO2 DZE29B51 SLP225 P0000 T10221044
DFW,2021-02-11 04:55,,,,360.00,15.00,,30.18,,9.00,,OVC,,,,1100.00,,,,-DZ,,,,,,,,KDFW 110455Z AUTO 36015KT 9SM -DZ OVC011 M02/M04 A3018 RMK T10201040 MADISHF
DFW,2021-02-11 05:00,,,,10.00,11.00,,30.18,,9.00,,OVC,,,,1100.00,,,,-DZ,,,,,,,,KDFW 110500Z AUTO 01011KT 9SM -DZ OVC011 M02/M04 A3018 RMK T10201040 MADISHF
DFW,2021-02-11 05:05,,,,360.00,11.00,,30.18,,9.00,,OVC,,,,1100.00,,,,-DZ,,,,,,,,KDFW 110505Z AUTO 36011KT 9SM -DZ OVC011 M02/M04 A3018 RMK T10201040 MADISHF
DFW,2021-02-11 05:10,,,,360.00,14.00,,30.18,,8.00,,OVC,,,,1100.00,,,,-DZ,,,,,,,,KDFW 110510Z AUTO 36014KT 8SM -DZ OVC011 M02/M04 A3018 RMK T10201040 MADISHF
DFW,2021-02-11 05:15,,,,350.00,11.00,,30.18,,8.00,,OVC,,,,1100.00,,,,-DZ,,,,,,,,KDFW 110515Z AUTO 35011KT 8SM -DZ OVC011 M02/M04 A3018 RMK T10201040 MADISHF
DFW,2021-02-11 05:20,,,,340.00,11.00,,30.18,,8.00,,OVC,,,,1100.00,,,,-DZ,,,,,,,,KDFW 110520Z AUTO 34011KT 8SM -DZ OVC011 M02/M04 A3018 RMK T10201040 MADISHF
DFW,2021-02-11 05:25,,,,350.00,14.00,,30.17,,7.00,,OVC,,,,1100.00,,,,-DZ,,,,,,,,KDFW 110525Z AUTO 35014KT 7SM -DZ OVC011 M02/M04 A3017 RMK T10201040 MADISHF
DFW,2021-02-11 05:30,,,,340.00,11.00,,30.18,,7.00,,OVC,,,,999.00,,,,-DZ,,,,,,,,KDFW 110530Z AUTO 34011KT 7SM -DZ OVC009 M02/M04 A3018 RMK T10201040 MADISHF
DFW,2021-02-11 05:35,,,,350.00,14.00,,30.18,,7.00,,OVC,,,,999.00,,,,-DZ,,,,,,,,KDFW 110535Z AUTO 35014KT 7SM -DZ OVC009 M02/M04 A3018 RMK T10201040 MADISHF
DFW,2021-02-11 05:40,,,,350.00,11.00,,30.18,,7.00,,OVC,,,,999.00,,,,-DZ,,,,,,,,KDFW 110540Z AUTO 35011KT 7SM -DZ OVC009 M02/M04 A3018 RMK T10201040 MADISHF
DFW,2021-02-11 05:45,,,,350.00,11.00,,30.18,,8.00,,OVC,,,,999.00,,,,-DZ,,,,,,,,KDFW 110545Z AUTO 35011KT 8SM -DZ OVC009 M02/M04 A3018 RMK T10201040 MADISHF
DFW,2021-02-11 05:50,,,,350.00,11.00,,30.18,,8.00,,OVC,,,,999.00,,,,-DZ,,,,,,,,KDFW 110550Z AUTO 35011KT 8SM -DZ OVC009 M02/M04 A3018 RMK T10201040 MADISHF
DFW,2021-02-11 05:53,28.00,25.00,88.33,350.00,12.00,T,30.17,1022.10,8.00,,OVC,,,,1000.00,,,,-DZ,,,,,,,16.91,KDFW 110553Z 35012KT 8SM -DZ OVC010 M02/M04 A3017 RMK AO2 SLP221 P0000 60000 T10221039 11011 21022 410061022 50002
DFW,2021-02-11 05:55,,,,350.00,10.00,,30.17,,8.00,,OVC,,,,999.00,,,,-DZ,,,,,,,,KDFW 110555Z AUTO 35010KT 8SM -DZ OVC009 M02/M04 A3017 RMK T10201040 MADISHF
DFW,2021-02-11 06:00,,,,10.00,14.00,,30.17,,8.00,,OVC,,,,999.00,,,,-DZ,,,,,,,,KDFW 110600Z AUTO 01014KT 8SM -DZ OVC009 M02/M04 A3017 RMK T10201040 MADISHF
DFW,2021-02-11 06:05,,,,360.00,11.00,,30.17,,8.00,,OVC,,,,999.00,,,,-DZ,,,,,,,,KDFW 110605Z AUTO 36011KT 8SM -DZ OVC009 M02/M04 A3017 RMK T10201040 MADISHF
DFW,2021-02-11 06:10,,,,,15.00,,30.17,,8.00,,OVC,,,,999.00,,,,-DZ,,,,,,,,KDFW 110610Z AUTO ///15KT 8SM -DZ OVC009 M02/M04 A3017 RMK T10201040 MADISHF
DFW,2021-02-11 06:15,,,,350.00,13.00,,30.17,,8.00,,OVC,,,,999.00,,,,-DZ,,,,,,,,KDFW 110615Z AUTO 35013KT 8SM -DZ OVC009 M02/M04 A3017 RMK T10201040 MADISHF
DFW,2021-02-11 06:20,,,,,14.00,,30.17,,7.00,,OVC,,,,999.00,,,,-DZ,,,,,,,,KDFW 110620Z AUTO ///14KT 7SM -DZ OVC009 M02/M04 A3017 RMK T10201040 MADISHF
DFW,2021-02-11 06:25,,,,340.00,14.00,,30.17,,7.00,,OVC,,,,999.00,,,,-DZ,,,,,,,,KDFW 110625Z AUTO 34014KT 7SM -DZ OVC009 M02/M04 A3017 RMK T10201040 MADISHF
DFW,2021-02-11 06:30,,,,340.00,13.00,,30.17,,7.00,,OVC,,,,999.00,,,,-DZ,,,,,,,,KDFW 110630Z AUTO 34013KT 7SM -DZ OVC009 M02/M04 A3017 RMK T10201040 MADISHF
DFW,2021-02-11 06:35,,,,,16.00,,30.17,,7.00,,OVC,,,,999.00,,,,-DZ,,,,,,,,KDFW 110635Z AUTO ///16KT 7SM -DZ OVC009 M02/M04 A3017 RMK T10201040 MADISHF
DFW,2021-02-11 06:40,,,,350.00,13.00,,30.17,,7.00,,OVC,,,,999.00,,,,,,,,,,,,KDFW 110640Z AUTO 35013KT 7SM OVC009 M03/M04 A3017 RMK T10301040 MADISHF
DFW,2021-02-11 06:45,,,,,16.00,,30.17,,8.00,,OVC,,,,999.00,,,,,,,,,,,,KDFW 110645Z AUTO ///16KT 8SM OVC009 M03/M04 A3017 RMK T10301040 MADISHF
DFW,2021-02-11 06:50,,,,350.00,15.00,,30.16,,8.00,,OVC,,,,999.00,,,,,,,,,,,,KDFW 110650Z AUTO 35015KT 8SM OVC009 M03/M04 A3015 RMK T10301040 MADISHF
DFW,2021-02-11 06:53,27.00,24.10,88.65,340.00,13.00,T,30.17,1021.90,8.00,,OVC,,,,1000.00,,,,,,,,,,,15.16,KDFW 110653Z 34013KT 8SM OVC010 M03/M04 A3017 RMK AO2 DZE37 SLP219 P0000 T10281044
DFW,2021-02-11 06:55,,,,340.00,11.00,,30.17,,8.00,,OVC,,,,999.00,,,,,,,,,,,,KDFW 110655Z AUTO 34011KT 8SM OVC009 M03/M04 A3017 RMK T10301040 MADISHF
DFW,2021-02-11 07:00,,,,340.00,13.00,,30.17,,8.00,,OVC,,,,999.00,,,,,,,,,,,,KDFW 110700Z AUTO 34013KT 8SM OVC009 M03/M04 A3017 RMK T10301040 MADISHF
DFW,2021-02-11 07:05,,,,340.00,15.00,,30.17,,8.00,,OVC,,,,999.00,,,,,,,,,,,,KDFW 110705Z AUTO 34015KT 8SM OVC009 M03/M05 A3017 RMK T10301050 MADISHF
DFW,2021-02-11 07:10,,,,,14.00,,30.17,,8.00,,OVC,,,,999.00,,,,,,,,,,,,KDFW 110710Z AUTO ///14KT 8SM OVC009 M03/M05 A3017 RMK T10301050 MADISHF
DFW,2021-02-11 07:15,,,,,13.00,,30.18,,9.00,,OVC,,,,999.00,,,,,,,,,,,,KDFW 110715Z AUTO ///13KT 9SM OVC009 M03/M05 A3018 RMK T10301050 MADISHF
DFW,2021-02-11 07:20,,,,340.00,11.00,,30.18,,9.00,,OVC,,,,999.00,,,,,,,,,,,,KDFW 110720Z AUTO 34011KT 9SM OVC009 M03/M05 A3018 RMK T10301050 MADISHF
DFW,2021-02-11 07:25,,,,340.00,14.00,,30.17,,9.00,,OVC,,,,999.00,,,,,,,,,,,,KDFW 110725Z AUTO 34014KT 9SM OVC009 M03/M05 A3017 RMK T10301050 MADISHF
DFW,2021-02-11 07:30,,,,340.00,14.00,,30.18,,9.00,,OVC,,,,999.00,,,,,,,,,,,,KDFW 110730Z AUTO 34014KT 9SM OVC009 M03/M05 A3018 RMK T10301050 MADISHF
DFW,2021-02-11 07:35,,,,340.00,14.00,,30.18,,9.00,,OVC,,,,999.00,,,,,,,,,,,,KDFW 110735Z AUTO 34014KT 9SM OVC009 M03/M05 A3018 RMK T10301050 MADISHF
DFW,2021-02-11 07:40,,,,340.00,13.00,,30.17,,9.00,,OVC,,,,999.00,,,,,,,,,,,,KDFW 110740Z AUTO 34013KT 9SM OVC009 M03/M05 A3017 RMK T10301050 MADISHF
DFW,2021-02-11 07:45,,,,340.00,14.00,,30.17,,9.00,,OVC,,,,999.00,,,,,,,,,,,,KDFW 110745Z AUTO 34014KT 9SM OVC009 M03/M05 A3017 RMK T10301050 MADISHF
DFW,2021-02-11 07:50,,,,340.00,15.00,,30.18,,9.00,,OVC,,,,999.00,,,,,,,,,,,,KDFW 110750Z AUTO 34015KT 9SM OVC009 M03/M05 A3018 RMK T10301050 MADISHF
DFW,2021-02-11 07:53,27.00,23.00,84.66,340.00,14.00,0.00,30.18,1022.20,8.00,,OVC,,,,1000.00,,,,,,,,,,,14.72,KDFW 110753Z 34014KT 8SM OVC010 M03/M05 A3018 RMK AO2 SLP222 T10281050
DFW,2021-02-11 07:55,,,,340.00,14.00,,30.17,,8.00,,OVC,,,,999.00,,,,,,,,,,,,KDFW 110755Z AUTO 34014KT 8SM OVC009 M03/M05 A3017 RMK T10301050 MADISHF
DFW,2021-02-11 08:00,,,,350.00,13.00,,30.17,,8.00,,OVC,,,,999.00,,,,,,,,,,,,KDFW 110800Z AUTO 35013KT 8SM OVC009 M03/M05 A3017 RMK T10301050 MADISHF
DFW,2021-02-11 08:05,,,,330.00,13.00,,30.17,,8.00,,OVC,,,,999.00,,,,,,,,,,,,KDFW 110805Z AUTO 33013KT 8SM OVC009 M03/M05 A3017 RMK T10301050 MADISHF
DFW,2021-02-11 08:09,26.10,23.00,87.87,340.00,14.00,0.00,30.18,,7.00,,OVC,,,,900.00,,,,,,,,,,,13.56,KDFW 110809Z 34014KT 7SM OVC009 M03/M05 A3018 RMK AO2 T10331050
DFW,2021-02-11 08:10,,,,340.00,14.00,,30.18,,7.00,,OVC,,,,900.00,,,,,,,,,,,,KDFW 110810Z AUTO 34014KT 7SM OVC009 M03/M05 A3018 RMK T10301050 MADISHF
DFW,2021-02-11 08:15,,,,340.00,13.00,,30.18,,7.00,,OVC,,,,900.00,,,,,,,,,,,,KDFW 110815Z AUTO 34013KT 7SM OVC009 M03/M05 A3018 RMK T10301050 MADISHF
DFW,2021-02-11 08:20,,,,340.00,14.00,,30.18,,7.00,,OVC,,,,800.00,,,,,,,,,,,,KDFW 110820Z AUTO 34014KT 7SM OVC008 M03/M05 A3018 RMK T10301050 MADISHF
DFW,2021-02-11 08:25,,,,340.00,13.00,,30.17,,7.00,,OVC,,,,800.00,,,,,,,,,,,,KDFW 110825Z AUTO 34013KT 7SM OVC008 M03/M05 A3017 RMK T10301050 MADISHF
DFW,2021-02-11 08:30,,,,330.00,13.00,,30.18,,7.00,,OVC,,,,800.00,,,,,,,,,,,,KDFW 110830Z AUTO 33013KT 7SM OVC008 M03/M05 A3018 RMK T10301050 MADISHF
DFW,2021-02-11 08:35,,,,340.00,13.00,,30.17,,7.00,,OVC,,,,800.00,,,,,,,,,,,,KDFW 110835Z AUTO 34013KT 7SM OVC008 M03/M05 A3017 RMK T10301050 MADISHF
DFW,2021-02-11 08:40,,,,350.00,11.00,,30.17,,7.00,,OVC,,,,800.00,,,,,,,,,,,,KDFW 110840Z AUTO 35011KT 7SM OVC008 M03/M05 A3017 RMK T10301050 MADISHF
DFW,2021-02-11 08:45,,,,340.00,13.00,,30.17,,7.00,,OVC,,,,800.00,,,,,,,,,,,,KDFW 110845Z AUTO 34013KT 7SM OVC008 M03/M05 A3017 RMK T10301050 MADISHF
DFW,2021-02-11 08:50,,,,340.00,16.00,,30.17,,7.00,,OVC,,,,800.00,,,,,,,,,,,,KDFW 110850Z AUTO 34016KT 7SM OVC008 M03/M05 A3017 RMK T10301050 MADISHF
DFW,2021-02-11 08:53,26.10,23.00,87.87,340.00,16.00,0.00,30.17,1022.10,7.00,,OVC,,,,800.00,,,,,,,,,,,12.73,KDFW 110853Z 34016KT 7SM OVC008 M03/M05 A3017 RMK AO2 SLP221 60000 T10331050 56000
DFW,2021-02-11 08:55,,,,,14.00,,30.18,,6.00,,OVC,,,,800.00,,,,BR,,,,,,,,KDFW 110855Z AUTO ///14KT 6SM BR OVC008 M03/M05 A3018 RMK T10301050 MADISHF
DFW,2021-02-11 09:00,,,,340.00,11.00,,30.18,,6.00,,OVC,,,,800.00,,,,BR,,,,,,,,KDFW 110900Z AUTO 34011KT 6SM BR OVC008 M03/M05 A3018 RMK T10301050 MADISHF
DFW,2021-02-11 09:05,,,,,16.00,,30.17,,5.00,,OVC,,,,800.00,,,,BR,,,,,,,,KDFW 110905Z AUTO ///16KT 5SM BR OVC008 M03/M05 A3017 RMK T10301050 MADISHF
DFW,2021-02-11 09:10,,,,,14.00,,30.17,,5.00,,OVC,,,,800.00,,,,BR,,,,,,,,KDFW 110910Z AUTO ///14KT 5SM BR OVC008 M03/M05 A3017 RMK T10301050 MADISHF
DFW,2021-02-11 09:15,,,,,14.00,,30.17,,5.00,,OVC,,,,800.00,,,,BR,,,,,,,,KDFW 110915Z AUTO ///14KT 5SM BR OVC008 M03/M05 A3017 RMK T10301050 MADISHF
DFW,2021-02-11 09:20,,,,,15.00,,30.18,,5.00,,OVC,,,,800.00,,,,BR,,,,,,,,KDFW 110920Z AUTO ///15KT 5SM BR OVC008 M04/M05 A3018 RMK T10401050 MADISHF
DFW,2021-02-11 09:21,25.00,23.00,91.97,340.00,14.00,T,30.18,,5.00,,OVC,,,,800.00,,,,-FZDZ BR,T,,,,,,12.14,KDFW 110921Z 34014KT 5SM -FZDZ BR OVC008 M04/M05 A3018 RMK AO2 FZDZB21 P0000 I1000 T10391050
DFW,2021-02-11 09:25,,,,350.00,13.00,,30.18,,4.00,,OVC,,,,800.00,,,,-FZDZ BR,,,,,,,,KDFW 110925Z AUTO 35013KT 4SM -FZDZ BR OVC008 M04/M05 A3018 RMK T10401050 MADISHF
DFW,2021-02-11 09:30,,,,340.00,14.00,,30.18,,4.00,,OVC,,,,800.00,,,,-FZDZ BR,,,,,,,,KDFW 110930Z AUTO 34014KT 4SM -FZDZ BR OVC008 M04/M05 A3018 RMK T10401050 MADISHF
DFW,2021-02-11 09:35,,,,340.00,14.00,,30.18,,4.00,,OVC,,,,800.00,,,,-FZDZ BR,,,,,,,,KDFW 110935Z AUTO 34014KT 4SM -FZDZ BR OVC008 M04/M05 A3018 RMK T10401050 MADISHF
DFW,2021-02-11 09:40,,,,340.00,17.00,,30.18,,4.00,,OVC,,,,800.00,,,,-FZDZ BR,,,,,,,,KDFW 110940Z AUTO 34017KT 4SM -FZDZ BR OVC008 M04/M05 A3018 RMK T10401050 MADISHF
DFW,2021-02-11 09:45,,,,340.00,14.00,,30.18,,3.50,,OVC,,,,800.00,,,,-FZDZ BR,,,,,,,,KDFW 110945Z AUTO 34014KT 3SM -FZDZ BR OVC008 M04/M05 A3018 RMK T10401050 MADISHF
DFW,2021-02-11 09:50,,,,,16.00,,30.18,,3.00,,OVC,,,,800.00,,,,-FZDZ BR,,,,,,,,KDFW 110950Z AUTO ///16KT 3SM -FZDZ BR OVC008 M04/M05 A3018 RMK T10401050 MADISHF
DFW,2021-02-11 09:53,25.00,23.00,91.97,340.00,17.00,T,30.18,1022.20,3.00,,OVC,,,,800.00,,,,-FZDZ BR,0.01,,,,,,10.90,KDFW 110953Z 34017KT 3SM -FZDZ BR OVC008 M04/M05 A3018 RMK AO2 FZDZB21 SLP222 P0000 I1001 T10391050
DFW,2021-02-11 09:55,,,,340.00,16.00,,30.18,,3.00,,OVC,,,,800.00,,,,-FZDZ BR,,,,,,,,KDFW 110955Z AUTO 34016KT 3SM -FZDZ BR OVC008 M04/M05 A3018 RMK T10401050 MADISHF
DFW,2021-02-11 10:00,,,,340.00,16.00,,30.18,,3.00,,OVC,,,,800.00,,,,-FZDZ BR,,,,,,,,KDFW 111000Z AUTO 34016KT 3SM -FZDZ BR OVC008 M04/M05 A3018 RMK T10401050 MADISHF
DFW,2021-02-11 10:05,,,,340.00,15.00,,30.18,,3.00,,OVC,,,,800.00,,,,-FZDZ BR,,,,,,,,KDFW 111005Z AUTO 34015KT 3SM -FZDZ BR OVC008 M04/M05 A3018 RMK T10401050 MADISHF
DFW,2021-02-11 10:10,,,,340.00,15.00,,30.18,,3.50,,OVC,,,,800.00,,,,-FZDZ BR,,,,,,,,KDFW 111010Z AUTO 34015KT 3SM -FZDZ BR OVC008 M04/M05 A3018 RMK T10401050 MADISHF
DFW,2021-02-11 10:15,,,,340.00,16.00,,30.18,,3.50,,OVC,,,,700.00,,,,-FZDZ BR,,,,,,,,KDFW 111015Z AUTO 34016KT 3SM -FZDZ BR OVC007 M04/M05 A3018 RMK T10401050 MADISHF
DFW,2021-02-11 10:20,,,,340.00,16.00,,30.18,,3.50,,OVC,,,,700.00,,,,-FZDZ BR,,,,,,,,KDFW 111020Z AUTO 34016KT 3SM -FZDZ BR OVC007 M04/M05 A3018 RMK T10401050 MADISHF
DFW,2021-02-11 10:25,,,,340.00,13.00,,30.18,,4.00,,OVC,,,,700.00,,,,-FZDZ BR,,,,,,,,KDFW 111025Z AUTO 34013KT 4SM -FZDZ BR OVC007 M04/M05 A3018 RMK T10401050 MADISHF
DFW,2021-02-11 10:30,,,,350.00,13.00,,30.18,,4.00,,OVC,,,,700.00,,,,-FZDZ BR,,,,,,,,KDFW 111030Z AUTO 35013KT 4SM -FZDZ BR OVC007 M04/M05 A3018 RMK T10401050 MADISHF
DFW,2021-02-11 10:35,,,,340.00,13.00,,30.19,,4.00,,OVC,,,,700.00,,,,-FZDZ BR,,,,,,,,KDFW 111035Z AUTO 34013KT 4SM -FZDZ BR OVC007 M04/M05 A3019 RMK T10401050 MADISHF
DFW,2021-02-11 10:37,25.00,23.00,91.97,340.00,14.00,T,30.19,,4.00,,OVC,,,,700.00,,,,-FZRA BR,0.01,,,,,,12.14,KDFW 111037Z 34014KT 4SM -FZRA BR OVC007 M04/M05 A3019 RMK AO2 FZDZE36FZRAB36 P0000 I1001 T10391050
DFW,2021-02-11 10:40,,,,340.00,11.00,,30.18,,4.00,,OVC,,,,700.00,,,,-FZRA BR,,,,,,,,KDFW 111040Z AUTO 34011KT 4SM -FZRA BR OVC007 M04/M05 A3018 RMK T10401050 MADISHF
DFW,2021-02-11 10:45,,,,350.00,15.00,,30.19,,4.00,,OVC,,,,700.00,,,,-FZRA BR,,,,,,,,KDFW 111045Z AUTO 35015KT 4SM -FZRA BR OVC007 M04/M05 A3019 RMK T10401050 MADISHF
DFW,2021-02-11 10:50,,,,,16.00,,30.19,,5.00,,OVC,,,,700.00,,,,-FZRA BR,,,,,,,,KDFW 111050Z AUTO ///16KT 5SM -FZRA BR OVC007 M04/M05 A3019 RMK T10401050 MADISHF
DFW,2021-02-11 10:53,25.00,23.00,91.97,340.00,13.00,T,30.19,1022.70,5.00,,OVC,,,,700.00,,,,-FZRA BR,0.01,,,,,,12.60,KDFW 111053Z 34013KT 5SM -FZRA BR OVC007 M04/M05 A3019 RMK AO2 FZDZE36FZRAB36 SLP227 P0000 I1001 T10391050
DFW,2021-02-11 10:55,,,,340.00,14.00,,30.19,,5.00,,OVC,,,,700.00,,,,-FZRA BR,,,,,,,,KDFW 111055Z AUTO 34014KT 5SM -FZRA BR OVC007 M04/M05 A3019 RMK T10401050 MADISHF
DFW,2021-02-11 11:00,,,,340.00,14.00,,30.19,,5.00,,OVC,,,,700.00,,,,-FZRA BR,,,,,,,,KDFW 111100Z AUTO 34014KT 5SM -FZRA BR OVC007 M04/M05 A3019 RMK T10401050 MADISHF
DFW,2021-02-11 11:05,,,,340.00,14.00,,30.19,,5.00,,OVC,,,,700.00,,,,-FZRA BR,,,,,,,,KDFW 111105Z AUTO 34014KT 5SM -FZRA BR OVC007 M04/M05 A3019 RMK T10401050 MADISHF
DFW,2021-02-11 11:10,,,,340.00,15.00,,30.20,,5.00,,OVC,,,,700.00,,,,-FZRA BR,,,,,,,,KDFW 111110Z AUTO 34015KT 5SM -FZRA BR OVC007 M04/M05 A3020 RMK T10401050 MADISHF
DFW,2021-02-11 11:15,,,,350.00,13.00,,30.20,,5.00,,OVC,,,,700.00,,,,-FZRA BR,,,,,,,,KDFW 111115Z AUTO 35013KT 5SM -FZRA BR OVC007 M04/M05 A3020 RMK T10401050 MADISHF
DFW,2021-02-11 11:20,,,,340.00,15.00,,30.20,,4.00,,OVC,,,,700.00,,,,-FZRA BR,,,,,,,,KDFW 111120Z AUTO 34015KT 4SM -FZRA BR OVC007 M04/M05 A3020 RMK T10401050 MADISHF
DFW,2021-02-11 11:25,,,,340.00,11.00,,30.20,,4.00,,OVC,,,,700.00,,,,-FZRA BR,,,,,,,,KDFW 111125Z AUTO 34011KT 4SM -FZRA BR OVC007 M04/M05 A3020 RMK T10401050 MADISHF
DFW,2021-02-11 11:30,,,,,15.00,,30.20,,4.00,,OVC,,,,700.00,,,,-FZRA BR,,,,,,,,KDFW 111130Z AUTO ///15KT 4SM -FZRA BR OVC007 M04/M05 A3020 RMK T10401050 MADISHF
DFW,2021-02-11 11:35,,,,340.00,13.00,,30.20,,4.00,,OVC,,,,700.00,,,,-FZRA BR,,,,,,,,KDFW 111135Z AUTO 34013KT 4SM -FZRA BR OVC007 M04/M05 A3020 RMK T10401050 MADISHF
DFW,2021-02-11 11:40,,,,350.00,11.00,,30.20,,5.00,,OVC,,,,700.00,,,,-FZRA BR,,,,,,,,KDFW 111140Z AUTO 35011KT 5SM -FZRA BR OVC007 M04/M05 A3020 RMK T10401050 MADISHF
DFW,2021-02-11 11:45,,,,350.00,11.00,,30.20,,5.00,,OVC,,,,700.00,,,,-FZRA BR,,,,,,,,KDFW 111145Z AUTO 35011KT 5SM -FZRA BR OVC007 M04/M05 A3020 RMK T10401050 MADISHF
DFW,2021-02-11 11:50,,,,,14.00,,30.19,,5.00,,OVC,,,,700.00,,,,-FZRA BR,,,,,,,,KDFW 111150Z AUTO ///14KT 5SM -FZRA BR OVC007 M04/M05 A3019 RMK T10401050 MADISHF
DFW,2021-02-11 11:53,25.00,23.00,91.97,350.00,13.00,T,30.19,1022.80,5.00,,OVC,,,,700.00,,,,-FZRA BR,T,,0.02,,,,12.60,KDFW 111153Z 35013KT 5SM -FZRA BR OVC007 M04/M05 A3019 RMK AO2 SLP228 P0000 60000 I1000 I6002 T10391050 11022 21039 53007
DFW,2021-02-11 11:55,,,,,15.00,,30.20,,6.00,,OVC,,,,700.00,,,,-FZRA BR,,,,,,,,KDFW 111155Z AUTO ///15KT 6SM -FZRA BR OVC007 M04/M05 A3020 RMK T10401050 MADISHF
DFW,2021-02-11 12:00,,,,,14.00,,30.20,,6.00,,OVC,,,,700.00,,,,-FZRA BR,,,,,,,,KDFW 111200Z AUTO ///14KT 6SM -FZRA BR OVC007 M04/M05 A3020 RMK T10401050 MADISHF
DFW,2021-02-11 12:05,,,,,16.00,,30.19,,6.00,,OVC,,,,700.00,,,,-FZRA BR,,,,,,,,KDFW 111205Z AUTO ///16KT 6SM -FZRA BR OVC007 M04/M05 A3019 RMK T10401050 MADISHF
DFW,2021-02-11 12:10,,,,350.00,15.00,,30.20,,6.00,,OVC,,,,700.00,,,,-FZRA BR,,,,,,,,KDFW 111210Z AUTO 35015KT 6SM -FZRA BR OVC007 M04/M06 A3020 RMK T10401060 MADISHF
DFW,2021-02-11 12:15,,,,350.00,14.00,,30.20,,6.00,,OVC,,,,800.00,,,,-FZRA BR,,,,,,,,KDFW 111215Z AUTO 35014KT 6SM -FZRA BR OVC008 M04/M06 A3020 RMK T10401060 MADISHF
DFW,2021-02-11 12:20,,,,340.00,16.00,,30.20,,7.00,,OVC,,,,800.00,,,,-FZRA,,,,,,,,KDFW 111220Z AUTO 34016KT 7SM -FZRA OVC008 M04/M06 A3020 RMK T10401060 MADISHF
DFW,2021-02-11 12:25,,,,,16.00,,30.20,,7.00,,OVC,,,,800.00,,,,-FZDZ,,,,,,,,KDFW 111225Z AUTO ///16KT 7SM -FZDZ OVC008 M04/M06 A3020 RMK T10401060 MADISHF
DFW,2021-02-11 12:30,,,,,15.00,,30.20,,7.00,,OVC,,,,800.00,,,,-FZDZ,,,,,,,,KDFW 111230Z AUTO ///15KT 7SM -FZDZ OVC008 M04/M06 A3020 RMK T10401060 MADISHF
DFW,2021-02-11 12:35,,,,340.00,14.00,,30.20,,6.00,,OVC,,,,800.00,,,,-FZDZ BR,,,,,,,,KDFW 111235Z AUTO 34014KT 6SM -FZDZ BR OVC008 M04/M05 A3020 RMK T10401050 MADISHF
DFW,2021-02-11 12:40,,,,,14.00,,30.20,,5.00,,OVC,,,,800.00,,,,-FZDZ BR,,,,,,,,KDFW 111240Z AUTO ///14KT 5SM -FZDZ BR OVC008 M04/M05 A3020 RMK T10401050 MADISHF
DFW,2021-02-11 12:45,,,,,15.00,,30.20,,7.00,,OVC,,,,800.00,,,,-FZDZ,,,,,,,,KDFW 111245Z AUTO ///15KT 7SM -FZDZ OVC008 M04/M06 A3020 RMK T10401060 MADISHF
DFW,2021-02-11 12:50,,,,,16.00,,30.20,,7.00,,OVC,,,,800.00,,,,-FZDZ,,,,,,,,KDFW 111250Z AUTO ///16KT 7SM -FZDZ OVC008 M04/M06 A3020 RMK T10401060 MADISHF
DFW,2021-02-11 12:53,25.00,21.90,87.81,350.00,17.00,T,30.20,1022.90,7.00,,OVC,,,,800.00,,,,-FZDZ,T,,,,,,10.90,KDFW 111253Z 35017KT 7SM -FZDZ OVC008 M04/M06 A3020 RMK AO2 FZRAE25FZDZB25 SLP229 P0000 I1000 T10391056
DFW,2021-02-11 12:55,,,,,17.00,,30.20,,7.00,,OVC,,,,800.00,,,,-FZDZ,,,,,,,,KDFW 111255Z AUTO ///17KT 7SM -FZDZ OVC008 M04/M06 A3020 RMK T10401060 MADISHF
DFW,2021-02-11 13:00,,,,,16.00,,30.20,,7.00,,OVC,,,,800.00,,,,-FZDZ,,,,,,,,KDFW 111300Z AUTO ///16KT 7SM -FZDZ OVC008 M04/M06 A3020 RMK T10401060 MADISHF
DFW,2021-02-11 13:05,,,,350.00,11.00,,30.20,,7.00,17.00,OVC,,,,900.00,,,,-FZDZ,,,,,,,,KDFW 111305Z AUTO 35011G17KT 7SM -FZDZ OVC009 M04/M06 A3020 RMK T10401060 MADISHF
DFW,2021-02-11 13:10,,,,,16.00,,30.20,,7.00,,OVC,,,,900.00,,,,-FZDZ,,,,,,,,KDFW 111310Z AUTO ///16KT 7SM -FZDZ OVC009 M04/M06 A3020 RMK T10401060 MADISHF
DFW,2021-02-11 13:15,,,,,16.00,,30.20,,7.00,,OVC,,,,900.00,,,,-FZDZ,,,,,,,,KDFW 111315Z AUTO ///16KT 7SM -FZDZ OVC009 M04/M06 A3020 RMK T10401060 MADISHF
DFW,2021-02-11 13:20,,,,,15.00,,30.20,,7.00,,OVC,,,,900.00,,,,-FZDZ,,,,,,,,KDFW 111320Z AUTO ///15KT 7SM -FZDZ OVC009 M04/M06 A3020 RMK T10401060 MADISHF
DFW,2021-02-11 13:23,24.10,21.90,91.17,350.00,16.00,T,30.20,,7.00,22.00,OVC,,,,900.00,,,,,T,,,,,,10.12,KDFW 111323Z 35016G22KT 7SM OVC009 M04/M06 A3020 RMK AO2 FZDZE23 P0000 I1000 T10441056
DFW,2021-02-11 13:25,,,,350.00,16.00,,30.20,,7.00,,OVC,,,,900.00,,,,,,,,,,,,KDFW 111325Z AUTO 35016KT 7SM OVC009 M04/M06 A3020 RMK T10401060 MADISHF
DFW,2021-02-11 13:30,,,,350.00,17.00,,30.20,,7.00,,OVC,,,,900.00,,,,,,,,,,,,KDFW 111330Z AUTO 35017KT 7SM OVC009 M04/M06 A3020 RMK T10401060 MADISHF
DFW,2021-02-11 13:35,,,,350.00,15.00,,30.20,,7.00,,OVC,,,,900.00,,,,,,,,,,,,KDFW 111335Z AUTO 35015KT 7SM OVC009 M04/M06 A3020 RMK T10401060 MADISHF
DFW,2021-02-11 13:40,,,,350.00,16.00,,30.21,,7.00,,OVC,,,,900.00,,,,,,,,,,,,KDFW 111340Z AUTO 35016KT 7SM OVC009 M04/M06 A3020 RMK T10401060 MADISHF
DFW,2021-02-11 13:45,,,,350.00,17.00,,30.21,,8.00,,OVC,,,,900.00,,,,,,,,,,,,KDFW 111345Z AUTO 35017KT 8SM OVC009 M04/M06 A3020 RMK T10401060 MADISHF
DFW,2021-02-11 13:50,,,,350.00,16.00,,30.21,,8.00,21.00,OVC,,,,900.00,,,,,,,,,,,,KDFW 111350Z AUTO 35016G21KT 8SM OVC009 M04/M06 A3020 RMK T10401060 MADISHF
DFW,2021-02-11 13:53,24.10,21.90,91.17,350.00,15.00,T,30.21,1023.60,7.00,,OVC,,,,900.00,,,,,T,,,,,,10.54,KDFW 111353Z 35015KT 7SM OVC009 M04/M06 A3021 RMK AO2 FZDZE23 SLP236 P0000 I1000 T10441056
DFW,2021-02-11 13:55,,,,350.00,14.00,,30.21,,6.00,,OVC,,,,900.00,,,,BR,,,,,,,,KDFW 111355Z AUTO 35014KT 6SM BR OVC009 M04/M06 A3020 RMK T10401060 MADISHF
DFW,2021-02-11 14:00,,,,350.00,16.00,,30.22,,5.00,,OVC,,,,900.00,,,,BR,,,,,,,,KDFW 111400Z AUTO 35016KT 5SM BR OVC009 M04/M06 A3021 RMK T10401060 MADISHF
DFW,2021-02-11 14:05,,,,350.00,17.00,,30.22,,5.00,,OVC,,,,900.00,,,,BR,,,,,,,,KDFW 111405Z AUTO 35017KT 5SM BR OVC009 M04/M06 A3021 RMK T10401060 MADISHF
DFW,2021-02-11 14:10,,,,350.00,11.00,,30.22,,5.00,18.00,OVC,,,,900.00,,,,BR,,,,,,,,KDFW 111410Z AUTO 35011G18KT 5SM BR OVC009 M04/M06 A3021 RMK T10401060 MADISHF
DFW,2021-02-11 14:15,,,,,17.00,,30.22,,6.00,,OVC,,,,900.00,,,,BR,,,,,,,,KDFW 111415Z AUTO ///17KT 6SM BR OVC009 M04/M06 A3021 RMK T10401060 MADISHF
DFW,2021-02-11 14:20,,,,350.00,16.00,,30.22,,7.00,21.00,OVC,,,,900.00,,,,,,,,,,,,KDFW 111420Z AUTO 35016G21KT 7SM OVC009 M04/M06 A3021 RMK T10401060 MADISHF
DFW,2021-02-11 14:25,,,,360.00,16.00,,30.22,,7.00,,OVC,,,,900.00,,,,,,,,,,,,KDFW 111425Z AUTO 36016KT 7SM OVC009 M04/M06 A3021 RMK T10401060 MADISHF
DFW,2021-02-11 14:30,,,,350.00,14.00,,30.22,,7.00,,OVC,,,,900.00,,,,,,,,,,,,KDFW 111430Z AUTO 35014KT 7SM OVC009 M04/M06 A3021 RMK T10401060 MADISHF
DFW,2021-02-11 14:35,,,,,15.00,,30.23,,7.00,,OVC,,,,900.00,,,,,,,,,,,,KDFW 111435Z AUTO ///15KT 7SM OVC009 M04/M06 A3022 RMK T10401060 MADISHF
DFW,2021-02-11 14:40,,,,,14.00,,30.23,,7.00,,OVC,,,,900.00,,,,,,,,,,,,KDFW 111440Z AUTO ///14KT 7SM OVC009 M04/M06 A3022 RMK T10401060 MADISHF
DFW,2021-02-11 14:45,,,,360.00,13.00,,30.23,,7.00,,OVC,,,,900.00,,,,,,,,,,,,KDFW 111445Z AUTO 36013KT 7SM OVC009 M04/M06 A3022 RMK T10401060 MADISHF
DFW,2021-02-11 14:50,,,,,15.00,,30.23,,8.00,,OVC,,,,900.00,,,,,,,,,,,,KDFW 111450Z AUTO ///15KT 8SM OVC009 M04/M06 A3022 RMK T10401060 MADISHF
DFW,2021-02-11 14:53,24.10,21.00,87.76,360.00,13.00,0.00,30.23,1024.10,8.00,21.00,OVC,,,,900.00,,,,,,T,,,,,11.45,KDFW 111453Z 36013G21KT 8SM OVC009 M04/M06 A3023 RMK AO2 SLP241 60000 I3000 T10441061 53012
DFW,2021-02-11 14:55,,,,,17.00,,30.23,,8.00,,OVC,,,,900.00,,,,,,,,,,,,KDFW 111455Z AUTO ///17KT 8SM OVC009 M04/M06 A3022 RMK T10401060 MADISHF
DFW,2021-02-11 15:00,,,,,13.00,,30.23,,8.00,,OVC,,,,900.00,,,,,,,,,,,,KDFW 111500Z AUTO ///13KT 8SM OVC009 M04/M06 A3022 RMK T10401060 MADISHF
DFW,2021-02-11 15:05,,,,360.00,11.00,,30.23,,8.00,,OVC,,,,900.00,,,,,,,,,,,,KDFW 111505Z AUTO 36011KT 8SM OVC009 M04/M06 A3022 RMK T10401060 MADISHF
DFW,2021-02-11 15:10,,,,350.00,13.00,,30.23,,8.00,,OVC,,,,999.00,,,,,,,,,,,,KDFW 111510Z AUTO 35013KT 8SM OVC009 M04/M06 A3022 RMK T10401060 MADISHF
DFW,2021-02-11 15:13,24.10,21.90,91.17,350.00,13.00,0.00,30.23,,7.00,,OVC,,,,1000.00,,,,,,,,,,,11.45,KDFW 111513Z 35013KT 7SM OVC010 M04/M06 A3023 RMK AO2 T10441056
DFW,2021-02-11 15:15,,,,360.00,11.00,,30.23,,7.00,,OVC,,,,999.00,,,,,,,,,,,,KDFW 111515Z AUTO 36011KT 7SM OVC009 M04/M06 A3022 RMK T10401060 MADISHF
DFW,2021-02-11 15:20,,,,360.00,10.00,,30.24,,7.00,,OVC,,,,999.00,,,,,,,,,,,,KDFW 111520Z AUTO 36010KT 7SM OVC009 M04/M06 A3023 RMK T10401060 MADISHF
DFW,2021-02-11 15:25,,,,,15.00,,30.23,,8.00,,OVC,,,,1100.00,,,,,,,,,,,,KDFW 111525Z AUTO ///15KT 8SM OVC011 M04/M06 A3022 RMK T10401060 MADISHF
DFW,2021-02-11 15:30,,,,,13.00,,30.23,,8.00,,OVC,,,,1100.00,,,,,,,,,,,,KDFW 111530Z AUTO ///13KT 8SM OVC011 M04/M06 A3022 RMK T10401060 MADISHF
DFW,2021-02-11 15:35,,,,,13.00,,30.23,,9.00,,OVC,,,,1100.00,,,,,,,,,,,,KDFW 111535Z AUTO ///13KT 9SM OVC011 M04/M06 A3022 RMK T10401060 MADISHF
DFW,2021-02-11 15:40,,,,,13.00,,30.23,,9.00,,OVC,,,,1200.00,,,,,,,,,,,,KDFW 111540Z AUTO ///13KT 9SM OVC012 M04/M06 A3022 RMK T10401060 MADISHF
DFW,2021-02-11 15:45,,,,,11.00,,30.23,,9.00,,OVC,,,,1200.00,,,,,,,,,,,,KDFW 111545Z AUTO ///11KT 9SM OVC012 M04/M06 A3022 RMK T10401060 MADISHF
DFW,2021-02-11 15:50,,,,340.00,14.00,,30.23,,9.00,,OVC,,,,1200.00,,,,,,,,,,,,KDFW 111550Z AUTO 34014KT 9SM OVC012 M04/M06 A3022 RMK T10401060 MADISHF
DFW,2021-02-11 15:53,25.00,21.90,87.81,350.00,12.00,0.00,30.23,1024.30,9.00,,OVC,,,,1300.00,,,,,,,,,,,13.09,KDFW 111553Z 35012KT 9SM OVC013 M04/M06 A3023 RMK AO2 SLP243 T10391056
DFW,2021-02-11 15:55,,,,340.00,13.00,,30.23,,9.00,,OVC,,,,1300.00,,,,,,,,,,,,KDFW 111555Z AUTO 34013KT 9SM OVC013 M04/M06 A3022 RMK T10401060 MADISHF
DFW,2021-02-11 16:00,,,,360.00,13.00,,30.22,,9.00,,OVC,,,,1300.00,,,,,,,,,,,,KDFW 111600Z AUTO 36013KT 9SM OVC013 M03/M06 A3021 RMK T10301060 MADISHF
DFW,2021-02-11 16:05,,,,360.00,13.00,,30.22,,9.00,,OVC,,,,1300.00,,,,,,,,,,,,KDFW 111605Z AUTO 36013KT 9SM OVC013 M03/M06 A3021 RMK T10301060 MADISHF
DFW,2021-02-11 16:10,,,,,14.00,,30.22,,9.00,,OVC,,,,1400.00,,,,,,,,,,,,KDFW 111610Z AUTO ///14KT 9SM OVC014 M04/M06 A3021 RMK T10401060 MADISHF
DFW,2021-02-11 16:15,,,,,13.00,,30.22,,9.00,,OVC,,,,1400.00,,,,,,,,,,,,KDFW 111615Z AUTO ///13KT 9SM OVC014 M04/M06 A3021 RMK T10401060 MADISHF
DFW,2021-02-11 16:20,,,,,15.00,,30.23,,9.00,,OVC,,,,1400.00,,,,,,,,,,,,KDFW 111620Z AUTO ///15KT 9SM OVC014 M04/M06 A3022 RMK T10401060 MADISHF
DFW,2021-02-11 16:25,,,,,13.00,,30.22,,9.00,,OVC,,,,1400.00,,,,,,,,,,,,KDFW 111625Z AUTO ///13KT 9SM OVC014 M04/M06 A3021 RMK T10401060 MADISHF
DFW,2021-02-11 16:30,,,,,15.00,,30.22,,9.00,,OVC,,,,1400.00,,,,,,,,,,,,KDFW 111630Z AUTO ///15KT 9SM OVC014 M03/M06 A3021 RMK T10301060 MADISHF
DFW,2021-02-11 16:35,,,,,15.00,,30.22,,9.00,,OVC,,,,1400.00,,,,,,,,,,,,KDFW 111635Z AUTO ///15KT 9SM OVC014 M04/M06 A3021 RMK T10401060 MADISHF
DFW,2021-02-11 16:40,,,,350.00,15.00,,30.23,,9.00,,OVC,,,,1400.00,,,,,,,,,,,,KDFW 111640Z AUTO 35015KT 9SM OVC014 M03/M06 A3022 RMK T10301060 MADISHF
DFW,2021-02-11 16:45,,,,340.00,14.00,,30.23,,9.00,,OVC,,,,1400.00,,,,,,,,,,,,KDFW 111645Z AUTO 34014KT 9SM OVC014 M03/M06 A3022 RMK T10301060 MADISHF
DFW,2021-02-11 16:50,,,,350.00,11.00,,30.23,,10.00,,OVC,,,,1400.00,,,,,,,,,,,,KDFW 111650Z AUTO 35011KT 10SM OVC014 M03/M06 A3022 RMK T10301060 MADISHF
DFW,2021-02-11 16:53,26.10,21.90,83.89,350.00,11.00,0.00,30.24,1024.30,10.00,,OVC,,,,1400.00,,,,,,,,,,,15.01,KDFW 111653Z 35011KT 10SM OVC014 M03/M06 A3024 RMK AO2 SLP243 T10331056
DFW,2021-02-11 16:55,,,,,11.00,,30.23,,10.00,,OVC,,,,1400.00,,,,,,,,,,,,KDFW 111655Z AUTO ///11KT 10SM OVC014 M03/M06 A3022 RMK T10301060 MADISHF
DFW,2021-02-11 17:00,,,,,14.00,,30.23,,10.00,,OVC,,,,1400.00,,,,,,,,,,,,KDFW 111700Z AUTO ///14KT 10SM OVC014 M03/M06 A3022 RMK T10301060 MADISHF
DFW,2021-02-11 17:05,,,,,14.00,,30.22,,10.00,,OVC,,,,1400.00,,,,,,,,,,,,KDFW 111705Z AUTO ///14KT 10SM OVC014 M03/M06 A3021 RMK T10301060 MADISHF
DFW,2021-02-11 17:10,,,,,13.00,,30.22,,10.00,,OVC,,,,1400.00,,,,,,,,,,,,KDFW 111710Z AUTO ///13KT 10SM OVC014 M03/M06 A3021 RMK T10301060 MADISHF
DFW,2021-02-11 17:15,,,,,13.00,,30.22,,10.00,,OVC,,,,1400.00,,,,,,,,,,,,KDFW 111715Z AUTO ///13KT 10SM OVC014 M03/M06 A3021 RMK T10301060 MADISHF
DFW,2021-02-11 17:20,,,,,13.00,,30.22,,10.00,,OVC,,,,1500.00,,,,,,,,,,,,KDFW 111720Z AUTO ///13KT 10SM OVC015 M03/M06 A3021 RMK T10301060 MADISHF
DFW,2021-02-11 17:23,27.00,21.90,80.83,360.00,12.00,0.00,30.22,,10.00,,OVC,,,,1500.00,,,,,,,,,,,15.64,KDFW 111723Z 36012KT 10SM OVC015 M03/M06 A3022 RMK AO2 T10281056
DFW,2021-02-11 17:25,,,,350.00,11.00,,30.22,,10.00,,OVC,,,,1500.00,,,,,,,,,,,,KDFW 111725Z AUTO 35011KT 10SM OVC015 M03/M06 A3021 RMK T10301060 MADISHF
DFW,2021-02-11 17:30,,,,350.00,11.00,,30.23,,10.00,,OVC,,,,1500.00,,,,,,,,,,,,KDFW 111730Z AUTO 35011KT 10SM OVC015 M03/M06 A3022 RMK T10301060 MADISHF
DFW,2021-02-11 17:35,,,,350.00,11.00,,30.22,,10.00,,OVC,,,,1500.00,,,,,,,,,,,,KDFW 111735Z AUTO 35011KT 10SM OVC015 M03/M06 A3021 RMK T10301060 MADISHF
DFW,2021-02-11 17:40,,,,350.00,11.00,,30.22,,10.00,,OVC,,,,1500.00,,,,,,,,,,,,KDFW 111740Z AUTO 35011KT 10SM OVC015 M03/M06 A3021 RMK T10301060 MADISHF
DFW,2021-02-11 17:45,,,,360.00,11.00,,30.22,,10.00,,OVC,,,,1500.00,,,,,,,,,,,,KDFW 111745Z AUTO 36011KT 10SM OVC015 M03/M06 A3021 RMK T10301060 MADISHF
DFW,2021-02-11 17:50,,,,350.00,13.00,,30.22,,10.00,,OVC,,,,1500.00,,,,,,,,,,,,KDFW 111750Z AUTO 35013KT 10SM OVC015 M03/M06 A3021 RMK T10301060 MADISHF
DFW,2021-02-11 17:53,27.00,21.00,77.80,340.00,11.00,0.00,30.22,1023.70,10.00,,OVC,,,,1500.00,,,,,,,T,,,,16.15,KDFW 111753Z 34011KT 10SM OVC015 M03/M06 A3022 RMK AO2 SLP237 60000 I6000 T10281061 11028 21044 58003
DFW,2021-02-11 17:55,,,,350.00,11.00,,30.22,,10.00,,OVC,,,,1600.00,,,,,,,,,,,,KDFW 111755Z AUTO 35011KT 10SM OVC016 M03/M06 A3021 RMK T10301060 MADISHF
DFW,2021-02-11 18:00,,,,350.00,11.00,,30.22,,10.00,,OVC,,,,1600.00,,,,,,,,,,,,KDFW 111800Z AUTO 35011KT 10SM OVC016 M03/M06 A3021 RMK T10301060 MADISHF
DFW,2021-02-11 18:05,,,,350.00,13.00,,30.22,,10.00,,OVC,,,,1600.00,,,,,,,,,,,,KDFW 111805Z AUTO 35013KT 10SM OVC016 M03/M06 A3021 RMK T10301060 MADISHF
DFW,2021-02-11 18:10,,,,350.00,11.00,,30.23,,10.00,,OVC,,,,1600.00,,,,,,,,,,,,KDFW 111810Z AUTO 35011KT 10SM OVC016 M03/M06 A3022 RMK T10301060 MADISHF
DFW,2021-02-11 18:15,,,,350.00,10.00,,30.23,,10.00,,OVC,,,,1600.00,,,,,,,,,,,,KDFW 111815Z AUTO 35010KT 10SM OVC016 M03/M06 A3022 RMK T10301060 MADISHF
DFW,2021-02-11 18:20,,,,340.00,9.00,,30.23,,10.00,,OVC,,,,1600.00,,,,,,,,,,,,KDFW 111820Z AUTO 34009KT 10SM OVC016 M03/M06 A3022 RMK T10301060 MADISHF
DFW,2021-02-11 18:25,,,,340.00,8.00,,30.23,,10.00,,OVC,,,,1600.00,,,,,,,,,,,,KDFW 111825Z AUTO 34008KT 10SM OVC016 M03/M06 A3022 RMK T10301060 MADISHF
DFW,2021-02-11 18:30,,,,330.00,8.00,,30.23,,10.00,,OVC,,,,1600.00,,,,,,,,,,,,KDFW 111830Z AUTO 33008KT 10SM OVC016 M03/M06 A3022 RMK T10301060 MADISHF
DFW,2021-02-11 18:35,,,,340.00,11.00,,30.22,,10.00,,OVC,,,,1600.00,,,,,,,,,,,,KDFW 111835Z AUTO 34011KT 10SM OVC016 M03/M06 A3021 RMK T10301060 MADISHF
DFW,2021-02-11 18:40,,,,350.00,11.00,,30.21,,10.00,,OVC,,,,1600.00,,,,,,,,,,,,KDFW 111840Z AUTO 35011KT 10SM OVC016 M03/M06 A3020 RMK T10301060 MADISHF
DFW,2021-02-11 18:45,,,,340.00,11.00,,30.21,,10.00,,OVC,,,,1600.00,,,,,,,,,,,,KDFW 111845Z AUTO 34011KT 10SM OVC016 M03/M06 A3020 RMK T10301060 MADISHF
DFW,2021-02-11 18:50,,,,350.00,11.00,,30.21,,10.00,,OVC,,,,1600.00,,,,,,,,,,,,KDFW 111850Z AUTO 35011KT 10SM OVC016 M03/M06 A3020 RMK T10301060 MADISHF
DFW,2021-02-11 18:53,27.00,19.90,74.25,360.00,10.00,0.00,30.21,1023.50,10.00,,OVC,,,,1600.00,,,,,,,,,,,16.70,KDFW 111853Z 36010KT 10SM OVC016 M03/M07 A3021 RMK AO2 SLP235 T10281067
DFW,2021-02-11 18:55,,,,350.00,10.00,,30.21,,10.00,,OVC,,,,1600.00,,,,,,,,,,,,KDFW 111855Z AUTO 35010KT 10SM OVC016 M03/M06 A3020 RMK T10301060 MADISHF
DFW,2021-02-11 19:00,,,,340.00,10.00,,30.20,,10.00,,OVC,,,,1600.00,,,,,,,,,,,,KDFW 111900Z AUTO 34010KT 10SM OVC016 M03/M06 A3020 RMK T10301060 MADISHF
DFW,2021-02-11 19:05,,,,350.00,11.00,,30.20,,10.00,,OVC,,,,1600.00,,,,,,,,,,,,KDFW 111905Z AUTO 35011KT 10SM OVC016 M03/M06 A3020 RMK T10301060 MADISHF
DFW,2021-02-11 19:10,,,,350.00,11.00,,30.20,,10.00,,OVC,,,,1600.00,,,,,,,,,,,,KDFW 111910Z AUTO 35011KT 10SM OVC016 M03/M06 A3020 RMK T10301060 MADISHF
DFW,2021-02-11 19:15,,,,350.00,9.00,,30.20,,10.00,,OVC,,,,1600.00,,,,,,,,,,,,KDFW 111915Z AUTO 35009KT 10SM OVC016 M03/M06 A3020 RMK T10301060 MADISHF
DFW,2021-02-11 19:20,,,,340.00,10.00,,30.20,,10.00,,OVC,,,,1600.00,,,,,,,,,,,,KDFW 111920Z AUTO 34010KT 10SM OVC016 M02/M06 A3020 RMK T10201060 MADISHF
DFW,2021-02-11 19:25,,,,330.00,10.00,,30.20,,10.00,,OVC,,,,1600.00,,,,,,,,,,,,KDFW 111925Z AUTO 33010KT 10SM OVC016 M02/M06 A3020 RMK T10201060 MADISHF
DFW,2021-02-11 19:30,,,,330.00,10.00,,30.20,,10.00,,OVC,,,,1600.00,,,,,,,,,,,,KDFW 111930Z AUTO 33010KT 10SM OVC016 M03/M06 A3020 RMK T10301060 MADISHF
DFW,2021-02-11 19:35,,,,350.00,11.00,,30.20,,10.00,,OVC,,,,1600.00,,,,,,,,,,,,KDFW 111935Z AUTO 35011KT 10SM OVC016 M03/M06 A3020 RMK T10301060 MADISHF
DFW,2021-02-11 19:40,,,,330.00,11.00,,30.20,,10.00,,OVC,,,,1600.00,,,,,,,,,,,,KDFW 111940Z AUTO 33011KT 10SM OVC016 M03/M06 A3020 RMK T10301060 MADISHF
DFW,2021-02-11 19:45,,,,350.00,10.00,,30.20,,10.00,,OVC,,,,1600.00,,,,,,,,,,,,KDFW 111945Z AUTO 35010KT 10SM OVC016 M02/M06 A3020 RMK T10201060 MADISHF
DFW,2021-02-11 19:50,,,,350.00,11.00,,30.20,,10.00,,OVC,,,,1600.00,,,,,,,,,,,,KDFW 111950Z AUTO 35011KT 10SM OVC016 M02/M06 A3020 RMK T10201060 MADISHF
DFW,2021-02-11 19:53,27.00,19.90,74.25,360.00,11.00,0.00,30.19,1023.00,10.00,,OVC,,,,1600.00,,,,,,,,,,,16.15,KDFW 111953Z 36011KT 10SM OVC016 M03/M07 A3019 RMK AO2 SLP230 T10281067
DFW,2021-02-11 19:55,,,,340.00,9.00,,30.20,,10.00,,OVC,,,,1600.00,,,,,,,,,,,,KDFW 111955Z AUTO 34009KT 10SM OVC016 M03/M06 A3020 RMK T10301060 MADISHF
DFW,2021-02-11 20:00,,,,350.00,11.00,,30.19,,10.00,,OVC,,,,1600.00,,,,,,,,,,,,KDFW 112000Z AUTO 35011KT 10SM OVC016 M02/M06 A3019 RMK T10201060 MADISHF
DFW,2021-02-11 20:05,,,,340.00,11.00,,30.19,,10.00,,OVC,,,,1600.00,,,,,,,,,,,,KDFW 112005Z AUTO 34011KT 10SM OVC016 M02/M06 A3019 RMK T10201060 MADISHF
DFW,2021-02-11 20:10,,,,340.00,11.00,,30.19,,10.00,,OVC,,,,1600.00,,,,,,,,,,,,KDFW 112010Z AUTO 34011KT 10SM OVC016 M02/M06 A3019 RMK T10201060 MADISHF
DFW,2021-02-11 20:15,,,,350.00,11.00,,30.19,,10.00,,OVC,,,,1699.00,,,,,,,,,,,,KDFW 112015Z AUTO 35011KT 10SM OVC016 M02/M07 A3019 RMK T10201070 MADISHF
DFW,2021-02-11 20:20,,,,340.00,11.00,,30.19,,10.00,,OVC,,,,1699.00,,,,,,,,,,,,KDFW 112020Z AUTO 34011KT 10SM OVC016 M02/M07 A3019 RMK T10201070 MADISHF
DFW,2021-02-11 20:25,,,,350.00,11.00,,30.19,,10.00,,OVC,,,,1699.00,,,,,,,,,,,,KDFW 112025Z AUTO 35011KT 10SM OVC016 M02/M07 A3019 RMK T10201070 MADISHF
DFW,2021-02-11 20:30,,,,,14.00,,30.18,,10.00,,OVC,,,,1699.00,,,,,,,,,,,,KDFW 112030Z AUTO ///14KT 10SM OVC016 M02/M07 A3018 RMK T10201070 MADISHF
DFW,2021-02-11 20:35,,,,,14.00,,30.18,,10.00,,OVC,,,,1699.00,,,,,,,,,,,,KDFW 112035Z AUTO ///14KT 10SM OVC016 M02/M07 A3018 RMK T10201070 MADISHF
DFW,2021-02-11 20:40,,,,340.00,14.00,,30.17,,10.00,,OVC,,,,1699.00,,,,,,,,,,,,KDFW 112040Z AUTO 34014KT 10SM OVC016 M02/M07 A3017 RMK T10201070 MADISHF
DFW,2021-02-11 20:45,,,,,15.00,,30.17,,10.00,,OVC,,,,1800.00,,,,,,,,,,,,KDFW 112045Z AUTO ///15KT 10SM OVC018 M02/M07 A3017 RMK T10201070 MADISHF
DFW,2021-02-11 20:50,,,,340.00,13.00,,30.17,,10.00,,BKN,OVC,,,1800.00,2600.00,,,,,,,,,,,KDFW 112050Z AUTO 34013KT 10SM BKN018 OVC026 M02/M07 A3017 RMK T10201070 MADISHF
DFW,2021-02-11 20:53,28.00,19.90,71.25,350.00,16.00,0.00,30.17,1022.10,10.00,,BKN,OVC,,,1800.00,2600.00,,,,,,,,,,15.20,KDFW 112053Z 35016KT 10SM BKN018 OVC026 M02/M07 A3017 RMK AO2 SLP221 T10221067 58016
DFW,2021-02-11 20:55,,,,,14.00,,30.17,,10.00,,BKN,OVC,,,1800.00,2600.00,,,,,,,,,,,KDFW 112055Z AUTO ///14KT 10SM BKN018 OVC026 M02/M07 A3017 RMK T10201070 MADISHF
DFW,2021-02-11 21:00,,,,,16.00,,30.17,,10.00,,BKN,OVC,,,1800.00,2800.00,,,,,,,,,,,KDFW 112100Z AUTO ///16KT 10SM BKN018 OVC028 M02/M07 A3017 RMK T10201070 MADISHF
DFW,2021-02-11 21:05,,,,,15.00,,30.17,,10.00,,SCT,OVC,,,1800.00,2800.00,,,,,,,,,,,KDFW 112105Z AUTO ///15KT 10SM SCT018 OVC028 M02/M07 A3017 RMK T10201070 MADISHF
DFW,2021-02-11 21:10,,,,,15.00,,30.17,,10.00,,SCT,OVC,,,1800.00,2600.00,,,,,,,,,,,KDFW 112110Z AUTO ///15KT 10SM SCT018 OVC026 M02/M07 A3017 RMK T10201070 MADISHF
DFW,2021-02-11 21:15,,,,,14.00,,30.17,,10.00,,FEW,OVC,,,1800.00,2600.00,,,,,,,,,,,KDFW 112115Z AUTO ///14KT 10SM FEW018 OVC026 M02/M07 A3017 RMK T10201070 MADISHF
DFW,2021-02-11 21:20,,,,340.00,14.00,,30.17,,10.00,,FEW,OVC,,,1800.00,2700.00,,,,,,,,,,,KDFW 112120Z AUTO 34014KT 10SM FEW018 OVC027 M02/M07 A3017 RMK T10201070 MADISHF
DFW,2021-02-11 21:25,,,,,14.00,,30.17,,10.00,,FEW,OVC,,,1900.00,2700.00,,,,,,,,,,,KDFW 112125Z AUTO ///14KT 10SM FEW019 OVC027 M02/M07 A3017 RMK T10201070 MADISHF
DFW,2021-02-11 21:30,,,,,14.00,,30.16,,10.00,,FEW,OVC,,,1900.00,2900.00,,,,,,,,,,,KDFW 112130Z AUTO ///14KT 10SM FEW019 OVC029 M02/M07 A3015 RMK T10201070 MADISHF
DFW,2021-02-11 21:35,,,,,15.00,,30.16,,10.00,,FEW,OVC,,,1900.00,2900.00,,,,,,,,,,,KDFW 112135Z AUTO ///15KT 10SM FEW019 OVC029 M02/M07 A3015 RMK T10201070 MADISHF
DFW,2021-02-11 21:40,,,,,15.00,,30.16,,10.00,,FEW,OVC,,,1900.00,2900.00,,,,,,,,,,,KDFW 112140Z AUTO ///15KT 10SM FEW019 OVC029 M02/M07 A3015 RMK T10201070 MADISHF
DFW,2021-02-11 21:45,,,,,14.00,,30.16,,10.00,,FEW,OVC,,,1900.00,2900.00,,,,,,,,,,,KDFW 112145Z AUTO ///14KT 10SM FEW019 OVC029 M02/M07 A3015 RMK T10201070 MADISHF
DFW,2021-02-11 21:50,,,,,13.00,,30.16,,10.00,,SCT,OVC,,,1900.00,2900.00,,,,,,,,,,,KDFW 112150Z AUTO ///13KT 10SM SCT019 OVC029 M02/M07 A3015 RMK T10201070 MADISHF
DFW,2021-02-11 21:53,28.00,19.90,71.25,350.00,15.00,0.00,30.16,1021.70,10.00,,SCT,OVC,,,1900.00,2900.00,,,,,,,,,,15.59,KDFW 112153Z 35015KT 10SM SCT019 OVC029 M02/M07 A3016 RMK AO2 SLP217 T10221067
DFW,2021-02-11 21:55,,,,340.00,14.00,,30.15,,10.00,,FEW,OVC,,,1900.00,2900.00,,,,,,,,,,,KDFW 112155Z AUTO 34014KT 10SM FEW019 OVC029 M02/M07 A3014 RMK T10201070 MADISHF
DFW,2021-02-11 22:00,,,,350.00,11.00,,30.16,,10.00,,FEW,OVC,,,1900.00,2900.00,,,,,,,,,,,KDFW 112200Z AUTO 35011KT 10SM FEW019 OVC029 M02/M07 A3015 RMK T10201070 MADISHF
DFW,2021-02-11 22:05,,,,340.00,15.00,,30.15,,10.00,,SCT,OVC,,,1900.00,2900.00,,,,,,,,,,,KDFW 112205Z AUTO 34015KT 10SM SCT019 OVC029 M02/M07 A3014 RMK T10201070 MADISHF
DFW,2021-02-11 22:10,,,,,13.00,,30.16,,10.00,,SCT,OVC,,,1900.00,2900.00,,,,,,,,,,,KDFW 112210Z AUTO ///13KT 10SM SCT019 OVC029 M02/M07 A3015 RMK T10201070 MADISHF
DFW,2021-02-11 22:15,,,,340.00,16.00,,30.16,,10.00,,SCT,OVC,,,1900.00,2900.00,,,,,,,,,,,KDFW 112215Z AUTO 34016KT 10SM SCT019 OVC029 M02/M07 A3015 RMK T10201070 MADISHF
DFW,2021-02-11 22:20,,,,350.00,14.00,,30.17,,10.00,,BKN,OVC,,,1900.00,2900.00,,,,,,,,,,,KDFW 112220Z AUTO 35014KT 10SM BKN019 OVC029 M02/M07 A3017 RMK T10201070 MADISHF
DFW,2021-02-11 22:25,,,,350.00,13.00,,30.17,,10.00,,BKN,OVC,,,1900.00,2900.00,,,,,,,,,,,KDFW 112225Z AUTO 35013KT 10SM BKN019 OVC029 M02/M07 A3017 RMK T10201070 MADISHF
DFW,2021-02-11 22:30,,,,340.00,15.00,,30.17,,10.00,,BKN,OVC,,,1900.00,2800.00,,,,,,,,,,,KDFW 112230Z AUTO 34015KT 10SM BKN019 OVC028 M02/M07 A3017 RMK T10201070 MADISHF
DFW,2021-02-11 22:35,,,,340.00,15.00,,30.17,,10.00,,BKN,OVC,,,1900.00,2800.00,,,,,,,,,,,KDFW 112235Z AUTO 34015KT 10SM BKN019 OVC028 M02/M07 A3017 RMK T10201070 MADISHF
DFW,2021-02-11 22:40,,,,340.00,13.00,,30.17,,10.00,,BKN,OVC,,,1900.00,2800.00,,,,,,,,,,,KDFW 112240Z AUTO 34013KT 10SM BKN019 OVC028 M02/M07 A3017 RMK T10201070 MADISHF
DFW,2021-02-11 22:45,,,,,13.00,,30.17,,10.00,,BKN,OVC,,,1900.00,2800.00,,,,,,,,,,,KDFW 112245Z AUTO ///13KT 10SM BKN019 OVC028 M02/M07 A3017 RMK T10201070 MADISHF
DFW,2021-02-11 22:50,,,,360.00,10.00,,30.18,,10.00,,OVC,,,,1900.00,,,,,,,,,,,,KDFW 112250Z AUTO 36010KT 10SM OVC019 M02/M07 A3018 RMK T10201070 MADISHF
DFW,2021-02-11 22:53,28.00,19.90,71.25,360.00,12.00,0.00,30.18,1022.50,10.00,,OVC,,,,1900.00,,,,,,,,,,,16.91,KDFW 112253Z 36012KT 10SM OVC019 M02/M07 A3018 RMK AO2 SLP225 T10221067
DFW,2021-02-11 22:55,,,,,13.00,,30.18,,10.00,,OVC,,,,1900.00,,,,,,,,,,,,KDFW 112255Z AUTO ///13KT 10SM OVC019 M02/M07 A3018 RMK T10201070 MADISHF
DFW,2021-02-11 23:00,,,,360.00,11.00,,30.19,,10.00,,OVC,,,,1900.00,,,,,,,,,,,,KDFW 112300Z AUTO 36011KT 10SM OVC019 M02/M07 A3019 RMK T10201070 MADISHF
DFW,2021-02-11 23:05,,,,350.00,11.00,,30.18,,10.00,,OVC,,,,1900.00,,,,,,,,,,,,KDFW 112305Z AUTO 35011KT 10SM OVC019 M02/M07 A3018 RMK T10201070 MADISHF
DFW,2021-02-11 23:10,,,,360.00,13.00,,30.18,,10.00,,OVC,,,,1900.00,,,,,,,,,,,,KDFW 112310Z AUTO 36013KT 10SM OVC019 M02/M07 A3018 RMK T10201070 MADISHF
DFW,2021-02-11 23:15,,,,350.00,11.00,,30.19,,10.00,,OVC,,,,1900.00,,,,,,,,,,,,KDFW 112315Z AUTO 35011KT 10SM OVC019 M02/M07 A3019 RMK T10201070 MADISHF
DFW,2021-02-11 23:20,,,,,16.00,,30.18,,10.00,,OVC,,,,1900.00,,,,,,,,,,,,KDFW 112320Z AUTO ///16KT 10SM OVC019 M02/M07 A3018 RMK T10201070 MADISHF
DFW,2021-02-11 23:25,,,,,15.00,,30.18,,10.00,,OVC,,,,1900.00,,,,,,,,,,,,KDFW 112325Z AUTO ///15KT 10SM OVC019 M02/M07 A3018 RMK T10201070 MADISHF
DFW,2021-02-11 23:30,,,,340.00,11.00,,30.18,,10.00,,OVC,,,,1800.00,,,,,,,,,,,,KDFW 112330Z AUTO 34011KT 10SM OVC018 M02/M07 A3018 RMK T10201070 MADISHF
DFW,2021-02-11 23:35,,,,350.00,11.00,,30.18,,10.00,,OVC,,,,1800.00,,,,,,,,,,,,KDFW 112335Z AUTO 35011KT 10SM OVC018 M02/M07 A3018 RMK T10201070 MADISHF
DFW,2021-02-11 23:40,,,,350.00,11.00,,30.19,,10.00,,OVC,,,,1699.00,,,,,,,,,,,,KDFW 112340Z AUTO 35011KT 10SM OVC016 M02/M07 A3019 RMK T10201070 MADISHF
DFW,2021-02-11 23:45,,,,340.00,13.00,,30.19,,10.00,,OVC,,,,1699.00,,,,,,,,,,,,KDFW 112345Z AUTO 34013KT 10SM OVC016 M02/M07 A3019 RMK T10201070 MADISHF
DFW,2021-02-11 23:50,,,,350.00,15.00,,30.19,,10.00,,OVC,,,,1699.00,,,,,,,,,,,,KDFW 112350Z AUTO 35015KT 10SM OVC016 M03/M07 A3019 RMK T10301070 MADISHF
DFW,2021-02-11 23:53,27.00,19.90,74.25,350.00,14.00,0.00,30.19,1022.80,10.00,,OVC,,,,1700.00,,,,,,,,,,,14.72,KDFW 112353Z 35014KT 10SM OVC017 M03/M07 A3019 RMK AO2 SLP228 T10281067 11017 21028 53006 $
DFW,2021-02-11 23:55,,,,,14.00,,30.19,,10.00,,OVC,,,,1699.00,,,,,,,,,,,,KDFW 112355Z AUTO ///14KT 10SM OVC016 M03/M07 A3019 RMK T10301070 MADISHF
DFW,2021-02-12 00:00,,,,,13.00,,30.19,,10.00,,OVC,,,,1699.00,,,,,,,,,,,,KDFW 120000Z AUTO ///13KT 10SM OVC016 M03/M07 A3019 RMK T10301070 MADISHF
DFW,2021-02-12 00:05,,,,350.00,13.00,,30.19,,10.00,,OVC,,,,1699.00,,,,,,,,,,,,KDFW 120005Z AUTO 35013KT 10SM OVC016 M03/M07 A3019 RMK T10301070 MADISHF
DFW,2021-02-12 00:10,,,,340.00,13.00,,30.20,,10.00,,OVC,,,,1699.00,,,,,,,,,,,,KDFW 120010Z AUTO 34013KT 10SM OVC016 M03/M07 A3020 RMK T10301070 MADISHF
DFW,2021-02-12 00:15,,,,350.00,11.00,,30.20,,10.00,,OVC,,,,1699.00,,,,,,,,,,,,KDFW 120015Z AUTO 35011KT 10SM OVC016 M03/M07 A3020 RMK T10301070 MADISHF
DFW,2021-02-12 00:20,,,,350.00,11.00,,30.20,,10.00,,OVC,,,,1699.00,,,,,,,,,,,,KDFW 120020Z AUTO 35011KT 10SM OVC016 M03/M07 A3020 RMK T10301070 MADISHF
DFW,2021-02-12 00:25,,,,350.00,10.00,,30.20,,10.00,,OVC,,,,1699.00,,,,,,,,,,,,KDFW 120025Z AUTO 35010KT 10SM OVC016 M03/M07 A3020 RMK T10301070 MADISHF
DFW,2021-02-12 00:30,,,,350.00,11.00,,30.20,,10.00,,OVC,,,,1699.00,,,,,,,,,,,,KDFW 120030Z AUTO 35011KT 10SM OVC016 M03/M07 A3020 RMK T10301070 MADISHF
DFW,2021-02-12 00:35,,,,340.00,13.00,,30.20,,10.00,,OVC,,,,1800.00,,,,,,,,,,,,KDFW 120035Z AUTO 34013KT 10SM OVC018 M03/M07 A3020 RMK T10301070 MADISHF
DFW,2021-02-12 00:40,,,,340.00,11.00,,30.21,,10.00,,OVC,,,,1800.00,,,,,,,,,,,,KDFW 120040Z AUTO 34011KT 10SM OVC018 M03/M07 A3020 RMK T10301070 MADISHF
DFW,2021-02-12 00:45,,,,350.00,11.00,,30.20,,10.00,,OVC,,,,1800.00,,,,,,,,,,,,KDFW 120045Z AUTO 35011KT 10SM OVC018 M03/M07 A3020 RMK T10301070 MADISHF
DFW,2021-02-12 00:50,,,,340.00,13.00,,30.20,,10.00,,OVC,,,,1800.00,,,,,,,,,,,,KDFW 120050Z AUTO 34013KT 10SM OVC018 M03/M07 A3020 RMK T10301070 MADISHF
DFW,2021-02-12 00:53,27.00,19.90,74.25,340.00,12.00,0.00,30.20,1023.10,10.00,,OVC,,,,1800.00,,,,,,,,,,,15.64,KDFW 120053Z 34012KT 10SM OVC018 M03/M07 A3020 RMK AO2 SLP231 T10281067 $
DFW,2021-02-12 00:55,,,,340.00,11.00,,30.20,,10.00,,OVC,,,,1800.00,,,,,,,,,,,,KDFW 120055Z AUTO 34011KT 10SM OVC018 M03/M07 A3020 RMK T10301070 MADISHF
DFW,2021-02-12 01:00,,,,340.00,11.00,,30.20,,10.00,,OVC,,,,1800.00,,,,,,,,,,,,KDFW 120100Z AUTO 34011KT 10SM OVC018 M03/M07 A3020 RMK T10301070 MADISHF
DFW,2021-02-12 01:05,,,,340.00,11.00,,30.20,,10.00,,OVC,,,,1800.00,,,,,,,,,,,,KDFW 120105Z AUTO 34011KT 10SM OVC018 M03/M07 A3020 RMK T10301070 MADISHF
DFW,2021-02-12 01:10,,,,,13.00,,30.20,,10.00,,OVC,,,,1699.00,,,,,,,,,,,,KDFW 120110Z AUTO ///13KT 10SM OVC016 M03/M07 A3020 RMK T10301070 MADISHF
DFW,2021-02-12 01:15,,,,,13.00,,30.20,,10.00,,OVC,,,,1699.00,,,,,,,,,,,,KDFW 120115Z AUTO ///13KT 10SM OVC016 M03/M07 A3020 RMK T10301070 MADISHF
DFW,2021-02-12 01:20,,,,,13.00,,30.20,,10.00,,OVC,,,,1699.00,,,,,,,,,,,,KDFW 120120Z AUTO ///13KT 10SM OVC016 M03/M07 A3020 RMK T10301070 MADISHF
DFW,2021-02-12 01:25,,,,350.00,13.00,,30.20,,10.00,,OVC,,,,1699.00,,,,,,,,,,,,KDFW 120125Z AUTO 35013KT 10SM OVC016 M03/M07 A3020 RMK T10301070 MADISHF
DFW,2021-02-12 01:30,,,,350.00,13.00,,30.20,,10.00,,OVC,,,,1699.00,,,,,,,,,,,,KDFW 120130Z AUTO 35013KT 10SM OVC016 M03/M07 A3020 RMK T10301070 MADISHF
DFW,2021-02-12 01:35,,,,350.00,13.00,,30.20,,10.00,,OVC,,,,1699.00,,,,,,,,,,,,KDFW 120135Z AUTO 35013KT 10SM OVC016 M03/M07 A3020 RMK T10301070 MADISHF
DFW,2021-02-12 01:40,,,,350.00,13.00,,30.20,,10.00,,OVC,,,,1699.00,,,,,,,,,,,,KDFW 120140Z AUTO 35013KT 10SM OVC016 M03/M07 A3020 RMK T10301070 MADISHF
DFW,2021-02-12 01:45,,,,350.00,11.00,,30.20,,10.00,,OVC,,,,1699.00,,,,,,,,,,,,KDFW 120145Z AUTO 35011KT 10SM OVC016 M03/M07 A3020 RMK T10301070 MADISHF
DFW,2021-02-12 01:50,,,,360.00,11.00,,30.20,,10.00,,OVC,,,,1600.00,,,,,,,,,,,,KDFW 120150Z AUTO 36011KT 10SM OVC016 M03/M07 A3020 RMK T10301070 MADISHF
DFW,2021-02-12 01:53,27.00,19.90,74.25,360.00,12.00,0.00,30.20,1023.00,10.00,,OVC,,,,1600.00,,,,,,,,,,,15.64,KDFW 120153Z 36012KT 10SM OVC016 M03/M07 A3020 RMK AO2 SLP230 T10281067 $
DFW,2021-02-12 01:55,,,,350.00,13.00,,30.20,,10.00,,OVC,,,,1600.00,,,,,,,,,,,,KDFW 120155Z AUTO 35013KT 10SM OVC016 M03/M07 A3020 RMK T10301070 MADISHF
DFW,2021-02-12 02:00,,,,360.00,14.00,,30.19,,10.00,,OVC,,,,1600.00,,,,,,,,,,,,KDFW 120200Z AUTO 36014KT 10SM OVC016 M03/M07 A3019 RMK T10301070 MADISHF
DFW,2021-02-12 02:05,,,,350.00,11.00,,30.19,,10.00,,OVC,,,,1600.00,,,,,,,,,,,,KDFW 120205Z AUTO 35011KT 10SM OVC016 M03/M07 A3019 RMK T10301070 MADISHF
DFW,2021-02-12 02:10,,,,350.00,11.00,,30.20,,10.00,,OVC,,,,1600.00,,,,,,,,,,,,KDFW 120210Z AUTO 35011KT 10SM OVC016 M03/M06 A3020 RMK T10301060 MADISHF
DFW,2021-02-12 02:15,,,,10.00,13.00,,30.19,,10.00,,OVC,,,,1600.00,,,,,,,,,,,,KDFW 120215Z AUTO 01013KT 10SM OVC016 M03/M06 A3019 RMK T10301060 MADISHF
DFW,2021-02-12 02:20,,,,10.00,11.00,,30.19,,10.00,16.00,OVC,,,,1600.00,,,,,,,,,,,,KDFW 120220Z AUTO 01011G16KT 10SM OVC016 M03/M06 A3019 RMK T10301060 MADISHF
DFW,2021-02-12 02:25,,,,10.00,13.00,,30.18,,10.00,,OVC,,,,1600.00,,,,,,,,,,,,KDFW 120225Z AUTO 01013KT 10SM OVC016 M03/M06 A3018 RMK T10301060 MADISHF
DFW,2021-02-12 02:30,,,,10.00,13.00,,30.18,,10.00,,BKN,OVC,,,1600.00,3300.00,,,,,,,,,,,KDFW 120230Z AUTO 01013KT 10SM BKN016 OVC033 M03/M06 A3018 RMK T10301060 MADISHF
DFW,2021-02-12 02:35,,,,10.00,11.00,,30.18,,10.00,,OVC,,,,1699.00,,,,,,,,,,,,KDFW 120235Z AUTO 01011KT 10SM OVC016 M03/M06 A3018 RMK T10301060 MADISHF
DFW,2021-02-12 02:40,,,,360.00,14.00,,30.19,,10.00,,OVC,,,,1699.00,,,,,,,,,,,,KDFW 120240Z AUTO 36014KT 10SM OVC016 M03/M07 A3019 RMK T10301070 MADISHF
DFW,2021-02-12 02:45,,,,360.00,17.00,,30.19,,10.00,,OVC,,,,1699.00,,,,,,,,,,,,KDFW 120245Z AUTO 36017KT 10SM OVC016 M03/M07 A3019 RMK T10301070 MADISHF
DFW,2021-02-12 02:50,,,,10.00,16.00,,30.18,,10.00,,OVC,,,,1699.00,,,,,,,,,,,,KDFW 120250Z AUTO 01016KT 10SM OVC016 M03/M07 A3018 RMK T10301070 MADISHF
DFW,2021-02-12 02:53,27.00,19.90,74.25,360.00,13.00,0.00,30.19,1022.70,10.00,,OVC,,,,1700.00,,,,,,,,,,,15.16,KDFW 120253Z 36013KT 10SM OVC017 M03/M07 A3019 RMK AO2 SLP227 T10281067 58001 $
DFW,2021-02-12 02:55,,,,10.00,11.00,,30.19,,10.00,,OVC,,,,1699.00,,,,,,,,,,,,KDFW 120255Z AUTO 01011KT 10SM OVC016 M03/M07 A3019 RMK T10301070 MADISHF
DFW,2021-02-12 03:00,,,,10.00,14.00,,30.19,,10.00,,OVC,,,,1699.00,,,,,,,,,,,,KDFW 120300Z AUTO 01014KT 10SM OVC016 M03/M07 A3019 RMK T10301070 MADISHF
DFW,2021-02-12 03:05,,,,10.00,13.00,,30.19,,10.00,,OVC,,,,1699.00,,,,,,,,,,,,KDFW 120305Z AUTO 01013KT 10SM OVC016 M03/M07 A3019 RMK T10301070 MADISHF
DFW,2021-02-12 03:10,,,,10.00,13.00,,30.19,,10.00,,OVC,,,,1699.00,,,,,,,,,,,,KDFW 120310Z AUTO 01013KT 10SM OVC016 M03/M07 A3019 RMK T10301070 MADISHF
DFW,2021-02-12 03:15,,,,360.00,15.00,,30.19,,10.00,,OVC,,,,1699.00,,,,,,,,,,,,KDFW 120315Z AUTO 36015KT 10SM OVC016 M03/M06 A3019 RMK T10301060 MADISHF
DFW,2021-02-12 03:20,,,,10.00,13.00,,30.20,,10.00,,OVC,,,,1699.00,,,,,,,,,,,,KDFW 120320Z AUTO 01013KT 10SM OVC016 M03/M07 A3020 RMK T10301070 MADISHF
DFW,2021-02-12 03:25,,,,10.00,13.00,,30.20,,10.00,,OVC,,,,1699.00,,,,,,,,,,,,KDFW 120325Z AUTO 01013KT 10SM OVC016 M03/M07 A3020 RMK T10301070 MADISHF
DFW,2021-02-12 03:30,,,,10.00,13.00,,30.20,,10.00,18.00,OVC,,,,1699.00,,,,,,,,,,,,KDFW 120330Z AUTO 01013G18KT 10SM OVC016 M03/M06 A3020 RMK T10301060 MADISHF
DFW,2021-02-12 03:35,,,,10.00,10.00,,30.20,,10.00,,OVC,,,,1699.00,,,,,,,,,,,,KDFW 120335Z AUTO 01010KT 10SM OVC016 M03/M07 A3020 RMK T10301070 MADISHF
DFW,2021-02-12 03:40,,,,10.00,13.00,,30.20,,10.00,,OVC,,,,1699.00,,,,,,,,,,,,KDFW 120340Z AUTO 01013KT 10SM OVC016 M03/M07 A3020 RMK T10301070 MADISHF
DFW,2021-02-12 03:45,,,,10.00,11.00,,30.20,,10.00,,OVC,,,,1600.00,,,,,,,,,,,,KDFW 120345Z AUTO 01011KT 10SM OVC016 M03/M06 A3020 RMK T10301060 MADISHF
DFW,2021-02-12 03:50,,,,10.00,11.00,,30.20,,10.00,,OVC,,,,1600.00,,,,,,,,,,,,KDFW 120350Z AUTO 01011KT 10SM OVC016 M03/M07 A3020 RMK T10301070 MADISHF
DFW,2021-02-12 03:53,26.10,19.90,77.06,10.00,11.00,0.00,30.21,1023.40,10.00,,OVC,,,,1600.00,,,,,,,,,,,15.01,KDFW 120353Z 01011KT 10SM OVC016 M03/M07 A3021 RMK AO2 SLP234 T10331067 $
DFW,2021-02-12 03:55,,,,360.00,11.00,,30.21,,10.00,,OVC,,,,1600.00,,,,,,,,,,,,KDFW 120355Z AUTO 36011KT 10SM OVC016 M03/M06 A3020 RMK T10301060 MADISHF
DFW,2021-02-12 04:00,,,,360.00,13.00,,30.21,,10.00,,OVC,,,,1600.00,,,,,,,,,,,,KDFW 120400Z AUTO 36013KT 10SM OVC016 M03/M06 A3020 RMK T10301060 MADISHF
DFW,2021-02-12 04:05,,,,360.00,11.00,,30.21,,10.00,,OVC,,,,1500.00,,,,,,,,,,,,KDFW 120405Z AUTO 36011KT 10SM OVC015 M03/M06 A3020 RMK T10301060 MADISHF
DFW,2021-02-12 04:10,,,,360.00,11.00,,30.21,,10.00,,OVC,,,,1500.00,,,,,,,,,,,,KDFW 120410Z AUTO 36011KT 10SM OVC015 M03/M06 A3020 RMK T10301060 MADISHF
DFW,2021-02-12 04:15,,,,10.00,11.00,,30.22,,10.00,,OVC,,,,1500.00,,,,,,,,,,,,KDFW 120415Z AUTO 01011KT 10SM OVC015 M03/M07 A3021 RMK T10301070 MADISHF
DFW,2021-02-12 04:20,,,,350.00,11.00,,30.21,,10.00,,OVC,,,,1500.00,,,,,,,,,,,,KDFW 120420Z AUTO 35011KT 10SM OVC015 M03/M07 A3020 RMK T10301070 MADISHF
DFW,2021-02-12 04:25,,,,350.00,10.00,,30.22,,10.00,,OVC,,,,1500.00,,,,,,,,,,,,KDFW 120425Z AUTO 35010KT 10SM OVC015 M03/M07 A3021 RMK T10301070 MADISHF
DFW,2021-02-12 04:30,,,,350.00,14.00,,30.22,,10.00,,OVC,,,,1500.00,,,,,,,,,,,,KDFW 120430Z AUTO 35014KT 10SM OVC015 M03/M06 A3021 RMK T10301060 MADISHF
DFW,2021-02-12 04:35,,,,350.00,13.00,,30.22,,10.00,,OVC,,,,1500.00,,,,,,,,,,,,KDFW 120435Z AUTO 35013KT 10SM OVC015 M03/M07 A3021 RMK T10301070 MADISHF
DFW,2021-02-12 04:40,,,,350.00,15.00,,30.22,,10.00,,OVC,,,,1500.00,,,,,,,,,,,,KDFW 120440Z AUTO 35015KT 10SM OVC015 M03/M07 A3021 RMK T10301070 MADISHF
DFW,2021-02-12 04:45,,,,350.00,14.00,,30.22,,10.00,,OVC,,,,1500.00,,,,,,,,,,,,KDFW 120445Z AUTO 35014KT 10SM OVC015 M03/M07 A3021 RMK T10301070 MADISHF
DFW,2021-02-12 04:50,,,,360.00,11.00,,30.22,,10.00,,OVC,,,,1500.00,,,,,,,,,,,,KDFW 120450Z AUTO 36011KT 10SM OVC015 M03/M07 A3021 RMK T10301070 MADISHF
DFW,2021-02-12 04:53,26.10,19.90,77.06,360.00,11.00,0.00,30.22,1023.70,10.00,,OVC,,,,1500.00,,,,,,,,,,,15.01,KDFW 120453Z 36011KT 10SM OVC015 M03/M07 A3022 RMK AO2 SLP237 T10331067 $
DFW,2021-02-12 04:55,,,,360.00,10.00,,30.22,,10.00,15.00,OVC,,,,1500.00,,,,,,,,,,,,KDFW 120455Z AUTO 36010G15KT 10SM OVC015 M03/M07 A3021 RMK T10301070 MADISHF
DFW,2021-02-12 05:00,,,,,14.00,,30.22,,10.00,,OVC,,,,1500.00,,,,,,,,,,,,KDFW 120500Z AUTO ///14KT 10SM OVC015 M03/M07 A3021 RMK T10301070 MADISHF
DFW,2021-02-12 05:05,,,,360.00,11.00,,30.22,,10.00,,OVC,,,,1500.00,,,,,,,,,,,,KDFW 120505Z AUTO 36011KT 10SM OVC015 M03/M07 A3021 RMK T10301070 MADISHF
DFW,2021-02-12 05:10,,,,,14.00,,30.22,,10.00,,OVC,,,,1500.00,,,,,,,,,,,,KDFW 120510Z AUTO ///14KT 10SM OVC015 M03/M07 A3021 RMK T10301070 MADISHF
DFW,2021-02-12 05:15,,,,,14.00,,30.22,,10.00,,OVC,,,,1500.00,,,,,,,,,,,,KDFW 120515Z AUTO ///14KT 10SM OVC015 M03/M07 A3021 RMK T10301070 MADISHF
DFW,2021-02-12 05:20,,,,10.00,13.00,,30.22,,10.00,,OVC,,,,1500.00,,,,,,,,,,,,KDFW 120520Z AUTO 01013KT 10SM OVC015 M03/M07 A3021 RMK T10301070 MADISHF
DFW,2021-02-12 05:25,,,,360.00,14.00,,30.23,,10.00,19.00,OVC,,,,1500.00,,,,,,,,,,,,KDFW 120525Z AUTO 36014G19KT 10SM OVC015 M03/M07 A3022 RMK T10301070 MADISHF
DFW,2021-02-12 05:30,,,,360.00,14.00,,30.23,,10.00,,OVC,,,,1500.00,,,,,,,,,,,,KDFW 120530Z AUTO 36014KT 10SM OVC015 M03/M07 A3022 RMK T10301070 MADISHF
DFW,2021-02-12 05:35,,,,360.00,13.00,,30.23,,10.00,,OVC,,,,1500.00,,,,,,,,,,,,KDFW 120535Z AUTO 36013KT 10SM OVC015 M03/M07 A3022 RMK T10301070 MADISHF
DFW,2021-02-12 05:40,,,,360.00,13.00,,30.23,,10.00,,OVC,,,,1500.00,,,,,,,,,,,,KDFW 120540Z AUTO 36013KT 10SM OVC015 M03/M07 A3022 RMK T10301070 MADISHF
DFW,2021-02-12 05:45,,,,360.00,13.00,,30.24,,10.00,,OVC,,,,1500.00,,,,,,,,,,,,KDFW 120545Z AUTO 36013KT 10SM OVC015 M03/M07 A3023 RMK T10301070 MADISHF
DFW,2021-02-12 05:50,,,,350.00,14.00,,30.24,,10.00,,OVC,,,,1500.00,,,,,,,,,,,,KDFW 120550Z AUTO 35014KT 10SM OVC015 M03/M07 A3023 RMK T10301070 MADISHF
DFW,2021-02-12 05:53,26.10,19.90,77.06,360.00,13.00,0.00,30.24,1024.40,10.00,,OVC,,,,1500.00,,,,,,,,,,,14.01,KDFW 120553Z 36013KT 10SM OVC015 M03/M07 A3024 RMK AO2 SLP244 T10331067 11028 21033 410171044 53017 $
DFW,2021-02-12 05:55,,,,360.00,11.00,,30.24,,10.00,,OVC,,,,1500.00,,,,,,,,,,,,KDFW 120555Z AUTO 36011KT 10SM OVC015 M03/M07 A3023 RMK T10301070 MADISHF
DFW,2021-02-12 06:00,,,,360.00,11.00,,30.23,,10.00,,OVC,,,,1500.00,,,,,,,,,,,,KDFW 120600Z AUTO 36011KT 10SM OVC015 M03/M07 A3022 RMK T10301070 MADISHF
DFW,2021-02-12 06:05,,,,,15.00,,30.23,,10.00,,OVC,,,,1500.00,,,,,,,,,,,,KDFW 120605Z AUTO ///15KT 10SM OVC015 M03/M07 A3022 RMK T10301070 MADISHF
DFW,2021-02-12 06:10,,,,,13.00,,30.23,,10.00,,OVC,,,,1500.00,,,,,,,,,,,,KDFW 120610Z AUTO ///13KT 10SM OVC015 M03/M07 A3022 RMK T10301070 MADISHF
DFW,2021-02-12 06:15,,,,350.00,13.00,,30.24,,10.00,,OVC,,,,1500.00,,,,,,,,,,,,KDFW 120615Z AUTO 35013KT 10SM OVC015 M03/M07 A3023 RMK T10301070 MADISHF
DFW,2021-02-12 06:20,,,,,14.00,,30.24,,10.00,,OVC,,,,1500.00,,,,,,,,,,,,KDFW 120620Z AUTO ///14KT 10SM OVC015 M04/M07 A3023 RMK T10401070 MADISHF
DFW,2021-02-12 06:25,,,,350.00,14.00,,30.24,,9.00,,OVC,,,,1500.00,,,,,,,,,,,,KDFW 120625Z AUTO 35014KT 9SM OVC015 M04/M07 A3023 RMK T10401070 MADISHF
DFW,2021-02-12 06:30,,,,350.00,14.00,,30.24,,8.00,,OVC,,,,1500.00,,,,,,,,,,,,KDFW 120630Z AUTO 35014KT 8SM OVC015 M04/M07 A3023 RMK T10401070 MADISHF
DFW,2021-02-12 06:35,,,,340.00,15.00,,30.24,,7.00,,OVC,,,,1500.00,,,,,,,,,,,,KDFW 120635Z AUTO 34015KT 7SM OVC015 M04/M07 A3023 RMK T10401070 MADISHF
DFW,2021-02-12 06:40,,,,350.00,15.00,,30.24,,8.00,,OVC,,,,1500.00,,,,,,,,,,,,KDFW 120640Z AUTO 35015KT 8SM OVC015 M04/M07 A3023 RMK T10401070 MADISHF
DFW,2021-02-12 06:45,,,,350.00,13.00,,30.23,,8.00,,OVC,,,,1500.00,,,,,,,,,,,,KDFW 120645Z AUTO 35013KT 8SM OVC015 M04/M07 A3022 RMK T10401070 MADISHF
DFW,2021-02-12 06:50,,,,350.00,14.00,,30.24,,8.00,,OVC,,,,1200.00,,,,,,,,,,,,KDFW 120650Z AUTO 35014KT 8SM OVC012 M04/M07 A3023 RMK T10401070 MADISHF
DFW,2021-02-12 06:53,25.00,19.90,80.66,350.00,13.00,0.00,30.24,1024.30,8.00,,OVC,,,,1200.00,,,,,,,,,,,12.60,KDFW 120653Z 35013KT 8SM OVC012 M04/M07 A3024 RMK AO2 SLP243 T10391067 $
DFW,2021-02-12 06:55,,,,,14.00,,30.23,,8.00,,OVC,,,,1200.00,,,,,,,,,,,,KDFW 120655Z AUTO ///14KT 8SM OVC012 M04/M07 A3022 RMK T10401070 MADISHF
DFW,2021-02-12 07:00,,,,,15.00,,30.23,,8.00,,OVC,,,,1200.00,,,,,,,,,,,,KDFW 120700Z AUTO ///15KT 8SM OVC012 M04/M07 A3022 RMK T10401070 MADISHF
DFW,2021-02-12 07:05,,,,340.00,13.00,,30.24,,9.00,,OVC,,,,1200.00,,,,,,,,,,,,KDFW 120705Z AUTO 34013KT 9SM OVC012 M04/M07 A3023 RMK T10401070 MADISHF
DFW,2021-02-12 07:10,,,,340.00,11.00,,30.24,,9.00,,OVC,,,,1200.00,,,,,,,,,,,,KDFW 120710Z AUTO 34011KT 9SM OVC012 M04/M07 A3023 RMK T10401070 MADISHF
DFW,2021-02-12 07:15,,,,340.00,11.00,,30.24,,9.00,,OVC,,,,1200.00,,,,,,,,,,,,KDFW 120715Z AUTO 34011KT 9SM OVC012 M04/M07 A3023 RMK T10401070 MADISHF
DFW,2021-02-12 07:20,,,,340.00,11.00,,30.24,,9.00,,OVC,,,,1200.00,,,,,,,,,,,,KDFW 120720Z AUTO 34011KT 9SM OVC012 M04/M07 A3023 RMK T10401070 MADISHF
DFW,2021-02-12 07:25,,,,,14.00,,30.24,,9.00,,OVC,,,,1200.00,,,,,,,,,,,,KDFW 120725Z AUTO ///14KT 9SM OVC012 M04/M07 A3023 RMK T10401070 MADISHF
DFW,2021-02-12 07:30,,,,,14.00,,30.24,,9.00,,OVC,,,,1200.00,,,,,,,,,,,,KDFW 120730Z AUTO ///14KT 9SM OVC012 M04/M07 A3023 RMK T10401070 MADISHF
DFW,2021-02-12 07:35,,,,,13.00,,30.24,,9.00,,OVC,,,,1200.00,,,,,,,,,,,,KDFW 120735Z AUTO ///13KT 9SM OVC012 M04/M07 A3023 RMK T10401070 MADISHF
DFW,2021-02-12 07:40,,,,340.00,13.00,,30.24,,9.00,,OVC,,,,1200.00,,,,,,,,,,,,KDFW 120740Z AUTO 34013KT 9SM OVC012 M04/M07 A3023 RMK T10401070 MADISHF
DFW,2021-02-12 07:45,,,,,13.00,,30.24,,9.00,,OVC,,,,1200.00,,,,,,,,,,,,KDFW 120745Z AUTO ///13KT 9SM OVC012 M04/M07 A3023 RMK T10401070 MADISHF
DFW,2021-02-12 07:50,,,,,14.00,,30.24,,10.00,,OVC,,,,1300.00,,,,,,,,,,,,KDFW 120750Z AUTO ///14KT 10SM OVC013 M04/M07 A3023 RMK T10401070 MADISHF
DFW,2021-02-12 07:53,25.00,19.90,80.66,340.00,14.00,0.00,30.24,1024.40,10.00,,OVC,,,,1300.00,,,,,,,,,,,12.14,KDFW 120753Z 34014KT 10SM OVC013 M04/M07 A3024 RMK AO2 SLP244 T10391067 $
DFW,2021-02-12 07:55,,,,,13.00,,30.24,,10.00,,OVC,,,,1300.00,,,,,,,,,,,,KDFW 120755Z AUTO ///13KT 10SM OVC013 M04/M07 A3023 RMK T10401070 MADISHF
DFW,2021-02-12 08:00,,,,,15.00,,30.24,,10.00,,OVC,,,,1300.00,,,,,,,,,,,,KDFW 120800Z AUTO ///15KT 10SM OVC013 M04/M07 A3023 RMK T10401070 MADISHF
DFW,2021-02-12 08:05,,,,,14.00,,30.24,,9.00,,OVC,,,,1300.00,,,,,,,,,,,,KDFW 120805Z AUTO ///14KT 9SM OVC013 M04/M07 A3023 RMK T10401070 MADISHF
DFW,2021-02-12 08:10,,,,350.00,15.00,,30.24,,10.00,,OVC,,,,1300.00,,,,,,,,,,,,KDFW 120810Z AUTO 35015KT 10SM OVC013 M04/M07 A3023 RMK T10401070 MADISHF
DFW,2021-02-12 08:15,,,,350.00,15.00,,30.24,,10.00,,OVC,,,,1300.00,,,,,,,,,,,,KDFW 120815Z AUTO 35015KT 10SM OVC013 M04/M07 A3023 RMK T10401070 MADISHF
DFW,2021-02-12 08:20,,,,350.00,15.00,,30.24,,10.00,,OVC,,,,1300.00,,,,,,,,,,,,KDFW 120820Z AUTO 35015KT 10SM OVC013 M04/M07 A3023 RMK T10401070 MADISHF
DFW,2021-02-12 08:25,,,,350.00,11.00,,30.24,,10.00,,OVC,,,,1300.00,,,,,,,,,,,,KDFW 120825Z AUTO 35011KT 10SM OVC013 M04/M07 A3023 RMK T10401070 MADISHF
DFW,2021-02-12 08:30,,,,350.00,13.00,,30.24,,10.00,,OVC,,,,1300.00,,,,,,,,,,,,KDFW 120830Z AUTO 35013KT 10SM OVC013 M04/M07 A3023 RMK T10401070 MADISHF
DFW,2021-02-12 08:35,,,,,15.00,,30.24,,10.00,21.00,OVC,,,,1300.00,,,,,,,,,,,,KDFW 120835Z AUTO ///15G21KT 10SM OVC013 M04/M07 A3023 RMK T10401070 MADISHF
DFW,2021-02-12 08:40,,,,,17.00,,30.23,,10.00,,OVC,,,,1300.00,,,,,,,,,,,,KDFW 120840Z AUTO ///17KT 10SM OVC013 M04/M07 A3022 RMK T10401070 MADISHF
DFW,2021-02-12 08:45,,,,,16.00,,30.24,,10.00,,OVC,,,,1300.00,,,,,,,,,,,,KDFW 120845Z AUTO ///16KT 10SM OVC013 M04/M07 A3023 RMK T10401070 MADISHF
DFW,2021-02-12 08:50,,,,,16.00,,30.24,,10.00,,OVC,,,,1300.00,,,,,,,,,,,,KDFW 120850Z AUTO ///16KT 10SM OVC013 M04/M07 A3023 RMK T10401070 MADISHF
DFW,2021-02-12 08:53,25.00,19.90,80.66,350.00,13.00,0.00,30.24,1024.40,10.00,,OVC,,,,1300.00,,,,,,,,,,,12.60,KDFW 120853Z 35013KT 10SM OVC013 M04/M07 A3024 RMK AO2 SLP244 T10391067 56001 $
DFW,2021-02-12 08:55,,,,,15.00,,30.23,,10.00,,OVC,,,,1300.00,,,,,,,,,,,,KDFW 120855Z AUTO ///15KT 10SM OVC013 M04/M07 A3022 RMK T10401070 MADISHF
DFW,2021-02-12 09:00,,,,,15.00,,30.23,,10.00,,OVC,,,,1300.00,,,,,,,,,,,,KDFW 120900Z AUTO ///15KT 10SM OVC013 M04/M07 A3022 RMK T10401070 MADISHF
DFW,2021-02-12 09:05,,,,,18.00,,30.23,,10.00,,OVC,,,,1300.00,,,,,,,,,,,,KDFW 120905Z AUTO ///18KT 10SM OVC013 M04/M07 A3022 RMK T10401070 MADISHF
DFW,2021-02-12 09:10,,,,,17.00,,30.23,,10.00,,OVC,,,,1300.00,,,,,,,,,,,,KDFW 120910Z AUTO ///17KT 10SM OVC013 M04/M07 A3022 RMK T10401070 MADISHF
DFW,2021-02-12 09:15,,,,,16.00,,30.23,,10.00,,OVC,,,,1300.00,,,,,,,,,,,,KDFW 120915Z AUTO ///16KT 10SM OVC013 M04/M07 A3022 RMK T10401070 MADISHF
DFW,2021-02-12 09:20,,,,,14.00,,30.23,,10.00,,OVC,,,,1300.00,,,,,,,,,,,,KDFW 120920Z AUTO ///14KT 10SM OVC013 M04/M07 A3022 RMK T10401070 MADISHF
DFW,2021-02-12 09:25,,,,360.00,14.00,,30.23,,10.00,,OVC,,,,1300.00,,,,,,,,,,,,KDFW 120925Z AUTO 36014KT 10SM OVC013 M04/M07 A3022 RMK T10401070 MADISHF
DFW,2021-02-12 09:30,,,,350.00,14.00,,30.23,,10.00,,OVC,,,,1300.00,,,,,,,,,,,,KDFW 120930Z AUTO 35014KT 10SM OVC013 M04/M07 A3022 RMK T10401070 MADISHF
DFW,2021-02-12 09:35,,,,360.00,14.00,,30.23,,10.00,,OVC,,,,1300.00,,,,,,,,,,,,KDFW 120935Z AUTO 36014KT 10SM OVC013 M04/M07 A3022 RMK T10401070 MADISHF
DFW,2021-02-12 09:40,,,,350.00,14.00,,30.23,,10.00,,OVC,,,,1300.00,,,,,,,,,,,,KDFW 120940Z AUTO 35014KT 10SM OVC013 M04/M07 A3022 RMK T10401070 MADISHF
DFW,2021-02-12 09:45,,,,360.00,14.00,,30.24,,10.00,19.00,OVC,,,,1300.00,,,,,,,,,,,,KDFW 120945Z AUTO 36014G19KT 10SM OVC013 M04/M07 A3023 RMK T10401070 MADISHF
DFW,2021-02-12 09:50,,,,360.00,15.00,,30.24,,10.00,,OVC,,,,1400.00,,,,,,,,,,,,KDFW 120950Z AUTO 36015KT 10SM OVC014 M04/M07 A3023 RMK T10401070 MADISHF
DFW,2021-02-12 09:53,25.00,19.00,77.62,360.00,14.00,0.00,30.24,1024.60,10.00,,OVC,,,,1400.00,,,,,,,,,,,12.14,KDFW 120953Z 36014KT 10SM OVC014 M04/M07 A3024 RMK AO2 SLP246 T10391072 $
DFW,2021-02-12 09:55,,,,,14.00,,30.24,,10.00,,OVC,,,,1400.00,,,,,,,,,,,,KDFW 120955Z AUTO ///14KT 10SM OVC014 M04/M07 A3023 RMK T10401070 MADISHF
DFW,2021-02-12 10:00,,,,,15.00,,30.24,,10.00,,OVC,,,,1400.00,,,,,,,,,,,,KDFW 121000Z AUTO ///15KT 10SM OVC014 M04/M07 A3023 RMK T10401070 MADISHF
DFW,2021-02-12 10:05,,,,,15.00,,30.25,,10.00,,OVC,,,,1400.00,,,,,,,,,,,,KDFW 121005Z AUTO ///15KT 10SM OVC014 M04/M07 A3025 RMK T10401070 MADISHF
DFW,2021-02-12 10:10,,,,360.00,15.00,,30.25,,10.00,,OVC,,,,1400.00,,,,,,,,,,,,KDFW 121010Z AUTO 36015KT 10SM OVC014 M04/M07 A3025 RMK T10401070 MADISHF
DFW,2021-02-12 10:15,,,,360.00,11.00,,30.25,,10.00,,OVC,,,,1300.00,,,,,,,,,,,,KDFW 121015Z AUTO 36011KT 10SM OVC013 M04/M07 A3025 RMK T10401070 MADISHF
DFW,2021-02-12 10:20,,,,20.00,11.00,,30.25,,10.00,,OVC,,,,1300.00,,,,,,,,,,,,KDFW 121020Z AUTO 02011KT 10SM OVC013 M04/M07 A3025 RMK T10401070 MADISHF
DFW,2021-02-12 10:25,,,,10.00,17.00,,30.24,,10.00,,OVC,,,,1300.00,,,,,,,,,,,,KDFW 121025Z AUTO 01017KT 10SM OVC013 M04/M07 A3023 RMK T10401070 MADISHF
DFW,2021-02-12 10:30,,,,10.00,17.00,,30.25,,10.00,,OVC,,,,1300.00,,,,,,,,,,,,KDFW 121030Z AUTO 01017KT 10SM OVC013 M04/M07 A3025 RMK T10401070 MADISHF
DFW,2021-02-12 10:35,,,,360.00,14.00,,30.25,,10.00,,OVC,,,,1300.00,,,,,,,,,,,,KDFW 121035Z AUTO 36014KT 10SM OVC013 M04/M07 A3025 RMK T10401070 MADISHF
DFW,2021-02-12 10:40,,,,10.00,15.00,,30.25,,10.00,21.00,OVC,,,,1300.00,,,,,,,,,,,,KDFW 121040Z AUTO 01015G21KT 10SM OVC013 M04/M07 A3025 RMK T10401070 MADISHF
DFW,2021-02-12 10:45,,,,,17.00,,30.25,,10.00,,OVC,,,,1300.00,,,,,,,,,,,,KDFW 121045Z AUTO ///17KT 10SM OVC013 M04/M07 A3025 RMK T10401070 MADISHF
DFW,2021-02-12 10:50,,,,360.00,15.00,,30.25,,10.00,,OVC,,,,1300.00,,,,,,,,,,,,KDFW 121050Z AUTO 36015KT 10SM OVC013 M04/M07 A3025 RMK T10401070 MADISHF
DFW,2021-02-12 10:53,24.10,19.00,80.59,360.00,16.00,0.00,30.26,1025.00,10.00,,OVC,,,,1300.00,,,,,,,,,,,10.12,KDFW 121053Z 36016KT 10SM OVC013 M04/M07 A3026 RMK AO2 SLP250 T10441072 $
DFW,2021-02-12 10:55,,,,360.00,16.00,,30.26,,10.00,21.00,OVC,,,,1300.00,,,,,,,,,,,,KDFW 121055Z AUTO 36016G21KT 10SM OVC013 M04/M07 A3026 RMK T10401070 MADISHF
DFW,2021-02-12 11:00,,,,360.00,17.00,,30.25,,10.00,22.00,OVC,,,,1300.00,,,,,,,,,,,,KDFW 121100Z AUTO 36017G22KT 10SM OVC013 M04/M07 A3025 RMK T10401070 MADISHF
DFW,2021-02-12 11:05,,,,10.00,13.00,,30.25,,10.00,19.00,OVC,,,,1200.00,,,,,,,,,,,,KDFW 121105Z AUTO 01013G19KT 10SM OVC012 M04/M07 A3025 RMK T10401070 MADISHF
DFW,2021-02-12 11:10,,,,360.00,14.00,,30.26,,10.00,,OVC,,,,1200.00,,,,,,,,,,,,KDFW 121110Z AUTO 36014KT 10SM OVC012 M04/M07 A3026 RMK T10401070 MADISHF
DFW,2021-02-12 11:15,,,,10.00,15.00,,30.26,,10.00,,OVC,,,,1200.00,,,,,,,,,,,,KDFW 121115Z AUTO 01015KT 10SM OVC012 M04/M07 A3026 RMK T10401070 MADISHF
DFW,2021-02-12 11:20,,,,360.00,14.00,,30.26,,10.00,,OVC,,,,1200.00,,,,,,,,,,,,KDFW 121120Z AUTO 36014KT 10SM OVC012 M04/M07 A3026 RMK T10401070 MADISHF
DFW,2021-02-12 11:25,,,,360.00,14.00,,30.26,,10.00,,OVC,,,,1200.00,,,,,,,,,,,,KDFW 121125Z AUTO 36014KT 10SM OVC012 M04/M07 A3026 RMK T10401070 MADISHF
DFW,2021-02-12 11:30,,,,10.00,11.00,,30.26,,10.00,,OVC,,,,1200.00,,,,,,,,,,,,KDFW 121130Z AUTO 01011KT 10SM OVC012 M04/M07 A3026 RMK T10401070 MADISHF
DFW,2021-02-12 11:35,,,,360.00,16.00,,30.26,,10.00,,OVC,,,,1200.00,,,,,,,,,,,,KDFW 121135Z AUTO 36016KT 10SM OVC012 M04/M07 A3026 RMK T10401070 MADISHF
DFW,2021-02-12 11:40,,,,,17.00,,30.26,,10.00,,OVC,,,,1200.00,,,,,,,,,,,,KDFW 121140Z AUTO ///17KT 10SM OVC012 M04/M07 A3026 RMK T10401070 MADISHF
DFW,2021-02-12 11:45,,,,360.00,14.00,,30.26,,10.00,,OVC,,,,1200.00,,,,,,,,,,,,KDFW 121145Z AUTO 36014KT 10SM OVC012 M04/M07 A3026 RMK T10401070 MADISHF
DFW,2021-02-12 11:50,,,,360.00,11.00,,30.26,,10.00,,OVC,,,,1100.00,,,,,,,,,,,,KDFW 121150Z AUTO 36011KT 10SM OVC011 M04/M07 A3026 RMK T10401070 MADISHF
DFW,2021-02-12 11:53,24.10,19.00,80.59,360.00,13.00,0.00,30.26,1025.30,10.00,,OVC,,,,1100.00,,,,,,,,,,,11.45,KDFW 121153Z 36013KT 10SM OVC011 M04/M07 A3026 RMK AO2 SLP253 T10441072 11033 21044 53009 $
DFW,2021-02-12 11:55,,,,360.00,11.00,,30.26,,10.00,,OVC,,,,1100.00,,,,,,,,,,,,KDFW 121155Z AUTO 36011KT 10SM OVC011 M04/M07 A3026 RMK T10401070 MADISHF
DFW,2021-02-12 12:00,,,,350.00,14.00,,30.26,,10.00,,OVC,,,,1100.00,,,,,,,,,,,,KDFW 121200Z AUTO 35014KT 10SM OVC011 M04/M07 A3026 RMK T10401070 MADISHF
DFW,2021-02-12 12:05,,,,10.00,11.00,,30.26,,10.00,,OVC,,,,1100.00,,,,,,,,,,,,KDFW 121205Z AUTO 01011KT 10SM OVC011 M04/M07 A3026 RMK T10401070 MADISHF
DFW,2021-02-12 12:10,,,,10.00,13.00,,30.27,,10.00,,OVC,,,,1100.00,,,,,,,,,,,,KDFW 121210Z AUTO 01013KT 10SM OVC011 M04/M07 A3027 RMK T10401070 MADISHF
DFW,2021-02-12 12:15,,,,10.00,13.00,,30.27,,10.00,,OVC,,,,1100.00,,,,,,,,,,,,KDFW 121215Z AUTO 01013KT 10SM OVC011 M04/M07 A3027 RMK T10401070 MADISHF
DFW,2021-02-12 12:20,,,,10.00,16.00,,30.27,,10.00,,OVC,,,,1100.00,,,,,,,,,,,,KDFW 121220Z AUTO 01016KT 10SM OVC011 M04/M07 A3027 RMK T10401070 MADISHF
DFW,2021-02-12 12:25,,,,,15.00,,30.27,,10.00,,OVC,,,,1200.00,,,,,,,,,,,,KDFW 121225Z AUTO ///15KT 10SM OVC012 M04/M07 A3027 RMK T10401070 MADISHF
DFW,2021-02-12 12:30,,,,,17.00,,30.27,,10.00,,OVC,,,,1200.00,,,,,,,,,,,,KDFW 121230Z AUTO ///17KT 10SM OVC012 M04/M07 A3027 RMK T10401070 MADISHF
DFW,2021-02-12 12:35,,,,10.00,14.00,,30.27,,10.00,,OVC,,,,1200.00,,,,,,,,,,,,KDFW 121235Z AUTO 01014KT 10SM OVC012 M04/M07 A3027 RMK T10401070 MADISHF
DFW,2021-02-12 12:40,,,,10.00,13.00,,30.27,,10.00,,OVC,,,,1200.00,,,,,,,,,,,,KDFW 121240Z AUTO 01013KT 10SM OVC012 M04/M07 A3027 RMK T10401070 MADISHF
DFW,2021-02-12 12:45,,,,10.00,14.00,,30.27,,10.00,,OVC,,,,1200.00,,,,,,,,,,,,KDFW 121245Z AUTO 01014KT 10SM OVC012 M04/M07 A3027 RMK T10401070 MADISHF
DFW,2021-02-12 12:50,,,,10.00,13.00,,30.27,,10.00,,OVC,,,,1300.00,,,,,,,,,,,,KDFW 121250Z AUTO 01013KT 10SM OVC013 M04/M07 A3027 RMK T10401070 MADISHF
DFW,2021-02-12 12:53,24.10,19.00,80.59,10.00,13.00,0.00,30.27,1025.70,10.00,,OVC,,,,1300.00,,,,,,,,,,,11.45,KDFW 121253Z 01013KT 10SM OVC013 M04/M07 A3027 RMK AO2 SLP257 T10441072 $
DFW,2021-02-12 12:55,,,,10.00,13.00,,30.27,,10.00,,OVC,,,,1300.00,,,,,,,,,,,,KDFW 121255Z AUTO 01013KT 10SM OVC013 M04/M07 A3027 RMK T10401070 MADISHF
DFW,2021-02-12 13:00,,,,360.00,11.00,,30.27,,10.00,,OVC,,,,1300.00,,,,,,,,,,,,KDFW 121300Z AUTO 36011KT 10SM OVC013 M04/M07 A3027 RMK T10401070 MADISHF
DFW,2021-02-12 13:05,,,,10.00,13.00,,30.27,,10.00,,OVC,,,,1200.00,,,,,,,,,,,,KDFW 121305Z AUTO 01013KT 10SM OVC012 M04/M07 A3027 RMK T10401070 MADISHF
DFW,2021-02-12 13:10,,,,10.00,13.00,,30.27,,10.00,19.00,OVC,,,,1200.00,,,,,,,,,,,,KDFW 121310Z AUTO 01013G19KT 10SM OVC012 M04/M07 A3027 RMK T10401070 MADISHF
DFW,2021-02-12 13:15,,,,10.00,14.00,,30.27,,10.00,,OVC,,,,1200.00,,,,,,,,,,,,KDFW 121315Z AUTO 01014KT 10SM OVC012 M04/M07 A3027 RMK T10401070 MADISHF
DFW,2021-02-12 13:20,,,,360.00,11.00,,30.27,,10.00,17.00,OVC,,,,1200.00,,,,,,,,,,,,KDFW 121320Z AUTO 36011G17KT 10SM OVC012 M04/M07 A3027 RMK T10401070 MADISHF
DFW,2021-02-12 13:25,,,,360.00,13.00,,30.27,,10.00,18.00,OVC,,,,1200.00,,,,,,,,,,,,KDFW 121325Z AUTO 36013G18KT 10SM OVC012 M05/M07 A3027 RMK T10501070 MADISHF
DFW,2021-02-12 13:30,,,,10.00,13.00,,30.27,,10.00,,OVC,,,,1200.00,,,,,,,,,,,,KDFW 121330Z AUTO 01013KT 10SM OVC012 M05/M07 A3027 RMK T10501070 MADISHF
DFW,2021-02-12 13:35,,,,360.00,14.00,,30.27,,10.00,,OVC,,,,1100.00,,,,,,,,,,,,KDFW 121335Z AUTO 36014KT 10SM OVC011 M04/M07 A3027 RMK T10401070 MADISHF
DFW,2021-02-12 13:40,,,,10.00,14.00,,30.27,,10.00,,OVC,,,,1100.00,,,,,,,,,,,,KDFW 121340Z AUTO 01014KT 10SM OVC011 M05/M07 A3027 RMK T10501070 MADISHF
DFW,2021-02-12 13:45,,,,360.00,16.00,,30.27,,9.00,,OVC,,,,1100.00,,,,,,,,,,,,KDFW 121345Z AUTO 36016KT 9SM OVC011 M04/M07 A3027 RMK T10401070 MADISHF
DFW,2021-02-12 13:50,,,,360.00,15.00,,30.27,,9.00,,OVC,,,,1100.00,,,,,,,,,,,,KDFW 121350Z AUTO 36015KT 9SM OVC011 M05/M07 A3027 RMK T10501070 MADISHF
DFW,2021-02-12 13:53,24.10,19.00,80.59,10.00,14.00,0.00,30.27,1025.70,9.00,,OVC,,,,1100.00,,,,,,,,,,,10.98,KDFW 121353Z 01014KT 9SM OVC011 M04/M07 A3027 RMK AO2 SLP257 T10441072 $
DFW,2021-02-12 13:55,,,,,16.00,,30.28,,9.00,,OVC,,,,1100.00,,,,,,,,,,,,KDFW 121355Z AUTO ///16KT 9SM OVC011 M04/M07 A3028 RMK T10401070 MADISHF
DFW,2021-02-12 14:00,,,,360.00,11.00,,30.28,,9.00,,OVC,,,,1100.00,,,,,,,,,,,,KDFW 121400Z AUTO 36011KT 9SM OVC011 M04/M07 A3028 RMK T10401070 MADISHF
DFW,2021-02-12 14:05,,,,360.00,11.00,,30.28,,9.00,,OVC,,,,1100.00,,,,,,,,,,,,KDFW 121405Z AUTO 36011KT 9SM OVC011 M04/M07 A3028 RMK T10401070 MADISHF
DFW,2021-02-12 14:10,,,,10.00,14.00,,30.28,,9.00,19.00,OVC,,,,1100.00,,,,,,,,,,,,KDFW 121410Z AUTO 01014G19KT 9SM OVC011 M04/M07 A3028 RMK T10401070 MADISHF
DFW,2021-02-12 14:15,,,,10.00,14.00,,30.28,,9.00,,OVC,,,,1100.00,,,,,,,,,,,,KDFW 121415Z AUTO 01014KT 9SM OVC011 M05/M07 A3028 RMK T10501070 MADISHF
DFW,2021-02-12 14:20,,,,20.00,11.00,,30.28,,9.00,,OVC,,,,1100.00,,,,,,,,,,,,KDFW 121420Z AUTO 02011KT 9SM OVC011 M04/M07 A3028 RMK T10401070 MADISHF
DFW,2021-02-12 14:25,,,,20.00,14.00,,30.27,,9.00,19.00,OVC,,,,1100.00,,,,,,,,,,,,KDFW 121425Z AUTO 02014G19KT 9SM OVC011 M04/M07 A3027 RMK T10401070 MADISHF
DFW,2021-02-12 14:30,,,,10.00,15.00,,30.28,,9.00,,OVC,,,,1100.00,,,,,,,,,,,,KDFW 121430Z AUTO 01015KT 9SM OVC011 M04/M07 A3028 RMK T10401070 MADISHF
DFW,2021-02-12 14:35,,,,10.00,13.00,,30.28,,9.00,18.00,OVC,,,,1100.00,,,,,,,,,,,,KDFW 121435Z AUTO 01013G18KT 9SM OVC011 M04/M07 A3028 RMK T10401070 MADISHF
DFW,2021-02-12 14:40,,,,20.00,13.00,,30.27,,10.00,,OVC,,,,1200.00,,,,,,,,,,,,KDFW 121440Z AUTO 02013KT 10SM OVC012 M04/M07 A3027 RMK T10401070 MADISHF
DFW,2021-02-12 14:45,,,,20.00,11.00,,30.28,,10.00,,OVC,,,,1200.00,,,,,,,,,,,,KDFW 121445Z AUTO 02011KT 10SM OVC012 M04/M07 A3028 RMK T10401070 MADISHF
DFW,2021-02-12 14:50,,,,10.00,13.00,,30.28,,10.00,,OVC,,,,1200.00,,,,,,,,,,,,KDFW 121450Z AUTO 01013KT 10SM OVC012 M04/M07 A3028 RMK T10401070 MADISHF
DFW,2021-02-12 14:53,24.10,19.00,80.59,30.00,12.00,0.00,30.28,1025.70,10.00,,OVC,,,,1200.00,,,,,,,,,,,11.95,KDFW 121453Z 03012KT 10SM OVC012 M04/M07 A3028 RMK AO2 SLP257 T10441072 51004
DFW,2021-02-12 14:55,,,,10.00,15.00,,30.28,,10.00,,OVC,,,,1200.00,,,,,,,,,,,,KDFW 121455Z AUTO 01015KT 10SM OVC012 M04/M07 A3028 RMK T10401070 MADISHF
DFW,2021-02-12 15:00,,,,20.00,13.00,,30.28,,10.00,,OVC,,,,1200.00,,,,,,,,,,,,KDFW 121500Z AUTO 02013KT 10SM OVC012 M04/M07 A3028 RMK T10401070 MADISHF
DFW,2021-02-12 15:05,,,,30.00,11.00,,30.28,,10.00,,OVC,,,,1200.00,,,,,,,,,,,,KDFW 121505Z AUTO 03011KT 10SM OVC012 M04/M07 A3028 RMK T10401070 MADISHF
DFW,2021-02-12 15:10,,,,,14.00,,30.28,,10.00,,OVC,,,,1200.00,,,,,,,,,,,,KDFW 121510Z AUTO ///14KT 10SM OVC012 M04/M07 A3028 RMK T10401070 MADISHF
DFW,2021-02-12 15:15,,,,20.00,11.00,,30.29,,10.00,,OVC,,,,1200.00,,,,,,,,,,,,KDFW 121515Z AUTO 02011KT 10SM OVC012 M04/M07 A3029 RMK T10401070 MADISHF
DFW,2021-02-12 15:20,,,,,13.00,,30.29,,10.00,,OVC,,,,1200.00,,,,,,,,,,,,KDFW 121520Z AUTO ///13KT 10SM OVC012 M04/M07 A3029 RMK T10401070 MADISHF
DFW,2021-02-12 15:25,,,,30.00,14.00,,30.29,,10.00,,OVC,,,,1200.00,,,,,,,,,,,,KDFW 121525Z AUTO 03014KT 10SM OVC012 M04/M07 A3029 RMK T10401070 MADISHF
DFW,2021-02-12 15:30,,,,20.00,13.00,,30.29,,10.00,,OVC,,,,1200.00,,,,,,,,,,,,KDFW 121530Z AUTO 02013KT 10SM OVC012 M04/M07 A3029 RMK T10401070 MADISHF
DFW,2021-02-12 15:35,,,,10.00,11.00,,30.29,,10.00,,OVC,,,,1200.00,,,,,,,,,,,,KDFW 121535Z AUTO 01011KT 10SM OVC012 M04/M07 A3029 RMK T10401070 MADISHF
DFW,2021-02-12 15:40,,,,10.00,11.00,,30.29,,10.00,,OVC,,,,1200.00,,,,,,,,,,,,KDFW 121540Z AUTO 01011KT 10SM OVC012 M04/M07 A3029 RMK T10401070 MADISHF
DFW,2021-02-12 15:45,,,,360.00,11.00,,30.29,,10.00,,OVC,,,,1200.00,,,,,,,,,,,,KDFW 121545Z AUTO 36011KT 10SM OVC012 M04/M07 A3029 RMK T10401070 MADISHF
DFW,2021-02-12 15:50,,,,360.00,16.00,,30.30,,9.00,,OVC,,,,1200.00,,,,,,,,,,,,KDFW 121550Z AUTO 36016KT 9SM OVC012 M04/M07 A3029 RMK T10401070 MADISHF
DFW,2021-02-12 15:53,24.10,19.00,80.59,360.00,16.00,0.00,30.30,1026.40,9.00,,OVC,,,,1100.00,,,,,,,,,,,10.12,KDFW 121553Z 36016KT 9SM OVC011 M04/M07 A3030 RMK AO2 SLP264 T10441072
DFW,2021-02-12 15:55,,,,350.00,16.00,,30.30,,9.00,,OVC,,,,1100.00,,,,,,,,,,,,KDFW 121555Z AUTO 35016KT 9SM OVC011 M04/M07 A3029 RMK T10401070 MADISHF
DFW,2021-02-12 16:00,,,,360.00,13.00,,30.30,,9.00,,OVC,,,,1100.00,,,,,,,,,,,,KDFW 121600Z AUTO 36013KT 9SM OVC011 M04/M07 A3029 RMK T10401070 MADISHF
DFW,2021-02-12 16:05,,,,10.00,14.00,,30.31,,10.00,,OVC,,,,1100.00,,,,,,,,,,,,KDFW 121605Z AUTO 01014KT 10SM OVC011 M04/M07 A3030 RMK T10401070 MADISHF
DFW,2021-02-12 16:10,,,,20.00,11.00,,30.31,,10.00,,OVC,,,,1100.00,,,,,,,,,,,,KDFW 121610Z AUTO 02011KT 10SM OVC011 M04/M07 A3030 RMK T10401070 MADISHF
DFW,2021-02-12 16:15,,,,360.00,13.00,,30.31,,10.00,,OVC,,,,1100.00,,,,,,,,,,,,KDFW 121615Z AUTO 36013KT 10SM OVC011 M04/M07 A3030 RMK T10401070 MADISHF
DFW,2021-02-12 16:20,,,,360.00,13.00,,30.31,,10.00,,OVC,,,,1100.00,,,,,,,,,,,,KDFW 121620Z AUTO 36013KT 10SM OVC011 M04/M07 A3030 RMK T10401070 MADISHF
DFW,2021-02-12 16:25,,,,360.00,13.00,,30.31,,9.00,,OVC,,,,1100.00,,,,,,,,,,,,KDFW 121625Z AUTO 36013KT 9SM OVC011 M04/M07 A3030 RMK T10401070 MADISHF
DFW,2021-02-12 16:30,,,,360.00,11.00,,30.31,,10.00,,OVC,,,,1100.00,,,,,,,,,,,,KDFW 121630Z AUTO 36011KT 10SM OVC011 M04/M07 A3030 RMK T10401070 MADISHF
DFW,2021-02-12 16:35,,,,350.00,16.00,,30.31,,10.00,,OVC,,,,1100.00,,,,,,,,,,,,KDFW 121635Z AUTO 35016KT 10SM OVC011 M04/M07 A3030 RMK T10401070 MADISHF
DFW,2021-02-12 16:40,,,,360.00,11.00,,30.31,,9.00,,OVC,,,,1200.00,,,,,,,,,,,,KDFW 121640Z AUTO 36011KT 9SM OVC012 M04/M07 A3030 RMK T10401070 MADISHF
DFW,2021-02-12 16:45,,,,360.00,15.00,,30.31,,9.00,21.00,OVC,,,,1200.00,,,,,,,,,,,,KDFW 121645Z AUTO 36015G21KT 9SM OVC012 M04/M07 A3030 RMK T10401070 MADISHF
DFW,2021-02-12 16:50,,,,360.00,14.00,,30.31,,9.00,,OVC,,,,1100.00,,,,,,,,,,,,KDFW 121650Z AUTO 36014KT 9SM OVC011 M04/M07 A3030 RMK T10401070 MADISHF
DFW,2021-02-12 16:53,24.10,19.00,80.59,360.00,14.00,0.00,30.31,1026.90,9.00,,OVC,,,,1100.00,,,,,,,,,,,10.98,KDFW 121653Z 36014KT 9SM OVC011 M04/M07 A3031 RMK AO2 SLP269 T10441072
DFW,2021-02-12 16:55,,,,,17.00,,30.31,,9.00,22.00,OVC,,,,1100.00,,,,,,,,,,,,KDFW 121655Z AUTO ///17G22KT 9SM OVC011 M04/M07 A3030 RMK T10401070 MADISHF
DFW,2021-02-12 17:00,,,,360.00,17.00,,30.31,,9.00,,OVC,,,,1100.00,,,,,,,,,,,,KDFW 121700Z AUTO 36017KT 9SM OVC011 M05/M07 A3030 RMK T10501070 MADISHF
DFW,2021-02-12 17:05,,,,360.00,15.00,,30.31,,9.00,,OVC,,,,1100.00,,,,,,,,,,,,KDFW 121705Z AUTO 36015KT 9SM OVC011 M04/M07 A3030 RMK T10401070 MADISHF
DFW,2021-02-12 17:10,,,,,13.00,,30.32,,9.00,,OVC,,,,1100.00,,,,,,,,,,,,KDFW 121710Z AUTO ///13KT 9SM OVC011 M04/M07 A3031 RMK T10401070 MADISHF
DFW,2021-02-12 17:15,,,,,14.00,,30.32,,9.00,,OVC,,,,1100.00,,,,,,,,,,,,KDFW 121715Z AUTO ///14KT 9SM OVC011 M04/M07 A3031 RMK T10401070 MADISHF
DFW,2021-02-12 17:20,,,,,14.00,,30.31,,9.00,,OVC,,,,1100.00,,,,,,,,,,,,KDFW 121720Z AUTO ///14KT 9SM OVC011 M04/M07 A3030 RMK T10401070 MADISHF
DFW,2021-02-12 17:25,,,,360.00,11.00,,30.31,,9.00,,OVC,,,,1100.00,,,,,,,,,,,,KDFW 121725Z AUTO 36011KT 9SM OVC011 M04/M07 A3030 RMK T10401070 MADISHF
DFW,2021-02-12 17:30,,,,350.00,14.00,,30.31,,9.00,,OVC,,,,1100.00,,,,,,,,,,,,KDFW 121730Z AUTO 35014KT 9SM OVC011 M04/M07 A3030 RMK T10401070 MADISHF
DFW,2021-02-12 17:35,,,,10.00,11.00,,30.31,,10.00,,OVC,,,,1100.00,,,,,,,,,,,,KDFW 121735Z AUTO 01011KT 10SM OVC011 M04/M07 A3030 RMK T10401070 MADISHF
DFW,2021-02-12 17:40,,,,340.00,11.00,,30.31,,9.00,,OVC,,,,1100.00,,,,,,,,,,,,KDFW 121740Z AUTO 34011KT 9SM OVC011 M04/M07 A3030 RMK T10401070 MADISHF
DFW,2021-02-12 17:45,,,,,15.00,,30.30,,9.00,,OVC,,,,1100.00,,,,,,,,,,,,KDFW 121745Z AUTO ///15KT 9SM OVC011 M04/M07 A3029 RMK T10401070 MADISHF
DFW,2021-02-12 17:50,,,,,15.00,,30.30,,9.00,,OVC,,,,1100.00,,,,,,,,,,,,KDFW 121750Z AUTO ///15KT 9SM OVC011 M04/M07 A3029 RMK T10401070 MADISHF
DFW,2021-02-12 17:53,24.10,19.00,80.59,350.00,12.00,0.00,30.30,1026.60,9.00,,OVC,,,,1100.00,,,,,,,,,,,11.95,KDFW 121753Z 35012KT 9SM OVC011 M04/M07 A3030 RMK AO2 SLP266 T10441072 11044 21050 50008
DFW,2021-02-12 17:55,,,,350.00,14.00,,30.30,,9.00,,OVC,,,,1100.00,,,,,,,,,,,,KDFW 121755Z AUTO 35014KT 9SM OVC011 M04/M07 A3029 RMK T10401070 MADISHF
DFW,2021-02-12 18:00,,,,,14.00,,30.30,,9.00,,OVC,,,,1100.00,,,,,,,,,,,,KDFW 121800Z AUTO ///14KT 9SM OVC011 M04/M07 A3029 RMK T10401070 MADISHF
DFW,2021-02-12 18:05,,,,360.00,15.00,,30.30,,8.00,,OVC,,,,1100.00,,,,,,,,,,,,KDFW 121805Z AUTO 36015KT 8SM OVC011 M05/M07 A3029 RMK T10501070 MADISHF
DFW,2021-02-12 18:10,,,,10.00,14.00,,30.30,,8.00,,OVC,,,,1100.00,,,,,,,,,,,,KDFW 121810Z AUTO 01014KT 8SM OVC011 M04/M07 A3029 RMK T10401070 MADISHF
DFW,2021-02-12 18:15,,,,10.00,13.00,,30.30,,8.00,,OVC,,,,1100.00,,,,,,,,,,,,KDFW 121815Z AUTO 01013KT 8SM OVC011 M04/M07 A3029 RMK T10401070 MADISHF
DFW,2021-02-12 18:20,,,,10.00,11.00,,30.29,,8.00,,OVC,,,,1100.00,,,,,,,,,,,,KDFW 121820Z AUTO 01011KT 8SM OVC011 M04/M07 A3029 RMK T10401070 MADISHF
DFW,2021-02-12 18:25,,,,10.00,13.00,,30.29,,8.00,19.00,OVC,,,,1100.00,,,,,,,,,,,,KDFW 121825Z AUTO 01013G19KT 8SM OVC011 M04/M07 A3029 RMK T10401070 MADISHF
DFW,2021-02-12 18:30,,,,10.00,16.00,,30.29,,9.00,,OVC,,,,999.00,,,,,,,,,,,,KDFW 121830Z AUTO 01016KT 9SM OVC009 M04/M07 A3029 RMK T10401070 MADISHF
DFW,2021-02-12 18:35,,,,10.00,14.00,,30.29,,9.00,,OVC,,,,999.00,,,,,,,,,,,,KDFW 121835Z AUTO 01014KT 9SM OVC009 M04/M07 A3029 RMK T10401070 MADISHF
DFW,2021-02-12 18:40,,,,,13.00,,30.29,,9.00,,OVC,,,,1200.00,,,,,,,,,,,,KDFW 121840Z AUTO ///13KT 9SM OVC012 M04/M08 A3029 RMK T10401080 MADISHF
DFW,2021-02-12 18:45,,,,,14.00,,30.28,,9.00,,OVC,,,,1200.00,,,,,,,,,,,,KDFW 121845Z AUTO ///14KT 9SM OVC012 M04/M08 A3028 RMK T10401080 MADISHF
DFW,2021-02-12 18:50,,,,,14.00,,30.28,,9.00,,OVC,,,,1200.00,,,,,,,,,,,,KDFW 121850Z AUTO ///14KT 9SM OVC012 M04/M08 A3028 RMK T10401080 MADISHF
DFW,2021-02-12 18:53,24.10,18.00,77.21,350.00,15.00,0.00,30.28,1026.00,9.00,,OVC,,,,1200.00,,,,,,,,,,,10.54,KDFW 121853Z 35015KT 9SM OVC012 M04/M08 A3028 RMK AO2 SLP260 T10441078
DFW,2021-02-12 18:55,,,,360.00,13.00,,30.28,,9.00,18.00,OVC,,,,1200.00,,,,,,,,,,,,KDFW 121855Z AUTO 36013G18KT 9SM OVC012 M04/M08 A3028 RMK T10401080 MADISHF
DFW,2021-02-12 19:00,,,,360.00,11.00,,30.28,,9.00,,OVC,,,,1200.00,,,,,,,,,,,,KDFW 121900Z AUTO 36011KT 9SM OVC012 M04/M08 A3028 RMK T10401080 MADISHF
DFW,2021-02-12 19:05,,,,360.00,14.00,,30.28,,9.00,,OVC,,,,1300.00,,,,,,,,,,,,KDFW 121905Z AUTO 36014KT 9SM OVC013 M04/M08 A3028 RMK T10401080 MADISHF
DFW,2021-02-12 19:10,,,,360.00,15.00,,30.28,,9.00,,OVC,,,,1300.00,,,,,,,,,,,,KDFW 121910Z AUTO 36015KT 9SM OVC013 M04/M08 A3028 RMK T10401080 MADISHF
DFW,2021-02-12 19:15,,,,350.00,14.00,,30.27,,9.00,,OVC,,,,1300.00,,,,,,,,,,,,KDFW 121915Z AUTO 35014KT 9SM OVC013 M04/M08 A3027 RMK T10401080 MADISHF
DFW,2021-02-12 19:20,,,,360.00,11.00,,30.27,,9.00,,OVC,,,,1300.00,,,,,,,,,,,,KDFW 121920Z AUTO 36011KT 9SM OVC013 M04/M08 A3027 RMK T10401080 MADISHF
DFW,2021-02-12 19:25,,,,360.00,13.00,,30.27,,9.00,,OVC,,,,1400.00,,,,,,,,,,,,KDFW 121925Z AUTO 36013KT 9SM OVC014 M04/M08 A3027 RMK T10401080 MADISHF
DFW,2021-02-12 19:30,,,,10.00,11.00,,30.27,,9.00,,OVC,,,,1400.00,,,,,,,,,,,,KDFW 121930Z AUTO 01011KT 9SM OVC014 M04/M08 A3027 RMK T10401080 MADISHF
DFW,2021-02-12 19:35,,,,350.00,11.00,,30.26,,9.00,,OVC,,,,1400.00,,,,,,,,,,,,KDFW 121935Z AUTO 35011KT 9SM OVC014 M04/M08 A3026 RMK T10401080 MADISHF
DFW,2021-02-12 19:40,,,,20.00,10.00,,30.26,,10.00,,OVC,,,,1400.00,,,,,,,,,,,,KDFW 121940Z AUTO 02010KT 10SM OVC014 M04/M08 A3026 RMK T10401080 MADISHF
DFW,2021-02-12 19:45,,,,350.00,13.00,,30.26,,10.00,,OVC,,,,1500.00,,,,,,,,,,,,KDFW 121945Z AUTO 35013KT 10SM OVC015 M04/M08 A3026 RMK T10401080 MADISHF
DFW,2021-02-12 19:48,24.80,17.60,73.70,10.00,14.00,0.00,30.26,,10.00,19.00,OVC,,,,1500.00,,,,,,,,,,,11.88,KDFW 121948Z 01014G19KT 10SM OVC015 M04/M08 A3026 RMK AO2
DFW,2021-02-12 19:50,,,,10.00,11.00,,30.26,,10.00,,OVC,,,,1500.00,,,,,,,,,,,,KDFW 121950Z AUTO 01011KT 10SM OVC015 M04/M08 A3026 RMK T10401080 MADISHF
DFW,2021-02-12 19:53,25.00,18.00,74.36,10.00,14.00,0.00,30.25,1025.00,10.00,,OVC,,,,1500.00,,,,,,,,,,,12.14,KDFW 121953Z 01014KT 10SM OVC015 M04/M08 A3025 RMK AO2 SLP250 T10391078
DFW,2021-02-12 19:55,,,,360.00,14.00,,30.25,,10.00,,OVC,,,,1500.00,,,,,,,,,,,,KDFW 121955Z AUTO 36014KT 10SM OVC015 M04/M08 A3025 RMK T10401080 MADISHF
DFW,2021-02-12 20:00,,,,10.00,15.00,,30.25,,10.00,,OVC,,,,1500.00,,,,,,,,,,,,KDFW 122000Z AUTO 01015KT 10SM OVC015 M04/M08 A3025 RMK T10401080 MADISHF
DFW,2021-02-12 20:05,,,,360.00,14.00,,30.25,,10.00,,OVC,,,,1500.00,,,,,,,,,,,,KDFW 122005Z AUTO 36014KT 10SM OVC015 M04/M08 A3025 RMK T10401080 MADISHF
DFW,2021-02-12 20:10,,,,360.00,14.00,,30.25,,10.00,,OVC,,,,1500.00,,,,,,,,,,,,KDFW 122010Z AUTO 36014KT 10SM OVC015 M04/M08 A3025 RMK T10401080 MADISHF
DFW,2021-02-12 20:15,,,,360.00,13.00,,30.24,,10.00,,OVC,,,,1500.00,,,,,,,,,,,,KDFW 122015Z AUTO 36013KT 10SM OVC015 M04/M08 A3023 RMK T10401080 MADISHF
DFW,2021-02-12 20:20,,,,360.00,15.00,,30.24,,10.00,,OVC,,,,1600.00,,,,,,,,,,,,KDFW 122020Z AUTO 36015KT 10SM OVC016 M04/M08 A3023 RMK T10401080 MADISHF
DFW,2021-02-12 20:25,,,,10.00,15.00,,30.23,,10.00,,OVC,,,,1600.00,,,,,,,,,,,,KDFW 122025Z AUTO 01015KT 10SM OVC016 M04/M08 A3022 RMK T10401080 MADISHF
DFW,2021-02-12 20:30,,,,360.00,13.00,,30.23,,10.00,,OVC,,,,1600.00,,,,,,,,,,,,KDFW 122030Z AUTO 36013KT 10SM OVC016 M04/M08 A3022 RMK T10401080 MADISHF
DFW,2021-02-12 20:35,,,,20.00,13.00,,30.23,,10.00,18.00,OVC,,,,1600.00,,,,,,,,,,,,KDFW 122035Z AUTO 02013G18KT 10SM OVC016 M04/M08 A3022 RMK T10401080 MADISHF
DFW,2021-02-12 20:40,,,,350.00,15.00,,30.23,,10.00,,OVC,,,,1600.00,,,,,,,,,,,,KDFW 122040Z AUTO 35015KT 10SM OVC016 M04/M08 A3022 RMK T10401080 MADISHF
DFW,2021-02-12 20:45,,,,20.00,15.00,,30.22,,10.00,,OVC,,,,1600.00,,,,,,,,,,,,KDFW 122045Z AUTO 02015KT 10SM OVC016 M04/M08 A3021 RMK T10401080 MADISHF
DFW,2021-02-12 20:50,,,,10.00,11.00,,30.22,,10.00,,OVC,,,,1600.00,,,,,,,,,,,,KDFW 122050Z AUTO 01011KT 10SM OVC016 M04/M08 A3021 RMK T10401080 MADISHF
DFW,2021-02-12 20:53,25.00,18.00,74.36,10.00,14.00,0.00,30.22,1023.80,10.00,,OVC,,,,1600.00,,,,,,,,,,,12.14,KDFW 122053Z 01014KT 10SM OVC016 M04/M08 A3022 RMK AO2 SLP238 T10391078 58021
DFW,2021-02-12 20:55,,,,360.00,15.00,,30.22,,10.00,,OVC,,,,1600.00,,,,,,,,,,,,KDFW 122055Z AUTO 36015KT 10SM OVC016 M04/M08 A3021 RMK T10401080 MADISHF
DFW,2021-02-12 21:00,,,,10.00,11.00,,30.22,,10.00,,OVC,,,,1600.00,,,,,,,,,,,,KDFW 122100Z AUTO 01011KT 10SM OVC016 M04/M08 A3021 RMK T10401080 MADISHF
DFW,2021-02-12 21:05,,,,10.00,13.00,,30.22,,10.00,,OVC,,,,1699.00,,,,,,,,,,,,KDFW 122105Z AUTO 01013KT 10SM OVC016 M03/M08 A3021 RMK T10301080 MADISHF
DFW,2021-02-12 21:10,,,,10.00,11.00,,30.22,,10.00,18.00,OVC,,,,1699.00,,,,,,,,,,,,KDFW 122110Z AUTO 01011G18KT 10SM OVC016 M03/M08 A3021 RMK T10301080 MADISHF
DFW,2021-02-12 21:15,,,,360.00,13.00,,30.22,,10.00,,OVC,,,,1699.00,,,,,,,,,,,,KDFW 122115Z AUTO 36013KT 10SM OVC016 M03/M08 A3021 RMK T10301080 MADISHF
DFW,2021-02-12 21:20,,,,10.00,11.00,,30.23,,10.00,,OVC,,,,1699.00,,,,,,,,,,,,KDFW 122120Z AUTO 01011KT 10SM OVC016 M04/M08 A3022 RMK T10401080 MADISHF
DFW,2021-02-12 21:25,,,,10.00,14.00,,30.23,,10.00,,OVC,,,,1699.00,,,,,,,,,,,,KDFW 122125Z AUTO 01014KT 10SM OVC016 M04/M08 A3022 RMK T10401080 MADISHF
DFW,2021-02-12 21:30,,,,10.00,11.00,,30.23,,10.00,,OVC,,,,1699.00,,,,,,,,,,,,KDFW 122130Z AUTO 01011KT 10SM OVC016 M03/M08 A3022 RMK T10301080 MADISHF
DFW,2021-02-12 21:35,,,,360.00,11.00,,30.23,,10.00,,OVC,,,,1800.00,,,,,,,,,,,,KDFW 122135Z AUTO 36011KT 10SM OVC018 M03/M08 A3022 RMK T10301080 MADISHF
DFW,2021-02-12 21:40,,,,10.00,13.00,,30.23,,10.00,,OVC,,,,1800.00,,,,,,,,,,,,KDFW 122140Z AUTO 01013KT 10SM OVC018 M03/M08 A3022 RMK T10301080 MADISHF
DFW,2021-02-12 21:45,,,,10.00,13.00,,30.22,,10.00,,OVC,,,,1800.00,,,,,,,,,,,,KDFW 122145Z AUTO 01013KT 10SM OVC018 M04/M08 A3021 RMK T10401080 MADISHF
DFW,2021-02-12 21:50,,,,10.00,11.00,,30.22,,10.00,17.00,OVC,,,,1800.00,,,,,,,,,,,,KDFW 122150Z AUTO 01011G17KT 10SM OVC018 M03/M08 A3021 RMK T10301080 MADISHF
DFW,2021-02-12 21:53,26.10,18.00,71.04,10.00,13.00,0.00,30.22,1023.80,10.00,,OVC,,,,1800.00,,,,,,,,,,,14.01,KDFW 122153Z 01013KT 10SM OVC018 M03/M08 A3022 RMK AO2 SLP238 T10331078
DFW,2021-02-12 21:55,,,,,14.00,,30.22,,10.00,,OVC,,,,1800.00,,,,,,,,,,,,KDFW 122155Z AUTO ///14KT 10SM OVC018 M03/M08 A3021 RMK T10301080 MADISHF
DFW,2021-02-12 22:00,,,,,13.00,,30.22,,10.00,,OVC,,,,1800.00,,,,,,,,,,,,KDFW 122200Z AUTO ///13KT 10SM OVC018 M03/M08 A3021 RMK T10301080 MADISHF
DFW,2021-02-12 22:05,,,,,15.00,,30.21,,10.00,,OVC,,,,1800.00,,,,,,,,,,,,KDFW 122205Z AUTO ///15KT 10SM OVC018 M03/M08 A3020 RMK T10301080 MADISHF
DFW,2021-02-12 22:10,,,,20.00,13.00,,30.21,,10.00,,OVC,,,,1800.00,,,,,,,,,,,,KDFW 122210Z AUTO 02013KT 10SM OVC018 M03/M08 A3020 RMK T10301080 MADISHF
DFW,2021-02-12 22:15,,,,20.00,13.00,,30.21,,10.00,,OVC,,,,1800.00,,,,,,,,,,,,KDFW 122215Z AUTO 02013KT 10SM OVC018 M03/M08 A3020 RMK T10301080 MADISHF
DFW,2021-02-12 22:20,,,,10.00,13.00,,30.20,,10.00,,OVC,,,,1800.00,,,,,,,,,,,,KDFW 122220Z AUTO 01013KT 10SM OVC018 M03/M08 A3020 RMK T10301080 MADISHF
DFW,2021-02-12 22:25,,,,360.00,13.00,,30.20,,10.00,18.00,OVC,,,,1800.00,,,,,,,,,,,,KDFW 122225Z AUTO 36013G18KT 10SM OVC018 M03/M08 A3020 RMK T10301080 MADISHF
DFW,2021-02-12 22:30,,,,,15.00,,30.20,,10.00,,OVC,,,,1800.00,,,,,,,,,,,,KDFW 122230Z AUTO ///15KT 10SM OVC018 M03/M08 A3020 RMK T10301080 MADISHF
DFW,2021-02-12 22:35,,,,10.00,14.00,,30.19,,10.00,,OVC,,,,1800.00,,,,,,,,,,,,KDFW 122235Z AUTO 01014KT 10SM OVC018 M03/M08 A3019 RMK T10301080 MADISHF
DFW,2021-02-12 22:40,,,,10.00,11.00,,30.20,,10.00,16.00,OVC,,,,1900.00,,,,,,,,,,,,KDFW 122240Z AUTO 01011G16KT 10SM OVC019 M04/M08 A3020 RMK T10401080 MADISHF
DFW,2021-02-12 22:45,,,,10.00,15.00,,30.20,,10.00,,OVC,,,,1900.00,,,,,,,,,,,,KDFW 122245Z AUTO 01015KT 10SM OVC019 M04/M08 A3020 RMK T10401080 MADISHF
DFW,2021-02-12 22:50,,,,20.00,15.00,,30.19,,10.00,,OVC,,,,1900.00,,,,,,,,,,,,KDFW 122250Z AUTO 02015KT 10SM OVC019 M04/M08 A3019 RMK T10401080 MADISHF
DFW,2021-02-12 22:53,25.00,17.10,71.53,20.00,15.00,0.00,30.19,1023.00,10.00,,OVC,,,,1900.00,,,,,,,,,,,11.71,KDFW 122253Z 02015KT 10SM OVC019 M04/M08 A3019 RMK AO2 SLP230 T10391083
DFW,2021-02-12 22:55,,,,20.00,11.00,,30.20,,10.00,,OVC,,,,1900.00,,,,,,,,,,,,KDFW 122255Z AUTO 02011KT 10SM OVC019 M04/M08 A3020 RMK T10401080 MADISHF
DFW,2021-02-12 23:00,,,,360.00,14.00,,30.19,,10.00,19.00,OVC,,,,1900.00,,,,,,,,,,,,KDFW 122300Z AUTO 36014G19KT 10SM OVC019 M04/M08 A3019 RMK T10401080 MADISHF
DFW,2021-02-12 23:05,,,,360.00,16.00,,30.19,,10.00,,OVC,,,,1900.00,,,,,,,,,,,,KDFW 122305Z AUTO 36016KT 10SM OVC019 M04/M08 A3019 RMK T10401080 MADISHF
DFW,2021-02-12 23:10,,,,360.00,13.00,,30.20,,10.00,,OVC,,,,1900.00,,,,,,,,,,,,KDFW 122310Z AUTO 36013KT 10SM OVC019 M04/M08 A3020 RMK T10401080 MADISHF
DFW,2021-02-12 23:15,,,,10.00,11.00,,30.20,,10.00,,OVC,,,,1900.00,,,,,,,,,,,,KDFW 122315Z AUTO 01011KT 10SM OVC019 M04/M08 A3020 RMK T10401080 MADISHF
DFW,2021-02-12 23:20,,,,350.00,13.00,,30.20,,10.00,,OVC,,,,1900.00,,,,,,,,,,,,KDFW 122320Z AUTO 35013KT 10SM OVC019 M04/M08 A3020 RMK T10401080 MADISHF
DFW,2021-02-12 23:25,,,,350.00,13.00,,30.21,,10.00,,OVC,,,,1900.00,,,,,,,,,,,,KDFW 122325Z AUTO 35013KT 10SM OVC019 M04/M08 A3020 RMK T10401080 MADISHF
DFW,2021-02-12 23:30,,,,360.00,11.00,,30.21,,10.00,,OVC,,,,1900.00,,,,,,,,,,,,KDFW 122330Z AUTO 36011KT 10SM OVC019 M04/M08 A3020 RMK T10401080 MADISHF
DFW,2021-02-12 23:35,,,,360.00,11.00,,30.21,,10.00,,OVC,,,,1900.00,,,,,,,,,,,,KDFW 122335Z AUTO 36011KT 10SM OVC019 M04/M08 A3020 RMK T10401080 MADISHF
DFW,2021-02-12 23:40,,,,350.00,11.00,,30.22,,10.00,,OVC,,,,1900.00,,,,,,,,,,,,KDFW 122340Z AUTO 35011KT 10SM OVC019 M04/M08 A3021 RMK T10401080 MADISHF
DFW,2021-02-12 23:45,,,,350.00,13.00,,30.22,,10.00,,OVC,,,,1800.00,,,,,,,,,,,,KDFW 122345Z AUTO 35013KT 10SM OVC018 M04/M08 A3021 RMK T10401080 MADISHF
DFW,2021-02-12 23:50,,,,350.00,11.00,,30.22,,10.00,,OVC,,,,1800.00,,,,,,,,,,,,KDFW 122350Z AUTO 35011KT 10SM OVC018 M04/M08 A3021 RMK T10401080 MADISHF
DFW,2021-02-12 23:53,24.10,17.10,74.27,350.00,12.00,0.00,30.22,1024.00,10.00,,OVC,,,,1800.00,,,,,,,,,,,11.95,KDFW 122353Z 35012KT 10SM OVC018 M04/M08 A3022 RMK AO2 SLP240 T10441083 11033 21050 53000
DFW,2021-02-12 23:55,,,,350.00,13.00,,30.22,,10.00,,OVC,,,,1800.00,,,,,,,,,,,,KDFW 122355Z AUTO 35013KT 10SM OVC018 M04/M08 A3021 RMK T10401080 MADISHF
DFW,2021-02-13 00:00,,,,360.00,11.00,,30.22,,10.00,,OVC,,,,1800.00,,,,,,,,,,,,KDFW 130000Z AUTO 36011KT 10SM OVC018 M04/M08 A3021 RMK T10401080 MADISHF
DFW,2021-02-13 00:05,,,,10.00,11.00,,30.22,,10.00,,OVC,,,,1800.00,,,,,,,,,,,,KDFW 130005Z AUTO 01011KT 10SM OVC018 M04/M08 A3021 RMK T10401080 MADISHF
DFW,2021-02-13 00:10,,,,10.00,11.00,,30.23,,10.00,,OVC,,,,1800.00,,,,,,,,,,,,KDFW 130010Z AUTO 01011KT 10SM OVC018 M04/M08 A3022 RMK T10401080 MADISHF
DFW,2021-02-13 00:15,,,,360.00,13.00,,30.23,,10.00,,OVC,,,,1800.00,,,,,,,,,,,,KDFW 130015Z AUTO 36013KT 10SM OVC018 M04/M08 A3022 RMK T10401080 MADISHF
DFW,2021-02-13 00:20,,,,350.00,11.00,,30.23,,10.00,,OVC,,,,1800.00,,,,,,,,,,,,KDFW 130020Z AUTO 35011KT 10SM OVC018 M04/M08 A3022 RMK T10401080 MADISHF
DFW,2021-02-13 00:25,,,,360.00,10.00,,30.23,,10.00,,OVC,,,,1800.00,,,,,,,,,,,,KDFW 130025Z AUTO 36010KT 10SM OVC018 M04/M08 A3022 RMK T10401080 MADISHF
DFW,2021-02-13 00:30,,,,360.00,11.00,,30.23,,10.00,,OVC,,,,1800.00,,,,,,,,,,,,KDFW 130030Z AUTO 36011KT 10SM OVC018 M04/M08 A3022 RMK T10401080 MADISHF
DFW,2021-02-13 00:35,,,,10.00,11.00,,30.23,,10.00,,OVC,,,,1800.00,,,,,,,,,,,,KDFW 130035Z AUTO 01011KT 10SM OVC018 M04/M08 A3022 RMK T10401080 MADISHF
DFW,2021-02-13 00:40,,,,350.00,11.00,,30.23,,10.00,,OVC,,,,1800.00,,,,,,,,,,,,KDFW 130040Z AUTO 35011KT 10SM OVC018 M04/M08 A3022 RMK T10401080 MADISHF
DFW,2021-02-13 00:45,,,,360.00,10.00,,30.24,,10.00,,OVC,,,,1800.00,,,,,,,,,,,,KDFW 130045Z AUTO 36010KT 10SM OVC018 M04/M08 A3023 RMK T10401080 MADISHF
DFW,2021-02-13 00:50,,,,10.00,11.00,,30.24,,10.00,,OVC,,,,1800.00,,,,,,,,,,,,KDFW 130050Z AUTO 01011KT 10SM OVC018 M04/M08 A3023 RMK T10401080 MADISHF
DFW,2021-02-13 00:53,24.10,17.10,74.27,350.00,12.00,0.00,30.23,1024.40,10.00,,OVC,,,,1800.00,,,,,,,,,,,11.95,KDFW 130053Z 35012KT 10SM OVC018 M04/M08 A3023 RMK AO2 SLP244 T10441083
DFW,2021-02-13 00:55,,,,360.00,11.00,,30.23,,10.00,,OVC,,,,1800.00,,,,,,,,,,,,KDFW 130055Z AUTO 36011KT 10SM OVC018 M04/M08 A3022 RMK T10401080 MADISHF
DFW,2021-02-13 01:00,,,,360.00,11.00,,30.23,,10.00,,OVC,,,,1800.00,,,,,,,,,,,,KDFW 130100Z AUTO 36011KT 10SM OVC018 M04/M08 A3022 RMK T10401080 MADISHF
DFW,2021-02-13 01:05,,,,10.00,10.00,,30.23,,10.00,,OVC,,,,1800.00,,,,,,,,,,,,KDFW 130105Z AUTO 01010KT 10SM OVC018 M04/M08 A3022 RMK T10401080 MADISHF
DFW,2021-02-13 01:10,,,,360.00,11.00,,30.23,,10.00,,OVC,,,,1800.00,,,,,,,,,,,,KDFW 130110Z AUTO 36011KT 10SM OVC018 M04/M08 A3022 RMK T10401080 MADISHF
DFW,2021-02-13 01:15,,,,360.00,10.00,,30.22,,10.00,,OVC,,,,1800.00,,,,,,,,,,,,KDFW 130115Z AUTO 36010KT 10SM OVC018 M04/M08 A3021 RMK T10401080 MADISHF
DFW,2021-02-13 01:20,,,,360.00,13.00,,30.23,,10.00,,OVC,,,,1800.00,,,,,,,,,,,,KDFW 130120Z AUTO 36013KT 10SM OVC018 M04/M08 A3022 RMK T10401080 MADISHF
DFW,2021-02-13 01:25,,,,20.00,11.00,,30.22,,10.00,,OVC,,,,1800.00,,,,,,,,,,,,KDFW 130125Z AUTO 02011KT 10SM OVC018 M04/M08 A3021 RMK T10401080 MADISHF
DFW,2021-02-13 01:30,,,,20.00,11.00,,30.22,,10.00,,OVC,,,,1800.00,,,,,,,,,,,,KDFW 130130Z AUTO 02011KT 10SM OVC018 M04/M08 A3021 RMK T10401080 MADISHF
DFW,2021-02-13 01:35,,,,10.00,11.00,,30.22,,10.00,,OVC,,,,1699.00,,,,,,,,,,,,KDFW 130135Z AUTO 01011KT 10SM OVC016 M04/M08 A3021 RMK T10401080 MADISHF
DFW,2021-02-13 01:40,,,,360.00,11.00,,30.23,,10.00,,OVC,,,,1699.00,,,,,,,,,,,,KDFW 130140Z AUTO 36011KT 10SM OVC016 M04/M08 A3022 RMK T10401080 MADISHF
DFW,2021-02-13 01:45,,,,360.00,11.00,,30.23,,10.00,,OVC,,,,1699.00,,,,,,,,,,,,KDFW 130145Z AUTO 36011KT 10SM OVC016 M04/M08 A3022 RMK T10401080 MADISHF
DFW,2021-02-13 01:50,,,,350.00,13.00,,30.23,,10.00,,OVC,,,,1699.00,,,,,,,,,,,,KDFW 130150Z AUTO 35013KT 10SM OVC016 M04/M08 A3022 RMK T10401080 MADISHF
DFW,2021-02-13 01:53,24.10,17.10,74.27,360.00,12.00,0.00,30.23,1024.30,10.00,,OVC,,,,1700.00,,,,,,,,,,,11.95,KDFW 130153Z 36012KT 10SM OVC017 M04/M08 A3023 RMK AO2 SLP243 T10441083
DFW,2021-02-13 01:55,,,,360.00,14.00,,30.23,,10.00,,OVC,,,,1699.00,,,,,,,,,,,,KDFW 130155Z AUTO 36014KT 10SM OVC016 M04/M08 A3022 RMK T10401080 MADISHF
DFW,2021-02-13 02:00,,,,360.00,13.00,,30.23,,10.00,,OVC,,,,1699.00,,,,,,,,,,,,KDFW 130200Z AUTO 36013KT 10SM OVC016 M04/M08 A3022 RMK T10401080 MADISHF
DFW,2021-02-13 02:05,,,,10.00,11.00,,30.23,,10.00,,OVC,,,,1699.00,,,,,,,,,,,,KDFW 130205Z AUTO 01011KT 10SM OVC016 M04/M08 A3022 RMK T10401080 MADISHF
DFW,2021-02-13 02:10,,,,,15.00,,30.23,,10.00,,OVC,,,,1699.00,,,,,,,,,,,,KDFW 130210Z AUTO ///15KT 10SM OVC016 M04/M08 A3022 RMK T10401080 MADISHF
DFW,2021-02-13 02:15,,,,360.00,13.00,,30.23,,10.00,,OVC,,,,1600.00,,,,,,,,,,,,KDFW 130215Z AUTO 36013KT 10SM OVC016 M05/M08 A3022 RMK T10501080 MADISHF
DFW,2021-02-13 02:20,,,,10.00,11.00,,30.23,,10.00,,OVC,,,,1600.00,,,,,,,,,,,,KDFW 130220Z AUTO 01011KT 10SM OVC016 M05/M08 A3022 RMK T10501080 MADISHF
DFW,2021-02-13 02:25,,,,10.00,14.00,,30.23,,10.00,,OVC,,,,1600.00,,,,,,,,,,,,KDFW 130225Z AUTO 01014KT 10SM OVC016 M05/M08 A3022 RMK T10501080 MADISHF
DFW,2021-02-13 02:30,,,,10.00,11.00,,30.24,,10.00,,OVC,,,,1600.00,,,,,,,,,,,,KDFW 130230Z AUTO 01011KT 10SM OVC016 M05/M08 A3023 RMK T10501080 MADISHF
DFW,2021-02-13 02:35,,,,10.00,11.00,,30.23,,10.00,,OVC,,,,1600.00,,,,,,,,,,,,KDFW 130235Z AUTO 01011KT 10SM OVC016 M05/M08 A3022 RMK T10501080 MADISHF
DFW,2021-02-13 02:40,,,,20.00,14.00,,30.23,,10.00,,OVC,,,,1600.00,,,,,,,,,,,,KDFW 130240Z AUTO 02014KT 10SM OVC016 M05/M08 A3022 RMK T10501080 MADISHF
DFW,2021-02-13 02:45,,,,20.00,11.00,,30.23,,10.00,,OVC,,,,1600.00,,,,,,,,,,,,KDFW 130245Z AUTO 02011KT 10SM OVC016 M05/M08 A3022 RMK T10501080 MADISHF
DFW,2021-02-13 02:50,,,,20.00,11.00,,30.23,,10.00,,OVC,,,,1500.00,,,,,,,,,,,,KDFW 130250Z AUTO 02011KT 10SM OVC015 M05/M08 A3022 RMK T10501080 MADISHF
DFW,2021-02-13 02:53,23.00,18.00,80.85,20.00,13.00,0.00,30.23,1024.40,10.00,,OVC,,,,1500.00,,,,,,,,,,,10.04,KDFW 130253Z 02013KT 10SM OVC015 M05/M08 A3023 RMK AO2 SLP244 T10501078 51004
DFW,2021-02-13 02:55,,,,20.00,11.00,,30.23,,10.00,,OVC,,,,1500.00,,,,,,,,,,,,KDFW 130255Z AUTO 02011KT 10SM OVC015 M05/M08 A3022 RMK T10501080 MADISHF
DFW,2021-02-13 03:00,,,,20.00,10.00,,30.23,,10.00,,OVC,,,,1400.00,,,,,,,,,,,,KDFW 130300Z AUTO 02010KT 10SM OVC014 M05/M08 A3022 RMK T10501080 MADISHF
DFW,2021-02-13 03:05,,,,20.00,10.00,,30.23,,10.00,,OVC,,,,1400.00,,,,,,,,,,,,KDFW 130305Z AUTO 02010KT 10SM OVC014 M05/M08 A3022 RMK T10501080 MADISHF
DFW,2021-02-13 03:06,23.00,18.00,80.85,20.00,12.00,0.00,30.23,,10.00,,OVC,,,,1400.00,,,,,,,,,,,10.55,KDFW 130306Z 02012KT 10SM OVC014 M05/M08 A3023 RMK AO2 T10501078
DFW,2021-02-13 03:10,,,,20.00,14.00,,30.23,,10.00,,OVC,,,,1400.00,,,,,,,,,,,,KDFW 130310Z AUTO 02014KT 10SM OVC014 M05/M08 A3022 RMK T10501080 MADISHF
DFW,2021-02-13 03:15,,,,10.00,14.00,,30.23,,10.00,,OVC,,,,1400.00,,,,,,,,,,,,KDFW 130315Z AUTO 01014KT 10SM OVC014 M05/M08 A3022 RMK T10501080 MADISHF
DFW,2021-02-13 03:20,,,,360.00,14.00,,30.23,,10.00,,OVC,,,,1400.00,,,,,,,,,,,,KDFW 130320Z AUTO 36014KT 10SM OVC014 M05/M08 A3022 RMK T10501080 MADISHF
DFW,2021-02-13 03:25,,,,360.00,14.00,,30.23,,10.00,,OVC,,,,1400.00,,,,,,,,,,,,KDFW 130325Z AUTO 36014KT 10SM OVC014 M05/M08 A3022 RMK T10501080 MADISHF
DFW,2021-02-13 03:30,,,,360.00,16.00,,30.23,,6.00,,OVC,,,,1400.00,,,,HZ,,,,,,,,KDFW 130330Z AUTO 36016KT 6SM HZ OVC014 M05/M08 A3022 RMK T10501080 MADISHF
DFW,2021-02-13 03:35,,,,10.00,14.00,,30.23,,3.50,,OVC,,,,1400.00,,,,HZ,,,,,,,,KDFW 130335Z AUTO 01014KT 3SM HZ OVC014 M05/M08 A3022 RMK T10501080 MADISHF
DFW,2021-02-13 03:37,23.00,18.00,80.85,10.00,13.00,T,30.23,,4.00,,OVC,,,,1400.00,,,,-FZDZ,T,,,,,,10.04,KDFW 130337Z 01013KT 4SM -FZDZ OVC014 M05/M08 A3023 RMK AO2 P0000 I1000 T10501078
DFW,2021-02-13 03:40,,,,10.00,14.00,,30.23,,4.00,,OVC,,,,1200.00,,,,-FZDZ,,,,,,,,KDFW 130340Z AUTO 01014KT 4SM -FZDZ OVC012 M05/M08 A3022 RMK T10501080 MADISHF
DFW,2021-02-13 03:45,,,,20.00,11.00,,30.23,,8.00,,OVC,,,,1200.00,,,,-FZDZ,,,,,,,,KDFW 130345Z AUTO 02011KT 8SM -FZDZ OVC012 M05/M08 A3022 RMK T10501080 MADISHF
DFW,2021-02-13 03:50,,,,10.00,11.00,,30.23,,9.00,,OVC,,,,1300.00,,,,,,,,,,,,KDFW 130350Z AUTO 01011KT 9SM OVC013 M05/M08 A3022 RMK T10501080 MADISHF
DFW,2021-02-13 03:53,23.00,18.00,80.85,10.00,13.00,T,30.23,1024.20,9.00,,OVC,,,,1300.00,,,,,T,,,,,,10.04,KDFW 130353Z 01013KT 9SM OVC013 M05/M08 A3023 RMK AO2 FZDZB37E50SNB31E32 SLP242 P0000 I1000 T10501078
DFW,2021-02-13 03:55,,,,10.00,15.00,,30.23,,9.00,,OVC,,,,1300.00,,,,,,,,,,,,KDFW 130355Z AUTO 01015KT 9SM OVC013 M05/M08 A3022 RMK T10501080 MADISHF
DFW,2021-02-13 04:00,,,,360.00,14.00,,30.23,,9.00,,OVC,,,,1300.00,,,,,,,,,,,,KDFW 130400Z AUTO 36014KT 9SM OVC013 M05/M08 A3022 RMK T10501080 MADISHF
DFW,2021-02-13 04:05,,,,360.00,13.00,,30.23,,9.00,,OVC,,,,1300.00,,,,,,,,,,,,KDFW 130405Z AUTO 36013KT 9SM OVC013 M05/M08 A3022 RMK T10501080 MADISHF
DFW,2021-02-13 04:10,,,,20.00,11.00,,30.23,,9.00,,OVC,,,,1300.00,,,,,,,,,,,,KDFW 130410Z AUTO 02011KT 9SM OVC013 M05/M08 A3022 RMK T10501080 MADISHF
DFW,2021-02-13 04:15,,,,10.00,9.00,,30.24,,9.00,,OVC,,,,1200.00,,,,,,,,,,,,KDFW 130415Z AUTO 01009KT 9SM OVC012 M05/M08 A3023 RMK T10501080 MADISHF
DFW,2021-02-13 04:20,,,,10.00,13.00,,30.24,,9.00,,OVC,,,,1200.00,,,,,,,,,,,,KDFW 130420Z AUTO 01013KT 9SM OVC012 M05/M08 A3023 RMK T10501080 MADISHF
DFW,2021-02-13 04:25,,,,10.00,13.00,,30.23,,9.00,,OVC,,,,1200.00,,,,,,,,,,,,KDFW 130425Z AUTO 01013KT 9SM OVC012 M05/M08 A3022 RMK T10501080 MADISHF
DFW,2021-02-13 04:30,,,,10.00,10.00,,30.24,,9.00,,OVC,,,,1200.00,,,,,,,,,,,,KDFW 130430Z AUTO 01010KT 9SM OVC012 M05/M08 A3023 RMK T10501080 MADISHF
DFW,2021-02-13 04:35,,,,30.00,11.00,,30.24,,9.00,,OVC,,,,1200.00,,,,,,,,,,,,KDFW 130435Z AUTO 03011KT 9SM OVC012 M05/M08 A3023 RMK T10501080 MADISHF
DFW,2021-02-13 04:40,,,,20.00,11.00,,30.24,,9.00,,OVC,,,,1200.00,,,,,,,,,,,,KDFW 130440Z AUTO 02011KT 9SM OVC012 M06/M08 A3023 RMK T10601080 MADISHF
DFW,2021-02-13 04:45,,,,20.00,11.00,,30.24,,9.00,,OVC,,,,1200.00,,,,,,,,,,,,KDFW 130445Z AUTO 02011KT 9SM OVC012 M06/M08 A3023 RMK T10601080 MADISHF
DFW,2021-02-13 04:50,,,,20.00,11.00,,30.24,,9.00,,OVC,,,,1200.00,,,,,,,,,,,,KDFW 130450Z AUTO 02011KT 9SM OVC012 M06/M08 A3023 RMK T10601080 MADISHF
DFW,2021-02-13 04:53,21.90,18.00,84.68,30.00,12.00,0.00,30.24,1024.60,9.00,,OVC,,,,1200.00,,,,,,,,,,,9.15,KDFW 130453Z 03012KT 9SM OVC012 M06/M08 A3024 RMK AO2 SLP246 T10561078
DFW,2021-02-13 04:55,,,,30.00,13.00,,30.24,,9.00,,OVC,,,,1200.00,,,,,,,,,,,,KDFW 130455Z AUTO 03013KT 9SM OVC012 M06/M08 A3023 RMK T10601080 MADISHF
DFW,2021-02-13 05:00,,,,20.00,11.00,,30.25,,9.00,,OVC,,,,1200.00,,,,,,,,,,,,KDFW 130500Z AUTO 02011KT 9SM OVC012 M06/M08 A3025 RMK T10601080 MADISHF
DFW,2021-02-13 05:05,,,,10.00,11.00,,30.24,,9.00,,OVC,,,,1200.00,,,,,,,,,,,,KDFW 130505Z AUTO 01011KT 9SM OVC012 M06/M08 A3023 RMK T10601080 MADISHF
DFW,2021-02-13 05:10,,,,,13.00,,30.24,,9.00,,OVC,,,,1200.00,,,,,,,,,,,,KDFW 130510Z AUTO ///13KT 9SM OVC012 M06/M08 A3023 RMK T10601080 MADISHF
DFW,2021-02-13 05:15,,,,,15.00,,30.24,,9.00,,OVC,,,,1200.00,,,,,,,,,,,,KDFW 130515Z AUTO ///15KT 9SM OVC012 M06/M08 A3023 RMK T10601080 MADISHF
DFW,2021-02-13 05:20,,,,,16.00,,30.24,,9.00,,OVC,,,,1200.00,,,,,,,,,,,,KDFW 130520Z AUTO ///16KT 9SM OVC012 M06/M08 A3023 RMK T10601080 MADISHF
DFW,2021-02-13 05:25,,,,360.00,14.00,,30.24,,9.00,,OVC,,,,1200.00,,,,,,,,,,,,KDFW 130525Z AUTO 36014KT 9SM OVC012 M06/M08 A3023 RMK T10601080 MADISHF
DFW,2021-02-13 05:30,,,,10.00,14.00,,30.24,,8.00,,OVC,,,,1100.00,,,,,,,,,,,,KDFW 130530Z AUTO 01014KT 8SM OVC011 M06/M08 A3023 RMK T10601080 MADISHF
DFW,2021-02-13 05:35,,,,10.00,15.00,,30.24,,7.00,,OVC,,,,1100.00,,,,,,,,,,,,KDFW 130535Z AUTO 01015KT 7SM OVC011 M06/M08 A3023 RMK T10601080 MADISHF
DFW,2021-02-13 05:40,,,,10.00,14.00,,30.24,,7.00,,OVC,,,,1100.00,,,,,,,,,,,,KDFW 130540Z AUTO 01014KT 7SM OVC011 M06/M08 A3023 RMK T10601080 MADISHF
DFW,2021-02-13 05:45,,,,10.00,13.00,,30.24,,6.00,,OVC,,,,1100.00,,,,BR,,,,,,,,KDFW 130545Z AUTO 01013KT 6SM BR OVC011 M06/M08 A3023 RMK T10601080 MADISHF
DFW,2021-02-13 05:50,,,,10.00,16.00,,30.24,,6.00,,OVC,,,,1100.00,,,,BR,,,,,,,,KDFW 130550Z AUTO 01016KT 6SM BR OVC011 M06/M08 A3023 RMK T10601080 MADISHF
DFW,2021-02-13 05:53,21.00,18.00,87.97,20.00,15.00,0.00,30.24,1024.60,5.00,21.00,OVC,,,,1100.00,,,,BR,,,T,,,,6.52,KDFW 130553Z 02015G21KT 5SM BR OVC011 M06/M08 A3024 RMK AO2 SLP246 60000 I6000 T10611078 11039 21061 410331061 53002
DFW,2021-02-13 05:55,,,,,15.00,,30.24,,5.00,,OVC,,,,1100.00,,,,BR,,,,,,,,KDFW 130555Z AUTO ///15KT 5SM BR OVC011 M06/M08 A3023 RMK T10601080 MADISHF
DFW,2021-02-13 06:00,,,,,14.00,,30.24,,5.00,,OVC,,,,1100.00,,,,BR,,,,,,,,KDFW 130600Z AUTO ///14KT 5SM BR OVC011 M06/M08 A3023 RMK T10601080 MADISHF
DFW,2021-02-13 06:05,,,,,15.00,,30.23,,5.00,,OVC,,,,1100.00,,,,BR,,,,,,,,KDFW 130605Z AUTO ///15KT 5SM BR OVC011 M06/M08 A3022 RMK T10601080 MADISHF
DFW,2021-02-13 06:10,,,,360.00,14.00,,30.23,,4.00,,OVC,,,,1100.00,,,,BR,,,,,,,,KDFW 130610Z AUTO 36014KT 4SM BR OVC011 M06/M08 A3022 RMK T10601080 MADISHF
DFW,2021-02-13 06:15,,,,360.00,11.00,,30.23,,4.00,17.00,OVC,,,,1100.00,,,,BR,,,,,,,,KDFW 130615Z AUTO 36011G17KT 4SM BR OVC011 M06/M08 A3022 RMK T10601080 MADISHF
DFW,2021-02-13 06:20,,,,360.00,10.00,,30.23,,4.00,16.00,OVC,,,,999.00,,,,BR,,,,,,,,KDFW 130620Z AUTO 36010G16KT 4SM BR OVC009 M06/M07 A3022 RMK T10601070 MADISHF
DFW,2021-02-13 06:25,,,,360.00,14.00,,30.23,,4.00,,OVC,,,,800.00,,,,BR,,,,,,,,KDFW 130625Z AUTO 36014KT 4SM BR OVC008 M06/M07 A3022 RMK T10601070 MADISHF
DFW,2021-02-13 06:29,21.00,19.00,91.83,360.00,15.00,0.00,30.23,,4.00,,OVC,,,,800.00,,,,BR,T,,,,,,6.52,KDFW 130629Z 36015KT 4SM BR OVC008 M06/M07 A3023 RMK AO2 I1000 T10611072
DFW,2021-02-13 06:30,,,,360.00,13.00,,30.23,,4.00,,OVC,,,,800.00,,,,BR,,,,,,,,KDFW 130630Z AUTO 36013KT 4SM BR OVC008 M06/M07 A3022 RMK T10601070 MADISHF
DFW,2021-02-13 06:35,,,,360.00,13.00,,30.23,,4.00,,OVC,,,,800.00,,,,BR,,,,,,,,KDFW 130635Z AUTO 36013KT 4SM BR OVC008 M06/M07 A3022 RMK T10601070 MADISHF
DFW,2021-02-13 06:40,,,,360.00,14.00,,30.22,,4.00,,OVC,,,,800.00,,,,BR,,,,,,,,KDFW 130640Z AUTO 36014KT 4SM BR OVC008 M06/M07 A3021 RMK T10601070 MADISHF
DFW,2021-02-13 06:45,,,,360.00,13.00,,30.23,,4.00,,OVC,,,,800.00,,,,BR,,,,,,,,KDFW 130645Z AUTO 36013KT 4SM BR OVC008 M06/M07 A3022 RMK T10601070 MADISHF
DFW,2021-02-13 06:50,,,,360.00,11.00,,30.22,,5.00,,OVC,,,,800.00,,,,BR,,,,,,,,KDFW 130650Z AUTO 36011KT 5SM BR OVC008 M06/M07 A3021 RMK T10601070 MADISHF
DFW,2021-02-13 06:53,21.00,19.00,91.83,360.00,14.00,0.00,30.23,1024.10,5.00,,OVC,,,,800.00,,,,BR,0.01,,,,,,6.98,KDFW 130653Z 36014KT 5SM BR OVC008 M06/M07 A3023 RMK AO2 SLP241 I1001 T10611072
DFW,2021-02-13 06:55,,,,350.00,14.00,,30.23,,5.00,,OVC,,,,800.00,,,,BR,,,,,,,,KDFW 130655Z AUTO 35014KT 5SM BR OVC008 M06/M07 A3022 RMK T10601070 MADISHF
DFW,2021-02-13 07:00,,,,360.00,13.00,,30.23,,6.00,,OVC,,,,800.00,,,,BR,,,,,,,,KDFW 130700Z AUTO 36013KT 6SM BR OVC008 M06/M07 A3022 RMK T10601070 MADISHF
DFW,2021-02-13 07:05,,,,350.00,14.00,,30.23,,6.00,,OVC,,,,800.00,,,,BR,,,,,,,,KDFW 130705Z AUTO 35014KT 6SM BR OVC008 M06/M07 A3022 RMK T10601070 MADISHF
DFW,2021-02-13 07:10,,,,360.00,11.00,,30.22,,6.00,,OVC,,,,800.00,,,,BR,,,,,,,,KDFW 130710Z AUTO 36011KT 6SM BR OVC008 M06/M07 A3021 RMK T10601070 MADISHF
DFW,2021-02-13 07:15,,,,,14.00,,30.23,,6.00,19.00,OVC,,,,800.00,,,,BR,,,,,,,,KDFW 130715Z AUTO ///14G19KT 6SM BR OVC008 M06/M08 A3022 RMK T10601080 MADISHF
DFW,2021-02-13 07:20,,,,,14.00,,30.22,,7.00,19.00,OVC,,,,800.00,,,,,,,,,,,,KDFW 130720Z AUTO ///14G19KT 7SM OVC008 M06/M08 A3021 RMK T10601080 MADISHF
DFW,2021-02-13 07:25,,,,360.00,13.00,,30.22,,7.00,,OVC,,,,800.00,,,,,,,,,,,,KDFW 130725Z AUTO 36013KT 7SM OVC008 M06/M08 A3021 RMK T10601080 MADISHF
DFW,2021-02-13 07:30,,,,360.00,11.00,,30.22,,7.00,,OVC,,,,800.00,,,,,,,,,,,,KDFW 130730Z AUTO 36011KT 7SM OVC008 M06/M08 A3021 RMK T10601080 MADISHF
DFW,2021-02-13 07:35,,,,,15.00,,30.22,,7.00,,OVC,,,,800.00,,,,,,,,,,,,KDFW 130735Z AUTO ///15KT 7SM OVC008 M06/M08 A3021 RMK T10601080 MADISHF
DFW,2021-02-13 07:40,,,,,14.00,,30.22,,7.00,,OVC,,,,800.00,,,,,,,,,,,,KDFW 130740Z AUTO ///14KT 7SM OVC008 M06/M08 A3021 RMK T10601080 MADISHF
DFW,2021-02-13 07:45,,,,,14.00,,30.22,,6.00,,OVC,,,,800.00,,,,BR,,,,,,,,KDFW 130745Z AUTO ///14KT 6SM BR OVC008 M06/M08 A3021 RMK T10601080 MADISHF
DFW,2021-02-13 07:50,,,,,14.00,,30.22,,6.00,,OVC,,,,800.00,,,,BR,,,,,,,,KDFW 130750Z AUTO ///14KT 6SM BR OVC008 M06/M08 A3021 RMK T10601080 MADISHF
DFW,2021-02-13 07:53,21.00,18.00,87.97,10.00,13.00,0.00,30.22,1023.90,6.00,,OVC,,,,800.00,,,,BR,,,,,,,7.48,KDFW 130753Z 01013KT 6SM BR OVC008 M06/M08 A3022 RMK AO2 SLP239 T10611078
DFW,2021-02-13 07:55,,,,,15.00,,30.22,,6.00,,OVC,,,,800.00,,,,BR,,,,,,,,KDFW 130755Z AUTO ///15KT 6SM BR OVC008 M06/M08 A3021 RMK T10601080 MADISHF
DFW,2021-02-13 08:00,,,,,11.00,,30.22,,6.00,,OVC,,,,800.00,,,,BR,,,,,,,,KDFW 130800Z AUTO ///11KT 6SM BR OVC008 M06/M08 A3021 RMK T10601080 MADISHF
DFW,2021-02-13 08:05,,,,,14.00,,30.21,,6.00,,OVC,,,,800.00,,,,BR,,,,,,,,KDFW 130805Z AUTO ///14KT 6SM BR OVC008 M06/M08 A3020 RMK T10601080 MADISHF
DFW,2021-02-13 08:10,,,,,15.00,,30.21,,6.00,,OVC,,,,800.00,,,,BR,,,,,,,,KDFW 130810Z AUTO ///15KT 6SM BR OVC008 M06/M08 A3020 RMK T10601080 MADISHF
DFW,2021-02-13 08:15,,,,,13.00,,30.21,,5.00,,OVC,,,,800.00,,,,BR,,,,,,,,KDFW 130815Z AUTO ///13KT 5SM BR OVC008 M06/M08 A3020 RMK T10601080 MADISHF
DFW,2021-02-13 08:20,,,,,14.00,,30.21,,5.00,,OVC,,,,900.00,,,,BR,,,,,,,,KDFW 130820Z AUTO ///14KT 5SM BR OVC009 M06/M07 A3020 RMK T10601070 MADISHF
DFW,2021-02-13 08:25,,,,350.00,14.00,,30.21,,6.00,,OVC,,,,900.00,,,,BR,,,,,,,,KDFW 130825Z AUTO 35014KT 6SM BR OVC009 M06/M08 A3020 RMK T10601080 MADISHF
DFW,2021-02-13 08:30,,,,360.00,11.00,,30.21,,6.00,,OVC,,,,900.00,,,,BR,,,,,,,,KDFW 130830Z AUTO 36011KT 6SM BR OVC009 M06/M08 A3020 RMK T10601080 MADISHF
DFW,2021-02-13 08:35,,,,350.00,13.00,,30.21,,6.00,,OVC,,,,900.00,,,,BR,,,,,,,,KDFW 130835Z AUTO 35013KT 6SM BR OVC009 M06/M08 A3020 RMK T10601080 MADISHF
DFW,2021-02-13 08:40,,,,,14.00,,30.20,,5.00,,OVC,,,,900.00,,,,BR,,,,,,,,KDFW 130840Z AUTO ///14KT 5SM BR OVC009 M06/M08 A3020 RMK T10601080 MADISHF
DFW,2021-02-13 08:45,,,,,11.00,,30.21,,6.00,,OVC,,,,900.00,,,,BR,,,,,,,,KDFW 130845Z AUTO ///11KT 6SM BR OVC009 M06/M08 A3020 RMK T10601080 MADISHF
DFW,2021-02-13 08:50,,,,,13.00,,30.21,,7.00,,OVC,,,,900.00,,,,,,,,,,,,KDFW 130850Z AUTO ///13KT 7SM OVC009 M06/M08 A3020 RMK T10601080 MADISHF
DFW,2021-02-13 08:53,21.00,18.00,87.97,350.00,13.00,0.00,30.21,1023.70,7.00,,OVC,,,,900.00,,,,,,0.01,,,,,7.48,KDFW 130853Z 35013KT 7SM OVC009 M06/M08 A3021 RMK AO2 SLP237 I3001 T10611078 56009
DFW,2021-02-13 08:55,,,,,14.00,,30.21,,8.00,,OVC,,,,900.00,,,,,,,,,,,,KDFW 130855Z AUTO ///14KT 8SM OVC009 M06/M08 A3020 RMK T10601080 MADISHF
DFW,2021-02-13 09:00,,,,,13.00,,30.21,,9.00,,OVC,,,,999.00,,,,,,,,,,,,KDFW 130900Z AUTO ///13KT 9SM OVC009 M06/M08 A3020 RMK T10601080 MADISHF
DFW,2021-02-13 09:05,,,,,13.00,,30.22,,9.00,,OVC,,,,900.00,,,,,,,,,,,,KDFW 130905Z AUTO ///13KT 9SM OVC009 M06/M08 A3021 RMK T10601080 MADISHF
DFW,2021-02-13 09:10,,,,350.00,13.00,,30.22,,9.00,,OVC,,,,900.00,,,,,,,,,,,,KDFW 130910Z AUTO 35013KT 9SM OVC009 M06/M08 A3021 RMK T10601080 MADISHF
DFW,2021-02-13 09:15,,,,360.00,13.00,,30.22,,9.00,,OVC,,,,900.00,,,,,,,,,,,,KDFW 130915Z AUTO 36013KT 9SM OVC009 M06/M08 A3021 RMK T10601080 MADISHF
DFW,2021-02-13 09:20,,,,350.00,11.00,,30.22,,9.00,,OVC,,,,900.00,,,,,,,,,,,,KDFW 130920Z AUTO 35011KT 9SM OVC009 M06/M08 A3021 RMK T10601080 MADISHF
DFW,2021-02-13 09:25,,,,340.00,13.00,,30.22,,8.00,,OVC,,,,900.00,,,,,,,,,,,,KDFW 130925Z AUTO 34013KT 8SM OVC009 M06/M08 A3021 RMK T10601080 MADISHF
DFW,2021-02-13 09:30,,,,350.00,11.00,,30.22,,7.00,,OVC,,,,900.00,,,,,,,,,,,,KDFW 130930Z AUTO 35011KT 7SM OVC009 M06/M08 A3021 RMK T10601080 MADISHF
DFW,2021-02-13 09:35,,,,360.00,15.00,,30.22,,7.00,,OVC,,,,900.00,,,,,,,,,,,,KDFW 130935Z AUTO 36015KT 7SM OVC009 M06/M08 A3021 RMK T10601080 MADISHF
DFW,2021-02-13 09:40,,,,360.00,11.00,,30.22,,6.00,,OVC,,,,900.00,,,,BR,,,,,,,,KDFW 130940Z AUTO 36011KT 6SM BR OVC009 M06/M08 A3021 RMK T10601080 MADISHF
DFW,2021-02-13 09:45,,,,360.00,13.00,,30.22,,5.00,,OVC,,,,900.00,,,,BR,,,,,,,,KDFW 130945Z AUTO 36013KT 5SM BR OVC009 M06/M08 A3021 RMK T10601080 MADISHF
DFW,2021-02-13 09:50,,,,10.00,13.00,,30.22,,5.00,,OVC,,,,900.00,,,,-FZRA BR,,,,,,,,KDFW 130950Z AUTO 01013KT 5SM -FZRA BR OVC009 M06/M08 A3021 RMK T10601080 MADISHF
DFW,2021-02-13 09:53,21.00,18.00,87.97,360.00,12.00,T,30.22,1023.80,5.00,,OVC,,,,900.00,,,,-FZRA BR,T,,,,,,8.00,KDFW 130953Z 36012KT 5SM -FZRA BR OVC009 M06/M08 A3022 RMK AO2 FZRAB49 SLP238 P0000 I1000 T10611078
DFW,2021-02-13 09:55,,,,350.00,11.00,,30.22,,5.00,,OVC,,,,900.00,,,,-FZRA BR,,,,,,,,KDFW 130955Z AUTO 35011KT 5SM -FZRA BR OVC009 M06/M08 A3021 RMK T10601080 MADISHF
DFW,2021-02-13 10:00,,,,350.00,11.00,,30.22,,5.00,,OVC,,,,900.00,,,,-FZRA BR,,,,,,,,KDFW 131000Z AUTO 35011KT 5SM -FZRA BR OVC009 M06/M08 A3021 RMK T10601080 MADISHF
DFW,2021-02-13 10:05,,,,350.00,11.00,,30.22,,5.00,,OVC,,,,900.00,,,,-FZRA BR,,,,,,,,KDFW 131005Z AUTO 35011KT 5SM -FZRA BR OVC009 M06/M08 A3021 RMK T10601080 MADISHF
DFW,2021-02-13 10:10,,,,340.00,11.00,,30.22,,4.00,,OVC,,,,900.00,,,,-FZRA BR,,,,,,,,KDFW 131010Z AUTO 34011KT 4SM -FZRA BR OVC009 M06/M08 A3021 RMK T10601080 MADISHF
DFW,2021-02-13 10:15,,,,,11.00,,30.22,,4.00,,OVC,,,,900.00,,,,-FZRA BR,,,,,,,,KDFW 131015Z AUTO ///11KT 4SM -FZRA BR OVC009 M06/M08 A3021 RMK T10601080 MADISHF
DFW,2021-02-13 10:20,,,,,11.00,,30.22,,4.00,,OVC,,,,900.00,,,,-FZRA BR,,,,,,,,KDFW 131020Z AUTO ///11KT 4SM -FZRA BR OVC009 M06/M08 A3021 RMK T10601080 MADISHF
DFW,2021-02-13 10:25,,,,340.00,13.00,,30.22,,3.50,,OVC,,,,900.00,,,,-FZRA BR,,,,,,,,KDFW 131025Z AUTO 34013KT 3SM -FZRA BR OVC009 M06/M08 A3021 RMK T10601080 MADISHF
DFW,2021-02-13 10:30,,,,350.00,13.00,,30.21,,4.00,,OVC,,,,900.00,,,,-FZRA BR,,,,,,,,KDFW 131030Z AUTO 35013KT 4SM -FZRA BR OVC009 M06/M08 A3020 RMK T10601080 MADISHF
DFW,2021-02-13 10:35,,,,350.00,14.00,,30.21,,4.00,,OVC,,,,999.00,,,,-FZRA BR,,,,,,,,KDFW 131035Z AUTO 35014KT 4SM -FZRA BR OVC009 M06/M08 A3020 RMK T10601080 MADISHF
DFW,2021-02-13 10:36,21.00,18.00,87.97,350.00,14.00,T,30.21,,4.00,,OVC,,,,1000.00,,,,-FZDZ BR,0.01,,,,,,6.98,KDFW 131036Z 35014KT 4SM -FZDZ BR OVC010 M06/M08 A3021 RMK AO2 FZRAE36FZDZB36 P0000 I1001 T10611078
DFW,2021-02-13 10:40,,,,350.00,11.00,,30.21,,4.00,,OVC,,,,999.00,,,,-FZDZ BR,,,,,,,,KDFW 131040Z AUTO 35011KT 4SM -FZDZ BR OVC009 M06/M08 A3020 RMK T10601080 MADISHF
DFW,2021-02-13 10:45,,,,350.00,13.00,,30.21,,4.00,,OVC,,,,999.00,,,,-FZDZ BR,,,,,,,,KDFW 131045Z AUTO 35013KT 4SM -FZDZ BR OVC009 M07/M08 A3020 RMK T10701080 MADISHF
DFW,2021-02-13 10:50,,,,340.00,14.00,,30.20,,4.00,,OVC,,,,999.00,,,,-FZDZ BR,,,,,,,,KDFW 131050Z AUTO 34014KT 4SM -FZDZ BR OVC009 M07/M08 A3020 RMK T10701080 MADISHF
DFW,2021-02-13 10:53,19.90,18.00,92.19,340.00,12.00,T,30.20,1023.30,4.00,,OVC,,,,1000.00,,,,-FZDZ BR,0.01,,,,,,6.60,KDFW 131053Z 34012KT 4SM -FZDZ BR OVC010 M07/M08 A3020 RMK AO2 FZRAE36FZDZB36 SLP233 P0000 I1001 T10671078
DFW,2021-02-13 10:55,,,,340.00,11.00,,30.20,,4.00,,OVC,,,,999.00,,,,-FZDZ BR,,,,,,,,KDFW 131055Z AUTO 34011KT 4SM -FZDZ BR OVC009 M07/M08 A3020 RMK T10701080 MADISHF
DFW,2021-02-13 11:00,,,,340.00,11.00,,30.20,,4.00,,OVC,,,,999.00,,,,-FZDZ BR,,,,,,,,KDFW 131100Z AUTO 34011KT 4SM -FZDZ BR OVC009 M07/M08 A3020 RMK T10701080 MADISHF
DFW,2021-02-13 11:05,,,,350.00,11.00,,30.20,,4.00,,OVC,,,,999.00,,,,-FZDZ BR,,,,,,,,KDFW 131105Z AUTO 35011KT 4SM -FZDZ BR OVC009 M07/M08 A3020 RMK T10701080 MADISHF
DFW,2021-02-13 11:10,,,,350.00,13.00,,30.21,,4.00,,OVC,,,,999.00,,,,-FZDZ BR,,,,,,,,KDFW 131110Z AUTO 35013KT 4SM -FZDZ BR OVC009 M07/M08 A3020 RMK T10701080 MADISHF
DFW,2021-02-13 11:15,,,,350.00,13.00,,30.21,,4.00,,OVC,,,,999.00,,,,-FZDZ BR,,,,,,,,KDFW 131115Z AUTO 35013KT 4SM -FZDZ BR OVC009 M07/M08 A3020 RMK T10701080 MADISHF
DFW,2021-02-13 11:20,,,,340.00,13.00,,30.21,,4.00,18.00,OVC,,,,999.00,,,,-FZDZ BR,,,,,,,,KDFW 131120Z AUTO 34013G18KT 4SM -FZDZ BR OVC009 M07/M08 A3020 RMK T10701080 MADISHF
DFW,2021-02-13 11:25,,,,340.00,13.00,,30.22,,4.00,,OVC,,,,999.00,,,,-FZDZ BR,,,,,,,,KDFW 131125Z AUTO 34013KT 4SM -FZDZ BR OVC009 M07/M08 A3021 RMK T10701080 MADISHF
DFW,2021-02-13 11:30,,,,340.00,13.00,,30.22,,4.00,,OVC,,,,999.00,,,,-FZDZ BR,,,,,,,,KDFW 131130Z AUTO 34013KT 4SM -FZDZ BR OVC009 M07/M08 A3021 RMK T10701080 MADISHF
DFW,2021-02-13 11:35,,,,,14.00,,30.22,,5.00,,OVC,,,,999.00,,,,-FZDZ BR,,,,,,,,KDFW 131135Z AUTO ///14KT 5SM -FZDZ BR OVC009 M07/M08 A3021 RMK T10701080 MADISHF
DFW,2021-02-13 11:40,,,,340.00,14.00,,30.22,,5.00,,OVC,,,,900.00,,,,-FZDZ BR,,,,,,,,KDFW 131140Z AUTO 34014KT 5SM -FZDZ BR OVC009 M07/M08 A3021 RMK T10701080 MADISHF
DFW,2021-02-13 11:45,,,,350.00,15.00,,30.23,,5.00,,OVC,,,,999.00,,,,-FZDZ BR,,,,,,,,KDFW 131145Z AUTO 35015KT 5SM -FZDZ BR OVC009 M07/M08 A3022 RMK T10701080 MADISHF
DFW,2021-02-13 11:50,,,,350.00,14.00,,30.23,,5.00,,OVC,,,,999.00,,,,-FZDZ BR,,,,,,,,KDFW 131150Z AUTO 35014KT 5SM -FZDZ BR OVC009 M07/M08 A3022 RMK T10701080 MADISHF
DFW,2021-02-13 11:53,19.90,18.00,92.19,340.00,14.00,T,30.23,1024.20,5.00,,OVC,,,,1000.00,,,,-FZDZ BR,0.01,,0.03,,,,5.57,KDFW 131153Z 34014KT 5SM -FZDZ BR OVC010 M07/M08 A3023 RMK AO2 SLP242 P0000 60000 I1001 I6003 T10671078 11061 21067 53005
DFW,2021-02-13 11:55,,,,340.00,14.00,,30.23,,5.00,,OVC,,,,999.00,,,,-FZDZ BR,,,,,,,,KDFW 131155Z AUTO 34014KT 5SM -FZDZ BR OVC009 M07/M08 A3022 RMK T10701080 MADISHF
DFW,2021-02-13 12:00,,,,340.00,15.00,,30.23,,6.00,,OVC,,,,999.00,,,,-FZDZ BR,,,,,,,,KDFW 131200Z AUTO 34015KT 6SM -FZDZ BR OVC009 M07/M08 A3022 RMK T10701080 MADISHF
DFW,2021-02-13 12:05,,,,350.00,11.00,,30.22,,6.00,,OVC,,,,999.00,,,,-FZDZ BR,,,,,,,,KDFW 131205Z AUTO 35011KT 6SM -FZDZ BR OVC009 M07/M08 A3021 RMK T10701080 MADISHF
DFW,2021-02-13 12:10,,,,350.00,11.00,,30.22,,6.00,,OVC,,,,999.00,,,,-FZDZ BR,,,,,,,,KDFW 131210Z AUTO 35011KT 6SM -FZDZ BR OVC009 M07/M08 A3021 RMK T10701080 MADISHF
DFW,2021-02-13 12:15,,,,350.00,14.00,,30.23,,6.00,,OVC,,,,999.00,,,,-FZDZ BR,,,,,,,,KDFW 131215Z AUTO 35014KT 6SM -FZDZ BR OVC009 M07/M08 A3022 RMK T10701080 MADISHF
DFW,2021-02-13 12:20,,,,360.00,14.00,,30.23,,6.00,,OVC,,,,1100.00,,,,-FZDZ BR,,,,,,,,KDFW 131220Z AUTO 36014KT 6SM -FZDZ BR OVC011 M07/M08 A3022 RMK T10701080 MADISHF
DFW,2021-02-13 12:25,,,,350.00,15.00,,30.23,,6.00,,OVC,,,,1100.00,,,,-FZDZ BR,,,,,,,,KDFW 131225Z AUTO 35015KT 6SM -FZDZ BR OVC011 M07/M08 A3022 RMK T10701080 MADISHF
DFW,2021-02-13 12:30,,,,350.00,14.00,,30.22,,6.00,,OVC,,,,1100.00,,,,-FZDZ BR,,,,,,,,KDFW 131230Z AUTO 35014KT 6SM -FZDZ BR OVC011 M07/M08 A3021 RMK T10701080 MADISHF
DFW,2021-02-13 12:35,,,,350.00,13.00,,30.23,,7.00,,OVC,,,,1200.00,,,,-FZDZ,,,,,,,,KDFW 131235Z AUTO 35013KT 7SM -FZDZ OVC012 M07/M08 A3022 RMK T10701080 MADISHF
DFW,2021-02-13 12:40,,,,350.00,13.00,,30.23,,7.00,,OVC,,,,1200.00,,,,-FZDZ,,,,,,,,KDFW 131240Z AUTO 35013KT 7SM -FZDZ OVC012 M07/M08 A3022 RMK T10701080 MADISHF
DFW,2021-02-13 12:45,,,,350.00,13.00,,30.23,,7.00,,OVC,,,,1200.00,,,,-FZDZ,,,,,,,,KDFW 131245Z AUTO 35013KT 7SM -FZDZ OVC012 M07/M08 A3022 RMK T10701080 MADISHF
DFW,2021-02-13 12:50,,,,360.00,9.00,,30.23,,7.00,,OVC,,,,1200.00,,,,-FZDZ,,,,,,,,KDFW 131250Z AUTO 36009KT 7SM -FZDZ OVC012 M07/M08 A3022 RMK T10701080 MADISHF
DFW,2021-02-13 12:53,19.90,17.10,88.68,350.00,12.00,T,30.24,1024.50,7.00,,OVC,,,,1200.00,,,,-FZDZ,T,,,,,,6.60,KDFW 131253Z 35012KT 7SM -FZDZ OVC012 M07/M08 A3024 RMK AO2 SLP245 P0000 I1000 T10671083
DFW,2021-02-13 12:55,,,,350.00,11.00,,30.24,,7.00,,OVC,,,,1200.00,,,,-FZDZ,,,,,,,,KDFW 131255Z AUTO 35011KT 7SM -FZDZ OVC012 M07/M08 A3023 RMK T10701080 MADISHF
DFW,2021-02-13 13:00,,,,360.00,13.00,,30.24,,8.00,,OVC,,,,1200.00,,,,-FZDZ,,,,,,,,KDFW 131300Z AUTO 36013KT 8SM -FZDZ OVC012 M07/M08 A3023 RMK T10701080 MADISHF
DFW,2021-02-13 13:05,,,,350.00,11.00,,30.24,,9.00,,OVC,,,,1200.00,,,,-FZDZ,,,,,,,,KDFW 131305Z AUTO 35011KT 9SM -FZDZ OVC012 M07/M08 A3023 RMK T10701080 MADISHF
DFW,2021-02-13 13:10,,,,350.00,11.00,,30.24,,9.00,,OVC,,,,1200.00,,,,-FZDZ,,,,,,,,KDFW 131310Z AUTO 35011KT 9SM -FZDZ OVC012 M07/M08 A3023 RMK T10701080 MADISHF
DFW,2021-02-13 13:15,,,,360.00,11.00,,30.24,,9.00,17.00,OVC,,,,1200.00,,,,-FZDZ,,,,,,,,KDFW 131315Z AUTO 36011G17KT 9SM -FZDZ OVC012 M07/M08 A3023 RMK T10701080 MADISHF
DFW,2021-02-13 13:20,,,,350.00,13.00,,30.24,,9.00,,OVC,,,,1200.00,,,,-FZDZ,,,,,,,,KDFW 131320Z AUTO 35013KT 9SM -FZDZ OVC012 M07/M08 A3023 RMK T10701080 MADISHF
DFW,2021-02-13 13:25,,,,350.00,11.00,,30.24,,9.00,,OVC,,,,1200.00,,,,,,,,,,,,KDFW 131325Z AUTO 35011KT 9SM OVC012 M07/M08 A3023 RMK T10701080 MADISHF
DFW,2021-02-13 13:30,,,,360.00,13.00,,30.24,,9.00,,OVC,,,,1200.00,,,,,,,,,,,,KDFW 131330Z AUTO 36013KT 9SM OVC012 M07/M08 A3023 RMK T10701080 MADISHF
DFW,2021-02-13 13:35,,,,20.00,14.00,,30.24,,9.00,,OVC,,,,1200.00,,,,,,,,,,,,KDFW 131335Z AUTO 02014KT 9SM OVC012 M07/M08 A3023 RMK T10701080 MADISHF
DFW,2021-02-13 13:40,,,,,14.00,,30.25,,10.00,,OVC,,,,1200.00,,,,,,,,,,,,KDFW 131340Z AUTO ///14KT 10SM OVC012 M07/M08 A3025 RMK T10701080 MADISHF
DFW,2021-02-13 13:45,,,,10.00,15.00,,30.25,,10.00,,OVC,,,,1200.00,,,,,,,,,,,,KDFW 131345Z AUTO 01015KT 10SM OVC012 M07/M08 A3025 RMK T10701080 MADISHF
DFW,2021-02-13 13:50,,,,10.00,16.00,,30.25,,10.00,,OVC,,,,1200.00,,,,,,,,,,,,KDFW 131350Z AUTO 01016KT 10SM OVC012 M07/M08 A3025 RMK T10701080 MADISHF
DFW,2021-02-13 13:53,19.90,17.10,88.68,360.00,11.00,T,30.26,1025.30,9.00,,OVC,,,,1200.00,,,,,T,,,,,,7.18,KDFW 131353Z 36011KT 9SM OVC012 M07/M08 A3026 RMK AO2 FZDZE25 SLP253 P0000 I1000 T10671083
DFW,2021-02-13 13:55,,,,350.00,11.00,,30.26,,9.00,,OVC,,,,1200.00,,,,,,,,,,,,KDFW 131355Z AUTO 35011KT 9SM OVC012 M07/M08 A3026 RMK T10701080 MADISHF
DFW,2021-02-13 14:00,,,,350.00,10.00,,30.27,,8.00,,OVC,,,,1200.00,,,,,,,,,,,,KDFW 131400Z AUTO 35010KT 8SM OVC012 M07/M08 A3027 RMK T10701080 MADISHF
DFW,2021-02-13 14:05,,,,350.00,14.00,,30.27,,8.00,,OVC,,,,1200.00,,,,,,,,,,,,KDFW 131405Z AUTO 35014KT 8SM OVC012 M07/M08 A3027 RMK T10701080 MADISHF
DFW,2021-02-13 14:10,,,,350.00,14.00,,30.28,,9.00,,OVC,,,,1200.00,,,,,,,,,,,,KDFW 131410Z AUTO 35014KT 9SM OVC012 M07/M08 A3028 RMK T10701080 MADISHF
DFW,2021-02-13 14:15,,,,350.00,14.00,,30.27,,9.00,,OVC,,,,1300.00,,,,,,,,,,,,KDFW 131415Z AUTO 35014KT 9SM OVC013 M07/M08 A3027 RMK T10701080 MADISHF
DFW,2021-02-13 14:20,,,,350.00,11.00,,30.28,,9.00,,OVC,,,,1300.00,,,,,,,,,,,,KDFW 131420Z AUTO 35011KT 9SM OVC013 M07/M08 A3028 RMK T10701080 MADISHF
DFW,2021-02-13 14:25,,,,350.00,14.00,,30.28,,9.00,,OVC,,,,1300.00,,,,,,,,,,,,KDFW 131425Z AUTO 35014KT 9SM OVC013 M07/M08 A3028 RMK T10701080 MADISHF
DFW,2021-02-13 14:30,,,,350.00,13.00,,30.29,,9.00,,OVC,,,,1300.00,,,,,,,,,,,,KDFW 131430Z AUTO 35013KT 9SM OVC013 M07/M09 A3029 RMK T10701090 MADISHF
DFW,2021-02-13 14:35,,,,350.00,14.00,,30.28,,9.00,,OVC,,,,1300.00,,,,,,,,,,,,KDFW 131435Z AUTO 35014KT 9SM OVC013 M07/M09 A3028 RMK T10701090 MADISHF
DFW,2021-02-13 14:40,,,,,13.00,,30.29,,9.00,,OVC,,,,1300.00,,,,,,,,,,,,KDFW 131440Z AUTO ///13KT 9SM OVC013 M07/M08 A3029 RMK T10701080 MADISHF
DFW,2021-02-13 14:45,,,,,14.00,,30.29,,9.00,,OVC,,,,1300.00,,,,,,,,,,,,KDFW 131445Z AUTO ///14KT 9SM OVC013 M07/M08 A3029 RMK T10701080 MADISHF
DFW,2021-02-13 14:50,,,,,16.00,,30.29,,9.00,,OVC,,,,1300.00,,,,,,,,,,,,KDFW 131450Z AUTO ///16KT 9SM OVC013 M07/M09 A3029 RMK T10701090 MADISHF
DFW,2021-02-13 14:53,19.90,16.00,84.55,350.00,15.00,0.00,30.29,1026.30,9.00,,OVC,,,,1300.00,,,,,,T,,,,,5.09,KDFW 131453Z 35015KT 9SM OVC013 M07/M09 A3029 RMK AO2 SLP263 60000 I3000 T10671089 53021
DFW,2021-02-13 14:55,,,,,16.00,,30.29,,9.00,,OVC,,,,1300.00,,,,,,,,,,,,KDFW 131455Z AUTO ///16KT 9SM OVC013 M07/M09 A3029 RMK T10701090 MADISHF
DFW,2021-02-13 15:00,,,,,13.00,,30.30,,9.00,,OVC,,,,1400.00,,,,,,,,,,,,KDFW 131500Z AUTO ///13KT 9SM OVC014 M07/M09 A3029 RMK T10701090 MADISHF
DFW,2021-02-13 15:05,,,,,14.00,,30.30,,9.00,,OVC,,,,1400.00,,,,,,,,,,,,KDFW 131505Z AUTO ///14KT 9SM OVC014 M07/M09 A3029 RMK T10701090 MADISHF
DFW,2021-02-13 15:10,,,,,13.00,,30.30,,9.00,,OVC,,,,1400.00,,,,,,,,,,,,KDFW 131510Z AUTO ///13KT 9SM OVC014 M07/M09 A3029 RMK T10701090 MADISHF
DFW,2021-02-13 15:15,,,,,14.00,,30.30,,10.00,,OVC,,,,1400.00,,,,,,,,,,,,KDFW 131515Z AUTO ///14KT 10SM OVC014 M07/M09 A3029 RMK T10701090 MADISHF
DFW,2021-02-13 15:20,,,,,15.00,,30.30,,10.00,,OVC,,,,1400.00,,,,,,,,,,,,KDFW 131520Z AUTO ///15KT 10SM OVC014 M07/M09 A3029 RMK T10701090 MADISHF
DFW,2021-02-13 15:25,,,,,15.00,,30.30,,10.00,,OVC,,,,1400.00,,,,,,,,,,,,KDFW 131525Z AUTO ///15KT 10SM OVC014 M07/M09 A3029 RMK T10701090 MADISHF
DFW,2021-02-13 15:30,,,,,13.00,,30.31,,10.00,,OVC,,,,1400.00,,,,,,,,,,,,KDFW 131530Z AUTO ///13KT 10SM OVC014 M07/M09 A3030 RMK T10701090 MADISHF
DFW,2021-02-13 15:35,,,,,14.00,,30.31,,9.00,,OVC,,,,1400.00,,,,,,,,,,,,KDFW 131535Z AUTO ///14KT 9SM OVC014 M07/M09 A3030 RMK T10701090 MADISHF
DFW,2021-02-13 15:40,,,,,14.00,,30.31,,9.00,,OVC,,,,1400.00,,,,,,,,,,,,KDFW 131540Z AUTO ///14KT 9SM OVC014 M07/M09 A3030 RMK T10701090 MADISHF
DFW,2021-02-13 15:45,,,,,13.00,,30.31,,9.00,,OVC,,,,1400.00,,,,,,,,,,,,KDFW 131545Z AUTO ///13KT 9SM OVC014 M07/M09 A3030 RMK T10701090 MADISHF
DFW,2021-02-13 15:50,,,,,15.00,,30.31,,8.00,,OVC,,,,1400.00,,,,,,,,,,,,KDFW 131550Z AUTO ///15KT 8SM OVC014 M07/M09 A3030 RMK T10701090 MADISHF
DFW,2021-02-13 15:53,19.90,16.00,84.55,360.00,14.00,0.00,30.31,1027.20,8.00,,OVC,,,,1400.00,,,,,,,,,,,5.57,KDFW 131553Z 36014KT 8SM OVC014 M07/M09 A3031 RMK AO2 SLP272 T10671089
DFW,2021-02-13 15:55,,,,350.00,13.00,,30.32,,8.00,18.00,OVC,,,,1400.00,,,,,,,,,,,,KDFW 131555Z AUTO 35013G18KT 8SM OVC014 M07/M09 A3031 RMK T10701090 MADISHF
DFW,2021-02-13 16:00,,,,350.00,14.00,,30.32,,7.00,,OVC,,,,1300.00,,,,,,,,,,,,KDFW 131600Z AUTO 35014KT 7SM OVC013 M07/M09 A3031 RMK T10701090 MADISHF
DFW,2021-02-13 16:05,,,,350.00,13.00,,30.32,,7.00,,OVC,,,,1300.00,,,,,,,,,,,,KDFW 131605Z AUTO 35013KT 7SM OVC013 M07/M09 A3031 RMK T10701090 MADISHF
DFW,2021-02-13 16:10,,,,340.00,13.00,,30.32,,6.00,,OVC,,,,1200.00,,,,BR,,,,,,,,KDFW 131610Z AUTO 34013KT 6SM BR OVC012 M07/M08 A3031 RMK T10701080 MADISHF
DFW,2021-02-13 16:15,,,,340.00,14.00,,30.32,,6.00,,OVC,,,,1200.00,,,,BR,,,,,,,,KDFW 131615Z AUTO 34014KT 6SM BR OVC012 M07/M09 A3031 RMK T10701090 MADISHF
DFW,2021-02-13 16:20,,,,350.00,13.00,,30.32,,6.00,,OVC,,,,1200.00,,,,BR,,,,,,,,KDFW 131620Z AUTO 35013KT 6SM BR OVC012 M07/M09 A3031 RMK T10701090 MADISHF
DFW,2021-02-13 16:25,,,,350.00,11.00,,30.32,,6.00,,OVC,,,,1200.00,,,,BR,,,,,,,,KDFW 131625Z AUTO 35011KT 6SM BR OVC012 M07/M09 A3031 RMK T10701090 MADISHF
DFW,2021-02-13 16:30,,,,350.00,11.00,,30.32,,7.00,,OVC,,,,1200.00,,,,,,,,,,,,KDFW 131630Z AUTO 35011KT 7SM OVC012 M07/M09 A3031 RMK T10701090 MADISHF
DFW,2021-02-13 16:35,,,,340.00,11.00,,30.32,,7.00,,OVC,,,,1200.00,,,,,,,,,,,,KDFW 131635Z AUTO 34011KT 7SM OVC012 M07/M08 A3031 RMK T10701080 MADISHF
DFW,2021-02-13 16:40,,,,350.00,13.00,,30.32,,7.00,,OVC,,,,1200.00,,,,,,,,,,,,KDFW 131640Z AUTO 35013KT 7SM OVC012 M07/M08 A3031 RMK T10701080 MADISHF
DFW,2021-02-13 16:45,,,,350.00,15.00,,30.32,,7.00,,OVC,,,,1200.00,,,,,,,,,,,,KDFW 131645Z AUTO 35015KT 7SM OVC012 M06/M08 A3031 RMK T10601080 MADISHF
DFW,2021-02-13 16:50,,,,350.00,13.00,,30.32,,7.00,,OVC,,,,1200.00,,,,,,,,,,,,KDFW 131650Z AUTO 35013KT 7SM OVC012 M06/M08 A3031 RMK T10601080 MADISHF
DFW,2021-02-13 16:53,21.00,17.10,84.62,350.00,13.00,0.00,30.31,1027.10,7.00,,OVC,,,,1200.00,,,,,,,,,,,7.48,KDFW 131653Z 35013KT 7SM OVC012 M06/M08 A3031 RMK AO2 SLP271 T10611083
DFW,2021-02-13 16:55,,,,,11.00,,30.31,,7.00,,OVC,,,,1400.00,,,,,,,,,,,,KDFW 131655Z AUTO ///11KT 7SM OVC014 M06/M08 A3030 RMK T10601080 MADISHF
DFW,2021-02-13 17:00,,,,360.00,9.00,,30.31,,8.00,,OVC,,,,1400.00,,,,,,,,,,,,KDFW 131700Z AUTO 36009KT 8SM OVC014 M06/M08 A3030 RMK T10601080 MADISHF
DFW,2021-02-13 17:05,,,,360.00,11.00,,30.31,,8.00,,OVC,,,,1400.00,,,,,,,,,,,,KDFW 131705Z AUTO 36011KT 8SM OVC014 M06/M08 A3030 RMK T10601080 MADISHF
DFW,2021-02-13 17:10,,,,360.00,10.00,,30.31,,9.00,,OVC,,,,1400.00,,,,,,,,,,,,KDFW 131710Z AUTO 36010KT 9SM OVC014 M06/M08 A3030 RMK T10601080 MADISHF
DFW,2021-02-13 17:15,,,,360.00,11.00,,30.31,,9.00,,OVC,,,,1400.00,,,,,,,,,,,,KDFW 131715Z AUTO 36011KT 9SM OVC014 M06/M08 A3030 RMK T10601080 MADISHF
DFW,2021-02-13 17:20,,,,360.00,11.00,,30.31,,10.00,,OVC,,,,1400.00,,,,,,,,,,,,KDFW 131720Z AUTO 36011KT 10SM OVC014 M05/M08 A3030 RMK T10501080 MADISHF
DFW,2021-02-13 17:23,23.00,16.00,74.15,360.00,11.00,0.00,30.31,,10.00,,OVC,,,,1600.00,,,,,,,,,,,11.09,KDFW 131723Z 36011KT 10SM OVC016 M05/M09 A3031 RMK AO2 T10501089
DFW,2021-02-13 17:25,,,,360.00,11.00,,30.31,,10.00,,OVC,,,,1600.00,,,,,,,,,,,,KDFW 131725Z AUTO 36011KT 10SM OVC016 M05/M09 A3030 RMK T10501090 MADISHF
DFW,2021-02-13 17:30,,,,350.00,10.00,,30.31,,10.00,,OVC,,,,1600.00,,,,,,,,,,,,KDFW 131730Z AUTO 35010KT 10SM OVC016 M05/M09 A3030 RMK T10501090 MADISHF
DFW,2021-02-13 17:35,,,,350.00,11.00,,30.30,,10.00,,OVC,,,,1600.00,,,,,,,,,,,,KDFW 131735Z AUTO 35011KT 10SM OVC016 M05/M09 A3029 RMK T10501090 MADISHF
DFW,2021-02-13 17:40,,,,360.00,14.00,,30.29,,10.00,,OVC,,,,1600.00,,,,,,,,,,,,KDFW 131740Z AUTO 36014KT 10SM OVC016 M05/M09 A3029 RMK T10501090 MADISHF
DFW,2021-02-13 17:45,,,,,11.00,,30.29,,10.00,,OVC,,,,1699.00,,,,,,,,,,,,KDFW 131745Z AUTO ///11KT 10SM OVC016 M05/M09 A3029 RMK T10501090 MADISHF
DFW,2021-02-13 17:50,,,,,11.00,,30.29,,10.00,,OVC,,,,1699.00,,,,,,,,,,,,KDFW 131750Z AUTO ///11KT 10SM OVC016 M04/M08 A3029 RMK T10401080 MADISHF
DFW,2021-02-13 17:53,24.10,17.10,74.27,350.00,13.00,0.00,30.28,1026.10,10.00,,OVC,,,,1700.00,,,,,,,T,,,,11.45,KDFW 131753Z 35013KT 10SM OVC017 M04/M08 A3028 RMK AO2 SLP261 60000 I6000 T10441083 11044 21067 58002
DFW,2021-02-13 17:55,,,,10.00,11.00,,30.28,,10.00,,OVC,,,,1699.00,,,,,,,,,,,,KDFW 131755Z AUTO 01011KT 10SM OVC016 M04/M09 A3028 RMK T10401090 MADISHF
DFW,2021-02-13 18:00,,,,350.00,13.00,,30.28,,10.00,,OVC,,,,1699.00,,,,,,,,,,,,KDFW 131800Z AUTO 35013KT 10SM OVC016 M04/M09 A3028 RMK T10401090 MADISHF
DFW,2021-02-13 18:05,,,,360.00,17.00,,30.27,,10.00,,OVC,,,,1699.00,,,,,,,,,,,,KDFW 131805Z AUTO 36017KT 10SM OVC016 M04/M09 A3027 RMK T10401090 MADISHF
DFW,2021-02-13 18:10,,,,360.00,14.00,,,,10.00,,OVC,,,,1699.00,,,,,,,,,,,,KDFW 131810Z AUTO 36014KT 10SM OVC016 M04/M09 RMK T10401090 MADISHF
DFW,2021-02-13 18:15,,,,360.00,13.00,,,,10.00,,OVC,,,,1699.00,,,,,,,,,,,,KDFW 131815Z AUTO 36013KT 10SM OVC016 M04/M09 RMK T10401090 MADISHF
DFW,2021-02-13 18:20,,,,360.00,13.00,,,,10.00,,OVC,,,,1699.00,,,,,,,,,,,,KDFW 131820Z AUTO 36013KT 10SM OVC016 M04/M09 RMK T10401090 MADISHF
DFW,2021-02-13 18:25,,,,360.00,11.00,,,,10.00,,OVC,,,,1699.00,,,,,,,,,,,,KDFW 131825Z AUTO 36011KT 10SM OVC016 M04/M09 RMK T10401090 MADISHF
DFW,2021-02-13 18:30,,,,10.00,13.00,,,,10.00,,OVC,,,,1800.00,,,,,,,,,,,,KDFW 131830Z AUTO 01013KT 10SM OVC018 M04/M09 RMK T10401090 MADISHF
DFW,2021-02-13 18:35,,,,10.00,11.00,,30.27,,10.00,,OVC,,,,1800.00,,,,,,,,,,,,KDFW 131835Z AUTO 01011KT 10SM OVC018 M04/M09 A3027 RMK T10401090 MADISHF
DFW,2021-02-13 18:40,,,,10.00,10.00,,30.26,,10.00,,OVC,,,,1900.00,,,,,,,,,,,,KDFW 131840Z AUTO 01010KT 10SM OVC019 M03/M09 A3026 RMK T10301090 MADISHF
DFW,2021-02-13 18:45,,,,10.00,11.00,,30.25,,10.00,17.00,OVC,,,,1900.00,,,,,,,,,,,,KDFW 131845Z AUTO 01011G17KT 10SM OVC019 M03/M09 A3025 RMK T10301090 MADISHF
DFW,2021-02-13 18:50,,,,360.00,14.00,,30.24,,10.00,,BKN,OVC,,,1999.00,7000.00,,,,,,,,,,,KDFW 131850Z AUTO 36014KT 10SM BKN019 OVC070 M03/M09 A3023 RMK T10301090 MADISHF
DFW,2021-02-13 18:53,27.00,16.00,62.78,360.00,13.00,0.00,30.24,1024.60,10.00,,BKN,OVC,,,2000.00,7000.00,,,,,,,,,,15.16,KDFW 131853Z 36013KT 10SM BKN020 OVC070 M03/M09 A3024 RMK AO2 PRESFR SLP246 T10281089
DFW,2021-02-13 18:55,,,,10.00,11.00,,30.24,,10.00,,BKN,OVC,,,1999.00,7000.00,,,,,,,,,,,KDFW 131855Z AUTO 01011KT 10SM BKN019 OVC070 M02/M09 A3023 RMK T10201090 MADISHF
DFW,2021-02-13 19:00,,,,360.00,11.00,,30.23,,10.00,19.00,BKN,BKN,,,2100.00,7000.00,,,,,,,,,,,KDFW 131900Z AUTO 36011G19KT 10SM BKN021 BKN070 M02/M09 A3022 RMK T10201090 MADISHF
DFW,2021-02-13 19:05,,,,360.00,13.00,,30.22,,10.00,,SCT,BKN,,,2100.00,7000.00,,,,,,,,,,,KDFW 131905Z AUTO 36013KT 10SM SCT021 BKN070 M02/M09 A3021 RMK T10201090 MADISHF
DFW,2021-02-13 19:08,28.00,16.00,60.25,10.00,14.00,0.00,30.22,,10.00,22.00,SCT,BKN,,,2100.00,7000.00,,,,,,,,,,16.01,KDFW 131908Z 01014G22KT 10SM SCT021 BKN070 M02/M09 A3022 RMK AO2 PRESFR T10221089
DFW,2021-02-13 19:10,,,,10.00,11.00,,30.22,,10.00,18.00,FEW,BKN,,,2100.00,7000.00,,,,,,,,,,,KDFW 131910Z AUTO 01011G18KT 10SM FEW021 BKN070 M02/M09 A3021 RMK T10201090 MADISHF
DFW,2021-02-13 19:15,,,,360.00,11.00,,30.22,,10.00,,FEW,BKN,,,2100.00,7000.00,,,,,,,,,,,KDFW 131915Z AUTO 36011KT 10SM FEW021 BKN070 M02/M09 A3021 RMK T10201090 MADISHF
DFW,2021-02-13 19:20,,,,,14.00,,30.22,,10.00,,FEW,BKN,,,2300.00,7000.00,,,,,,,,,,,KDFW 131920Z AUTO ///14KT 10SM FEW023 BKN070 M02/M09 A3021 RMK T10201090 MADISHF
DFW,2021-02-13 19:25,,,,,14.00,,30.22,,10.00,19.00,FEW,BKN,,,2300.00,7000.00,,,,,,,,,,,KDFW 131925Z AUTO ///14G19KT 10SM FEW023 BKN070 M01/M08 A3021 RMK T10101080 MADISHF
DFW,2021-02-13 19:30,,,,,11.00,,30.21,,10.00,,SCT,BKN,,,2300.00,7000.00,,,,,,,,,,,KDFW 131930Z AUTO ///11KT 10SM SCT023 BKN070 M01/M09 A3020 RMK T10101090 MADISHF
DFW,2021-02-13 19:35,,,,360.00,15.00,,30.21,,10.00,,BKN,BKN,,,2500.00,7000.00,,,,,,,,,,,KDFW 131935Z AUTO 36015KT 10SM BKN025 BKN070 M02/M09 A3020 RMK T10201090 MADISHF
DFW,2021-02-13 19:38,28.90,16.00,58.06,350.00,15.00,0.00,30.21,,10.00,21.00,BKN,BKN,,,2500.00,7000.00,,,,,,,,,,16.76,KDFW 131938Z 35015G21KT 10SM BKN025 BKN070 M02/M09 A3021 RMK AO2 T10171089
DFW,2021-02-13 19:40,,,,,14.00,,30.21,,10.00,,BKN,,,,2500.00,,,,,,,,,,,,KDFW 131940Z AUTO ///14KT 10SM BKN025 M01/M09 A3020 RMK T10101090 MADISHF
DFW,2021-02-13 19:45,,,,10.00,14.00,,30.21,,10.00,,BKN,,,,2500.00,,,,,,,,,,,,KDFW 131945Z AUTO 01014KT 10SM BKN025 M02/M09 A3020 RMK T10201090 MADISHF
DFW,2021-02-13 19:50,,,,,15.00,,30.21,,10.00,,BKN,,,,2500.00,,,,,,,,,,,,KDFW 131950Z AUTO ///15KT 10SM BKN025 M01/M09 A3020 RMK T10101090 MADISHF
DFW,2021-02-13 19:53,30.00,16.00,55.52,360.00,15.00,0.00,30.21,1023.40,10.00,,BKN,,,,2500.00,,,,,,,,,,,18.19,KDFW 131953Z 36015KT 10SM BKN025 M01/M09 A3021 RMK AO2 SLP234 T10111089
DFW,2021-02-13 19:55,,,,350.00,14.00,,30.21,,10.00,,BKN,,,,2500.00,,,,,,,,,,,,KDFW 131955Z AUTO 35014KT 10SM BKN025 M01/M09 A3020 RMK T10101090 MADISHF
DFW,2021-02-13 20:00,,,,360.00,14.00,,30.20,,10.00,,BKN,,,,2500.00,,,,,,,,,,,,KDFW 132000Z AUTO 36014KT 10SM BKN025 M01/M09 A3020 RMK T10101090 MADISHF
DFW,2021-02-13 20:05,,,,350.00,15.00,,30.20,,10.00,,BKN,,,,2500.00,,,,,,,,,,,,KDFW 132005Z AUTO 35015KT 10SM BKN025 M01/M09 A3020 RMK T10101090 MADISHF
DFW,2021-02-13 20:10,,,,360.00,11.00,,30.20,,10.00,,BKN,,,,2600.00,,,,,,,,,,,,KDFW 132010Z AUTO 36011KT 10SM BKN026 M01/M09 A3020 RMK T10101090 MADISHF
DFW,2021-02-13 20:15,,,,,16.00,,30.20,,10.00,22.00,SCT,,,,2600.00,,,,,,,,,,,,KDFW 132015Z AUTO ///16G22KT 10SM SCT026 M01/M09 A3020 RMK T10101090 MADISHF
DFW,2021-02-13 20:20,,,,10.00,14.00,,30.19,,10.00,,SCT,,,,2600.00,,,,,,,,,,,,KDFW 132020Z AUTO 01014KT 10SM SCT026 00/M08 A3019 RMK T00001080 MADISHF
DFW,2021-02-13 20:25,,,,10.00,14.00,,30.19,,10.00,19.00,FEW,,,,2600.00,,,,,,,,,,,,KDFW 132025Z AUTO 01014G19KT 10SM FEW026 00/M09 A3019 RMK T00001090 MADISHF
DFW,2021-02-13 20:30,,,,30.00,14.00,,30.19,,10.00,,FEW,,,,2800.00,,,,,,,,,,,,KDFW 132030Z AUTO 03014KT 10SM FEW028 01/M08 A3019 RMK T00101080 MADISHF
DFW,2021-02-13 20:35,,,,10.00,16.00,,30.19,,10.00,,FEW,,,,2800.00,,,,,,,,,,,,KDFW 132035Z AUTO 01016KT 10SM FEW028 00/M09 A3019 RMK T00001090 MADISHF
DFW,2021-02-13 20:40,,,,20.00,18.00,,30.19,,10.00,,CLR,,,,,,,,,,,,,,,,KDFW 132040Z AUTO 02018KT 10SM CLR 00/M09 A3019 RMK T00001090 MADISHF
DFW,2021-02-13 20:45,,,,360.00,18.00,,30.18,,10.00,,SCT,BKN,,,2800.00,3500.00,,,,,,,,,,,KDFW 132045Z AUTO 36018KT 10SM SCT028 BKN035 00/M09 A3018 RMK T00001090 MADISHF
DFW,2021-02-13 20:50,,,,360.00,14.00,,30.19,,10.00,21.00,SCT,BKN,,,2800.00,3500.00,,,,,,,,,,,KDFW 132050Z AUTO 36014G21KT 10SM SCT028 BKN035 00/M09 A3019 RMK T00001090 MADISHF
DFW,2021-02-13 20:53,33.10,17.10,51.37,20.00,13.00,0.00,30.19,1022.70,10.00,24.00,SCT,BKN,,,2800.00,3500.00,,,,,,,,,,22.98,KDFW 132053Z 02013G24KT 10SM SCT028 BKN035 01/M08 A3019 RMK AO2 SLP227 T00061083 56033
DFW,2021-02-13 20:55,,,,10.00,15.00,,30.19,,10.00,21.00,CLR,,,,,,,,,,,,,,,,KDFW 132055Z AUTO 01015G21KT 10SM CLR 01/M08 A3019 RMK T00101080 MADISHF
DFW,2021-02-13 21:00,,,,350.00,14.00,,30.19,,10.00,,CLR,,,,,,,,,,,,,,,,KDFW 132100Z AUTO 35014KT 10SM CLR 00/M09 A3019 RMK T00001090 MADISHF
DFW,2021-02-13 21:05,,,,10.00,15.00,,30.19,,10.00,,CLR,,,,,,,,,,,,,,,,KDFW 132105Z AUTO 01015KT 10SM CLR 01/M09 A3019 RMK T00101090 MADISHF
DFW,2021-02-13 21:10,,,,,17.00,,30.19,,10.00,22.00,CLR,,,,,,,,,,,,,,,,KDFW 132110Z AUTO ///17G22KT 10SM CLR 01/M09 A3019 RMK T00101090 MADISHF
DFW,2021-02-13 21:15,,,,10.00,14.00,,30.19,,10.00,,CLR,,,,,,,,,,,,,,,,KDFW 132115Z AUTO 01014KT 10SM CLR 00/M09 A3019 RMK T00001090 MADISHF
DFW,2021-02-13 21:20,,,,,15.00,,30.19,,10.00,,CLR,,,,,,,,,,,,,,,,KDFW 132120Z AUTO ///15KT 10SM CLR 01/M09 A3019 RMK T00101090 MADISHF
DFW,2021-02-13 21:25,,,,20.00,13.00,,30.19,,10.00,,CLR,,,,,,,,,,,,,,,,KDFW 132125Z AUTO 02013KT 10SM CLR 00/M09 A3019 RMK T00001090 MADISHF
DFW,2021-02-13 21:30,,,,10.00,18.00,,30.18,,10.00,,CLR,,,,,,,,,,,,,,,,KDFW 132130Z AUTO 01018KT 10SM CLR 00/M09 A3018 RMK T00001090 MADISHF
DFW,2021-02-13 21:35,,,,20.00,15.00,,30.19,,10.00,21.00,CLR,,,,,,,,,,,,,,,,KDFW 132135Z AUTO 02015G21KT 10SM CLR 01/M09 A3019 RMK T00101090 MADISHF
DFW,2021-02-13 21:40,,,,10.00,13.00,,30.18,,10.00,,CLR,,,,,,,,,,,,,,,,KDFW 132140Z AUTO 01013KT 10SM CLR 01/M09 A3018 RMK T00101090 MADISHF
DFW,2021-02-13 21:45,,,,10.00,16.00,,30.18,,10.00,,CLR,,,,,,,,,,,,,,,,KDFW 132145Z AUTO 01016KT 10SM CLR 01/M09 A3018 RMK T00101090 MADISHF
DFW,2021-02-13 21:50,,,,20.00,15.00,,30.18,,10.00,,CLR,,,,,,,,,,,,,,,,KDFW 132150Z AUTO 02015KT 10SM CLR 01/M09 A3018 RMK T00101090 MADISHF
DFW,2021-02-13 21:53,33.10,16.00,48.98,20.00,16.00,0.00,30.18,1022.40,10.00,25.00,FEW,FEW,SCT,,3000.00,8000.00,25000.00,,,,,,27.00,20.00,2021-02-13 21:12,21.85,KDFW 132153Z 02016G25KT 10SM FEW030 FEW080 SCT250 01/M09 A3018 RMK AO2 PK WND 02027/2112 SLP224 T00061089
DFW,2021-02-13 21:55,,,,,18.00,,30.18,,10.00,,CLR,,,,,,,,,,,,,,,,KDFW 132155Z AUTO ///18KT 10SM CLR 01/M09 A3018 RMK T00101090 MADISHF
DFW,2021-02-13 22:00,,,,360.00,17.00,,30.18,,10.00,,CLR,,,,,,,,,,,,,,,,KDFW 132200Z AUTO 36017KT 10SM CLR 00/M09 A3018 RMK T00001090 MADISHF
DFW,2021-02-13 22:05,,,,10.00,18.00,,30.18,,10.00,,CLR,,,,,,,,,,,,,,,,KDFW 132205Z AUTO 01018KT 10SM CLR 01/M09 A3018 RMK T00101090 MADISHF
DFW,2021-02-13 22:10,,,,,18.00,,30.18,,10.00,,CLR,,,,,,,,,,,,,,,,KDFW 132210Z AUTO ///18KT 10SM CLR 00/M09 A3018 RMK T00001090 MADISHF
DFW,2021-02-13 22:15,,,,20.00,15.00,,30.18,,10.00,,CLR,,,,,,,,,,,,,,,,KDFW 132215Z AUTO 02015KT 10SM CLR 00/M09 A3018 RMK T00001090 MADISHF
DFW,2021-02-13 22:20,,,,20.00,15.00,,30.18,,10.00,,FEW,,,,5500.00,,,,,,,,,,,,KDFW 132220Z AUTO 02015KT 10SM FEW055 00/M09 A3018 RMK T00001090 MADISHF
DFW,2021-02-13 22:25,,,,20.00,16.00,,30.18,,10.00,,FEW,,,,5500.00,,,,,,,,,,,,KDFW 132225Z AUTO 02016KT 10SM FEW055 00/M09 A3018 RMK T00001090 MADISHF
DFW,2021-02-13 22:30,,,,10.00,14.00,,30.18,,10.00,,FEW,,,,4400.00,,,,,,,,,,,,KDFW 132230Z AUTO 01014KT 10SM FEW044 00/M09 A3018 RMK T00001090 MADISHF
DFW,2021-02-13 22:35,,,,360.00,14.00,,30.18,,10.00,,SCT,,,,4400.00,,,,,,,,,,,,KDFW 132235Z AUTO 36014KT 10SM SCT044 M01/M09 A3018 RMK T10101090 MADISHF
DFW,2021-02-13 22:40,,,,20.00,14.00,,30.18,,10.00,19.00,SCT,BKN,,,4400.00,5500.00,,,,,,,,,,,KDFW 132240Z AUTO 02014G19KT 10SM SCT044 BKN055 M01/M09 A3018 RMK T10101090 MADISHF
DFW,2021-02-13 22:45,,,,40.00,16.00,,30.18,,10.00,21.00,BKN,BKN,,,4400.00,5500.00,,,,,,,,,,,KDFW 132245Z AUTO 04016G21KT 10SM BKN044 BKN055 M01/M09 A3018 RMK T10101090 MADISHF
DFW,2021-02-13 22:50,,,,10.00,15.00,,30.18,,10.00,,BKN,,,,4400.00,,,,,,,,,,,,KDFW 132250Z AUTO 01015KT 10SM BKN044 M01/M09 A3018 RMK T10101090 MADISHF
DFW,2021-02-13 22:53,30.00,15.10,53.38,30.00,17.00,0.00,30.18,1022.40,10.00,,BKN,BKN,BKN,,4400.00,8000.00,25000.00,,,,,,,,,17.46,KDFW 132253Z 03017KT 10SM BKN044 BKN080 BKN250 M01/M09 A3018 RMK AO2 SLP224 T10111094
DFW,2021-02-13 22:55,,,,10.00,17.00,,30.18,,10.00,,OVC,,,,4400.00,,,,,,,,,,,,KDFW 132255Z AUTO 01017KT 10SM OVC044 M01/M09 A3018 RMK T10101090 MADISHF
DFW,2021-02-13 23:00,,,,20.00,16.00,,30.17,,10.00,,BKN,OVC,,,4400.00,8500.00,,,,,,,,,,,KDFW 132300Z AUTO 02016KT 10SM BKN044 OVC085 M01/M09 A3017 RMK T10101090 MADISHF
DFW,2021-02-13 23:05,,,,10.00,15.00,,30.18,,10.00,,BKN,BKN,,,4400.00,8500.00,,,,,,,,,,,KDFW 132305Z AUTO 01015KT 10SM BKN044 BKN085 M01/M09 A3018 RMK T10101090 MADISHF
DFW,2021-02-13 23:10,,,,30.00,14.00,,30.17,,10.00,19.00,OVC,,,,4400.00,,,,,,,,,,,,KDFW 132310Z AUTO 03014G19KT 10SM OVC044 M01/M09 A3017 RMK T10101090 MADISHF
DFW,2021-02-13 23:15,,,,10.00,16.00,,30.17,,10.00,,OVC,,,,4400.00,,,,,,,,,,,,KDFW 132315Z AUTO 01016KT 10SM OVC044 M01/M09 A3017 RMK T10101090 MADISHF
DFW,2021-02-13 23:20,,,,30.00,14.00,,30.17,,10.00,,OVC,,,,4300.00,,,,,,,,,,,,KDFW 132320Z AUTO 03014KT 10SM OVC043 M01/M09 A3017 RMK T10101090 MADISHF
DFW,2021-02-13 23:25,,,,20.00,14.00,,30.17,,10.00,,OVC,,,,4300.00,,,,,,,,,,,,KDFW 132325Z AUTO 02014KT 10SM OVC043 M01/M09 A3017 RMK T10101090 MADISHF
DFW,2021-02-13 23:30,,,,10.00,14.00,,30.17,,10.00,,OVC,,,,4200.00,,,,,,,,,,,,KDFW 132330Z AUTO 01014KT 10SM OVC042 M01/M09 A3017 RMK T10101090 MADISHF
DFW,2021-02-13 23:35,,,,30.00,15.00,,30.17,,10.00,,OVC,,,,4200.00,,,,,,,,,,,,KDFW 132335Z AUTO 03015KT 10SM OVC042 M02/M09 A3017 RMK T10201090 MADISHF
DFW,2021-02-13 23:40,,,,40.00,13.00,,30.17,,10.00,,OVC,,,,4200.00,,,,,,,,,,,,KDFW 132340Z AUTO 04013KT 10SM OVC042 M02/M09 A3017 RMK T10201090 MADISHF
DFW,2021-02-13 23:45,,,,30.00,13.00,,30.17,,10.00,,OVC,,,,4200.00,,,,,,,,,,,,KDFW 132345Z AUTO 03013KT 10SM OVC042 M02/M09 A3017 RMK T10201090 MADISHF
DFW,2021-02-13 23:50,,,,30.00,14.00,,30.17,,10.00,,BKN,BKN,,,4100.00,7999.00,,,,,,,,,,,KDFW 132350Z AUTO 03014KT 10SM BKN041 BKN079 M02/M09 A3017 RMK T10201090 MADISHF
DFW,2021-02-13 23:53,28.90,15.10,55.83,30.00,16.00,0.00,30.17,1022.20,10.00,24.00,BKN,BKN,BKN,,4100.00,8000.00,25000.00,,,,,,,,,16.38,KDFW 132353Z 03016G24KT 10SM BKN041 BKN080 BKN250 M02/M09 A3017 RMK AO2 SLP222 T10171094 10006 21044 56005
DFW,2021-02-13 23:55,,,,20.00,16.00,,30.17,,10.00,,OVC,,,,4100.00,,,,,,,,,,,,KDFW 132355Z AUTO 02016KT 10SM OVC041 M02/M09 A3017 RMK T10201090 MADISHF
DFW,2021-02-14 00:00,,,,20.00,16.00,,30.17,,10.00,,OVC,,,,4100.00,,,,,,,,,,,,KDFW 140000Z AUTO 02016KT 10SM OVC041 M02/M09 A3017 RMK T10201090 MADISHF
DFW,2021-02-14 00:05,,,,,15.00,,30.17,,10.00,,OVC,,,,4100.00,,,,,,,,,,,,KDFW 140005Z AUTO ///15KT 10SM OVC041 M02/M09 A3017 RMK T10201090 MADISHF
DFW,2021-02-14 00:10,,,,30.00,14.00,,30.17,,10.00,,OVC,,,,4100.00,,,,,,,,,,,,KDFW 140010Z AUTO 03014KT 10SM OVC041 M02/M09 A3017 RMK T10201090 MADISHF
DFW,2021-02-14 00:15,,,,30.00,15.00,,30.17,,10.00,,OVC,,,,4100.00,,,,,,,,,,,,KDFW 140015Z AUTO 03015KT 10SM OVC041 M02/M09 A3017 RMK T10201090 MADISHF
DFW,2021-02-14 00:20,,,,30.00,13.00,,30.17,,10.00,,BKN,,,,4100.00,,,,,,,,,,,,KDFW 140020Z AUTO 03013KT 10SM BKN041 M02/M09 A3017 RMK T10201090 MADISHF
DFW,2021-02-14 00:25,,,,30.00,14.00,,30.17,,10.00,,BKN,,,,4100.00,,,,,,,,,,,,KDFW 140025Z AUTO 03014KT 10SM BKN041 M03/M09 A3017 RMK T10301090 MADISHF
DFW,2021-02-14 00:30,,,,20.00,13.00,,30.18,,10.00,,BKN,BKN,,,4100.00,6000.00,,,,,,,,,,,KDFW 140030Z AUTO 02013KT 10SM BKN041 BKN060 M03/M09 A3018 RMK T10301090 MADISHF
DFW,2021-02-14 00:35,,,,30.00,11.00,,30.18,,10.00,,BKN,OVC,,,4300.00,5500.00,,,,,,,,,,,KDFW 140035Z AUTO 03011KT 10SM BKN043 OVC055 M02/M09 A3018 RMK T10201090 MADISHF
DFW,2021-02-14 00:40,,,,30.00,13.00,,30.18,,10.00,,SCT,OVC,,,4300.00,5500.00,,,,,,,,,,,KDFW 140040Z AUTO 03013KT 10SM SCT043 OVC055 M02/M09 A3018 RMK T10201090 MADISHF
DFW,2021-02-14 00:45,,,,20.00,11.00,,30.18,,10.00,,BKN,OVC,,,4300.00,5500.00,,,,,,,,,,,KDFW 140045Z AUTO 02011KT 10SM BKN043 OVC055 M02/M09 A3018 RMK T10201090 MADISHF
DFW,2021-02-14 00:50,,,,20.00,14.00,,30.18,,10.00,,BKN,OVC,,,4300.00,5500.00,,,,,,,,,,,KDFW 140050Z AUTO 02014KT 10SM BKN043 OVC055 M02/M09 A3018 RMK T10201090 MADISHF
DFW,2021-02-14 00:53,28.00,15.10,57.93,20.00,14.00,0.00,30.19,1022.70,10.00,,BKN,OVC,,,4300.00,5500.00,,,,,,,,,,16.01,KDFW 140053Z 02014KT 10SM BKN043 OVC055 M02/M09 A3019 RMK AO2 SLP227 T10221094
DFW,2021-02-14 00:55,,,,20.00,14.00,,30.19,,10.00,,BKN,OVC,,,4300.00,5500.00,,,,,,,,,,,KDFW 140055Z AUTO 02014KT 10SM BKN043 OVC055 M02/M09 A3019 RMK T10201090 MADISHF
DFW,2021-02-14 01:00,,,,20.00,11.00,,30.19,,10.00,,BKN,OVC,,,4300.00,5500.00,,,,,,,,,,,KDFW 140100Z AUTO 02011KT 10SM BKN043 OVC055 M02/M09 A3019 RMK T10201090 MADISHF
DFW,2021-02-14 01:05,,,,10.00,11.00,,30.19,,10.00,,OVC,,,,4300.00,,,,,,,,,,,,KDFW 140105Z AUTO 01011KT 10SM OVC043 M02/M09 A3019 RMK T10201090 MADISHF
DFW,2021-02-14 01:10,,,,20.00,13.00,,30.19,,10.00,,OVC,,,,4400.00,,,,,,,,,,,,KDFW 140110Z AUTO 02013KT 10SM OVC044 M02/M09 A3019 RMK T10201090 MADISHF
DFW,2021-02-14 01:15,,,,20.00,14.00,,30.20,,10.00,,OVC,,,,4400.00,,,,,,,,,,,,KDFW 140115Z AUTO 02014KT 10SM OVC044 M02/M09 A3020 RMK T10201090 MADISHF
DFW,2021-02-14 01:20,,,,20.00,14.00,,30.20,,10.00,,OVC,,,,4400.00,,,,,,,,,,,,KDFW 140120Z AUTO 02014KT 10SM OVC044 M03/M10 A3020 RMK T10301100 MADISHF
DFW,2021-02-14 01:25,,,,30.00,11.00,,30.20,,10.00,,OVC,,,,4500.00,,,,,,,,,,,,KDFW 140125Z AUTO 03011KT 10SM OVC045 M03/M10 A3020 RMK T10301100 MADISHF
DFW,2021-02-14 01:30,,,,40.00,13.00,,30.21,,10.00,19.00,OVC,,,,4500.00,,,,,,,,,,,,KDFW 140130Z AUTO 04013G19KT 10SM OVC045 M03/M10 A3020 RMK T10301100 MADISHF
DFW,2021-02-14 01:35,,,,40.00,11.00,,30.21,,10.00,,OVC,,,,4500.00,,,,,,,,,,,,KDFW 140135Z AUTO 04011KT 10SM OVC045 M03/M10 A3020 RMK T10301100 MADISHF
DFW,2021-02-14 01:40,,,,20.00,15.00,,30.21,,10.00,,OVC,,,,4600.00,,,,,,,,,,,,KDFW 140140Z AUTO 02015KT 10SM OVC046 M03/M10 A3020 RMK T10301100 MADISHF
DFW,2021-02-14 01:45,,,,30.00,11.00,,30.21,,10.00,,OVC,,,,4600.00,,,,,,,,,,,,KDFW 140145Z AUTO 03011KT 10SM OVC046 M03/M10 A3020 RMK T10301100 MADISHF
DFW,2021-02-14 01:50,,,,20.00,13.00,,30.21,,10.00,,OVC,,,,4600.00,,,,,,,,,,,,KDFW 140150Z AUTO 02013KT 10SM OVC046 M03/M10 A3020 RMK T10301100 MADISHF
DFW,2021-02-14 01:53,27.00,14.00,57.53,30.00,14.00,0.00,30.21,1023.60,10.00,,OVC,,,,4600.00,,,,,,,,,,,14.72,KDFW 140153Z 03014KT 10SM OVC046 M03/M10 A3021 RMK AO2 SLP236 T10281100
DFW,2021-02-14 01:55,,,,30.00,14.00,,30.21,,10.00,,OVC,,,,4600.00,,,,,,,,,,,,KDFW 140155Z AUTO 03014KT 10SM OVC046 M03/M10 A3020 RMK T10301100 MADISHF
DFW,2021-02-14 02:00,,,,40.00,14.00,,30.21,,10.00,,OVC,,,,4600.00,,,,,,,,,,,,KDFW 140200Z AUTO 04014KT 10SM OVC046 M03/M10 A3020 RMK T10301100 MADISHF
DFW,2021-02-14 02:05,,,,30.00,11.00,,30.21,,10.00,17.00,OVC,,,,4800.00,,,,,,,,,,,,KDFW 140205Z AUTO 03011G17KT 10SM OVC048 M03/M11 A3020 RMK T10301110 MADISHF
DFW,2021-02-14 02:10,,,,10.00,11.00,,30.21,,10.00,,OVC,,,,4800.00,,,,,,,,,,,,KDFW 140210Z AUTO 01011KT 10SM OVC048 M03/M10 A3020 RMK T10301100 MADISHF
DFW,2021-02-14 02:15,,,,20.00,11.00,,30.22,,10.00,,OVC,,,,4800.00,,,,,,,,,,,,KDFW 140215Z AUTO 02011KT 10SM OVC048 M03/M11 A3021 RMK T10301110 MADISHF
DFW,2021-02-14 02:20,,,,20.00,14.00,,30.22,,10.00,,OVC,,,,4800.00,,,,,,,,,,,,KDFW 140220Z AUTO 02014KT 10SM OVC048 M03/M11 A3021 RMK T10301110 MADISHF
DFW,2021-02-14 02:25,,,,20.00,13.00,,30.22,,10.00,,OVC,,,,4900.00,,,,,,,,,,,,KDFW 140225Z AUTO 02013KT 10SM OVC049 M03/M11 A3021 RMK T10301110 MADISHF
DFW,2021-02-14 02:30,,,,20.00,11.00,,30.22,,10.00,,OVC,,,,4700.00,,,,,,,,,,,,KDFW 140230Z AUTO 02011KT 10SM OVC047 M03/M11 A3021 RMK T10301110 MADISHF
DFW,2021-02-14 02:35,,,,20.00,14.00,,30.22,,10.00,,OVC,,,,4700.00,,,,,,,,,,,,KDFW 140235Z AUTO 02014KT 10SM OVC047 M03/M11 A3021 RMK T10301110 MADISHF
DFW,2021-02-14 02:40,,,,20.00,14.00,,30.23,,10.00,,OVC,,,,4700.00,,,,,,,,,,,,KDFW 140240Z AUTO 02014KT 10SM OVC047 M03/M11 A3022 RMK T10301110 MADISHF
DFW,2021-02-14 02:45,,,,30.00,14.00,,30.23,,10.00,,OVC,,,,4500.00,,,,,,,,,,,,KDFW 140245Z AUTO 03014KT 10SM OVC045 M03/M11 A3022 RMK T10301110 MADISHF
DFW,2021-02-14 02:50,,,,30.00,16.00,,30.23,,10.00,,OVC,,,,4500.00,,,,,,,,,,,,KDFW 140250Z AUTO 03016KT 10SM OVC045 M04/M11 A3022 RMK T10401110 MADISHF
DFW,2021-02-14 02:53,25.00,12.00,57.23,30.00,13.00,0.00,30.23,1024.30,10.00,,OVC,,,,4500.00,,,,,,,,,,,12.60,KDFW 140253Z 03013KT 10SM OVC045 M04/M11 A3023 RMK AO2 SLP243 T10391111 53020
DFW,2021-02-14 02:55,,,,30.00,15.00,,30.23,,10.00,,OVC,,,,4500.00,,,,,,,,,,,,KDFW 140255Z AUTO 03015KT 10SM OVC045 M04/M11 A3022 RMK T10401110 MADISHF
DFW,2021-02-14 03:00,,,,30.00,14.00,,30.23,,10.00,,OVC,,,,4500.00,,,,,,,,,,,,KDFW 140300Z AUTO 03014KT 10SM OVC045 M04/M11 A3022 RMK T10401110 MADISHF
DFW,2021-02-14 03:05,,,,30.00,14.00,,30.23,,10.00,,OVC,,,,4500.00,,,,,,,,,,,,KDFW 140305Z AUTO 03014KT 10SM OVC045 M04/M11 A3022 RMK T10401110 MADISHF
DFW,2021-02-14 03:10,,,,30.00,11.00,,30.23,,10.00,,OVC,,,,4500.00,,,,,,,,,,,,KDFW 140310Z AUTO 03011KT 10SM OVC045 M04/M11 A3022 RMK T10401110 MADISHF
DFW,2021-02-14 03:15,,,,30.00,13.00,,30.24,,10.00,,OVC,,,,4500.00,,,,,,,,,,,,KDFW 140315Z AUTO 03013KT 10SM OVC045 M04/M11 A3023 RMK T10401110 MADISHF
DFW,2021-02-14 03:20,,,,20.00,11.00,,30.24,,10.00,,OVC,,,,4500.00,,,,,,,,,,,,KDFW 140320Z AUTO 02011KT 10SM OVC045 M04/M11 A3023 RMK T10401110 MADISHF
DFW,2021-02-14 03:25,,,,30.00,11.00,,30.24,,10.00,,OVC,,,,4400.00,,,,,,,,,,,,KDFW 140325Z AUTO 03011KT 10SM OVC044 M04/M11 A3023 RMK T10401110 MADISHF
DFW,2021-02-14 03:30,,,,30.00,11.00,,30.24,,10.00,,OVC,,,,4400.00,,,,,,,,,,,,KDFW 140330Z AUTO 03011KT 10SM OVC044 M04/M11 A3023 RMK T10401110 MADISHF
DFW,2021-02-14 03:35,,,,20.00,11.00,,30.24,,10.00,,OVC,,,,4400.00,,,,,,,,,,,,KDFW 140335Z AUTO 02011KT 10SM OVC044 M04/M11 A3023 RMK T10401110 MADISHF
DFW,2021-02-14 03:40,,,,20.00,14.00,,30.24,,10.00,,OVC,,,,4400.00,,,,,,,,,,,,KDFW 140340Z AUTO 02014KT 10SM OVC044 M04/M11 A3023 RMK T10401110 MADISHF
DFW,2021-02-14 03:45,,,,30.00,11.00,,30.24,,10.00,17.00,BKN,OVC,,,4400.00,5000.00,,,,,,,,,,,KDFW 140345Z AUTO 03011G17KT 10SM BKN044 OVC050 M04/M11 A3023 RMK T10401110 MADISHF
DFW,2021-02-14 03:50,,,,30.00,13.00,,30.24,,10.00,,BKN,OVC,,,4400.00,5000.00,,,,,,,,,,,KDFW 140350Z AUTO 03013KT 10SM BKN044 OVC050 M04/M11 A3023 RMK T10401110 MADISHF
DFW,2021-02-14 03:53,25.00,12.00,57.23,30.00,12.00,0.00,30.24,1024.70,10.00,,BKN,OVC,,,4400.00,5000.00,,,,,,,,,,13.09,KDFW 140353Z 03012KT 10SM BKN044 OVC050 M04/M11 A3024 RMK AO2 SLP247 T10391111
DFW,2021-02-14 03:55,,,,40.00,16.00,,30.25,,10.00,,BKN,OVC,,,4400.00,5000.00,,,,,,,,,,,KDFW 140355Z AUTO 04016KT 10SM BKN044 OVC050 M04/M11 A3025 RMK T10401110 MADISHF
DFW,2021-02-14 04:00,,,,30.00,16.00,,30.25,,10.00,,BKN,OVC,,,4400.00,5000.00,,,,,,,,,,,KDFW 140400Z AUTO 03016KT 10SM BKN044 OVC050 M04/M11 A3025 RMK T10401110 MADISHF
DFW,2021-02-14 04:05,,,,20.00,15.00,,30.25,,10.00,,BKN,OVC,,,4400.00,5000.00,,,,,,,,,,,KDFW 140405Z AUTO 02015KT 10SM BKN044 OVC050 M04/M11 A3025 RMK T10401110 MADISHF
DFW,2021-02-14 04:10,,,,30.00,16.00,,30.25,,10.00,,BKN,OVC,,,4400.00,5000.00,,,,,,,,,,,KDFW 140410Z AUTO 03016KT 10SM BKN044 OVC050 M04/M11 A3025 RMK T10401110 MADISHF
DFW,2021-02-14 04:15,,,,30.00,16.00,,30.25,,10.00,,OVC,,,,4400.00,,,,,,,,,,,,KDFW 140415Z AUTO 03016KT 10SM OVC044 M04/M11 A3025 RMK T10401110 MADISHF
DFW,2021-02-14 04:20,,,,30.00,14.00,,30.25,,10.00,,OVC,,,,4400.00,,,,,,,,,,,,KDFW 140420Z AUTO 03014KT 10SM OVC044 M04/M12 A3025 RMK T10401120 MADISHF
DFW,2021-02-14 04:25,,,,30.00,13.00,,30.25,,10.00,,OVC,,,,4400.00,,,,,,,,,,,,KDFW 140425Z AUTO 03013KT 10SM OVC044 M04/M12 A3025 RMK T10401120 MADISHF
DFW,2021-02-14 04:30,,,,20.00,14.00,,30.25,,10.00,,OVC,,,,4400.00,,,,,,,,,,,,KDFW 140430Z AUTO 02014KT 10SM OVC044 M04/M12 A3025 RMK T10401120 MADISHF
DFW,2021-02-14 04:35,,,,10.00,14.00,,30.25,,10.00,,OVC,,,,4500.00,,,,,,,,,,,,KDFW 140435Z AUTO 01014KT 10SM OVC045 M04/M12 A3025 RMK T10401120 MADISHF
DFW,2021-02-14 04:40,,,,20.00,11.00,,30.25,,10.00,,FEW,OVC,,,2500.00,4500.00,,,,,,,,,,,KDFW 140440Z AUTO 02011KT 10SM FEW025 OVC045 M04/M12 A3025 RMK T10401120 MADISHF
DFW,2021-02-14 04:45,,,,20.00,11.00,,30.24,,10.00,,FEW,OVC,,,2500.00,4500.00,,,,,,,,,,,KDFW 140445Z AUTO 02011KT 10SM FEW025 OVC045 M04/M11 A3023 RMK T10401110 MADISHF
DFW,2021-02-14 04:50,,,,40.00,10.00,,30.24,,10.00,,FEW,OVC,,,2500.00,4500.00,,,,,,,,,,,KDFW 140450Z AUTO 04010KT 10SM FEW025 OVC045 M04/M11 A3023 RMK T10401110 MADISHF
DFW,2021-02-14 04:53,24.10,12.00,59.42,40.00,11.00,0.00,30.24,1024.70,10.00,,FEW,OVC,,,2500.00,4500.00,,,,,,,,,,12.48,KDFW 140453Z 04011KT 10SM FEW025 OVC045 M04/M11 A3024 RMK AO2 SLP247 T10441111
DFW,2021-02-14 04:55,,,,40.00,11.00,,30.24,,10.00,,OVC,,,,4700.00,,,,,,,,,,,,KDFW 140455Z AUTO 04011KT 10SM OVC047 M05/M11 A3023 RMK T10501110 MADISHF
DFW,2021-02-14 05:00,,,,30.00,14.00,,30.24,,10.00,,OVC,,,,4700.00,,,,,,,,,,,,KDFW 140500Z AUTO 03014KT 10SM OVC047 M04/M11 A3023 RMK T10401110 MADISHF
DFW,2021-02-14 05:05,,,,40.00,13.00,,30.24,,10.00,,OVC,,,,4700.00,,,,,,,,,,,,KDFW 140505Z AUTO 04013KT 10SM OVC047 M05/M12 A3023 RMK T10501120 MADISHF
DFW,2021-02-14 05:10,,,,40.00,15.00,,30.24,,10.00,,OVC,,,,4900.00,,,,,,,,,,,,KDFW 140510Z AUTO 04015KT 10SM OVC049 M05/M12 A3023 RMK T10501120 MADISHF
DFW,2021-02-14 05:15,,,,30.00,13.00,,30.24,,10.00,,OVC,,,,4900.00,,,,,,,,,,,,KDFW 140515Z AUTO 03013KT 10SM OVC049 M05/M12 A3023 RMK T10501120 MADISHF
DFW,2021-02-14 05:20,,,,40.00,14.00,,30.24,,10.00,,OVC,,,,4900.00,,,,,,,,,,,,KDFW 140520Z AUTO 04014KT 10SM OVC049 M05/M12 A3023 RMK T10501120 MADISHF
DFW,2021-02-14 05:25,,,,20.00,14.00,,30.23,,10.00,,OVC,,,,4700.00,,,,,,,,,,,,KDFW 140525Z AUTO 02014KT 10SM OVC047 M05/M12 A3022 RMK T10501120 MADISHF
DFW,2021-02-14 05:30,,,,30.00,11.00,,30.23,,10.00,,OVC,,,,4700.00,,,,,,,,,,,,KDFW 140530Z AUTO 03011KT 10SM OVC047 M05/M12 A3022 RMK T10501120 MADISHF
DFW,2021-02-14 05:35,,,,30.00,13.00,,30.23,,10.00,,OVC,,,,4700.00,,,,,,,,,,,,KDFW 140535Z AUTO 03013KT 10SM OVC047 M06/M12 A3022 RMK T10601120 MADISHF
DFW,2021-02-14 05:40,,,,30.00,14.00,,30.23,,10.00,,OVC,,,,4700.00,,,,,,,,,,,,KDFW 140540Z AUTO 03014KT 10SM OVC047 M06/M12 A3022 RMK T10601120 MADISHF
DFW,2021-02-14 05:45,,,,30.00,11.00,,30.23,,10.00,,OVC,,,,4700.00,,,,,,,,,,,,KDFW 140545Z AUTO 03011KT 10SM OVC047 M06/M13 A3022 RMK T10601130 MADISHF
DFW,2021-02-14 05:50,,,,40.00,11.00,,30.22,,10.00,,FEW,BKN,OVC,,2500.00,4500.00,5500.00,,,,,,,,,,KDFW 140550Z AUTO 04011KT 10SM FEW025 BKN045 OVC055 M06/M12 A3021 RMK T10601120 MADISHF
DFW,2021-02-14 05:53,21.90,9.00,57.02,40.00,12.00,0.00,30.22,1024.00,10.00,,BKN,OVC,,,4500.00,5500.00,,,,,,,,,,9.15,KDFW 140553Z 04012KT 10SM BKN045 OVC055 M06/M13 A3022 RMK AO2 SLP240 T10561128 11017 21056 400061067 58002
DFW,2021-02-14 05:55,,,,50.00,11.00,,30.22,,10.00,,OVC,,,,4500.00,,,,,,,,,,,,KDFW 140555Z AUTO 05011KT 10SM OVC045 M06/M13 A3021 RMK T10601130 MADISHF
DFW,2021-02-14 06:00,,,,30.00,11.00,,30.22,,10.00,16.00,OVC,,,,4500.00,,,,,,,,,,,,KDFW 140600Z AUTO 03011G16KT 10SM OVC045 M06/M12 A3021 RMK T10601120 MADISHF
DFW,2021-02-14 06:05,,,,30.00,13.00,,30.22,,10.00,,OVC,,,,4500.00,,,,,,,,,,,,KDFW 140605Z AUTO 03013KT 10SM OVC045 M06/M13 A3021 RMK T10601130 MADISHF
DFW,2021-02-14 06:10,,,,40.00,11.00,,30.21,,10.00,,OVC,,,,4400.00,,,,,,,,,,,,KDFW 140610Z AUTO 04011KT 10SM OVC044 M06/M12 A3020 RMK T10601120 MADISHF
DFW,2021-02-14 06:15,,,,40.00,13.00,,30.21,,10.00,,OVC,,,,4400.00,,,,,,,,,,,,KDFW 140615Z AUTO 04013KT 10SM OVC044 M06/M12 A3020 RMK T10601120 MADISHF
DFW,2021-02-14 06:20,,,,20.00,13.00,,30.22,,10.00,,OVC,,,,4200.00,,,,,,,,,,,,KDFW 140620Z AUTO 02013KT 10SM OVC042 M06/M12 A3021 RMK T10601120 MADISHF
DFW,2021-02-14 06:25,,,,20.00,13.00,,30.22,,10.00,,OVC,,,,4200.00,,,,,,,,,,,,KDFW 140625Z AUTO 02013KT 10SM OVC042 M06/M12 A3021 RMK T10601120 MADISHF
DFW,2021-02-14 06:30,,,,20.00,10.00,,30.22,,10.00,,OVC,,,,3999.00,,,,,,,,,,,,KDFW 140630Z AUTO 02010KT 10SM OVC039 M06/M12 A3021 RMK T10601120 MADISHF
DFW,2021-02-14 06:35,,,,20.00,11.00,,30.22,,10.00,,OVC,,,,3999.00,,,,,,,,,,,,KDFW 140635Z AUTO 02011KT 10SM OVC039 M06/M12 A3021 RMK T10601120 MADISHF
DFW,2021-02-14 06:40,,,,20.00,11.00,,30.23,,10.00,,OVC,,,,3999.00,,,,,,,,,,,,KDFW 140640Z AUTO 02011KT 10SM OVC039 M06/M12 A3022 RMK T10601120 MADISHF
DFW,2021-02-14 06:45,,,,20.00,15.00,,30.22,,10.00,,OVC,,,,3999.00,,,,,,,,,,,,KDFW 140645Z AUTO 02015KT 10SM OVC039 M06/M12 A3021 RMK T10601120 MADISHF
DFW,2021-02-14 06:46,21.00,10.90,64.48,30.00,15.00,T,30.22,,10.00,19.00,OVC,,,,4000.00,,,,-FZDZ,T,,,,,,6.52,KDFW 140646Z 03015G19KT 10SM -FZDZ OVC040 M06/M12 A3022 RMK AO2 FZDZB46 P0000 I1000 T10611117
DFW,2021-02-14 06:50,,,,30.00,13.00,,30.22,,10.00,,OVC,,,,3999.00,,,,-FZDZ,,,,,,,,KDFW 140650Z AUTO 03013KT 10SM -FZDZ OVC039 M06/M12 A3021 RMK T10601120 MADISHF
DFW,2021-02-14 06:53,21.00,10.90,64.48,40.00,11.00,T,30.22,1023.90,10.00,,OVC,,,,4000.00,,,,-FZDZ,T,,,,,,8.57,KDFW 140653Z 04011KT 10SM -FZDZ OVC040 M06/M12 A3022 RMK AO2 FZDZB46 SLP239 P0000 I1000 T10611117
DFW,2021-02-14 06:55,,,,30.00,11.00,,30.22,,10.00,,OVC,,,,3900.00,,,,-FZDZ,,,,,,,,KDFW 140655Z AUTO 03011KT 10SM -FZDZ OVC039 M06/M12 A3021 RMK T10601120 MADISHF
DFW,2021-02-14 07:00,,,,20.00,11.00,,30.22,,10.00,,OVC,,,,3900.00,,,,-FZDZ,,,,,,,,KDFW 140700Z AUTO 02011KT 10SM -FZDZ OVC039 M07/M12 A3021 RMK T10701120 MADISHF
DFW,2021-02-14 07:05,,,,20.00,13.00,,30.23,,10.00,,OVC,,,,3900.00,,,,-FZDZ,,,,,,,,KDFW 140705Z AUTO 02013KT 10SM -FZDZ OVC039 M07/M12 A3022 RMK T10701120 MADISHF
DFW,2021-02-14 07:10,,,,20.00,13.00,,30.23,,10.00,,OVC,,,,3800.00,,,,-FZDZ,,,,,,,,KDFW 140710Z AUTO 02013KT 10SM -FZDZ OVC038 M07/M12 A3022 RMK T10701120 MADISHF
DFW,2021-02-14 07:15,,,,20.00,14.00,,30.23,,10.00,,OVC,,,,3800.00,,,,-FZDZ,,,,,,,,KDFW 140715Z AUTO 02014KT 10SM -FZDZ OVC038 M07/M12 A3022 RMK T10701120 MADISHF
DFW,2021-02-14 07:20,,,,30.00,13.00,,30.23,,10.00,,OVC,,,,3900.00,,,,-FZDZ,,,,,,,,KDFW 140720Z AUTO 03013KT 10SM -FZDZ OVC039 M07/M12 A3022 RMK T10701120 MADISHF
DFW,2021-02-14 07:25,,,,10.00,13.00,,30.23,,10.00,,OVC,,,,3900.00,,,,-FZDZ,,,,,,,,KDFW 140725Z AUTO 01013KT 10SM -FZDZ OVC039 M07/M11 A3022 RMK T10701110 MADISHF
DFW,2021-02-14 07:30,,,,10.00,13.00,,30.23,,10.00,,OVC,,,,3900.00,,,,-FZDZ,,,,,,,,KDFW 140730Z AUTO 01013KT 10SM -FZDZ OVC039 M07/M11 A3022 RMK T10701110 MADISHF
DFW,2021-02-14 07:35,,,,20.00,11.00,,30.23,,10.00,,OVC,,,,3900.00,,,,-FZDZ,,,,,,,,KDFW 140735Z AUTO 02011KT 10SM -FZDZ OVC039 M07/M11 A3022 RMK T10701110 MADISHF
DFW,2021-02-14 07:40,,,,20.00,11.00,,30.24,,10.00,,OVC,,,,3900.00,,,,-FZDZ,,,,,,,,KDFW 140740Z AUTO 02011KT 10SM -FZDZ OVC039 M07/M11 A3023 RMK T10701110 MADISHF
DFW,2021-02-14 07:45,,,,10.00,11.00,,30.24,,9.00,,OVC,,,,3900.00,,,,-PL,,,,,,,,KDFW 140745Z AUTO 01011KT 9SM -PL OVC039 M07/M11 A3023 RMK T10701110 MADISHF
DFW,2021-02-14 07:50,,,,20.00,10.00,,30.24,,9.00,,OVC,,,,3900.00,,,,-PL,,,,,,,,KDFW 140750Z AUTO 02010KT 9SM -PL OVC039 M07/M11 A3023 RMK T10701110 MADISHF
DFW,2021-02-14 07:53,19.90,12.90,73.83,20.00,11.00,T,30.24,1024.60,9.00,,OVC,,,,3900.00,,,,-PL,T,,,,,,7.18,KDFW 140753Z 02011KT 9SM -PL OVC039 M07/M11 A3024 RMK AO2 FZDZE45PLB45 SLP246 P0000 I1000 T10671106
DFW,2021-02-14 07:55,,,,10.00,11.00,,30.24,,9.00,,FEW,OVC,,,2400.00,3700.00,,,-PL,,,,,,,,KDFW 140755Z AUTO 01011KT 9SM -PL FEW024 OVC037 M07/M11 A3023 RMK T10701110 MADISHF
DFW,2021-02-14 08:00,,,,10.00,11.00,,30.25,,10.00,,FEW,SCT,OVC,,2200.00,2700.00,3700.00,,-PL,,,,,,,,KDFW 140800Z AUTO 01011KT 10SM -PL FEW022 SCT027 OVC037 M07/M11 A3025 RMK T10701110 MADISHF
DFW,2021-02-14 08:05,,,,360.00,14.00,,30.25,,10.00,,SCT,BKN,OVC,,2200.00,2700.00,3700.00,,-PL,,,,,,,,KDFW 140805Z AUTO 36014KT 10SM -PL SCT022 BKN027 OVC037 M07/M11 A3025 RMK T10701110 MADISHF
DFW,2021-02-14 08:06,19.90,12.90,73.83,360.00,14.00,T,30.25,,10.00,,SCT,BKN,OVC,,2200.00,2700.00,3700.00,,-PL,,,,,,,5.57,KDFW 140806Z 36014KT 10SM -PL SCT022 BKN027 OVC037 M07/M11 A3025 RMK AO2 P0000 T10671106
DFW,2021-02-14 08:10,,,,350.00,11.00,,30.25,,9.00,,BKN,BKN,OVC,,2200.00,2700.00,3700.00,,-PL,,,,,,,,KDFW 140810Z AUTO 35011KT 9SM -PL BKN022 BKN027 OVC037 M07/M11 A3025 RMK T10701110 MADISHF
DFW,2021-02-14 08:15,,,,,16.00,,30.25,,9.00,,BKN,BKN,OVC,,2200.00,2800.00,3700.00,,-PL,,,,,,,,KDFW 140815Z AUTO ///16KT 9SM -PL BKN022 BKN028 OVC037 M07/M11 A3025 RMK T10701110 MADISHF
DFW,2021-02-14 08:20,,,,,14.00,,30.25,,10.00,,BKN,OVC,,,2200.00,2800.00,,,-PL,,,,,,,,KDFW 140820Z AUTO ///14KT 10SM -PL BKN022 OVC028 M07/M11 A3025 RMK T10701110 MADISHF
DFW,2021-02-14 08:25,,,,360.00,15.00,,30.25,,10.00,,SCT,OVC,,,2200.00,2800.00,,,-PL,,,,,,,,KDFW 140825Z AUTO 36015KT 10SM -PL SCT022 OVC028 M07/M11 A3025 RMK T10701110 MADISHF
DFW,2021-02-14 08:30,,,,10.00,18.00,,30.24,,7.00,,SCT,OVC,,,2200.00,2800.00,,,-PL,,,,,,,,KDFW 140830Z AUTO 01018KT 7SM -PL SCT022 OVC028 M07/M11 A3023 RMK T10701110 MADISHF
DFW,2021-02-14 08:35,,,,360.00,13.00,,30.25,,4.00,,SCT,OVC,,,2100.00,2900.00,,,-PL,,,,,,,,KDFW 140835Z AUTO 36013KT 4SM -PL SCT021 OVC029 M07/M11 A3025 RMK T10701110 MADISHF
DFW,2021-02-14 08:39,19.00,12.90,76.72,360.00,15.00,T,30.25,,4.00,,FEW,OVC,,,2100.00,2900.00,,,-SNPL,,,,,,,3.93,KDFW 140839Z 36015KT 4SM -SNPL FEW021 OVC029 M07/M11 A3025 RMK AO2 SNB39 P0000 T10721106
DFW,2021-02-14 08:40,,,,,17.00,,30.25,,3.50,,FEW,OVC,,,2100.00,2900.00,,,-SN,,,,,,,,KDFW 140840Z AUTO ///17KT 3SM -SN FEW021 OVC029 M07/M11 A3025 RMK T10701110 MADISHF
DFW,2021-02-14 08:45,,,,,15.00,,30.24,,3.50,,FEW,OVC,,,2100.00,2900.00,,,-SN,,,,,,,,KDFW 140845Z AUTO ///15KT 3SM -SN FEW021 OVC029 M07/M10 A3023 RMK T10701100 MADISHF
DFW,2021-02-14 08:50,,,,,17.00,,30.24,,3.50,,OVC,,,,2900.00,,,,-SN BR,,,,,,,,KDFW 140850Z AUTO ///17KT 3SM -SN BR OVC029 M07/M09 A3023 RMK T10701090 MADISHF
DFW,2021-02-14 08:53,19.00,15.10,84.49,360.00,14.00,T,30.24,1024.50,4.00,22.00,OVC,,,,2900.00,,,,-SNPL BR,,T,,,,,4.41,KDFW 140853Z 36014G22KT 4SM -SNPL BR OVC029 M07/M09 A3024 RMK AO2 SNB39 SLP245 P0000 60000 I3000 T10721094 50006
DFW,2021-02-14 08:55,,,,10.00,14.00,,30.24,,4.00,,OVC,,,,2900.00,,,,-SN BR,,,,,,,,KDFW 140855Z AUTO 01014KT 4SM -SN BR OVC029 M07/M09 A3023 RMK T10701090 MADISHF
DFW,2021-02-14 09:00,,,,10.00,14.00,,30.24,,4.00,,OVC,,,,2900.00,,,,-SN BR,,,,,,,,KDFW 140900Z AUTO 01014KT 4SM -SN BR OVC029 M07/M09 A3023 RMK T10701090 MADISHF
DFW,2021-02-14 09:05,,,,20.00,15.00,,30.24,,4.00,,FEW,OVC,,,1200.00,2900.00,,,-SN BR,,,,,,,,KDFW 140905Z AUTO 02015KT 4SM -SN BR FEW012 OVC029 M07/M09 A3023 RMK T10701090 MADISHF
DFW,2021-02-14 09:10,,,,10.00,13.00,,30.23,,4.00,,FEW,OVC,,,1200.00,2900.00,,,-SN BR,,,,,,,,KDFW 140910Z AUTO 01013KT 4SM -SN BR FEW012 OVC029 M07/M09 A3022 RMK T10701090 MADISHF
DFW,2021-02-14 09:15,,,,10.00,13.00,,30.23,,3.00,,FEW,OVC,,,1200.00,2900.00,,,-SN BR,,,,,,,,KDFW 140915Z AUTO 01013KT 3SM -SN BR FEW012 OVC029 M07/M09 A3022 RMK T10701090 MADISHF
DFW,2021-02-14 09:20,,,,10.00,14.00,0.01,30.23,,3.00,,FEW,OVC,,,1200.00,2900.00,,,-SN BR,,,,,,,,KDFW 140920Z AUTO 01014KT 3SM -SN BR FEW012 OVC029 M07/M09 A3022 RMK P0000 T10701090 MADISHF
DFW,2021-02-14 09:25,,,,10.00,11.00,0.01,30.24,,3.00,,FEW,OVC,,,999.00,2900.00,,,-SN BR,,,,,,,,KDFW 140925Z AUTO 01011KT 3SM -SN BR FEW009 OVC029 M07/M09 A3023 RMK P0000 T10701090 MADISHF
DFW,2021-02-14 09:28,19.00,16.00,87.87,10.00,14.00,0.01,30.23,,2.00,21.00,FEW,OVC,,,1000.00,2900.00,,,-SNPL BR,,,,,,,4.41,KDFW 140928Z 01014G21KT 2SM -SNPL BR FEW010 OVC029 M07/M09 A3023 RMK AO2 TWR VIS 2 1/2 P0001 T10721089
DFW,2021-02-14 09:30,,,,360.00,13.00,0.02,30.23,,2.50,,SCT,OVC,,,1200.00,2900.00,,,-SN BR,,,,,,,,KDFW 140930Z AUTO 36013KT 2 1/2SM -SN BR SCT012 OVC029 M07/M09 A3022 RMK P0001 T10701090 MADISHF
DFW,2021-02-14 09:35,,,,10.00,11.00,0.02,30.23,,3.50,,FEW,SCT,OVC,,1200.00,2100.00,2900.00,,-SN BR,,,,,,,,KDFW 140935Z AUTO 01011KT 3SM -SN BR FEW012 SCT021 OVC029 M07/M09 A3022 RMK P0001 T10701090 MADISHF
DFW,2021-02-14 09:40,,,,360.00,11.00,0.02,30.23,,2.50,,FEW,BKN,OVC,,1100.00,2100.00,2700.00,,-SN BR,,,,,,,,KDFW 140940Z AUTO 36011KT 2 1/2SM -SN BR FEW011 BKN021 OVC027 M07/M09 A3022 RMK P0001 T10701090 MADISHF
DFW,2021-02-14 09:45,,,,,14.00,0.02,30.23,,2.00,,FEW,BKN,OVC,,1100.00,1500.00,2700.00,,-SN BR,,,,,,,,KDFW 140945Z AUTO ///14KT 2SM -SN BR FEW011 BKN015 OVC027 M07/M09 A3022 RMK P0001 T10701090 MADISHF
DFW,2021-02-14 09:50,,,,,15.00,0.02,30.23,,1.50,,BKN,BKN,OVC,,1300.00,1999.00,2700.00,,-SN BR,,,,,,,,KDFW 140950Z AUTO ///15KT 1 1/2SM -SN BR BKN013 BKN019 OVC027 M07/M09 A3022 RMK P0001 T10701090 MADISHF
DFW,2021-02-14 09:53,19.00,15.10,84.49,10.00,13.00,0.02,30.23,1024.10,1.25,,BKN,OVC,,,1300.00,2000.00,,,-SN BR,,,,,,,4.91,KDFW 140953Z 01013KT 1 1/4SM R17C/6000VP6000FT -SN BR BKN013 OVC020 M07/M09 A3023 RMK AO2 PLE50 SLP241 P0002 T10721094
DFW,2021-02-14 09:55,,,,,14.00,0.01,30.23,,1.25,,BKN,OVC,,,1300.00,1999.00,,,-SN BR,,,,,,,,KDFW 140955Z AUTO ///14KT 1 1/2SM -SN BR BKN013 OVC019 M08/M09 A3022 RMK P0000 T10801090 MADISHF
DFW,2021-02-14 10:00,,,,,14.00,0.01,30.22,,1.00,,BKN,OVC,,,1300.00,1999.00,,,-SN BR,,,,,,,,KDFW 141000Z AUTO ///14KT 1SM -SN BR BKN013 OVC019 M08/M09 A3021 RMK P0000 T10801090 MADISHF
DFW,2021-02-14 10:05,,,,,14.00,0.01,30.22,,1.00,,VV ,,,,1200.00,,,,-SN BR,,,,,,,,KDFW 141005Z AUTO ///14KT 1SM -SN BR VV012 M08/M09 A3021 RMK P0000 T10801090 MADISHF
DFW,2021-02-14 10:10,,,,360.00,13.00,0.01,30.22,,1.25,,OVC,,,,1200.00,,,,-SN BR,,,,,,,,KDFW 141010Z AUTO 36013KT 1 1/2SM -SN BR OVC012 M08/M09 A3021 RMK P0000 T10801090 MADISHF
DFW,2021-02-14 10:15,,,,10.00,10.00,0.01,30.22,,1.50,,OVC,,,,1200.00,,,,-SN BR,,,,,,,,KDFW 141015Z AUTO 01010KT 1 1/2SM -SN BR OVC012 M08/M09 A3021 RMK P0000 T10801090 MADISHF
DFW,2021-02-14 10:20,,,,10.00,13.00,0.01,30.21,,1.75,,BKN,OVC,,,1400.00,1900.00,,,-SN BR,,,,,,,,KDFW 141020Z AUTO 01013KT 2SM -SN BR BKN014 OVC019 M08/M09 A3020 RMK P0000 T10801090 MADISHF
DFW,2021-02-14 10:25,,,,360.00,14.00,0.01,30.21,,1.75,,BKN,OVC,,,1400.00,1900.00,,,-SN BR,,,,,,,,KDFW 141025Z AUTO 36014KT 2SM -SN BR BKN014 OVC019 M08/M09 A3020 RMK P0000 T10801090 MADISHF
DFW,2021-02-14 10:30,,,,20.00,15.00,0.01,30.21,,1.75,,OVC,,,,1600.00,,,,-SN BR,,,,,,,,KDFW 141030Z AUTO 02015KT 2SM -SN BR OVC016 M08/M09 A3020 RMK P0000 T10801090 MADISHF
DFW,2021-02-14 10:32,18.00,15.10,88.20,20.00,13.00,0.01,30.20,,2.50,,OVC,,,,1600.00,,,,-SN BR,,,,,,,3.63,KDFW 141032Z 02013KT 2 1/2SM -SN BR OVC016 M08/M09 A3020 RMK AO2 P0001 T10781094
DFW,2021-02-14 10:35,,,,10.00,10.00,0.01,30.21,,2.50,,OVC,,,,1600.00,,,,-SN BR,,,,,,,,KDFW 141035Z AUTO 01010KT 2 1/2SM -SN BR OVC016 M08/M09 A3020 RMK P0000 T10801090 MADISHF
DFW,2021-02-14 10:40,,,,10.00,13.00,0.02,30.20,,2.50,,FEW,BKN,OVC,,1100.00,1600.00,2300.00,,-SN BR,,,,,,,,KDFW 141040Z AUTO 01013KT 2 1/2SM -SN BR FEW011 BKN016 OVC023 M08/M09 A3020 RMK P0001 T10801090 MADISHF
DFW,2021-02-14 10:45,,,,10.00,13.00,0.02,30.21,,2.50,19.00,BKN,OVC,,,1600.00,2800.00,,,-SN BR,,,,,,,,KDFW 141045Z AUTO 01013G19KT 2 1/2SM -SN BR BKN016 OVC028 M08/M09 A3020 RMK P0001 T10801090 MADISHF
DFW,2021-02-14 10:50,,,,10.00,13.00,0.02,30.20,,4.00,18.00,BKN,OVC,,,1600.00,2800.00,,,-SN BR,,,,,,,,KDFW 141050Z AUTO 01013G18KT 4SM -SN BR BKN016 OVC028 M08/M10 A3020 RMK P0001 T10801100 MADISHF
DFW,2021-02-14 10:53,18.00,15.10,88.20,20.00,13.00,0.02,30.20,1023.10,4.00,,BKN,OVC,,,1600.00,3100.00,,,-SN BR,,,,,,,3.63,KDFW 141053Z 02013KT 4SM -SN BR BKN016 OVC031 M08/M09 A3020 RMK AO2 SLP231 P0002 T10781094
DFW,2021-02-14 10:55,,,,20.00,14.00,,30.20,,5.00,,BKN,OVC,,,1600.00,3100.00,,,-SN BR,,,,,,,,KDFW 141055Z AUTO 02014KT 5SM -SN BR BKN016 OVC031 M08/M09 A3020 RMK T10801090 MADISHF
DFW,2021-02-14 11:00,,,,10.00,10.00,,30.20,,4.00,,BKN,OVC,,,1500.00,3100.00,,,-SN BR,,,,,,,,KDFW 141100Z AUTO 01010KT 4SM -SN BR BKN015 OVC031 M08/M09 A3020 RMK T10801090 MADISHF
DFW,2021-02-14 11:05,,,,10.00,14.00,,30.21,,4.00,,BKN,OVC,,,1500.00,2900.00,,,-SN BR,,,,,,,,KDFW 141105Z AUTO 01014KT 4SM -SN BR BKN015 OVC029 M08/M09 A3020 RMK T10801090 MADISHF
DFW,2021-02-14 11:10,,,,,15.00,,30.20,,3.50,,BKN,OVC,,,1500.00,2700.00,,,-SN BR,,,,,,,,KDFW 141110Z AUTO ///15KT 3SM -SN BR BKN015 OVC027 M08/M09 A3020 RMK T10801090 MADISHF
DFW,2021-02-14 11:15,,,,10.00,15.00,,30.20,,2.50,,BKN,OVC,,,1500.00,2300.00,,,-SN BR,,,,,,,,KDFW 141115Z AUTO 01015KT 2 1/2SM -SN BR BKN015 OVC023 M08/M10 A3020 RMK T10801100 MADISHF
DFW,2021-02-14 11:20,,,,20.00,14.00,,30.21,,3.00,,SCT,OVC,,,1500.00,2100.00,,,-SN BR,,,,,,,,KDFW 141120Z AUTO 02014KT 3SM -SN BR SCT015 OVC021 M08/M10 A3020 RMK T10801100 MADISHF
DFW,2021-02-14 11:25,,,,10.00,16.00,0.01,30.21,,3.00,,FEW,OVC,,,1400.00,1900.00,,,-SN BR,,,,,,,,KDFW 141125Z AUTO 01016KT 3SM -SN BR FEW014 OVC019 M08/M10 A3020 RMK P0000 T10801100 MADISHF
DFW,2021-02-14 11:30,,,,20.00,16.00,0.01,30.21,,3.00,,FEW,OVC,,,1400.00,2100.00,,,-SN BR,,,,,,,,KDFW 141130Z AUTO 02016KT 3SM -SN BR FEW014 OVC021 M08/M10 A3020 RMK P0000 T10801100 MADISHF
DFW,2021-02-14 11:33,18.00,14.00,84.05,20.00,14.00,0.01,30.21,,2.50,22.00,FEW,OVC,,,1400.00,2300.00,,,-SN BR,,,,,,,3.12,KDFW 141133Z 02014G22KT 2 1/2SM -SN BR FEW014 OVC023 M08/M10 A3021 RMK AO2 P0001 T10781100
DFW,2021-02-14 11:35,,,,20.00,14.00,0.01,30.21,,2.50,19.00,FEW,OVC,,,1400.00,2300.00,,,-SN BR,,,,,,,,KDFW 141135Z AUTO 02014G19KT 2 1/2SM -SN BR FEW014 OVC023 M08/M10 A3020 RMK P0000 T10801100 MADISHF
DFW,2021-02-14 11:40,,,,,18.00,0.01,30.21,,2.50,,BKN,OVC,,,1800.00,3000.00,,,-SN BR,,,,,,,,KDFW 141140Z AUTO ///18KT 2 1/2SM -SN BR BKN018 OVC030 M08/M10 A3020 RMK P0000 T10801100  4/001 MADISHF
DFW,2021-02-14 11:45,,,,10.00,17.00,0.01,30.22,,2.50,,FEW,BKN,OVC,,1600.00,2100.00,3000.00,,-SN BR,,,,,,,,KDFW 141145Z AUTO 01017KT 2 1/2SM -SN BR FEW016 BKN021 OVC030 M08/M10 A3021 RMK P0000 T10801100  4/001 MADISHF
DFW,2021-02-14 11:50,,,,10.00,16.00,0.01,30.22,,2.50,,FEW,SCT,OVC,,1600.00,2300.00,3000.00,,-SN BR,,,,,,,,KDFW 141150Z AUTO 01016KT 2 1/2SM -SN BR FEW016 SCT023 OVC030 M08/M10 A3021 RMK P0000 T10801100 MADISHF
DFW,2021-02-14 11:53,18.00,12.90,80.09,10.00,13.00,0.01,30.22,1023.90,6.00,22.00,FEW,OVC,,,1600.00,3000.00,,,-SN,,,T,,,,3.63,KDFW 141153Z 01013G22KT 6SM -SN FEW016 OVC030 M08/M11 A3022 RMK AO2 SLP239 P0001 60005 70005 I6000 T10781106 11056 21078 55007
DFW,2021-02-14 11:55,,,,10.00,13.00,,30.22,,7.00,,FEW,OVC,,,1600.00,3000.00,,,-SN,,,,,,,,KDFW 141155Z AUTO 01013KT 7SM -SN FEW016 OVC030 M08/M10 A3021 RMK T10801100 MADISHF
DFW,2021-02-14 12:00,,,,10.00,15.00,T,30.22,,7.00,22.00,FEW,OVC,,,1600.00,3000.00,,,UP,,,,,,,,KDFW 141200Z AUTO 01015G22KT 7SM UP FEW016 OVC030 M08/M10 A3021 RMK P0000 T10801100 MADISHF
DFW,2021-02-14 12:05,,,,360.00,14.00,,30.22,,7.00,19.00,SCT,OVC,,,1600.00,3000.00,,,-SN,,,,,,,,KDFW 141205Z AUTO 36014G19KT 7SM -SN SCT016 OVC030 M08/M10 A3021 RMK T10801100 MADISHF
DFW,2021-02-14 12:10,,,,360.00,15.00,,30.22,,5.00,,SCT,BKN,OVC,,1400.00,1900.00,3000.00,,-SN BR,,,,,,,,KDFW 141210Z AUTO 36015KT 5SM -SN BR SCT014 BKN019 OVC030 M08/M10 A3021 RMK T10801100 MADISHF
DFW,2021-02-14 12:15,,,,10.00,17.00,,30.22,,5.00,,SCT,BKN,OVC,,1400.00,1900.00,3000.00,,-SN,,,,,,,,KDFW 141215Z AUTO 01017KT 5SM -SN SCT014 BKN019 OVC030 M08/M11 A3021 RMK T10801110 MADISHF
DFW,2021-02-14 12:20,,,,10.00,16.00,,30.22,,4.00,,SCT,BKN,OVC,,1400.00,1900.00,3000.00,,-SN,,,,,,,,KDFW 141220Z AUTO 01016KT 4SM -SN SCT014 BKN019 OVC030 M08/M11 A3021 RMK T10801110 MADISHF
DFW,2021-02-14 12:25,,,,20.00,14.00,,30.22,,3.00,,SCT,BKN,OVC,,1400.00,1900.00,3000.00,,-SN BR,,,,,,,,KDFW 141225Z AUTO 02014KT 3SM -SN BR SCT014 BKN019 OVC030 M08/M10 A3021 RMK T10801100 MADISHF
DFW,2021-02-14 12:27,18.00,14.00,84.05,30.00,16.00,T,30.22,,3.00,,BKN,BKN,OVC,,1400.00,3000.00,3600.00,,-SN BR,,,,,,,2.17,KDFW 141227Z 03016KT 3SM -SN BR BKN014 BKN030 OVC036 M08/M10 A3022 RMK AO2 P0000 T10781100
DFW,2021-02-14 12:30,,,,20.00,15.00,,30.22,,3.00,,BKN,BKN,OVC,,1400.00,2800.00,3900.00,,-SN BR,,,,,,,,KDFW 141230Z AUTO 02015KT 3SM -SN BR BKN014 BKN028 OVC039 M08/M10 A3021 RMK T10801100 MADISHF
DFW,2021-02-14 12:35,,,,30.00,16.00,,30.22,,4.00,,BKN,BKN,OVC,,1400.00,2800.00,3900.00,,-SN BR,,,,,,,,KDFW 141235Z AUTO 03016KT 4SM -SN BR BKN014 BKN028 OVC039 M08/M10 A3021 RMK T10801100 MADISHF
DFW,2021-02-14 12:40,,,,,17.00,,30.23,,7.00,,BKN,BKN,OVC,,1400.00,2800.00,3900.00,,-SN,,,,,,,,KDFW 141240Z AUTO ///17KT 7SM -SN BKN014 BKN028 OVC039 M08/M11 A3022 RMK T10801110 MADISHF
DFW,2021-02-14 12:45,,,,30.00,14.00,,30.22,,9.00,,BKN,BKN,OVC,,1400.00,2800.00,3900.00,,-SN,,,,,,,,KDFW 141245Z AUTO 03014KT 9SM -SN BKN014 BKN028 OVC039 M08/M11 A3021 RMK T10801110 MADISHF
DFW,2021-02-14 12:50,,,,30.00,16.00,,30.22,,9.00,22.00,BKN,BKN,OVC,,1400.00,2800.00,3900.00,,-SN,,,,,,,,KDFW 141250Z AUTO 03016G22KT 9SM -SN BKN014 BKN028 OVC039 M08/M11 A3021 RMK T10801110 MADISHF
DFW,2021-02-14 12:53,18.00,12.90,80.09,30.00,15.00,T,30.22,1024.10,9.00,23.00,SCT,OVC,,,2600.00,3900.00,,,-SNPL,,,,,,,2.63,KDFW 141253Z 03015G23KT 9SM -SNPL SCT026 OVC039 M08/M11 A3022 RMK AO2 SLP241 P0000 T10781106
DFW,2021-02-14 12:55,,,,30.00,14.00,,30.23,,8.00,,FEW,BKN,OVC,,1500.00,2600.00,3900.00,,-PL -SN,,,,,,,,KDFW 141255Z AUTO 03014KT 8SM -PL -SN FEW015 BKN026 OVC039 M08/M11 A3022 RMK T10801110 MADISHF
DFW,2021-02-14 13:00,,,,20.00,11.00,,30.23,,5.00,,FEW,SCT,OVC,,1500.00,2600.00,3900.00,,-SN BR,,,,,,,,KDFW 141300Z AUTO 02011KT 5SM -SN BR FEW015 SCT026 OVC039 M08/M11 A3022 RMK T10801110 MADISHF
DFW,2021-02-14 13:05,,,,30.00,14.00,,30.23,,3.00,,SCT,BKN,OVC,,1500.00,2600.00,3700.00,,-SN BR,,,,,,,,KDFW 141305Z AUTO 03014KT 3SM -SN BR SCT015 BKN026 OVC037 M08/M10 A3022 RMK T10801100 MADISHF
DFW,2021-02-14 13:08,18.00,14.00,84.05,30.00,16.00,T,30.23,,2.50,21.00,BKN,BKN,OVC,,1500.00,2600.00,3700.00,,-SNPL BR,,,,,,,2.17,KDFW 141308Z 03016G21KT 2 1/2SM -SNPL BR BKN015 BKN026 OVC037 M08/M10 A3023 RMK AO2 P0000 T10781100
DFW,2021-02-14 13:10,,,,30.00,16.00,,30.23,,2.50,,BKN,BKN,OVC,,1500.00,2400.00,3700.00,,-SN BR,,,,,,,,KDFW 141310Z AUTO 03016KT 2 1/2SM -SN BR BKN015 BKN024 OVC037 M08/M10 A3022 RMK T10801100 MADISHF
DFW,2021-02-14 13:15,,,,30.00,11.00,,30.23,,2.50,,BKN,OVC,,,1500.00,2400.00,,,-SN BR,,,,,,,,KDFW 141315Z AUTO 03011KT 2 1/2SM -SN BR BKN015 OVC024 M08/M10 A3022 RMK T10801100 MADISHF
DFW,2021-02-14 13:20,,,,30.00,11.00,,30.23,,2.50,,BKN,OVC,,,1500.00,2400.00,,,-SN BR,,,,,,,,KDFW 141320Z AUTO 03011KT 2 1/2SM -SN BR BKN015 OVC024 M08/M09 A3022 RMK T10801090 MADISHF
DFW,2021-02-14 13:25,,,,30.00,11.00,,30.23,,2.50,,BKN,OVC,,,1500.00,2400.00,,,-SN BR,,,,,,,,KDFW 141325Z AUTO 03011KT 2 1/2SM -SN BR BKN015 OVC024 M08/M09 A3022 RMK T10801090 MADISHF
DFW,2021-02-14 13:29,18.00,15.10,88.20,30.00,11.00,T,30.23,,1.75,,BKN,OVC,,,1300.00,2200.00,,,-SNPL BR,,,,,,,4.77,KDFW 141329Z 03011KT 1 3/4SM -SNPL BR BKN013 OVC022 M08/M09 A3023 RMK AO2 TWR VIS 2 P0000 T10781094
DFW,2021-02-14 13:30,,,,30.00,13.00,,30.23,,1.75,18.00,BKN,OVC,,,1300.00,2200.00,,,-SN BR,,,,,,,,KDFW 141330Z AUTO 03013G18KT 2SM -SN BR BKN013 OVC022 M08/M09 A3022 RMK T10801090 MADISHF
DFW,2021-02-14 13:35,,,,30.00,13.00,,30.24,,1.50,,BKN,OVC,,,1300.00,2200.00,,,-SN BR,,,,,,,,KDFW 141335Z AUTO 03013KT 1 1/2SM -SN BR BKN013 OVC022 M08/M09 A3023 RMK T10801090 MADISHF
DFW,2021-02-14 13:40,,,,10.00,10.00,,30.24,,1.50,,BKN,OVC,,,1100.00,2200.00,,,-SN BR,,,,,,,,KDFW 141340Z AUTO 01010KT 1 1/2SM -SN BR BKN011 OVC022 M08/M09 A3023 RMK T10801090 MADISHF
DFW,2021-02-14 13:45,,,,,14.00,,30.25,,1.50,,SCT,BKN,OVC,,1100.00,1300.00,2200.00,,-SN BR,,,,,,,,KDFW 141345Z AUTO ///14KT 1 1/2SM -SN BR SCT011 BKN013 OVC022 M08/M09 A3025 RMK T10801090 MADISHF
DFW,2021-02-14 13:50,,,,,14.00,0.01,30.27,,1.25,,SCT,BKN,OVC,,1100.00,1300.00,2200.00,,-SN BR,,,,,,,,KDFW 141350Z AUTO ///14KT 1 1/2SM -SN BR SCT011 BKN013 OVC022 M08/M09 A3027 RMK P0000 T10801090 MADISHF
DFW,2021-02-14 13:53,18.00,15.10,88.20,360.00,12.00,0.01,30.26,1025.40,1.00,,BKN,OVC,,,1100.00,1500.00,,,-SNPL BR,,,,,,,4.18,KDFW 141353Z 36012KT 1SM R17C/5500VP6000FT -SNPL BR BKN011 OVC015 M08/M09 A3026 RMK AO2 TWR VIS 1 1/4 PRESRR SLP254 P0001 T10781094
DFW,2021-02-14 13:55,,,,360.00,13.00,,30.26,,1.00,,BKN,OVC,,,1100.00,1500.00,,,-SN BR,,,,,,,,KDFW 141355Z AUTO 36013KT 1SM -SN BR BKN011 OVC015 M08/M09 A3026 RMK T10801090 MADISHF
DFW,2021-02-14 14:00,,,,10.00,16.00,,30.27,,1.00,,SCT,OVC,,,900.00,1500.00,,,-SN BR,,,,,,,,KDFW 141400Z AUTO 01016KT 1SM -SN BR SCT009 OVC015 M08/M10 A3027 RMK T10801100 MADISHF
DFW,2021-02-14 14:05,,,,10.00,13.00,,30.27,,1.00,,SCT,BKN,OVC,,900.00,1100.00,1500.00,,-SN BR,,,,,,,,KDFW 141405Z AUTO 01013KT 1SM -SN BR SCT009 BKN011 OVC015 M08/M10 A3027 RMK T10801100 MADISHF
DFW,2021-02-14 14:10,,,,360.00,15.00,,30.26,,1.00,,SCT,BKN,OVC,,900.00,1100.00,1500.00,,-SN BR,,,,,,,,KDFW 141410Z AUTO 36015KT 1SM -SN BR SCT009 BKN011 OVC015 M08/M10 A3026 RMK T10801100 MADISHF
DFW,2021-02-14 14:15,,,,360.00,14.00,,30.26,,1.00,,BKN,OVC,,,1100.00,1500.00,,,-SN BR,,,,,,,,KDFW 141415Z AUTO 36014KT 1SM -SN BR BKN011 OVC015 M08/M10 A3026 RMK T10801100 MADISHF
DFW,2021-02-14 14:20,,,,360.00,14.00,,30.26,,0.75,19.00,FEW,BKN,OVC,,900.00,1100.00,1800.00,,-PL -SN BR,,,,,,,,KDFW 141420Z AUTO 36014G19KT 1SM -PL -SN BR FEW009 BKN011 OVC018 M08/M10 A3026 RMK T10801100 MADISHF
DFW,2021-02-14 14:25,,,,10.00,19.00,,30.25,,0.75,23.00,FEW,BKN,OVC,,900.00,1100.00,1800.00,,-PL -SN BR,,,,,,,,KDFW 141425Z AUTO 01019G23KT 1SM -PL -SN BR FEW009 BKN011 OVC018 M08/M10 A3025 RMK T10801100 MADISHF
DFW,2021-02-14 14:30,,,,10.00,17.00,,30.26,,0.75,,FEW,BKN,OVC,,900.00,1100.00,1800.00,,-PL -SN BR,,,,,,,,KDFW 141430Z AUTO 01017KT 1SM -PL -SN BR FEW009 BKN011 OVC018 M08/M11 A3026 RMK T10801110 MADISHF
DFW,2021-02-14 14:35,,,,10.00,16.00,,30.25,,0.75,,FEW,BKN,OVC,,900.00,1100.00,1800.00,,-PL -SN BR,,,,,,,,KDFW 141435Z AUTO 01016KT 1SM -PL -SN BR FEW009 BKN011 OVC018 M08/M11 A3025 RMK T10801110 MADISHF
DFW,2021-02-14 14:40,,,,10.00,18.00,,30.26,,0.75,,FEW,BKN,OVC,,900.00,1100.00,1800.00,,-PL -SN BR,,,,,,,,KDFW 141440Z AUTO 01018KT 1SM -PL -SN BR FEW009 BKN011 OVC018 M09/M11 A3026 RMK T10901110 MADISHF
DFW,2021-02-14 14:45,,,,360.00,18.00,,30.25,,0.75,23.00,FEW,BKN,OVC,,900.00,1100.00,1800.00,,-PL -SN BR,,,,,,,,KDFW 141445Z AUTO 36018G23KT 1SM -PL -SN BR FEW009 BKN011 OVC018 M09/M11 A3025 RMK T10901110 MADISHF
DFW,2021-02-14 14:50,,,,10.00,15.00,,30.25,,0.75,21.00,FEW,BKN,OVC,,900.00,1100.00,1800.00,,-PL -SN BR,,,,,,,,KDFW 141450Z AUTO 01015G21KT 1SM -PL -SN BR FEW009 BKN011 OVC018 M09/M11 A3025 RMK T10901110 MADISHF
DFW,2021-02-14 14:53,16.00,12.90,87.32,10.00,16.00,T,30.25,1025.00,0.75,27.00,VV ,,,,1300.00,,,,-SNPL BR,,,,27.00,360.00,2021-02-14 14:44,-0.44,KDFW 141453Z 01016G27KT 3/4SM R17C/3500V5000FT -SNPL BR VV013 M09/M11 A3025 RMK AO2 PK WND 36027/1444 SLP250 P0000 60001 T10891106 50011
DFW,2021-02-14 14:55,,,,,18.00,,30.25,,0.75,,VV ,,,,1300.00,,,,-PL -SN BR,,,,,,,,KDFW 141455Z AUTO ///18KT 1SM -PL -SN BR VV013 M09/M11 A3025 RMK T10901110 MADISHF
DFW,2021-02-14 15:00,,,,,16.00,,30.25,,0.75,,VV ,,,,1300.00,,,,-PL -SN BR,,,,,,,,KDFW 141500Z AUTO ///16KT 1SM -PL -SN BR VV013 M08/M11 A3025 RMK T10801110 MADISHF
DFW,2021-02-14 15:05,,,,,16.00,,30.26,,0.50,21.00,VV ,,,,1300.00,,,,-PL SN FZFG,,,,,,,,KDFW 141505Z AUTO ///16G21KT 1/2SM -PL SN FZFG VV013 M09/M11 A3026 RMK T10901110 MADISHF
DFW,2021-02-14 15:10,,,,20.00,16.00,,30.26,,0.75,21.00,VV ,,,,1400.00,,,,-PL -SN BR,,,,,,,,KDFW 141510Z AUTO 02016G21KT 1SM -PL -SN BR VV014 M08/M11 A3026 RMK T10801110 MADISHF
DFW,2021-02-14 15:15,,,,,15.00,,30.27,,1.25,22.00,BKN,OVC,,,1699.00,2800.00,,,-PL -SN BR,,,,,,,,KDFW 141515Z AUTO ///15G22KT 1 1/2SM -PL -SN BR BKN016 OVC028 M08/M11 A3027 RMK T10801110 MADISHF
DFW,2021-02-14 15:18,17.10,12.90,83.25,20.00,13.00,T,30.27,,1.50,23.00,BKN,OVC,,,1700.00,2800.00,,,-SNPL BR,,,,,,,2.48,KDFW 141518Z 02013G23KT 1 1/2SM R17C/4000V6000FT -SNPL BR BKN017 OVC028 M08/M11 A3027 RMK AO2 SFC VIS 1 3/4 P0000 T10831106
DFW,2021-02-14 15:20,,,,360.00,13.00,,30.27,,1.75,,FEW,BKN,OVC,,1200.00,1699.00,2800.00,,-PL -SN BR,,,,,,,,KDFW 141520Z AUTO 36013KT 2SM -PL -SN BR FEW012 BKN016 OVC028 M08/M11 A3027 RMK T10801110 MADISHF
DFW,2021-02-14 15:25,,,,350.00,16.00,,30.28,,1.50,,BKN,BKN,OVC,,1100.00,1699.00,2800.00,,-PL -SN BR,,,,,,,,KDFW 141525Z AUTO 35016KT 1 1/2SM -PL -SN BR BKN011 BKN016 OVC028 M08/M11 A3028 RMK T10801110 MADISHF
DFW,2021-02-14 15:30,,,,360.00,15.00,,30.28,,1.50,,BKN,BKN,OVC,,1300.00,2100.00,2800.00,,-PL -SN BR,,,,,,,,KDFW 141530Z AUTO 36015KT 1 1/2SM -PL -SN BR BKN013 BKN021 OVC028 M08/M11 A3028 RMK T10801110 MADISHF
DFW,2021-02-14 15:31,17.10,12.90,83.25,360.00,16.00,T,30.28,,1.00,,BKN,BKN,OVC,,1300.00,2100.00,2800.00,,-SNPL BR,,,,,,,1.00,KDFW 141531Z 36016KT 1SM R17C/4500V5500FT -SNPL BR BKN013 BKN021 OVC028 M08/M11 A3028 RMK AO2 TWR VIS 1 1/2 P0000 T10831106
DFW,2021-02-14 15:35,,,,360.00,16.00,,30.27,,1.00,,BKN,OVC,,,1500.00,2800.00,,,-PL -SN BR,,,,,,,,KDFW 141535Z AUTO 36016KT 1SM -PL -SN BR BKN015 OVC028 M08/M11 A3027 RMK T10801110 MADISHF
DFW,2021-02-14 15:40,,,,10.00,15.00,,30.27,,1.00,22.00,BKN,OVC,,,1300.00,2800.00,,,-PL -SN BR,,,,,,,,KDFW 141540Z AUTO 01015G22KT 1SM -PL -SN BR BKN013 OVC028 M08/M11 A3027 RMK T10801110 MADISHF
DFW,2021-02-14 15:45,,,,10.00,15.00,,30.26,,1.00,,BKN,OVC,,,1300.00,2800.00,,,-PL -SN BR,,,,,,,,KDFW 141545Z AUTO 01015KT 1SM -PL -SN BR BKN013 OVC028 M09/M11 A3026 RMK T10901110 MADISHF
DFW,2021-02-14 15:50,,,,360.00,18.00,,30.26,,1.00,22.00,BKN,OVC,,,1300.00,2800.00,,,-PL -SN BR,,,,,,,,KDFW 141550Z AUTO 36018G22KT 1SM -PL -SN BR BKN013 OVC028 M09/M11 A3026 RMK T10901110 MADISHF
DFW,2021-02-14 15:53,16.00,12.90,87.32,360.00,17.00,T,30.26,1025.40,0.75,24.00,BKN,OVC,,,1300.00,2800.00,,,-SNPL BR,,,,,,,-0.89,KDFW 141553Z 36017G24KT 3/4SM R17C/3000V5000FT -SNPL BR BKN013 OVC028 M09/M11 A3026 RMK AO2 SLP254 P0000 T10891106
DFW,2021-02-14 15:55,,,,,16.00,,30.26,,0.75,,BKN,OVC,,,1300.00,1800.00,,,-PL -SN BR,,,,,,,,KDFW 141555Z AUTO ///16KT 1SM -PL -SN BR BKN013 OVC018 M08/M11 A3026 RMK T10801110 MADISHF
DFW,2021-02-14 16:00,,,,,17.00,,30.26,,0.75,22.00,OVC,,,,1300.00,,,,-PL -SN BR,,,,,,,,KDFW 141600Z AUTO ///17G22KT 1SM -PL -SN BR OVC013 M08/M11 A3026 RMK T10801110 MADISHF
DFW,2021-02-14 16:05,,,,10.00,17.00,,30.26,,1.00,,OVC,,,,1300.00,,,,-PL -SN BR,,,,,,,,KDFW 141605Z AUTO 01017KT 1SM -PL -SN BR OVC013 M09/M11 A3026 RMK T10901110 MADISHF
DFW,2021-02-14 16:10,,,,,16.00,,30.26,,1.00,,OVC,,,,1300.00,,,,-PL -SN BR,,,,,,,,KDFW 141610Z AUTO ///16KT 1SM -PL -SN BR OVC013 M09/M11 A3026 RMK T10901110 MADISHF
DFW,2021-02-14 16:15,,,,10.00,16.00,,30.27,,1.25,,OVC,,,,1300.00,,,,-PL -SN BR,,,,,,,,KDFW 141615Z AUTO 01016KT 1 1/2SM -PL -SN BR OVC013 M09/M11 A3027 RMK T10901110 MADISHF
DFW,2021-02-14 16:20,,,,10.00,16.00,,30.26,,1.50,,OVC,,,,1300.00,,,,-PL -SN BR,,,,,,,,KDFW 141620Z AUTO 01016KT 1 1/2SM -PL -SN BR OVC013 M08/M11 A3026 RMK T10801110 MADISHF
DFW,2021-02-14 16:25,,,,10.00,15.00,,30.26,,1.75,,OVC,,,,1300.00,,,,-PL -SN BR,,,,,,,,KDFW 141625Z AUTO 01015KT 2SM -PL -SN BR OVC013 M08/M11 A3026 RMK T10801110 MADISHF
DFW,2021-02-14 16:30,,,,10.00,11.00,,30.27,,2.00,17.00,OVC,,,,1300.00,,,,-PL -SN BR,,,,,,,,KDFW 141630Z AUTO 01011G17KT 2SM -PL -SN BR OVC013 M08/M11 A3027 RMK T10801110 MADISHF
DFW,2021-02-14 16:35,,,,360.00,19.00,,30.27,,2.00,24.00,OVC,,,,1300.00,,,,-PL -SN BR,,,,,,,,KDFW 141635Z AUTO 36019G24KT 2SM -PL -SN BR OVC013 M08/M11 A3027 RMK T10801110 MADISHF
DFW,2021-02-14 16:40,,,,360.00,21.00,,30.27,,1.50,,OVC,,,,1300.00,,,,-PL -SN BR,,,,,,,,KDFW 141640Z AUTO 36021KT 1 1/2SM -PL -SN BR OVC013 M09/M11 A3027 RMK T10901110 MADISHF
DFW,2021-02-14 16:45,,,,10.00,18.00,,30.26,,1.50,,OVC,,,,1300.00,,,,-PL -SN BR,,,,,,,,KDFW 141645Z AUTO 01018KT 1 1/2SM -PL -SN BR OVC013 M09/M11 A3026 RMK T10901110 MADISHF
DFW,2021-02-14 16:50,,,,360.00,18.00,,30.27,,1.50,,OVC,,,,1300.00,,,,-PL -SN BR,,,,,,,,KDFW 141650Z AUTO 36018KT 1 1/2SM -PL -SN BR OVC013 M09/M11 A3027 RMK T10901110 MADISHF
DFW,2021-02-14 16:53,17.10,12.00,80.01,10.00,19.00,T,30.26,1025.40,1.50,26.00,OVC,,,,1600.00,,,,-SNPL,,,,26.00,20.00,2021-02-14 16:53,-0.27,KDFW 141653Z 01019G26KT 1 1/2SM -SNPL OVC016 M08/M11 A3026 RMK AO2 PK WND 02026/1653 SLP254 P0000 T10831111
DFW,2021-02-14 16:55,,,,,17.00,,30.27,,1.50,,OVC,,,,1600.00,,,,-PL -SN,,,,,,,,KDFW 141655Z AUTO ///17KT 1 1/2SM -PL -SN OVC016 M08/M11 A3027 RMK T10801110 MADISHF
DFW,2021-02-14 17:00,,,,,19.00,,30.27,,1.75,,OVC,,,,1600.00,,,,-PL -SN,,,,,,,,KDFW 141700Z AUTO ///19KT 2SM -PL -SN OVC016 M08/M11 A3027 RMK T10801110 MADISHF
DFW,2021-02-14 17:05,,,,,15.00,,30.27,,2.50,,OVC,,,,1600.00,,,,-PL -SN,,,,,,,,KDFW 141705Z AUTO ///15KT 2 1/2SM -PL -SN OVC016 M08/M11 A3027 RMK T10801110 MADISHF
DFW,2021-02-14 17:07,17.10,12.00,80.01,10.00,14.00,T,30.27,,2.00,,OVC,,,,1800.00,,,,-SN,,,,,,,1.96,KDFW 141707Z 01014KT 2SM -SN OVC018 M08/M11 A3027 RMK AO2 PLE07 P0000 T10831111
DFW,2021-02-14 17:10,,,,10.00,17.00,,30.27,,2.00,22.00,OVC,,,,1800.00,,,,-SN BR,,,,,,,,KDFW 141710Z AUTO 01017G22KT 2SM -SN BR OVC018 M08/M11 A3027 RMK T10801110 MADISHF
DFW,2021-02-14 17:15,,,,10.00,16.00,,30.27,,2.00,21.00,OVC,,,,1600.00,,,,-SN,,,,,,,,KDFW 141715Z AUTO 01016G21KT 2SM -SN OVC016 M08/M11 A3027 RMK T10801110 MADISHF
DFW,2021-02-14 17:20,,,,10.00,15.00,,30.27,,2.00,,OVC,,,,1600.00,,,,-SN,,,,,,,,KDFW 141720Z AUTO 01015KT 2SM -SN OVC016 M08/M11 A3027 RMK T10801110 MADISHF
DFW,2021-02-14 17:25,,,,,17.00,,30.27,,2.00,22.00,OVC,,,,1600.00,,,,-SN,,,,,,,,KDFW 141725Z AUTO ///17G22KT 2SM -SN OVC016 M08/M11 A3027 RMK T10801110 MADISHF
DFW,2021-02-14 17:30,,,,,20.00,,30.26,,2.00,,OVC,,,,1699.00,,,,-SN,,,,,,,,KDFW 141730Z AUTO ///20KT 2SM -SN OVC016 M08/M11 A3026 RMK T10801110 MADISHF
DFW,2021-02-14 17:35,,,,,18.00,,30.26,,2.00,,OVC,,,,1699.00,,,,-SN,,,,,,,,KDFW 141735Z AUTO ///18KT 2SM -SN OVC016 M08/M11 A3026 RMK T10801110 MADISHF
DFW,2021-02-14 17:40,,,,10.00,17.00,,30.26,,2.00,23.00,OVC,,,,1699.00,,,,-SN,,,,,,,,KDFW 141740Z AUTO 01017G23KT 2SM -SN OVC016 M08/M11 A3026 RMK T10801110 MADISHF
DFW,2021-02-14 17:45,,,,10.00,15.00,,30.26,,2.00,,OVC,,,,1699.00,,,,-SN,,,,,,,,KDFW 141745Z AUTO 01015KT 2SM -SN OVC016 M08/M11 A3026 RMK T10801110 MADISHF
DFW,2021-02-14 17:50,,,,10.00,18.00,,30.26,,2.50,,OVC,,,,1699.00,,,,-SN,,,,,,,,KDFW 141750Z AUTO 01018KT 2 1/2SM -SN OVC016 M08/M11 A3026 RMK T10801110 MADISHF
DFW,2021-02-14 17:53,17.10,10.90,76.20,360.00,19.00,T,30.26,1025.50,2.00,,OVC,,,,1700.00,,,,-SN,,,,26.00,360.00,2021-02-14 17:29,-0.27,KDFW 141753Z 36019KT 2SM R17C/6000VP6000FT -SN OVC017 M08/M12 A3026 RMK AO2 PK WND 36026/1729 SFC VIS 2 1/2 PLE07 SLP255 4/001 P0000 60001 T10831117 11078 21089 50003
DFW,2021-02-14 17:55,,,,,18.00,,30.26,,2.00,,OVC,,,,1699.00,,,,-SN,,,,,,,,KDFW 141755Z AUTO ///18KT 2SM -SN OVC016 M08/M12 A3026 RMK T10801120 MADISHF
DFW,2021-02-14 18:00,,,,,16.00,,30.27,,2.00,,OVC,,,,1699.00,,,,-SN,,,,,,,,KDFW 141800Z AUTO ///16KT 2SM -SN OVC016 M08/M12 A3027 RMK T10801120 MADISHF
DFW,2021-02-14 18:03,17.10,10.90,76.20,360.00,16.00,T,30.26,,1.75,,OVC,,,,1700.00,,,,-SN,,,,,,,1.00,KDFW 141803Z 36016KT 1 3/4SM -SN OVC017 M08/M12 A3026 RMK AO2 P0000 T10831117
DFW,2021-02-14 18:05,,,,,16.00,,30.27,,1.75,,OVC,,,,1699.00,,,,-SN,,,,,,,,KDFW 141805Z AUTO ///16KT 2SM -SN OVC016 M08/M12 A3027 RMK T10801120 MADISHF
DFW,2021-02-14 18:10,,,,,18.00,,30.27,,1.75,,OVC,,,,1800.00,,,,-SN BR,,,,,,,,KDFW 141810Z AUTO ///18KT 2SM -SN BR OVC018 M08/M12 A3027 RMK T10801120 MADISHF
DFW,2021-02-14 18:15,,,,,17.00,,30.27,,1.75,22.00,OVC,,,,1800.00,,,,-SN BR,,,,,,,,KDFW 141815Z AUTO ///17G22KT 2SM -SN BR OVC018 M08/M12 A3027 RMK T10801120 MADISHF
DFW,2021-02-14 18:20,,,,,20.00,,30.27,,1.75,26.00,OVC,,,,1800.00,,,,-SN BR,,,,,,,,KDFW 141820Z AUTO ///20G26KT 2SM -SN BR OVC018 M09/M12 A3027 RMK T10901120 MADISHF
DFW,2021-02-14 18:25,,,,360.00,15.00,,30.27,,1.75,,OVC,,,,1800.00,,,,-SN BR,,,,,,,,KDFW 141825Z AUTO 36015KT 2SM -SN BR OVC018 M09/M12 A3027 RMK T10901120 MADISHF
DFW,2021-02-14 18:30,,,,360.00,17.00,,30.28,,1.75,24.00,OVC,,,,1800.00,,,,-SN BR,,,,,,,,KDFW 141830Z AUTO 36017G24KT 2SM -SN BR OVC018 M08/M12 A3028 RMK T10801120 MADISHF
DFW,2021-02-14 18:35,,,,360.00,19.00,,30.28,,1.75,26.00,OVC,,,,1800.00,,,,-SN BR,,,,,,,,KDFW 141835Z AUTO 36019G26KT 2SM -SN BR OVC018 M09/M12 A3028 RMK T10901120 MADISHF
DFW,2021-02-14 18:38,16.00,10.00,76.77,360.00,20.00,T,30.28,,5.00,27.00,OVC,,,,1800.00,,,,-SN BR,,,,27.00,350.00,2021-02-14 18:35,-2.11,KDFW 141838Z 36020G27KT 5SM -SN BR OVC018 M09/M12 A3028 RMK AO2 PK WND 35027/1835 P0000 T10891122
DFW,2021-02-14 18:40,,,,,19.00,,30.27,,5.00,23.00,OVC,,,,1800.00,,,,-SN BR,,,,,,,,KDFW 141840Z AUTO ///19G23KT 5SM -SN BR OVC018 M09/M12 A3027 RMK T10901120 MADISHF
DFW,2021-02-14 18:45,,,,,19.00,,30.27,,4.00,,OVC,,,,1900.00,,,,-SN BR,,,,,,,,KDFW 141845Z AUTO ///19KT 4SM -SN BR OVC019 M09/M12 A3027 RMK T10901120 MADISHF
DFW,2021-02-14 18:50,,,,,18.00,,30.27,,3.50,,OVC,,,,1900.00,,,,-SN BR,,,,,,,,KDFW 141850Z AUTO ///18KT 3SM -SN BR OVC019 M09/M12 A3027 RMK T10901120 MADISHF
DFW,2021-02-14 18:53,16.00,10.00,76.77,10.00,18.00,T,30.26,1025.60,3.00,25.00,OVC,,,,1900.00,,,,-SN BR,,,,27.00,350.00,2021-02-14 18:35,-1.31,KDFW 141853Z 01018G25KT 3SM -SN BR OVC019 M09/M12 A3026 RMK AO2 PK WND 35027/1835 SLP256 P0000 T10891122
DFW,2021-02-14 18:55,,,,,19.00,,30.26,,3.50,,OVC,,,,1999.00,,,,-SN BR,,,,,,,,KDFW 141855Z AUTO ///19KT 3SM -SN BR OVC019 M09/M12 A3026 RMK T10901120 MADISHF
DFW,2021-02-14 19:00,,,,,18.00,,30.26,,3.00,23.00,OVC,,,,1999.00,,,,-SN BR,,,,,,,,KDFW 141900Z AUTO ///18G23KT 3SM -SN BR OVC019 M08/M12 A3026 RMK T10801120 MADISHF
DFW,2021-02-14 19:05,,,,,18.00,,30.27,,3.00,23.00,OVC,,,,1999.00,,,,-SN BR,,,,,,,,KDFW 141905Z AUTO ///18G23KT 3SM -SN BR OVC019 M09/M12 A3027 RMK T10901120 MADISHF
DFW,2021-02-14 19:10,,,,10.00,17.00,,30.26,,3.00,22.00,OVC,,,,1999.00,,,,-SN BR,,,,,,,,KDFW 141910Z AUTO 01017G22KT 3SM -SN BR OVC019 M09/M12 A3026 RMK T10901120 MADISHF
DFW,2021-02-14 19:15,,,,10.00,18.00,,30.26,,3.00,,OVC,,,,1999.00,,,,-SN BR,,,,,,,,KDFW 141915Z AUTO 01018KT 3SM -SN BR OVC019 M09/M12 A3026 RMK T10901120 MADISHF
DFW,2021-02-14 19:20,,,,10.00,16.00,,30.26,,3.50,,OVC,,,,2200.00,,,,-SN BR,,,,,,,,KDFW 141920Z AUTO 01016KT 3SM -SN BR OVC022 M09/M12 A3026 RMK T10901120 MADISHF
DFW,2021-02-14 19:25,,,,,18.00,,30.27,,3.00,,OVC,,,,1999.00,,,,-SN BR,,,,,,,,KDFW 141925Z AUTO ///18KT 3SM -SN BR OVC019 M09/M12 A3027 RMK T10901120 MADISHF
DFW,2021-02-14 19:30,,,,,19.00,,30.27,,3.00,,OVC,,,,1999.00,,,,-SN BR,,,,,,,,KDFW 141930Z AUTO ///19KT 3SM -SN BR OVC019 M09/M12 A3027 RMK T10901120 MADISHF
DFW,2021-02-14 19:35,,,,,18.00,,30.27,,3.50,,OVC,,,,1999.00,,,,-SN BR,,,,,,,,KDFW 141935Z AUTO ///18KT 3SM -SN BR OVC019 M09/M13 A3027 RMK T10901130 MADISHF
DFW,2021-02-14 19:40,,,,,19.00,,30.27,,2.50,,OVC,,,,1999.00,,,,-SN BR,,,,,,,,KDFW 141940Z AUTO ///19KT 2 1/2SM -SN BR OVC019 M09/M13 A3027 RMK T10901130 MADISHF
DFW,2021-02-14 19:45,,,,,16.00,,30.27,,3.00,,OVC,,,,2100.00,,,,-SN BR,,,,,,,,KDFW 141945Z AUTO ///16KT 3SM -SN BR OVC021 M09/M13 A3027 RMK T10901130 MADISHF
DFW,2021-02-14 19:50,,,,,17.00,,30.26,,3.00,,OVC,,,,2100.00,,,,-SN BR,,,,,,,,KDFW 141950Z AUTO ///17KT 3SM -SN BR OVC021 M09/M12 A3026 RMK T10901120 MADISHF
DFW,2021-02-14 19:53,15.10,10.00,79.84,10.00,18.00,T,30.26,1025.30,2.00,,OVC,,,,2100.00,,,,-SN BR,,,,,,,-2.50,KDFW 141953Z 01018KT 2SM -SN BR OVC021 M09/M12 A3026 RMK AO2 SLP253 P0000 T10941122
DFW,2021-02-14 19:55,,,,,17.00,,30.26,,2.50,,OVC,,,,2100.00,,,,-SN BR,,,,,,,,KDFW 141955Z AUTO ///17KT 2 1/2SM -SN BR OVC021 M09/M12 A3026 RMK T10901120 MADISHF
DFW,2021-02-14 20:00,,,,,15.00,,30.25,,2.00,,OVC,,,,2100.00,,,,-SN BR,,,,,,,,KDFW 142000Z AUTO ///15KT 2SM -SN BR OVC021 M09/M12 A3025 RMK T10901120 MADISHF
DFW,2021-02-14 20:05,,,,,14.00,,30.26,,2.00,,OVC,,,,2300.00,,,,-SN BR,,,,,,,,KDFW 142005Z AUTO ///14KT 2SM -SN BR OVC023 M09/M12 A3026 RMK T10901120 MADISHF
DFW,2021-02-14 20:10,,,,360.00,13.00,,30.26,,2.00,,BKN,OVC,,,1699.00,2300.00,,,-SN BR,,,,,,,,KDFW 142010Z AUTO 36013KT 2SM -SN BR BKN016 OVC023 M09/M12 A3026 RMK T10901120 MADISHF
DFW,2021-02-14 20:15,,,,360.00,20.00,,30.26,,2.00,24.00,BKN,OVC,,,1500.00,2300.00,,,-SN BR,,,,,,,,KDFW 142015Z AUTO 36020G24KT 2SM -SN BR BKN015 OVC023 M09/M12 A3026 RMK T10901120 MADISHF
DFW,2021-02-14 20:20,,,,360.00,17.00,,30.26,,2.00,22.00,BKN,OVC,,,1500.00,2300.00,,,-SN BR,,,,,,,,KDFW 142020Z AUTO 36017G22KT 2SM -SN BR BKN015 OVC023 M09/M12 A3026 RMK T10901120 MADISHF
DFW,2021-02-14 20:25,,,,,18.00,,30.25,,2.00,,BKN,OVC,,,1500.00,2300.00,,,-SN BR,,,,,,,,KDFW 142025Z AUTO ///18KT 2SM -SN BR BKN015 OVC023 M09/M12 A3025 RMK T10901120 MADISHF
DFW,2021-02-14 20:30,,,,,16.00,,30.26,,2.50,,SCT,OVC,,,1500.00,2100.00,,,-SN BR,,,,,,,,KDFW 142030Z AUTO ///16KT 2 1/2SM -SN BR SCT015 OVC021 M09/M12 A3026 RMK T10901120 MADISHF
DFW,2021-02-14 20:35,,,,360.00,14.00,,30.26,,2.50,,SCT,OVC,,,1300.00,2100.00,,,-SN BR,,,,,,,,KDFW 142035Z AUTO 36014KT 2 1/2SM -SN BR SCT013 OVC021 M09/M12 A3026 RMK T10901120 MADISHF
DFW,2021-02-14 20:37,15.10,10.00,79.84,360.00,15.00,T,30.26,,1.00,,BKN,OVC,,,1300.00,2100.00,,,-SN BR,,,,26.00,360.00,2021-02-14 20:15,-1.13,KDFW 142037Z 36015KT 1SM R17C/4500VP6000FT -SN BR BKN013 OVC021 M09/M12 A3026 RMK AO2 PK WND 36026/2015 TWR VIS 2 P0000 T10941122
DFW,2021-02-14 20:40,,,,360.00,15.00,,30.26,,1.00,,BKN,OVC,,,1300.00,2100.00,,,-SN BR,,,,,,,,KDFW 142040Z AUTO 36015KT 1SM -SN BR BKN013 OVC021 M09/M12 A3026 RMK T10901120 MADISHF
DFW,2021-02-14 20:45,,,,,17.00,,30.26,,1.00,22.00,BKN,OVC,,,1300.00,2100.00,,,-SN BR,,,,,,,,KDFW 142045Z AUTO ///17G22KT 1SM -SN BR BKN013 OVC021 M09/M12 A3026 RMK T10901120 MADISHF
DFW,2021-02-14 20:50,,,,,17.00,,30.26,,0.75,,BKN,OVC,,,1300.00,2100.00,,,-SN BR,,,,,,,,KDFW 142050Z AUTO ///17KT 1SM -SN BR BKN013 OVC021 M09/M12 A3026 RMK T10901120 MADISHF
DFW,2021-02-14 20:53,15.10,10.90,83.11,350.00,19.00,T,30.26,1025.50,0.50,25.00,BKN,OVC,,,1300.00,2100.00,,,SN FZFG,,,,26.00,360.00,2021-02-14 20:15,-2.91,KDFW 142053Z 35019G25KT 1/2SM R17C/4000VP6000FT SN FZFG BKN013 OVC021 M09/M12 A3026 RMK AO2 PK WND 36026/2015 SLP255 P0000 60000 T10941117 58001
DFW,2021-02-14 20:55,,,,,20.00,,30.26,,0.50,,BKN,OVC,,,1300.00,2100.00,,,SN FZFG,,,,,,,,KDFW 142055Z AUTO ///20KT 1/2SM SN FZFG BKN013 OVC021 M09/M12 A3026 RMK T10901120 MADISHF
DFW,2021-02-14 21:00,,,,360.00,19.00,,30.25,,0.50,,BKN,OVC,,,1300.00,2100.00,,,SN,,,,,,,,KDFW 142100Z AUTO 36019KT 1/2SM SN BKN013 OVC021 M09/M12 A3025 RMK T10901120 MADISHF
DFW,2021-02-14 21:05,,,,,17.00,,30.25,,0.50,,BKN,OVC,,,1300.00,2200.00,,,SN FZFG,,,,,,,,KDFW 142105Z AUTO ///17KT 1/2SM SN FZFG BKN013 OVC022 M09/M12 A3025 RMK T10901120 MADISHF
DFW,2021-02-14 21:10,,,,360.00,17.00,,30.25,,0.50,24.00,BKN,OVC,,,1300.00,2200.00,,,SN FZFG,,,,,,,,KDFW 142110Z AUTO 36017G24KT 1/2SM SN FZFG BKN013 OVC022 M09/M12 A3025 RMK T10901120 MADISHF
DFW,2021-02-14 21:15,,,,360.00,18.00,,30.26,,0.50,,BKN,OVC,,,1300.00,2200.00,,,SN,,,,,,,,KDFW 142115Z AUTO 36018KT 1/2SM SN BKN013 OVC022 M10/M13 A3026 RMK T11001130 MADISHF
DFW,2021-02-14 21:20,,,,,19.00,,30.26,,0.50,23.00,BKN,OVC,,,1300.00,2200.00,,,SN FZFG,,,,,,,,KDFW 142120Z AUTO ///19G23KT 1/2SM SN FZFG BKN013 OVC022 M10/M12 A3026 RMK T11001120 MADISHF
DFW,2021-02-14 21:25,,,,350.00,21.00,,30.25,,1.00,,BKN,OVC,,,1300.00,2200.00,,,-SN BR,,,,,,,,KDFW 142125Z AUTO 35021KT 1SM -SN BR BKN013 OVC022 M10/M12 A3025 RMK T11001120 MADISHF
DFW,2021-02-14 21:30,,,,360.00,17.00,,30.25,,1.50,,BKN,OVC,,,1200.00,2200.00,,,-SN,,,,,,,,KDFW 142130Z AUTO 36017KT 1 1/2SM -SN BKN012 OVC022 M10/M13 A3025 RMK T11001130 MADISHF
DFW,2021-02-14 21:34,14.00,9.00,80.10,360.00,20.00,T,30.26,,1.75,,BKN,OVC,,,1400.00,2200.00,,,-SN,,,,26.00,350.00,2021-02-14 21:10,-4.77,KDFW 142134Z 36020KT 1 3/4SM R17C/5000VP6000FT -SN BKN014 OVC022 M10/M13 A3026 RMK AO2 PK WND 35026/2110 P0000 T11001128
DFW,2021-02-14 21:35,,,,360.00,19.00,,30.26,,1.75,,BKN,OVC,,,1400.00,2200.00,,,-SN,,,,,,,,KDFW 142135Z AUTO 36019KT 2SM -SN BKN014 OVC022 M10/M13 A3026 RMK T11001130 MADISHF
DFW,2021-02-14 21:40,,,,,18.00,,30.26,,1.75,22.00,BKN,OVC,,,1400.00,2200.00,,,-SN BR,,,,,,,,KDFW 142140Z AUTO ///18G22KT 2SM -SN BR BKN014 OVC022 M10/M12 A3026 RMK T11001120 MADISHF
DFW,2021-02-14 21:44,14.00,10.00,83.77,350.00,18.00,T,30.26,,1.75,,BKN,OVC,,,1400.00,2200.00,,,-SN BR,,,,26.00,350.00,2021-02-14 21:10,-3.95,KDFW 142144Z 35018KT 1 3/4SM -SN BR BKN014 OVC022 M10/M12 A3026 RMK AO2 PK WND 35026/2110 P0000 T11001122
DFW,2021-02-14 21:45,,,,,17.00,0.01,30.26,,1.75,,BKN,OVC,,,1400.00,2200.00,,,-SN BR,,,,,,,,KDFW 142145Z AUTO ///17KT 2SM -SN BR BKN014 OVC022 M10/M12 A3026 RMK P0000 T11001120 MADISHF
DFW,2021-02-14 21:50,,,,,15.00,0.01,30.26,,1.75,,BKN,OVC,,,1400.00,2200.00,,,-SN BR,,,,,,,,KDFW 142150Z AUTO ///15KT 2SM -SN BR BKN014 OVC022 M10/M12 A3026 RMK P0000 T11001120 MADISHF
DFW,2021-02-14 21:53,14.00,10.00,83.77,350.00,14.00,0.01,30.27,1025.70,0.75,,BKN,OVC,,,1400.00,2200.00,,,-SN BR,,,,26.00,350.00,2021-02-14 21:10,-2.04,KDFW 142153Z 35014KT 3/4SM R17C/4000VP6000FT -SN BR BKN014 OVC022 M10/M12 A3027 RMK AO2 PK WND 35026/2110 TWR VIS 1 3/4 SLP257 P0001 T11001122
DFW,2021-02-14 21:55,,,,340.00,18.00,,30.26,,0.75,,BKN,OVC,,,1400.00,2200.00,,,-SN BR,,,,,,,,KDFW 142155Z AUTO 34018KT 1SM -SN BR BKN014 OVC022 M10/M12 A3026 RMK T11001120 MADISHF
DFW,2021-02-14 22:00,,,,350.00,19.00,,30.26,,0.75,,BKN,OVC,,,1400.00,2200.00,,,-SN BR,,,,,,,,KDFW 142200Z AUTO 35019KT 1SM -SN BR BKN014 OVC022 M10/M12 A3026 RMK T11001120 MADISHF
DFW,2021-02-14 22:05,,,,350.00,15.00,,30.26,,0.75,,BKN,OVC,,,1400.00,2200.00,,,-SN,,,,,,,,KDFW 142205Z AUTO 35015KT 1SM -SN BKN014 OVC022 M10/M13 A3026 RMK T11001130 MADISHF
DFW,2021-02-14 22:10,,,,,17.00,,30.26,,0.75,,BKN,OVC,,,1400.00,2200.00,,,-SN BR,,,,,,,,KDFW 142210Z AUTO ///17KT 1SM -SN BR BKN014 OVC022 M10/M12 A3026 RMK T11001120 MADISHF
DFW,2021-02-14 22:15,,,,,15.00,,30.26,,0.75,,BKN,OVC,,,1400.00,2200.00,,,-SN,,,,,,,,KDFW 142215Z AUTO ///15KT 1SM -SN BKN014 OVC022 M10/M13 A3026 RMK T11001130 MADISHF
DFW,2021-02-14 22:20,,,,,16.00,,30.26,,0.75,,BKN,OVC,,,1400.00,2200.00,,,-SN BR,,,,,,,,KDFW 142220Z AUTO ///16KT 1SM -SN BR BKN014 OVC022 M10/M12 A3026 RMK T11001120 MADISHF
DFW,2021-02-14 22:25,,,,,16.00,,30.26,,0.75,,BKN,OVC,,,1400.00,2200.00,,,-SN BR,,,,,,,,KDFW 142225Z AUTO ///16KT 1SM -SN BR BKN014 OVC022 M10/M12 A3026 RMK T11001120 MADISHF
DFW,2021-02-14 22:30,,,,,16.00,,30.26,,0.75,,BKN,OVC,,,1400.00,2200.00,,,-SN BR,,,,,,,,KDFW 142230Z AUTO ///16KT 1SM -SN BR BKN014 OVC022 M10/M12 A3026 RMK T11001120 MADISHF
DFW,2021-02-14 22:35,,,,,17.00,,30.26,,0.75,,BKN,OVC,,,1400.00,2200.00,,,-SN BR,,,,,,,,KDFW 142235Z AUTO ///17KT 1SM -SN BR BKN014 OVC022 M10/M12 A3026 RMK T11001120 MADISHF
DFW,2021-02-14 22:40,,,,,15.00,,30.26,,0.75,,BKN,OVC,,,1400.00,2200.00,,,-SN BR,,,,,,,,KDFW 142240Z AUTO ///15KT 1SM -SN BR BKN014 OVC022 M10/M12 A3026 RMK T11001120 MADISHF
DFW,2021-02-14 22:45,,,,,15.00,,30.26,,0.75,,BKN,OVC,,,1400.00,2200.00,,,-SN BR,,,,,,,,KDFW 142245Z AUTO ///15KT 1SM -SN BR BKN014 OVC022 M10/M12 A3026 RMK T11001120 MADISHF
DFW,2021-02-14 22:50,,,,,18.00,,30.26,,0.75,,BKN,OVC,,,1400.00,2200.00,,,-SN BR,,,,,,,,KDFW 142250Z AUTO ///18KT 1SM -SN BR BKN014 OVC022 M11/M12 A3026 RMK T11101120 MADISHF
DFW,2021-02-14 22:53,12.90,9.00,84.07,350.00,17.00,T,30.26,1025.50,0.75,25.00,BKN,OVC,,,1100.00,2000.00,,,-SN BR,,,,,,,-4.95,KDFW 142253Z 35017G25KT 3/4SM R17C/6000VP6000FT -SN BR BKN011 OVC020 M11/M13 A3026 RMK AO2 TWR VIS 1 3/4 SLP255 P0000 T11061128
DFW,2021-02-14 22:55,,,,,18.00,,30.26,,0.75,,BKN,OVC,,,1100.00,1999.00,,,-SN BR,,,,,,,,KDFW 142255Z AUTO ///18KT 1SM -SN BR BKN011 OVC019 M11/M13 A3026 RMK T11101130 MADISHF
DFW,2021-02-14 23:00,,,,,17.00,,30.27,,0.75,22.00,BKN,OVC,,,1100.00,1999.00,,,-SN BR,,,,,,,,KDFW 142300Z AUTO ///17G22KT 1SM -SN BR BKN011 OVC019 M11/M13 A3027 RMK T11101130 MADISHF
DFW,2021-02-14 23:05,,,,,17.00,,30.27,,0.75,,BKN,OVC,,,1100.00,1999.00,,,-SN BR,,,,,,,,KDFW 142305Z AUTO ///17KT 1SM -SN BR BKN011 OVC019 M11/M13 A3027 RMK T11101130 MADISHF
DFW,2021-02-14 23:10,,,,,15.00,,30.27,,0.75,,BKN,OVC,,,1100.00,1999.00,,,-SN BR,,,,,,,,KDFW 142310Z AUTO ///15KT 1SM -SN BR BKN011 OVC019 M11/M13 A3027 RMK T11101130 MADISHF
DFW,2021-02-14 23:15,,,,,19.00,,30.27,,0.75,,BKN,OVC,,,1100.00,1999.00,,,-SN BR,,,,,,,,KDFW 142315Z AUTO ///19KT 1SM -SN BR BKN011 OVC019 M11/M13 A3027 RMK T11101130 MADISHF
DFW,2021-02-14 23:20,,,,,18.00,,30.27,,0.75,22.00,BKN,OVC,,,1100.00,1999.00,,,-SN BR,,,,,,,,KDFW 142320Z AUTO ///18G22KT 1SM -SN BR BKN011 OVC019 M11/M13 A3027 RMK T11101130 MADISHF
DFW,2021-02-14 23:25,,,,,16.00,,30.28,,0.75,,BKN,OVC,,,1100.00,1999.00,,,-SN BR,,,,,,,,KDFW 142325Z AUTO ///16KT 1SM -SN BR BKN011 OVC019 M11/M13 A3028 RMK T11101130 MADISHF
DFW,2021-02-14 23:30,,,,,17.00,,30.28,,0.50,,BKN,OVC,,,800.00,1800.00,,,SN FZFG,,,,,,,,KDFW 142330Z AUTO ///17KT 1/2SM SN FZFG BKN008 OVC018 M11/M13 A3028 RMK T11101130 MADISHF
DFW,2021-02-14 23:35,,,,,17.00,0.01,30.28,,0.50,,BKN,OVC,,,800.00,1800.00,,,SN FZFG,,,,,,,,KDFW 142335Z AUTO ///17KT 1/2SM SN FZFG BKN008 OVC018 M11/M13 A3028 RMK P0000 T11101130 MADISHF
DFW,2021-02-14 23:40,,,,,16.00,0.01,30.28,,0.50,,VV ,,,,800.00,,,,SN FZFG,,,,,,,,KDFW 142340Z AUTO ///16KT 1/2SM SN FZFG VV008 M11/M13 A3028 RMK P0000 T11101130 MADISHF
DFW,2021-02-14 23:45,,,,,16.00,0.01,30.28,,0.25,22.00,VV ,,,,700.00,,,,+SN FZFG,,,,,,,,KDFW 142345Z AUTO ///16G22KT 1/4SM +SN FZFG VV007 M11/M13 A3028 RMK P0000 T11101130 MADISHF
DFW,2021-02-14 23:50,,,,,16.00,0.01,30.28,,0.25,,VV ,,,,700.00,,,,+SN FZFG,,,,,,,,KDFW 142350Z AUTO ///16KT 1/4SM +SN FZFG VV007 M11/M13 A3028 RMK P0000 T11101130 MADISHF
DFW,2021-02-14 23:53,12.00,8.10,84.01,350.00,16.00,0.02,30.28,1026.20,0.25,23.00,VV ,,,,600.00,,,,+SN FZFG,,,,,,,-5.65,KDFW 142353Z 35016G23KT 1/4SM R17C/2200V2400FT +SN FZFG VV006 M11/M13 A3028 RMK AO2 SLP262 SNINCR 1/3 4/003 P0002 60003 T11111133 11083 21111 53007 $
DFW,2021-02-14 23:55,,,,,14.00,,30.28,,0.25,19.00,VV ,,,,600.00,,,,+SN FZFG,,,,,,,,KDFW 142355Z AUTO ///14G19KT 1/4SM +SN FZFG VV006 M11/M13 A3028 RMK T11101130  SNINCR 1/3 4/003 MADISHF
DFW,2021-02-15 00:00,,,,,16.00,,30.28,,0.25,,VV ,,,,600.00,,,,+SN FZFG,,,,,,,,KDFW 150000Z AUTO ///16KT 1/4SM +SN FZFG VV006 M11/M13 A3028 RMK T11101130  SNINCR 1/3 4/003 MADISHF
DFW,2021-02-15 00:05,,,,,17.00,0.01,30.28,,0.25,22.00,VV ,,,,600.00,,,,+SN FZFG,,,,,,,,KDFW 150005Z AUTO ///17G22KT 1/4SM +SN FZFG VV006 M11/M13 A3028 RMK P0000 T11101130  SNINCR 1/3 4/003 MADISHF
DFW,2021-02-15 00:10,,,,,16.00,0.01,30.29,,0.25,,VV ,,,,600.00,,,,+SN FZFG,,,,,,,,KDFW 150010Z AUTO ///16KT 1/4SM +SN FZFG VV006 M11/M13 A3029 RMK P0000 T11101130  SNINCR 1/3 4/003 MADISHF
DFW,2021-02-15 00:15,,,,,16.00,0.02,30.29,,0.50,,VV ,,,,700.00,,,,SN FZFG,,,,,,,,KDFW 150015Z AUTO ///16KT 1/2SM SN FZFG VV007 M11/M13 A3029 RMK P0001 T11101130  SNINCR 1/3 4/003 MADISHF
DFW,2021-02-15 00:20,,,,,15.00,0.02,30.29,,0.75,,VV ,,,,700.00,,,,SN BR,,,,,,,,KDFW 150020Z AUTO ///15KT 1SM SN BR VV007 M11/M13 A3029 RMK P0001 T11101130  SNINCR 1/3 4/003 MADISHF
DFW,2021-02-15 00:25,,,,,19.00,0.02,30.29,,0.75,,VV ,,,,800.00,,,,-SN BR,,,,,,,,KDFW 150025Z AUTO ///19KT 1SM -SN BR VV008 M11/M13 A3029 RMK P0001 T11101130  SNINCR 1/3 4/003 MADISHF
DFW,2021-02-15 00:30,,,,,19.00,0.03,30.29,,0.75,,VV ,,,,900.00,,,,-SN BR,,,,,,,,KDFW 150030Z AUTO ///19KT 1SM -SN BR VV009 M12/M14 A3029 RMK P0002 T11201140  SNINCR 1/3 4/003 MADISHF
DFW,2021-02-15 00:35,,,,,18.00,0.03,30.30,,0.75,,VV ,,,,900.00,,,,-SN BR,,,,,,,,KDFW 150035Z AUTO ///18KT 1SM -SN BR VV009 M12/M14 A3029 RMK P0002 T11201140 MADISHF
DFW,2021-02-15 00:39,10.90,7.00,83.93,340.00,18.00,0.03,30.30,,0.75,,VV ,,,,1300.00,,,,-SN BLSN BR,,,,,,,-8.03,KDFW 150039Z 34018KT 3/4SM R17C/5500VP6000FT -SN BLSN BR VV013 M12/M14 A3030 RMK AO2 SFC VIS 1 P0003 T11171139 $
DFW,2021-02-15 00:40,,,,,18.00,0.03,30.30,,1.00,,VV ,,,,1400.00,,,,-SN BR,,,,,,,,KDFW 150040Z AUTO ///18KT 1SM -SN BR VV014 M12/M14 A3029 RMK P0002 T11201140 MADISHF
DFW,2021-02-15 00:45,,,,,17.00,0.03,30.30,,1.75,,OVC,,,,2100.00,,,,-SN BR,,,,,,,,KDFW 150045Z AUTO ///17KT 2SM -SN BR OVC021 M12/M14 A3029 RMK P0002 T11201140 MADISHF
DFW,2021-02-15 00:50,,,,,16.00,0.03,30.30,,2.00,,OVC,,,,2400.00,,,,-SN BR,,,,,,,,KDFW 150050Z AUTO ///16KT 2SM -SN BR OVC024 M12/M14 A3029 RMK P0002 T11201140 MADISHF
DFW,2021-02-15 00:53,10.90,7.00,83.93,340.00,16.00,0.03,30.30,1027.00,1.75,,OVC,,,,2600.00,,,,-SN BLSN BR,,,,,,,-7.08,KDFW 150053Z 34016KT 1 3/4SM -SN BLSN BR OVC026 M12/M14 A3030 RMK AO2 SFC VIS 2 1/2 SLP270 P0003 T11171139 $
DFW,2021-02-15 00:55,,,,,17.00,,30.30,,2.50,,OVC,,,,2600.00,,,,-SN BR,,,,,,,,KDFW 150055Z AUTO ///17KT 2 1/2SM -SN BR OVC026 M12/M14 A3029 RMK T11201140 MADISHF
DFW,2021-02-15 01:00,,,,,17.00,,30.30,,1.75,,OVC,,,,2400.00,,,,-SN BR,,,,,,,,KDFW 150100Z AUTO ///17KT 2SM -SN BR OVC024 M12/M14 A3029 RMK T11201140 MADISHF
DFW,2021-02-15 01:05,,,,,16.00,,30.31,,1.25,,OVC,,,,2400.00,,,,-SN BR,,,,,,,,KDFW 150105Z AUTO ///16KT 1 1/2SM -SN BR OVC024 M12/M14 A3030 RMK T11201140 MADISHF
DFW,2021-02-15 01:10,,,,,16.00,,30.31,,1.00,,VV ,,,,1999.00,,,,-SN BR,,,,,,,,KDFW 150110Z AUTO ///16KT 1SM -SN BR VV019 M12/M14 A3030 RMK T11201140 MADISHF
DFW,2021-02-15 01:15,,,,,15.00,,30.31,,1.00,,VV ,,,,1600.00,,,,-SN BR,,,,,,,,KDFW 150115Z AUTO ///15KT 1SM -SN BR VV016 M12/M13 A3030 RMK T11201130 MADISHF
DFW,2021-02-15 01:18,10.90,8.10,88.21,340.00,18.00,T,30.32,,0.75,,VV ,,,,1400.00,,,,-SN BLSN BR,,,,,,,-8.03,KDFW 150118Z 34018KT 3/4SM R17C/6000VP6000FT -SN BLSN BR VV014 M12/M13 A3032 RMK AO2 TWR VIS 1 3/4 P0000 T11171133 $
DFW,2021-02-15 01:20,,,,,17.00,,30.32,,0.75,,VV ,,,,1300.00,,,,-SN BR,,,,,,,,KDFW 150120Z AUTO ///17KT 1SM -SN BR VV013 M12/M14 A3031 RMK T11201140 MADISHF
DFW,2021-02-15 01:25,,,,,16.00,0.01,30.32,,0.75,,VV ,,,,1100.00,,,,-SN BR,,,,,,,,KDFW 150125Z AUTO ///16KT 1SM -SN BR VV011 M12/M14 A3031 RMK P0000 T11201140 MADISHF
DFW,2021-02-15 01:30,,,,,18.00,0.01,30.33,,0.75,,VV ,,,,1100.00,,,,-SN BR,,,,,,,,KDFW 150130Z AUTO ///18KT 1SM -SN BR VV011 M12/M14 A3032 RMK P0000 T11201140 MADISHF
DFW,2021-02-15 01:35,,,,,19.00,0.01,30.32,,0.75,,VV ,,,,1100.00,,,,-SN BR,,,,,,,,KDFW 150135Z AUTO ///19KT 1SM -SN BR VV011 M12/M14 A3031 RMK P0000 T11201140 MADISHF
DFW,2021-02-15 01:40,,,,,18.00,0.01,30.32,,1.00,23.00,VV ,,,,1300.00,,,,-SN BR,,,,,,,,KDFW 150140Z AUTO ///18G23KT 1SM -SN BR VV013 M12/M14 A3031 RMK P0000 T11201140 MADISHF
DFW,2021-02-15 01:45,,,,,19.00,0.01,30.33,,1.25,,BKN,OVC,,,1400.00,8500.00,,,-SN BR,,,,,,,,KDFW 150145Z AUTO ///19KT 1 1/2SM -SN BR BKN014 OVC085 M12/M14 A3032 RMK P0000 T11201140 MADISHF
DFW,2021-02-15 01:46,10.90,7.00,83.93,340.00,21.00,0.01,30.33,,1.50,,BKN,OVC,,,1400.00,9000.00,,,-SN BLSN BR,,,,26.00,340.00,2021-02-15 01:33,-9.29,KDFW 150146Z 34021KT 1 1/2SM -SN BLSN BR BKN014 OVC090 M12/M14 A3033 RMK AO2 PK WND 34026/0133 TWR VIS 1 3/4 P0001 T11171139 $
DFW,2021-02-15 01:50,,,,,18.00,0.01,30.33,,1.75,23.00,BKN,OVC,,,1400.00,9000.00,,,-SN BR,,,,,,,,KDFW 150150Z AUTO ///18G23KT 2SM -SN BR BKN014 OVC090 M12/M14 A3032 RMK P0000 T11201140 MADISHF
DFW,2021-02-15 01:53,10.90,7.00,83.93,340.00,18.00,0.01,30.32,1027.70,1.75,,BKN,OVC,,,1400.00,9000.00,,,-SN BLSN BR,,,,26.00,340.00,2021-02-15 01:33,-8.03,KDFW 150153Z 34018KT 1 3/4SM -SN BLSN BR BKN014 OVC090 M12/M14 A3032 RMK AO2 PK WND 34026/0133 SFC VIS 2 1/2 SLP277 P0001 T11171139 $
DFW,2021-02-15 01:55,,,,,19.00,,30.32,,3.00,,SCT,OVC,,,1400.00,9000.00,,,-SN BR,,,,,,,,KDFW 150155Z AUTO ///19KT 3SM -SN BR SCT014 OVC090 M12/M14 A3031 RMK T11201140 MADISHF
DFW,2021-02-15 02:00,,,,,19.00,,30.32,,4.00,,BKN,OVC,,,1400.00,9000.00,,,-SN BR,,,,,,,,KDFW 150200Z AUTO ///19KT 4SM -SN BR BKN014 OVC090 M12/M14 A3031 RMK T11201140 MADISHF
DFW,2021-02-15 02:05,,,,,21.00,,30.32,,5.00,,BKN,OVC,,,1400.00,9000.00,,,-SN BR,,,,,,,,KDFW 150205Z AUTO ///21KT 5SM -SN BR BKN014 OVC090 M12/M14 A3031 RMK T11201140 MADISHF
DFW,2021-02-15 02:10,,,,,19.00,,30.32,,5.00,,BKN,OVC,,,1400.00,9000.00,,,-SN,,,,,,,,KDFW 150210Z AUTO ///19KT 5SM -SN BKN014 OVC090 M12/M14 A3031 RMK T11201140 MADISHF
DFW,2021-02-15 02:13,10.90,6.10,80.57,340.00,20.00,T,30.32,,5.00,,BKN,OVC,,,1400.00,9000.00,,,-SN BLSN,,,,,,,-8.89,KDFW 150213Z 34020KT 5SM -SN BLSN BKN014 OVC090 M12/M14 A3032 RMK AO2 P0000 T11171144 $
DFW,2021-02-15 02:15,,,,,19.00,,30.32,,6.00,,BKN,OVC,,,1400.00,9000.00,,,-SN,,,,,,,,KDFW 150215Z AUTO ///19KT 6SM -SN BKN014 OVC090 M12/M14 A3031 RMK T11201140 MADISHF
DFW,2021-02-15 02:20,,,,,16.00,,30.32,,5.00,,BKN,OVC,,,1400.00,9000.00,,,-SN,,,,,,,,KDFW 150220Z AUTO ///16KT 5SM -SN BKN014 OVC090 M12/M14 A3031 RMK T11201140 MADISHF
DFW,2021-02-15 02:25,,,,,18.00,,30.32,,1.50,,BKN,OVC,,,1400.00,2600.00,,,-SN,,,,,,,,KDFW 150225Z AUTO ///18KT 1 1/2SM -SN BKN014 OVC026 M12/M14 A3031 RMK T11201140 MADISHF
DFW,2021-02-15 02:30,,,,,17.00,,30.32,,1.50,,BKN,OVC,,,1400.00,2600.00,,,-SN,,,,,,,,KDFW 150230Z AUTO ///17KT 1 1/2SM -SN BKN014 OVC026 M12/M14 A3031 RMK T11201140 MADISHF
DFW,2021-02-15 02:35,,,,,16.00,,30.32,,1.50,,BKN,OVC,,,1400.00,2600.00,,,-SN,,,,,,,,KDFW 150235Z AUTO ///16KT 1 1/2SM -SN BKN014 OVC026 M12/M14 A3031 RMK T11201140 MADISHF
DFW,2021-02-15 02:40,,,,350.00,17.00,,30.32,,1.50,,BKN,OVC,,,1400.00,2600.00,,,-SN,,,,,,,,KDFW 150240Z AUTO 35017KT 1 1/2SM -SN BKN014 OVC026 M12/M14 A3031 RMK T11201140 MADISHF
DFW,2021-02-15 02:42,10.90,6.10,80.57,350.00,16.00,0.01,30.32,,3.00,,SCT,OVC,,,1400.00,2600.00,,,-SN BLSN,,,,,,,-7.08,KDFW 150242Z 35016KT 3SM -SN BLSN SCT014 OVC026 M12/M14 A3032 RMK AO2 P0001 T11171144 $
DFW,2021-02-15 02:45,,,,350.00,17.00,0.01,30.32,,4.00,23.00,SCT,OVC,,,1400.00,2600.00,,,-SN,,,,,,,,KDFW 150245Z AUTO 35017G23KT 4SM -SN SCT014 OVC026 M12/M14 A3031 RMK P0000 T11201140 MADISHF
DFW,2021-02-15 02:50,,,,350.00,17.00,0.01,30.32,,5.00,,FEW,OVC,,,1400.00,2600.00,,,-SN,,,,,,,,KDFW 150250Z AUTO 35017KT 5SM -SN FEW014 OVC026 M12/M14 A3031 RMK P0000 T11201140 MADISHF
DFW,2021-02-15 02:53,10.90,6.10,80.57,350.00,19.00,0.01,30.32,1027.50,4.00,,FEW,OVC,,,1400.00,2600.00,,,-SN BLSN,,,,,,,-8.47,KDFW 150253Z 35019KT 4SM -SN BLSN FEW014 OVC026 M12/M14 A3032 RMK AO2 SLP275 P0001 60005 T11171144 50012 $
DFW,2021-02-15 02:55,,,,350.00,19.00,,30.31,,4.00,,OVC,,,,2400.00,,,,-SN,,,,,,,,KDFW 150255Z AUTO 35019KT 4SM -SN OVC024 M12/M14 A3030 RMK T11201140 MADISHF
DFW,2021-02-15 03:00,,,,350.00,17.00,,30.32,,3.00,,OVC,,,,2400.00,,,,-SN,,,,,,,,KDFW 150300Z AUTO 35017KT 3SM -SN OVC024 M12/M14 A3031 RMK T11201140 MADISHF
DFW,2021-02-15 03:05,,,,350.00,17.00,,30.31,,3.50,,OVC,,,,2400.00,,,,-SN,,,,,,,,KDFW 150305Z AUTO 35017KT 3SM -SN OVC024 M12/M14 A3030 RMK T11201140 MADISHF
DFW,2021-02-15 03:10,,,,,21.00,,30.31,,4.00,,OVC,,,,2400.00,,,,-SN,,,,,,,,KDFW 150310Z AUTO ///21KT 4SM -SN OVC024 M12/M14 A3030 RMK T11201140 MADISHF
DFW,2021-02-15 03:15,,,,,17.00,,30.32,,4.00,,OVC,,,,2400.00,,,,-SN,,,,,,,,KDFW 150315Z AUTO ///17KT 4SM -SN OVC024 M12/M14 A3031 RMK T11201140 MADISHF
DFW,2021-02-15 03:20,,,,,18.00,,30.31,,4.00,,FEW,OVC,,,1300.00,2300.00,,,-SN,,,,,,,,KDFW 150320Z AUTO ///18KT 4SM -SN FEW013 OVC023 M12/M14 A3030 RMK T11201140 MADISHF
DFW,2021-02-15 03:25,,,,360.00,16.00,,30.30,,4.00,,FEW,OVC,,,1100.00,2300.00,,,-SN,,,,,,,,KDFW 150325Z AUTO 36016KT 4SM -SN FEW011 OVC023 M12/M14 A3029 RMK T11201140 MADISHF
DFW,2021-02-15 03:30,,,,360.00,16.00,,30.30,,3.50,,SCT,OVC,,,1699.00,2300.00,,,-SN,,,,,,,,KDFW 150330Z AUTO 36016KT 3SM -SN SCT016 OVC023 M12/M14 A3029 RMK T11201140 MADISHF
DFW,2021-02-15 03:35,,,,360.00,17.00,,30.29,,4.00,,SCT,OVC,,,1699.00,2300.00,,,-SN,,,,,,,,KDFW 150335Z AUTO 36017KT 4SM -SN SCT016 OVC023 M12/M14 A3029 RMK T11201140 MADISHF
DFW,2021-02-15 03:40,,,,360.00,15.00,,30.29,,6.00,,SCT,OVC,,,1800.00,2300.00,,,-SN,,,,,,,,KDFW 150340Z AUTO 36015KT 6SM -SN SCT018 OVC023 M12/M14 A3029 RMK T11201140 MADISHF
DFW,2021-02-15 03:45,,,,,15.00,,30.30,,8.00,,OVC,,,,2100.00,,,,-SN,,,,,,,,KDFW 150345Z AUTO ///15KT 8SM -SN OVC021 M12/M14 A3029 RMK T11201140 MADISHF
DFW,2021-02-15 03:50,,,,,15.00,,30.31,,6.00,,FEW,OVC,,,1600.00,2300.00,,,-SN,,,,,,,,KDFW 150350Z AUTO ///15KT 6SM -SN FEW016 OVC023 M12/M14 A3030 RMK T11201140 MADISHF
DFW,2021-02-15 03:53,10.90,6.10,80.57,350.00,15.00,T,30.31,1027.20,7.00,23.00,OVC,,,,2300.00,,,,-SN,,,,27.00,360.00,2021-02-15 03:09,-6.57,KDFW 150353Z 35015G23KT 7SM -SN OVC023 M12/M14 A3031 RMK AO2 PK WND 36027/0309 SLP272 P0000 T11171144 $
DFW,2021-02-15 03:55,,,,,17.00,,30.30,,5.00,,OVC,,,,2300.00,,,,-SN,,,,,,,,KDFW 150355Z AUTO ///17KT 5SM -SN OVC023 M12/M14 A3029 RMK T11201140 MADISHF
DFW,2021-02-15 04:00,,,,,18.00,,30.31,,8.00,22.00,OVC,,,,2300.00,,,,-SN,,,,,,,,KDFW 150400Z AUTO ///18G22KT 8SM -SN OVC023 M12/M15 A3030 RMK T11201150 MADISHF
DFW,2021-02-15 04:05,,,,,20.00,,30.30,,9.00,,OVC,,,,2300.00,,,,,,,,,,,,KDFW 150405Z AUTO ///20KT 9SM OVC023 M12/M16 A3029 RMK T11201160 MADISHF
DFW,2021-02-15 04:10,,,,,19.00,,30.30,,10.00,,OVC,,,,2300.00,,,,,,,,,,,,KDFW 150410Z AUTO ///19KT 10SM OVC023 M12/M16 A3029 RMK T11201160 MADISHF
DFW,2021-02-15 04:15,,,,,18.00,,30.30,,10.00,23.00,BKN,OVC,,,2300.00,12000.00,,,,,,,,,,,KDFW 150415Z AUTO ///18G23KT 10SM BKN023 OVC120 M12/M16 A3029 RMK T11201160 MADISHF
DFW,2021-02-15 04:20,,,,,22.00,,30.28,,10.00,,BKN,OVC,,,2300.00,12000.00,,,,,,,,,,,KDFW 150420Z AUTO ///22KT 10SM BKN023 OVC120 M12/M16 A3028 RMK T11201160 MADISHF
DFW,2021-02-15 04:25,,,,,18.00,,30.30,,10.00,,BKN,OVC,,,2300.00,12000.00,,,,,,,,,,,KDFW 150425Z AUTO ///18KT 10SM BKN023 OVC120 M12/M16 A3029 RMK T11201160 MADISHF
DFW,2021-02-15 04:30,,,,,17.00,,30.30,,10.00,,BKN,OVC,,,2300.00,12000.00,,,,,,,,,,,KDFW 150430Z AUTO ///17KT 10SM BKN023 OVC120 M12/M16 A3029 RMK T11201160 MADISHF
DFW,2021-02-15 04:35,,,,,19.00,,30.31,,10.00,,BKN,OVC,,,2300.00,12000.00,,,,,,,,,,,KDFW 150435Z AUTO ///19KT 10SM BKN023 OVC120 M12/M16 A3030 RMK T11201160 MADISHF
DFW,2021-02-15 04:40,,,,,17.00,,30.31,,10.00,,BKN,OVC,,,2300.00,12000.00,,,,,,,,,,,KDFW 150440Z AUTO ///17KT 10SM BKN023 OVC120 M12/M16 A3030 RMK T11201160 MADISHF
DFW,2021-02-15 04:45,,,,,19.00,,30.31,,10.00,23.00,BKN,OVC,,,2300.00,12000.00,,,,,,,,,,,KDFW 150445Z AUTO ///19G23KT 10SM BKN023 OVC120 M12/M16 A3030 RMK T11201160 MADISHF
DFW,2021-02-15 04:50,,,,,17.00,,30.31,,10.00,,BKN,OVC,,,2300.00,12000.00,,,-SN,,,,,,,,KDFW 150450Z AUTO ///17KT 10SM -SN BKN023 OVC120 M12/M16 A3030 RMK T11201160 MADISHF
DFW,2021-02-15 04:53,10.90,3.90,72.85,350.00,14.00,T,30.34,1028.20,9.00,24.00,BKN,OVC,,,2300.00,12000.00,,,-SN,,,,30.00,10.00,2021-02-15 04:18,-6.04,KDFW 150453Z 35014G24KT 9SM -SN BKN023 OVC120 M12/M16 A3034 RMK AO2 PK WND 01030/0418 SNE04B49 PRESRR SLP282 P0000 T11171156 $
DFW,2021-02-15 04:55,,,,,14.00,,30.33,,9.00,,OVC,,,,2200.00,,,,-SN,,,,,,,,KDFW 150455Z AUTO ///14KT 9SM -SN OVC022 M12/M16 A3032 RMK T11201160 MADISHF
DFW,2021-02-15 05:00,,,,,14.00,,30.33,,8.00,,OVC,,,,2200.00,,,,-SN,,,,,,,,KDFW 150500Z AUTO ///14KT 8SM -SN OVC022 M12/M16 A3032 RMK T11201160 MADISHF
DFW,2021-02-15 05:05,,,,,18.00,,30.31,,9.00,,OVC,,,,1999.00,,,,-SN,,,,,,,,KDFW 150505Z AUTO ///18KT 9SM -SN OVC019 M12/M16 A3030 RMK T11201160 MADISHF
DFW,2021-02-15 05:10,,,,,21.00,,30.31,,9.00,,OVC,,,,1999.00,,,,-SN,,,,,,,,KDFW 150510Z AUTO ///21KT 9SM -SN OVC019 M12/M16 A3030 RMK T11201160 MADISHF
DFW,2021-02-15 05:15,,,,,21.00,,30.33,,8.00,,OVC,,,,1999.00,,,,-SN,,,,,,,,KDFW 150515Z AUTO ///21KT 8SM -SN OVC019 M12/M16 A3032 RMK T11201160 MADISHF
DFW,2021-02-15 05:20,,,,,16.00,,30.33,,8.00,,OVC,,,,1999.00,,,,-SN,,,,,,,,KDFW 150520Z AUTO ///16KT 8SM -SN OVC019 M12/M16 A3032 RMK T11201160 MADISHF
DFW,2021-02-15 05:25,,,,,16.00,,30.33,,9.00,,OVC,,,,2100.00,,,,,,,,,,,,KDFW 150525Z AUTO ///16KT 9SM OVC021 M12/M16 A3032 RMK T11201160 MADISHF
DFW,2021-02-15 05:30,,,,,18.00,,30.33,,10.00,,OVC,,,,2100.00,,,,,,,,,,,,KDFW 150530Z AUTO ///18KT 10SM OVC021 M12/M16 A3032 RMK T11201160 MADISHF
DFW,2021-02-15 05:35,,,,,17.00,,30.33,,10.00,22.00,OVC,,,,2100.00,,,,,,,,,,,,KDFW 150535Z AUTO ///17G22KT 10SM OVC021 M12/M16 A3032 RMK T11201160 MADISHF
DFW,2021-02-15 05:40,,,,,20.00,,30.33,,10.00,,OVC,,,,2100.00,,,,,,,,,,,,KDFW 150540Z AUTO ///20KT 10SM OVC021 M12/M16 A3032 RMK T11201160 MADISHF
DFW,2021-02-15 05:45,,,,,16.00,,30.33,,10.00,,OVC,,,,2100.00,,,,,,,,,,,,KDFW 150545Z AUTO ///16KT 10SM OVC021 M12/M16 A3032 RMK T11201160 MADISHF
DFW,2021-02-15 05:50,,,,,20.00,,30.33,,10.00,,OVC,,,,2100.00,,,,,,,,,,,,KDFW 150550Z AUTO ///20KT 10SM OVC021 M12/M16 A3032 RMK T11201160 MADISHF
DFW,2021-02-15 05:53,10.00,3.00,72.75,340.00,19.00,T,30.33,1027.90,10.00,,OVC,,,,2100.00,,,,,,,,27.00,340.00,2021-02-15 05:41,-9.66,KDFW 150553Z 34019KT 10SM OVC021 M12/M16 A3033 RMK AO2 PK WND 34027/0541 SNE24 SLP279 4/004 P0000 60005 T11221161 11111 21122 410561122 50003 $
DFW,2021-02-15 05:55,,,,,21.00,,30.32,,10.00,27.00,OVC,,,,2100.00,,,,,,,,,,,,KDFW 150555Z AUTO ///21G27KT 10SM OVC021 M12/M16 A3031 RMK T11201160 MADISHF
DFW,2021-02-15 06:00,,,,,21.00,,30.31,,10.00,,OVC,,,,2200.00,,,,,,,,,,,,KDFW 150600Z AUTO ///21KT 10SM OVC022 M13/M16 A3030 RMK T11301160 MADISHF
DFW,2021-02-15 06:05,,,,,20.00,,30.31,,10.00,,OVC,,,,2200.00,,,,,,,,,,,,KDFW 150605Z AUTO ///20KT 10SM OVC022 M13/M16 A3030 RMK T11301160 MADISHF
DFW,2021-02-15 06:10,,,,,21.00,,30.30,,10.00,30.00,OVC,,,,2400.00,,,,,,,,,,,,KDFW 150610Z AUTO ///21G30KT 10SM OVC024 M13/M16 A3029 RMK T11301160 MADISHF
DFW,2021-02-15 06:15,,,,,20.00,,30.30,,8.00,24.00,OVC,,,,2400.00,,,,,,,,,,,,KDFW 150615Z AUTO ///20G24KT 8SM OVC024 M13/M17 A3029 RMK T11301170 MADISHF
DFW,2021-02-15 06:20,,,,,19.00,,30.29,,8.00,,OVC,,,,2400.00,,,,-SN,,,,,,,,KDFW 150620Z AUTO ///19KT 8SM -SN OVC024 M13/M17 A3029 RMK T11301170 MADISHF
DFW,2021-02-15 06:25,,,,,19.00,,30.30,,7.00,,OVC,,,,2400.00,,,,-SN,,,,,,,,KDFW 150625Z AUTO ///19KT 7SM -SN OVC024 M13/M17 A3029 RMK T11301170 MADISHF
DFW,2021-02-15 06:30,,,,,18.00,,30.30,,5.00,,OVC,,,,2400.00,,,,-SN,,,,,,,,KDFW 150630Z AUTO ///18KT 5SM -SN OVC024 M13/M16 A3029 RMK T11301160 MADISHF
DFW,2021-02-15 06:35,,,,,19.00,,30.30,,4.00,,OVC,,,,2400.00,,,,-SN,,,,,,,,KDFW 150635Z AUTO ///19KT 4SM -SN OVC024 M13/M16 A3029 RMK T11301160 MADISHF
DFW,2021-02-15 06:40,,,,340.00,17.00,,30.29,,3.50,,OVC,,,,2300.00,,,,-SN,,,,,,,,KDFW 150640Z AUTO 34017KT 3SM -SN OVC023 M13/M16 A3029 RMK T11301160 MADISHF
DFW,2021-02-15 06:45,,,,,16.00,,30.28,,2.50,22.00,OVC,,,,2300.00,,,,-SN,,,,,,,,KDFW 150645Z AUTO ///16G22KT 2 1/2SM -SN OVC023 M13/M16 A3028 RMK T11301160 MADISHF
DFW,2021-02-15 06:46,9.00,3.00,76.08,350.00,17.00,T,30.28,,1.50,,OVC,,,,2300.00,,,,-SN,,,,31.00,360.00,2021-02-15 06:10,-10.06,KDFW 150646Z 35017KT 1 1/2SM -SN OVC023 M13/M16 A3028 RMK AO2 PK WND 36031/0610 SFC VIS 2 1/2 SNB17 PRESFR P0000 T11281161 $
DFW,2021-02-15 06:50,,,,,17.00,,30.28,,2.50,,OVC,,,,2300.00,,,,-SN,,,,,,,,KDFW 150650Z AUTO ///17KT 2 1/2SM -SN OVC023 M13/M16 A3028 RMK T11301160 MADISHF
DFW,2021-02-15 06:53,9.00,3.00,76.08,350.00,17.00,T,30.28,1026.40,1.50,26.00,OVC,,,,2300.00,,,,-SN,,,,31.00,360.00,2021-02-15 06:10,-10.06,KDFW 150653Z 35017G26KT 1 1/2SM -SN OVC023 M13/M16 A3028 RMK AO2 PK WND 36031/0610 SFC VIS 2 SNB17 SLP264 P0000 T11281161 $
DFW,2021-02-15 06:55,,,,,21.00,,30.28,,2.50,,OVC,,,,2300.00,,,,-SN,,,,,,,,KDFW 150655Z AUTO ///21KT 2 1/2SM -SN OVC023 M13/M16 A3028 RMK T11301160 MADISHF
DFW,2021-02-15 07:00,,,,,20.00,,30.29,,2.50,24.00,OVC,,,,2300.00,,,,-SN,,,,,,,,KDFW 150700Z AUTO ///20G24KT 2 1/2SM -SN OVC023 M13/M16 A3029 RMK T11301160 MADISHF
DFW,2021-02-15 07:05,,,,,21.00,,30.29,,2.50,,OVC,,,,2300.00,,,,-SN,,,,,,,,KDFW 150705Z AUTO ///21KT 2 1/2SM -SN OVC023 M13/M16 A3029 RMK T11301160 MADISHF
DFW,2021-02-15 07:10,,,,,19.00,,30.31,,2.50,,OVC,,,,2300.00,,,,-SN,,,,,,,,KDFW 150710Z AUTO ///19KT 2 1/2SM -SN OVC023 M13/M16 A3030 RMK T11301160 MADISHF
DFW,2021-02-15 07:15,,,,,20.00,,30.31,,3.00,,OVC,,,,2300.00,,,,-SN,,,,,,,,KDFW 150715Z AUTO ///20KT 3SM -SN OVC023 M13/M16 A3030 RMK T11301160 MADISHF
DFW,2021-02-15 07:20,,,,,17.00,,30.32,,3.00,,BKN,OVC,,,2300.00,3200.00,,,-SN,,,,,,,,KDFW 150720Z AUTO ///17KT 3SM -SN BKN023 OVC032 M13/M16 A3031 RMK T11301160 MADISHF
DFW,2021-02-15 07:25,,,,,17.00,,30.33,,2.00,,BKN,OVC,,,2300.00,2800.00,,,-SN,,,,,,,,KDFW 150725Z AUTO ///17KT 2SM -SN BKN023 OVC028 M13/M16 A3032 RMK T11301160 MADISHF
DFW,2021-02-15 07:30,,,,,16.00,,30.34,,1.75,,OVC,,,,2300.00,,,,-SN,,,,,,,,KDFW 150730Z AUTO ///16KT 2SM -SN OVC023 M13/M16 A3034 RMK T11301160 MADISHF
DFW,2021-02-15 07:35,,,,,15.00,,30.33,,1.50,,BKN,OVC,,,2300.00,2800.00,,,-SN,,,,,,,,KDFW 150735Z AUTO ///15KT 1 1/2SM -SN BKN023 OVC028 M13/M16 A3032 RMK T11301160 MADISHF
DFW,2021-02-15 07:40,,,,,16.00,,30.33,,1.50,,BKN,OVC,,,2300.00,2800.00,,,-SN,,,,,,,,KDFW 150740Z AUTO ///16KT 1 1/2SM -SN BKN023 OVC028 M13/M16 A3032 RMK T11301160 MADISHF
DFW,2021-02-15 07:45,,,,,16.00,,30.33,,1.75,,OVC,,,,2300.00,,,,-SN,,,,,,,,KDFW 150745Z AUTO ///16KT 2SM -SN OVC023 M13/M16 A3032 RMK T11301160 MADISHF
DFW,2021-02-15 07:50,,,,,19.00,,30.33,,1.75,,BKN,OVC,,,2100.00,2900.00,,,-SN,,,,,,,,KDFW 150750Z AUTO ///19KT 2SM -SN BKN021 OVC029 M13/M16 A3032 RMK T11301160 MADISHF
DFW,2021-02-15 07:53,8.10,3.00,79.23,340.00,16.00,T,30.33,1027.90,1.50,,BKN,OVC,,,2100.00,2900.00,,,-SN,,,,26.00,340.00,2021-02-15 07:03,-10.73,KDFW 150753Z 34016KT 1 1/2SM -SN BKN021 OVC029 M13/M16 A3033 RMK AO2 PK WND 34026/0703 SFC VIS 1 3/4 SLP279 P0000 T11331161 $
DFW,2021-02-15 07:55,,,,,17.00,,30.33,,1.75,,BKN,OVC,,,2100.00,2900.00,,,-SN,,,,,,,,KDFW 150755Z AUTO ///17KT 2SM -SN BKN021 OVC029 M13/M16 A3032 RMK T11301160 MADISHF
DFW,2021-02-15 08:00,,,,,17.00,,30.32,,1.50,22.00,OVC,,,,1900.00,,,,-SN,,,,,,,,KDFW 150800Z AUTO ///17G22KT 1 1/2SM -SN OVC019 M13/M16 A3031 RMK T11301160 MADISHF
DFW,2021-02-15 08:05,,,,,18.00,,30.32,,1.25,,OVC,,,,1699.00,,,,-SN,,,,,,,,KDFW 150805Z AUTO ///18KT 1 1/2SM -SN OVC016 M13/M16 A3031 RMK T11301160 MADISHF
DFW,2021-02-15 08:10,,,,,18.00,,30.31,,1.00,,OVC,,,,1600.00,,,,-SN,,,,,,,,KDFW 150810Z AUTO ///18KT 1SM -SN OVC016 M13/M16 A3030 RMK T11301160 MADISHF
DFW,2021-02-15 08:12,7.00,3.00,83.27,340.00,18.00,T,30.32,,0.50,,OVC,,,,1600.00,,,,-SN,,,,,,,-13.16,KDFW 150812Z 34018KT 1/2SM R17C/P6000FT -SN OVC016 M14/M16 A3032 RMK AO2 SFC VIS 3/4 P0000 T11391161 $
DFW,2021-02-15 08:15,,,,,19.00,0.01,30.31,,0.75,23.00,OVC,,,,1600.00,,,,-SN,,,,,,,,KDFW 150815Z AUTO ///19G23KT 1SM -SN OVC016 M14/M16 A3030 RMK P0000 T11401160 MADISHF
DFW,2021-02-15 08:20,,,,,17.00,0.01,30.31,,0.75,,OVC,,,,1600.00,,,,-SN,,,,,,,,KDFW 150820Z AUTO ///17KT 1SM -SN OVC016 M14/M16 A3030 RMK P0000 T11401160 MADISHF
DFW,2021-02-15 08:25,,,,,18.00,0.01,30.32,,0.75,,OVC,,,,1600.00,,,,-SN,,,,,,,,KDFW 150825Z AUTO ///18KT 1SM -SN OVC016 M14/M16 A3031 RMK P0000 T11401160 MADISHF
DFW,2021-02-15 08:30,,,,330.00,16.00,0.01,30.32,,0.75,22.00,OVC,,,,1600.00,,,,-SN,,,,,,,,KDFW 150830Z AUTO 33016G22KT 1SM -SN OVC016 M14/M16 A3031 RMK P0000 T11401160 MADISHF
DFW,2021-02-15 08:35,,,,,18.00,0.01,30.32,,0.75,22.00,OVC,,,,1600.00,,,,-SN,,,,,,,,KDFW 150835Z AUTO ///18G22KT 1SM -SN OVC016 M14/M16 A3031 RMK P0000 T11401160 MADISHF
DFW,2021-02-15 08:40,,,,,20.00,0.01,30.31,,0.75,,OVC,,,,1600.00,,,,-SN,,,,,,,,KDFW 150840Z AUTO ///20KT 1SM -SN OVC016 M14/M16 A3030 RMK P0000 T11401160 MADISHF
DFW,2021-02-15 08:45,,,,,22.00,0.01,30.30,,0.75,,OVC,,,,1600.00,,,,-SN,,,,,,,,KDFW 150845Z AUTO ///22KT 1SM -SN OVC016 M14/M16 A3029 RMK P0000 T11401160 MADISHF
DFW,2021-02-15 08:50,,,,,21.00,0.01,30.31,,0.50,26.00,OVC,,,,1200.00,,,,SN,,,,,,,,KDFW 150850Z AUTO ///21G26KT 1/2SM SN OVC012 M14/M16 A3030 RMK P0000 T11401160 MADISHF
DFW,2021-02-15 08:53,7.00,3.00,83.27,340.00,19.00,0.01,30.31,1027.20,0.50,28.00,OVC,,,,1200.00,,,,SN,,,,28.00,330.00,2021-02-15 08:47,-13.62,KDFW 150853Z 34019G28KT 1/2SM R17C/6000VP6000FT SN OVC012 M14/M16 A3031 RMK AO2 PK WND 33028/0847 SLP272 P0001 60001 T11391161 56006 $
DFW,2021-02-15 08:55,,,,,19.00,,30.31,,0.75,24.00,VV ,,,,1300.00,,,,SN,,,,,,,,KDFW 150855Z AUTO ///19G24KT 1SM SN VV013 M14/M16 A3030 RMK T11401160 MADISHF
DFW,2021-02-15 09:00,,,,,20.00,0.01,30.32,,0.75,,VV ,,,,1300.00,,,,SN,,,,,,,,KDFW 150900Z AUTO ///20KT 1SM SN VV013 M14/M16 A3031 RMK P0000 T11401160 MADISHF
DFW,2021-02-15 09:05,,,,,19.00,0.01,30.32,,0.75,,OVC,,,,1300.00,,,,SN,,,,,,,,KDFW 150905Z AUTO ///19KT 1SM SN OVC013 M14/M16 A3031 RMK P0000 T11401160 MADISHF
DFW,2021-02-15 09:10,,,,,20.00,0.01,30.32,,1.00,26.00,OVC,,,,1300.00,,,,SN,,,,,,,,KDFW 150910Z AUTO ///20G26KT 1SM SN OVC013 M14/M16 A3031 RMK P0000 T11401160 MADISHF
DFW,2021-02-15 09:15,,,,,21.00,0.01,30.32,,1.00,,OVC,,,,1300.00,,,,SN,,,,,,,,KDFW 150915Z AUTO ///21KT 1SM SN OVC013 M14/M17 A3031 RMK P0000 T11401170 MADISHF
DFW,2021-02-15 09:20,,,,,21.00,0.01,30.32,,1.00,26.00,OVC,,,,1300.00,,,,SN,,,,,,,,KDFW 150920Z AUTO ///21G26KT 1SM SN OVC013 M14/M17 A3031 RMK P0000 T11401170 MADISHF
DFW,2021-02-15 09:25,,,,,22.00,0.01,30.32,,1.00,,OVC,,,,1300.00,,,,SN,,,,,,,,KDFW 150925Z AUTO ///22KT 1SM SN OVC013 M14/M17 A3031 RMK P0000 T11401170 MADISHF
DFW,2021-02-15 09:30,,,,,17.00,0.01,30.33,,1.25,,OVC,,,,1999.00,,,,SN,,,,,,,,KDFW 150930Z AUTO ///17KT 1 1/2SM SN OVC019 M14/M17 A3032 RMK P0000 T11401170 MADISHF
DFW,2021-02-15 09:33,7.00,1.90,79.13,340.00,15.00,0.01,30.34,,1.50,,OVC,,,,2000.00,,,,-SN,,,,30.00,340.00,2021-02-15 09:23,-11.63,KDFW 150933Z 34015KT 1 1/2SM -SN OVC020 M14/M17 A3034 RMK AO2 PK WND 34030/0923 PRESRR P0001 T11391167 $
DFW,2021-02-15 09:35,,,,,17.00,0.01,30.35,,1.50,,OVC,,,,2200.00,,,,-SN,,,,,,,,KDFW 150935Z AUTO ///17KT 1 1/2SM -SN OVC022 M14/M17 A3035 RMK P0000 T11401170 MADISHF
DFW,2021-02-15 09:40,,,,,19.00,0.01,30.33,,1.50,26.00,OVC,,,,2200.00,,,,-SN,,,,,,,,KDFW 150940Z AUTO ///19G26KT 1 1/2SM -SN OVC022 M14/M17 A3032 RMK P0000 T11401170 MADISHF
DFW,2021-02-15 09:45,,,,,20.00,0.01,30.31,,1.50,,OVC,,,,2200.00,,,,-SN,,,,,,,,KDFW 150945Z AUTO ///20KT 1 1/2SM -SN OVC022 M14/M17 A3030 RMK P0000 T11401170 MADISHF
DFW,2021-02-15 09:50,,,,,19.00,0.01,30.32,,1.50,,OVC,,,,2300.00,,,,-SN,,,,,,,,KDFW 150950Z AUTO ///19KT 1 1/2SM -SN OVC023 M14/M17 A3031 RMK P0000 T11401170 MADISHF
DFW,2021-02-15 09:53,7.00,1.90,79.13,350.00,19.00,0.01,30.32,1027.70,1.00,,OVC,,,,2100.00,,,,-SN,,,,30.00,340.00,2021-02-15 09:23,-13.62,KDFW 150953Z 35019KT 1SM R17C/6000VP6000FT -SN OVC021 M14/M17 A3032 RMK AO2 PK WND 34030/0923 SLP277 P0001 T11391167 $
DFW,2021-02-15 09:55,,,,,17.00,0.01,30.33,,1.00,,VV ,,,,1999.00,,,,-SN,,,,,,,,KDFW 150955Z AUTO ///17KT 1SM -SN VV019 M14/M17 A3032 RMK P0000 T11401170 MADISHF
DFW,2021-02-15 10:00,,,,,19.00,0.01,30.32,,1.00,23.00,OVC,,,,1800.00,,,,-SN,,,,,,,,KDFW 151000Z AUTO ///19G23KT 1SM -SN OVC018 M14/M17 A3031 RMK P0000 T11401170 MADISHF
DFW,2021-02-15 10:05,,,,,18.00,0.01,30.31,,0.75,22.00,OVC,,,,1800.00,,,,-SN,,,,,,,,KDFW 151005Z AUTO ///18G22KT 1SM -SN OVC018 M14/M16 A3030 RMK P0000 T11401160 MADISHF
DFW,2021-02-15 10:07,7.00,3.00,83.27,330.00,19.00,0.01,30.31,,0.75,,OVC,,,,1800.00,,,,-SN,,,,,,,-13.62,KDFW 151007Z 33019KT 3/4SM R17C/5500V6000FT -SN OVC018 M14/M16 A3031 RMK AO2 P0001 T11391161 $
DFW,2021-02-15 10:10,,,,,19.00,0.01,30.31,,0.50,,OVC,,,,1800.00,,,,-SN,,,,,,,,KDFW 151010Z AUTO ///19KT 1/2SM -SN OVC018 M14/M17 A3030 RMK P0000 T11401170 MADISHF
DFW,2021-02-15 10:15,,,,,19.00,0.01,30.30,,0.50,23.00,OVC,,,,1800.00,,,,-SN,,,,,,,,KDFW 151015Z AUTO ///19G23KT 1/2SM -SN OVC018 M14/M17 A3029 RMK P0000 T11401170 MADISHF
DFW,2021-02-15 10:20,,,,,19.00,0.02,30.30,,0.50,,OVC,,,,1800.00,,,,-SN,,,,,,,,KDFW 151020Z AUTO ///19KT 1/2SM -SN OVC018 M14/M17 A3029 RMK P0001 T11401170 MADISHF
DFW,2021-02-15 10:25,,,,,19.00,0.02,30.30,,0.75,,OVC,,,,1800.00,,,,-SN,,,,,,,,KDFW 151025Z AUTO ///19KT 1SM -SN OVC018 M14/M17 A3029 RMK P0001 T11401170 MADISHF
DFW,2021-02-15 10:30,,,,,18.00,0.03,30.30,,0.75,,OVC,,,,1800.00,,,,-SN,,,,,,,,KDFW 151030Z AUTO ///18KT 1SM -SN OVC018 M14/M17 A3029 RMK P0002 T11401170 MADISHF
DFW,2021-02-15 10:35,,,,,19.00,0.03,30.30,,0.75,24.00,OVC,,,,1800.00,,,,-SN,,,,,,,,KDFW 151035Z AUTO ///19G24KT 1SM -SN OVC018 M14/M17 A3029 RMK P0002 T11401170 MADISHF
DFW,2021-02-15 10:39,6.10,1.90,82.43,340.00,18.00,0.03,30.30,,1.00,26.00,BKN,OVC,,,1300.00,1800.00,,,-SN,,,,26.00,340.00,2021-02-15 10:33,-14.35,KDFW 151039Z 34018G26KT 1SM R17C/P6000FT -SN BKN013 OVC018 M14/M17 A3030 RMK AO2 PK WND 34026/1033 P0003 T11441167 $
DFW,2021-02-15 10:40,,,,,18.00,0.03,30.30,,1.00,,BKN,OVC,,,1300.00,1800.00,,,-SN,,,,,,,,KDFW 151040Z AUTO ///18KT 1SM -SN BKN013 OVC018 M14/M17 A3029 RMK P0002 T11401170 MADISHF
DFW,2021-02-15 10:45,,,,,22.00,0.03,30.29,,1.25,,BKN,OVC,,,1300.00,1800.00,,,-SN,,,,,,,,KDFW 151045Z AUTO ///22KT 1 1/2SM -SN BKN013 OVC018 M14/M17 A3029 RMK P0002 T11401170 MADISHF
DFW,2021-02-15 10:50,,,,,20.00,0.03,30.30,,1.50,,BKN,OVC,,,1300.00,1800.00,,,-SN,,,,,,,,KDFW 151050Z AUTO ///20KT 1 1/2SM -SN BKN013 OVC018 M14/M17 A3029 RMK P0002 T11401170 MADISHF
DFW,2021-02-15 10:53,6.10,1.90,82.43,340.00,20.00,0.03,30.29,1026.90,1.50,28.00,BKN,OVC,,,1300.00,1800.00,,,-SN,,,,28.00,340.00,2021-02-15 10:44,-15.26,KDFW 151053Z 34020G28KT 1 1/2SM -SN BKN013 OVC018 M14/M17 A3029 RMK AO2 PK WND 34028/1044 SLP269 P0003 T11441167 $
DFW,2021-02-15 10:55,,,,,22.00,,30.29,,1.75,29.00,BKN,OVC,,,1800.00,7999.00,,,-SN,,,,,,,,KDFW 151055Z AUTO ///22G29KT 2SM -SN BKN018 OVC079 M14/M17 A3029 RMK T11401170 MADISHF
DFW,2021-02-15 11:00,,,,,20.00,,30.29,,2.00,,SCT,BKN,OVC,,1300.00,1800.00,7999.00,,-SN,,,,,,,,KDFW 151100Z AUTO ///20KT 2SM -SN SCT013 BKN018 OVC079 M14/M17 A3029 RMK T11401170 MADISHF
DFW,2021-02-15 11:05,,,,,21.00,,30.30,,2.00,,SCT,BKN,OVC,,1300.00,1800.00,7999.00,,-SN,,,,,,,,KDFW 151105Z AUTO ///21KT 2SM -SN SCT013 BKN018 OVC079 M14/M17 A3029 RMK T11401170 MADISHF
DFW,2021-02-15 11:10,,,,,20.00,,30.31,,2.50,24.00,SCT,BKN,OVC,,1300.00,1800.00,7999.00,,-SN,,,,,,,,KDFW 151110Z AUTO ///20G24KT 2 1/2SM -SN SCT013 BKN018 OVC079 M14/M17 A3030 RMK T11401170 MADISHF
DFW,2021-02-15 11:13,6.10,1.90,82.43,340.00,22.00,T,30.31,,3.00,28.00,SCT,OVC,,,2300.00,8000.00,,,-SN,,,,31.00,330.00,2021-02-15 10:57,-16.10,KDFW 151113Z 34022G28KT 3SM -SN SCT023 OVC080 M14/M17 A3031 RMK AO2 PK WND 33031/1057 P0000 T11441167 $
DFW,2021-02-15 11:15,,,,,21.00,,30.31,,3.50,,SCT,OVC,,,2300.00,7999.00,,,-SN,,,,,,,,KDFW 151115Z AUTO ///21KT 3SM -SN SCT023 OVC079 M14/M17 A3030 RMK T11401170 MADISHF
DFW,2021-02-15 11:20,,,,,19.00,,30.31,,3.50,,SCT,OVC,,,2300.00,7999.00,,,-SN,,,,,,,,KDFW 151120Z AUTO ///19KT 3SM -SN SCT023 OVC079 M14/M17 A3030 RMK T11401170 MADISHF
DFW,2021-02-15 11:25,,,,,18.00,,30.31,,5.00,,SCT,OVC,,,2300.00,7999.00,,,-SN,,,,,,,,KDFW 151125Z AUTO ///18KT 5SM -SN SCT023 OVC079 M14/M17 A3030 RMK T11401170 MADISHF
DFW,2021-02-15 11:30,,,,,19.00,,30.31,,7.00,,SCT,OVC,,,2300.00,7999.00,,,-SN,,,,,,,,KDFW 151130Z AUTO ///19KT 7SM -SN SCT023 OVC079 M14/M17 A3030 RMK T11401170 MADISHF
DFW,2021-02-15 11:35,,,,,19.00,,30.31,,7.00,24.00,SCT,OVC,,,2300.00,7999.00,,,-SN,,,,,,,,KDFW 151135Z AUTO ///19G24KT 7SM -SN SCT023 OVC079 M14/M17 A3030 RMK T11401170 MADISHF
DFW,2021-02-15 11:40,,,,,20.00,,30.30,,7.00,,SCT,OVC,,,2300.00,7999.00,,,-SN,,,,,,,,KDFW 151140Z AUTO ///20KT 7SM -SN SCT023 OVC079 M14/M17 A3029 RMK T11401170 MADISHF
DFW,2021-02-15 11:45,,,,,19.00,,30.31,,7.00,,SCT,OVC,,,2300.00,7999.00,,,,,,,,,,,KDFW 151145Z AUTO ///19KT 7SM SCT023 OVC079 M14/M17 A3030 RMK T11401170 MADISHF
DFW,2021-02-15 11:50,,,,,20.00,,30.30,,7.00,,SCT,OVC,,,2300.00,7999.00,,,,,,,,,,,KDFW 151150Z AUTO ///20KT 7SM SCT023 OVC079 M14/M17 A3029 RMK T11401170 MADISHF
DFW,2021-02-15 11:53,6.10,1.00,79.05,330.00,18.00,T,30.31,1027.30,7.00,,SCT,OVC,,,2000.00,7500.00,,,,,,,31.00,330.00,2021-02-15 10:57,-14.35,KDFW 151153Z 33018KT 7SM SCT020 OVC075 M14/M17 A3031 RMK AO2 PK WND 33031/1057 SNE41 SLP273 4/004 P0000 60005 70014 T11441172 11122 21144 50000 $
DFW,2021-02-15 11:55,,,,,21.00,,30.31,,8.00,27.00,FEW,OVC,,,2200.00,7500.00,,,,,,,,,,,KDFW 151155Z AUTO ///21G27KT 8SM FEW022 OVC075 M14/M17 A3030 RMK T11401170 MADISHF
DFW,2021-02-15 12:00,,,,,19.00,,30.31,,8.00,23.00,FEW,SCT,OVC,,1999.00,2500.00,7500.00,,,,,,,,,,KDFW 151200Z AUTO ///19G23KT 8SM FEW019 SCT025 OVC075 M14/M17 A3030 RMK T11401170 MADISHF
DFW,2021-02-15 12:05,,,,,19.00,,30.30,,8.00,24.00,FEW,SCT,OVC,,1999.00,2500.00,7500.00,,,,,,,,,,KDFW 151205Z AUTO ///19G24KT 8SM FEW019 SCT025 OVC075 M14/M17 A3029 RMK T11401170 MADISHF
DFW,2021-02-15 12:10,,,,,22.00,,30.30,,8.00,30.00,FEW,SCT,OVC,,1999.00,2500.00,7500.00,,,,,,,,,,KDFW 151210Z AUTO ///22G30KT 8SM FEW019 SCT025 OVC075 M14/M18 A3029 RMK T11401180 MADISHF
DFW,2021-02-15 12:15,,,,,23.00,,30.30,,5.00,,SCT,OVC,,,2300.00,7500.00,,,,,,,,,,,KDFW 151215Z AUTO ///23KT 5SM SCT023 OVC075 M14/M18 A3029 RMK T11401180 MADISHF
DFW,2021-02-15 12:20,,,,,20.00,,30.30,,5.00,24.00,FEW,BKN,,,2100.00,7000.00,,,,,,,,,,,KDFW 151220Z AUTO ///20G24KT 5SM FEW021 BKN070 M14/M18 A3029 RMK T11401180 MADISHF
DFW,2021-02-15 12:25,,,,,22.00,,30.29,,6.00,27.00,FEW,BKN,,,2100.00,7000.00,,,,,,,,,,,KDFW 151225Z AUTO ///22G27KT 6SM FEW021 BKN070 M14/M18 A3029 RMK T11401180 MADISHF
DFW,2021-02-15 12:30,,,,,21.00,,30.29,,6.00,,FEW,SCT,,,2100.00,7000.00,,,,,,,,,,,KDFW 151230Z AUTO ///21KT 6SM FEW021 SCT070 M14/M18 A3029 RMK T11401180 MADISHF
DFW,2021-02-15 12:35,,,,,19.00,,30.29,,7.00,,FEW,SCT,,,2200.00,7500.00,,,,,,,,,,,KDFW 151235Z AUTO ///19KT 7SM FEW022 SCT075 M14/M18 A3029 RMK T11401180 MADISHF
DFW,2021-02-15 12:40,,,,,18.00,,30.29,,9.00,,FEW,SCT,,,2200.00,7000.00,,,,,,,,,,,KDFW 151240Z AUTO ///18KT 9SM FEW022 SCT070 M14/M18 A3029 RMK T11401180 MADISHF
DFW,2021-02-15 12:45,,,,,19.00,,30.29,,10.00,23.00,FEW,,,,2400.00,,,,,,,,,,,,KDFW 151245Z AUTO ///19G23KT 10SM FEW024 M14/M18 A3029 RMK T11401180 MADISHF
DFW,2021-02-15 12:50,,,,,17.00,,30.29,,9.00,22.00,SCT,,,,2300.00,,,,,,,,,,,,KDFW 151250Z AUTO ///17G22KT 9SM SCT023 M14/M18 A3029 RMK T11401180 MADISHF
DFW,2021-02-15 12:53,6.10,-0.90,72.31,340.00,17.00,0.00,30.29,1026.70,9.00,,SCT,SCT,,,2300.00,25000.00,,,,,,,30.00,330.00,2021-02-15 12:10,-13.86,KDFW 151253Z 34017KT 9SM SCT023 SCT250 M14/M18 A3029 RMK AO2 PK WND 33030/1210 SLP267 T11441183 $
DFW,2021-02-15 12:55,,,,330.00,15.00,,30.29,,9.00,,BKN,,,,2300.00,,,,,,,,,,,,KDFW 151255Z AUTO 33015KT 9SM BKN023 M14/M18 A3029 RMK T11401180 MADISHF
DFW,2021-02-15 13:00,,,,,18.00,,30.29,,10.00,,BKN,,,,2300.00,,,,,,,,,,,,KDFW 151300Z AUTO ///18KT 10SM BKN023 M14/M18 A3029 RMK T11401180 MADISHF
DFW,2021-02-15 13:05,,,,320.00,23.00,,30.30,,8.00,,BKN,,,,2300.00,,,,,,,,,,,,KDFW 151305Z AUTO 32023KT 8SM BKN023 M15/M18 A3029 RMK T11501180 MADISHF
DFW,2021-02-15 13:10,,,,,19.00,,30.30,,7.00,23.00,BKN,,,,2300.00,,,,,,,,,,,,KDFW 151310Z AUTO ///19G23KT 7SM BKN023 M15/M18 A3029 RMK T11501180 MADISHF
DFW,2021-02-15 13:15,,,,,18.00,,30.31,,8.00,,BKN,,,,2300.00,,,,,,,,,,,,KDFW 151315Z AUTO ///18KT 8SM BKN023 M15/M19 A3030 RMK T11501190 MADISHF
DFW,2021-02-15 13:16,5.00,-2.00,72.18,340.00,16.00,0.00,30.31,,8.00,26.00,SCT,BKN,,,2300.00,25000.00,,,,,,,29.00,320.00,2021-02-15 13:05,-14.77,KDFW 151316Z 34016G26KT 8SM SCT023 BKN250 M15/M19 A3031 RMK AO2 PK WND 32029/1305 T11501189 $
DFW,2021-02-15 13:20,,,,,17.00,,30.31,,10.00,,SCT,,,,2300.00,,,,,,,,,,,,KDFW 151320Z AUTO ///17KT 10SM SCT023 M15/M19 A3030 RMK T11501190 MADISHF
DFW,2021-02-15 13:25,,,,340.00,14.00,,30.31,,10.00,,SCT,,,,2300.00,,,,,,,,,,,,KDFW 151325Z AUTO 34014KT 10SM SCT023 M15/M19 A3030 RMK T11501190 MADISHF
DFW,2021-02-15 13:30,,,,,16.00,,30.30,,10.00,,BKN,,,,2200.00,,,,,,,,,,,,KDFW 151330Z AUTO ///16KT 10SM BKN022 M15/M19 A3029 RMK T11501190 MADISHF
DFW,2021-02-15 13:33,5.00,-0.90,76.03,340.00,19.00,0.00,30.30,,10.00,26.00,BKN,BKN,,,2200.00,25000.00,,,,,,,29.00,320.00,2021-02-15 13:05,-16.27,KDFW 151333Z 34019G26KT 10SM BKN022 BKN250 M15/M18 A3030 RMK AO2 PK WND 32029/1305 T11501183 $
DFW,2021-02-15 13:35,,,,,20.00,,30.30,,10.00,,BKN,,,,2200.00,,,,,,,,,,,,KDFW 151335Z AUTO ///20KT 10SM BKN022 M15/M18 A3029 RMK T11501180 MADISHF
DFW,2021-02-15 13:40,,,,,18.00,,30.30,,9.00,,BKN,,,,2100.00,,,,,,,,,,,,KDFW 151340Z AUTO ///18KT 9SM BKN021 M15/M18 A3029 RMK T11501180 MADISHF
DFW,2021-02-15 13:45,,,,330.00,15.00,,30.31,,10.00,,BKN,,,,2100.00,,,,,,,,,,,,KDFW 151345Z AUTO 33015KT 10SM BKN021 M15/M18 A3030 RMK T11501180 MADISHF
DFW,2021-02-15 13:50,,,,,19.00,,30.31,,10.00,,OVC,,,,1999.00,,,,,,,,,,,,KDFW 151350Z AUTO ///19KT 10SM OVC019 M15/M18 A3030 RMK T11501180 MADISHF
DFW,2021-02-15 13:53,5.00,-0.90,76.03,340.00,19.00,0.00,30.31,1027.30,10.00,,OVC,,,,2000.00,,,,,,,,29.00,320.00,2021-02-15 13:05,-16.27,KDFW 151353Z 34019KT 10SM OVC020 M15/M18 A3031 RMK AO2 PK WND 32029/1305 SLP273 T11501183 $
DFW,2021-02-15 13:55,,,,,20.00,,30.31,,9.00,,OVC,,,,1999.00,,,,,,,,,,,,KDFW 151355Z AUTO ///20KT 9SM OVC019 M15/M18 A3030 RMK T11501180 MADISHF
DFW,2021-02-15 14:00,,,,,19.00,,30.30,,9.00,23.00,BKN,,,,1999.00,,,,,,,,,,,,KDFW 151400Z AUTO ///19G23KT 9SM BKN019 M15/M19 A3029 RMK T11501190 MADISHF
DFW,2021-02-15 14:05,,,,,18.00,,30.31,,10.00,,BKN,,,,1999.00,,,,,,,,,,,,KDFW 151405Z AUTO ///18KT 10SM BKN019 M16/M19 A3030 RMK T11601190 MADISHF
DFW,2021-02-15 14:10,,,,,18.00,,30.31,,9.00,,SCT,,,,1999.00,,,,,,,,,,,,KDFW 151410Z AUTO ///18KT 9SM SCT019 M16/M19 A3030 RMK T11601190 MADISHF
DFW,2021-02-15 14:12,3.90,-2.90,72.74,350.00,18.00,0.00,30.31,,9.00,24.00,SCT,SCT,BKN,,2000.00,8000.00,25000.00,,,,,,,,,-17.24,KDFW 151412Z 35018G24KT 9SM SCT020 SCT080 BKN250 M16/M19 A3031 RMK AO2 T11561194 $
DFW,2021-02-15 14:15,,,,,15.00,,30.31,,10.00,,SCT,,,,1999.00,,,,,,,,,,,,KDFW 151415Z AUTO ///15KT 10SM SCT019 M16/M19 A3030 RMK T11601190 MADISHF
DFW,2021-02-15 14:20,,,,,17.00,,30.32,,10.00,,FEW,,,,1999.00,,,,,,,,,,,,KDFW 151420Z AUTO ///17KT 10SM FEW019 M16/M19 A3031 RMK T11601190 MADISHF
DFW,2021-02-15 14:25,,,,,15.00,,30.32,,10.00,,FEW,,,,2100.00,,,,,,,,,,,,KDFW 151425Z AUTO ///15KT 10SM FEW021 M15/M19 A3031 RMK T11501190 MADISHF
DFW,2021-02-15 14:30,,,,,15.00,,30.32,,10.00,,FEW,,,,2100.00,,,,,,,,,,,,KDFW 151430Z AUTO ///15KT 10SM FEW021 M15/M19 A3031 RMK T11501190 MADISHF
DFW,2021-02-15 14:35,,,,,17.00,,30.32,,10.00,,FEW,,,,2100.00,,,,,,,,,,,,KDFW 151435Z AUTO ///17KT 10SM FEW021 M15/M19 A3031 RMK T11501190 MADISHF
DFW,2021-02-15 14:40,,,,,20.00,,30.33,,8.00,,FEW,,,,2100.00,,,,,,,,,,,,KDFW 151440Z AUTO ///20KT 8SM FEW021 M15/M19 A3032 RMK T11501190 MADISHF
DFW,2021-02-15 14:45,,,,,19.00,,30.33,,7.00,,CLR,,,,,,,,,,,,,,,,KDFW 151445Z AUTO ///19KT 7SM CLR M15/M19 A3032 RMK T11501190 MADISHF
DFW,2021-02-15 14:50,,,,,16.00,,30.33,,9.00,,SCT,SCT,,,2100.00,7999.00,,,,,,,,,,,KDFW 151450Z AUTO ///16KT 9SM SCT021 SCT079 M15/M19 A3032 RMK T11501190 MADISHF
DFW,2021-02-15 14:53,6.10,-2.00,68.64,340.00,16.00,0.00,30.34,1028.30,10.00,,SCT,,,,2100.00,,,,,,,,27.00,330.00,2021-02-15 14:39,-13.34,KDFW 151453Z 34016KT 10SM SCT021 M14/M19 A3034 RMK AO2 PK WND 33027/1439 SLP283 T11441189 53010 $
DFW,2021-02-15 14:55,,,,,17.00,,30.33,,10.00,,FEW,,,,2100.00,,,,,,,,,,,,KDFW 151455Z AUTO ///17KT 10SM FEW021 M14/M19 A3032 RMK T11401190 MADISHF
DFW,2021-02-15 15:00,,,,,17.00,,30.33,,10.00,,SCT,,,,2100.00,,,,,,,,,,,,KDFW 151500Z AUTO ///17KT 10SM SCT021 M14/M19 A3032 RMK T11401190 MADISHF
DFW,2021-02-15 15:05,,,,,19.00,,30.33,,9.00,,FEW,,,,2100.00,,,,,,,,,,,,KDFW 151505Z AUTO ///19KT 9SM FEW021 M14/M19 A3032 RMK T11401190 MADISHF
DFW,2021-02-15 15:10,,,,,19.00,,30.33,,9.00,,FEW,,,,2100.00,,,,,,,,,,,,KDFW 151510Z AUTO ///19KT 9SM FEW021 M15/M19 A3032 RMK T11501190 MADISHF
DFW,2021-02-15 15:15,,,,,16.00,,30.34,,10.00,,FEW,,,,2100.00,,,,,,,,,,,,KDFW 151515Z AUTO ///16KT 10SM FEW021 M14/M19 A3034 RMK T11401190 MADISHF
DFW,2021-02-15 15:20,,,,,17.00,,30.34,,10.00,,FEW,,,,2100.00,,,,,,,,,,,,KDFW 151520Z AUTO ///17KT 10SM FEW021 M14/M19 A3034 RMK T11401190 MADISHF
DFW,2021-02-15 15:25,,,,,15.00,,30.34,,10.00,,FEW,,,,2100.00,,,,,,,,,,,,KDFW 151525Z AUTO ///15KT 10SM FEW021 M14/M19 A3034 RMK T11401190 MADISHF
DFW,2021-02-15 15:30,,,,320.00,17.00,,30.35,,10.00,,FEW,,,,2100.00,,,,,,,,,,,,KDFW 151530Z AUTO 32017KT 10SM FEW021 M14/M19 A3035 RMK T11401190 MADISHF
DFW,2021-02-15 15:35,,,,,19.00,,30.35,,10.00,,SCT,,,,2200.00,,,,,,,,,,,,KDFW 151535Z AUTO ///19KT 10SM SCT022 M14/M19 A3035 RMK T11401190 MADISHF
DFW,2021-02-15 15:40,,,,,18.00,,30.35,,10.00,23.00,FEW,,,,2200.00,,,,,,,,,,,,KDFW 151540Z AUTO ///18G23KT 10SM FEW022 M14/M19 A3035 RMK T11401190 MADISHF
DFW,2021-02-15 15:45,,,,,17.00,,30.35,,10.00,,FEW,,,,2200.00,,,,,,,,,,,,KDFW 151545Z AUTO ///17KT 10SM FEW022 M14/M19 A3035 RMK T11401190 MADISHF
DFW,2021-02-15 15:50,,,,,17.00,,30.36,,10.00,,FEW,,,,2200.00,,,,,,,,,,,,KDFW 151550Z AUTO ///17KT 10SM FEW022 M14/M19 A3036 RMK T11401190 MADISHF
DFW,2021-02-15 15:53,6.10,-2.00,68.64,340.00,20.00,0.00,30.35,1028.90,10.00,,SCT,,,,2200.00,,,,,,,,,,,-15.26,KDFW 151553Z 34020KT 10SM SCT022 M14/M19 A3035 RMK AO2 SLP289 T11441189 $
DFW,2021-02-15 15:55,,,,,17.00,,30.35,,10.00,,FEW,,,,2200.00,,,,,,,,,,,,KDFW 151555Z AUTO ///17KT 10SM FEW022 M14/M19 A3035 RMK T11401190 MADISHF
DFW,2021-02-15 16:00,,,,,16.00,,30.35,,10.00,,CLR,,,,,,,,,,,,,,,,KDFW 151600Z AUTO ///16KT 10SM CLR M14/M19 A3035 RMK T11401190 MADISHF
DFW,2021-02-15 16:05,,,,,16.00,,30.36,,10.00,,CLR,,,,,,,,,,,,,,,,KDFW 151605Z AUTO ///16KT 10SM CLR M14/M19 A3036 RMK T11401190 MADISHF
DFW,2021-02-15 16:10,,,,330.00,19.00,,30.35,,10.00,,CLR,,,,,,,,,,,,,,,,KDFW 151610Z AUTO 33019KT 10SM CLR M14/M19 A3035 RMK T11401190 MADISHF
DFW,2021-02-15 16:15,,,,330.00,17.00,,30.35,,10.00,,CLR,,,,,,,,,,,,,,,,KDFW 151615Z AUTO 33017KT 10SM CLR M14/M19 A3035 RMK T11401190 MADISHF
DFW,2021-02-15 16:20,,,,320.00,17.00,,30.35,,10.00,,FEW,,,,2300.00,,,,,,,,,,,,KDFW 151620Z AUTO 32017KT 10SM FEW023 M14/M19 A3035 RMK T11401190 MADISHF
DFW,2021-02-15 16:25,,,,320.00,19.00,,30.36,,9.00,,FEW,,,,2300.00,,,,,,,,,,,,KDFW 151625Z AUTO 32019KT 9SM FEW023 M14/M19 A3036 RMK T11401190 MADISHF
DFW,2021-02-15 16:30,,,,,19.00,,30.35,,9.00,,FEW,,,,2300.00,,,,,,,,,,,,KDFW 151630Z AUTO ///19KT 9SM FEW023 M14/M19 A3035 RMK T11401190 MADISHF
DFW,2021-02-15 16:35,,,,330.00,16.00,,30.35,,10.00,,FEW,,,,2300.00,,,,,,,,,,,,KDFW 151635Z AUTO 33016KT 10SM FEW023 M14/M19 A3035 RMK T11401190 MADISHF
DFW,2021-02-15 16:40,,,,320.00,15.00,,30.35,,10.00,,FEW,,,,2300.00,,,,,,,,,,,,KDFW 151640Z AUTO 32015KT 10SM FEW023 M13/M18 A3035 RMK T11301180 MADISHF
DFW,2021-02-15 16:45,,,,320.00,16.00,,30.36,,10.00,,FEW,,,,2300.00,,,,,,,,,,,,KDFW 151645Z AUTO 32016KT 10SM FEW023 M13/M18 A3036 RMK T11301180 MADISHF
DFW,2021-02-15 16:50,,,,320.00,18.00,,30.35,,10.00,,SCT,,,,2300.00,,,,,,,,,,,,KDFW 151650Z AUTO 32018KT 10SM SCT023 M14/M19 A3035 RMK T11401190 MADISHF
DFW,2021-02-15 16:53,8.10,-2.00,62.70,330.00,20.00,0.00,30.34,1028.60,10.00,,SCT,,,,2300.00,,,,,,,,,,,-12.60,KDFW 151653Z 33020KT 10SM SCT023 M13/M19 A3034 RMK AO2 SLP286 T11331189 $
DFW,2021-02-15 16:55,,,,,19.00,,30.34,,10.00,,FEW,,,,2300.00,,,,,,,,,,,,KDFW 151655Z AUTO ///19KT 10SM FEW023 M13/M19 A3034 RMK T11301190 MADISHF
DFW,2021-02-15 17:00,,,,,20.00,,30.34,,10.00,,CLR,,,,,,,,,,,,,,,,KDFW 151700Z AUTO ///20KT 10SM CLR M13/M18 A3034 RMK T11301180 MADISHF
DFW,2021-02-15 17:05,,,,,17.00,,30.34,,10.00,,CLR,,,,,,,,,,,,,,,,KDFW 151705Z AUTO ///17KT 10SM CLR M13/M18 A3034 RMK T11301180 MADISHF
DFW,2021-02-15 17:10,,,,330.00,14.00,,30.34,,10.00,,CLR,,,,,,,,,,,,,,,,KDFW 151710Z AUTO 33014KT 10SM CLR M13/M18 A3034 RMK T11301180 MADISHF
DFW,2021-02-15 17:15,,,,320.00,17.00,,30.34,,10.00,,CLR,,,,,,,,,,,,,,,,KDFW 151715Z AUTO 32017KT 10SM CLR M13/M18 A3034 RMK T11301180 MADISHF
DFW,2021-02-15 17:20,,,,320.00,18.00,,30.34,,10.00,,CLR,,,,,,,,,,,,,,,,KDFW 151720Z AUTO 32018KT 10SM CLR M13/M19 A3034 RMK T11301190 MADISHF
DFW,2021-02-15 17:25,,,,310.00,15.00,,30.35,,10.00,22.00,CLR,,,,,,,,,,,,,,,,KDFW 151725Z AUTO 31015G22KT 10SM CLR M13/M19 A3035 RMK T11301190 MADISHF
DFW,2021-02-15 17:30,,,,,16.00,,30.34,,10.00,21.00,CLR,,,,,,,,,,,,,,,,KDFW 151730Z AUTO ///16G21KT 10SM CLR M13/M18 A3034 RMK T11301180 MADISHF
DFW,2021-02-15 17:35,,,,320.00,14.00,,30.34,,10.00,,CLR,,,,,,,,,,,,,,,,KDFW 151735Z AUTO 32014KT 10SM CLR M13/M19 A3034 RMK T11301190 MADISHF
DFW,2021-02-15 17:40,,,,,18.00,,30.34,,10.00,,CLR,,,,,,,,,,,,,,,,KDFW 151740Z AUTO ///18KT 10SM CLR M13/M19 A3034 RMK T11301190 MADISHF
DFW,2021-02-15 17:45,,,,330.00,15.00,,30.34,,10.00,,CLR,,,,,,,,,,,,,,,,KDFW 151745Z AUTO 33015KT 10SM CLR M13/M19 A3034 RMK T11301190 MADISHF
DFW,2021-02-15 17:50,,,,,17.00,,30.33,,10.00,,FEW,,,,2500.00,,,,,,,,,,,,KDFW 151750Z AUTO ///17KT 10SM FEW025 M13/M19 A3032 RMK T11301190 MADISHF
DFW,2021-02-15 17:53,9.00,-2.00,60.21,340.00,16.00,0.00,30.33,1028.10,10.00,23.00,SCT,SCT,,,2500.00,12000.00,,,,,,,,,,-9.56,KDFW 151753Z 34016G23KT 10SM SCT025 SCT120 M13/M19 A3033 RMK AO2 SLP281 4/003 T11281189 11128 21156 58002 $
DFW,2021-02-15 17:55,,,,,16.00,,30.33,,10.00,,CLR,,,,,,,,,,,,,,,,KDFW 151755Z AUTO ///16KT 10SM CLR M13/M19 A3032 RMK T11301190 MADISHF
DFW,2021-02-15 18:00,,,,300.00,15.00,,30.33,,10.00,,CLR,,,,,,,,,,,,,,,,KDFW 151800Z AUTO 30015KT 10SM CLR M13/M18 A3032 RMK T11301180 MADISHF
DFW,2021-02-15 18:05,,,,,17.00,,30.32,,10.00,,CLR,,,,,,,,,,,,,,,,KDFW 151805Z AUTO ///17KT 10SM CLR M13/M18 A3031 RMK T11301180 MADISHF
DFW,2021-02-15 18:10,,,,,17.00,,30.32,,10.00,,CLR,,,,,,,,,,,,,,,,KDFW 151810Z AUTO ///17KT 10SM CLR M13/M19 A3031 RMK T11301190 MADISHF
DFW,2021-02-15 18:15,,,,,18.00,,30.33,,10.00,,CLR,,,,,,,,,,,,,,,,KDFW 151815Z AUTO ///18KT 10SM CLR M12/M18 A3032 RMK T11201180 MADISHF
DFW,2021-02-15 18:20,,,,320.00,17.00,,30.32,,10.00,,CLR,,,,,,,,,,,,,,,,KDFW 151820Z AUTO 32017KT 10SM CLR M12/M18 A3031 RMK T11201180 MADISHF
DFW,2021-02-15 18:25,,,,310.00,16.00,,30.32,,10.00,,CLR,,,,,,,,,,,,,,,,KDFW 151825Z AUTO 31016KT 10SM CLR M12/M18 A3031 RMK T11201180 MADISHF
DFW,2021-02-15 18:30,,,,310.00,16.00,,30.32,,10.00,,CLR,,,,,,,,,,,,,,,,KDFW 151830Z AUTO 31016KT 10SM CLR M12/M18 A3031 RMK T11201180 MADISHF
DFW,2021-02-15 18:35,,,,,16.00,,30.32,,10.00,22.00,CLR,,,,,,,,,,,,,,,,KDFW 151835Z AUTO ///16G22KT 10SM CLR M12/M18 A3031 RMK T11201180 MADISHF
DFW,2021-02-15 18:40,,,,,18.00,,30.31,,10.00,,CLR,,,,,,,,,,,,,,,,KDFW 151840Z AUTO ///18KT 10SM CLR M12/M18 A3030 RMK T11201180 MADISHF
DFW,2021-02-15 18:45,,,,,17.00,,30.31,,10.00,,CLR,,,,,,,,,,,,,,,,KDFW 151845Z AUTO ///17KT 10SM CLR M12/M18 A3030 RMK T11201180 MADISHF
DFW,2021-02-15 18:50,,,,310.00,15.00,,30.31,,10.00,,CLR,,,,,,,,,,,,,,,,KDFW 151850Z AUTO 31015KT 10SM CLR M12/M18 A3030 RMK T11201180 MADISHF
DFW,2021-02-15 18:53,10.90,-0.90,58.26,320.00,18.00,0.00,30.31,1027.40,10.00,23.00,FEW,FEW,,,2800.00,12000.00,,,,,,,,,,-8.03,KDFW 151853Z 32018G23KT 10SM FEW028 FEW120 M12/M18 A3031 RMK AO2 SLP274 T11171183
DFW,2021-02-15 18:55,,,,,19.00,,30.31,,10.00,,CLR,,,,,,,,,,,,,,,,KDFW 151855Z AUTO ///19KT 10SM CLR M12/M18 A3030 RMK T11201180 MADISHF
DFW,2021-02-15 19:00,,,,320.00,19.00,,30.31,,10.00,,CLR,,,,,,,,,,,,,,,,KDFW 151900Z AUTO 32019KT 10SM CLR M12/M18 A3030 RMK T11201180 MADISHF
DFW,2021-02-15 19:05,,,,310.00,14.00,,30.31,,10.00,,CLR,,,,,,,,,,,,,,,,KDFW 151905Z AUTO 31014KT 10SM CLR M12/M18 A3030 RMK T11201180 MADISHF
DFW,2021-02-15 19:10,,,,,17.00,,30.30,,10.00,,CLR,,,,,,,,,,,,,,,,KDFW 151910Z AUTO ///17KT 10SM CLR M11/M18 A3029 RMK T11101180 MADISHF
DFW,2021-02-15 19:15,,,,,19.00,,30.30,,10.00,,CLR,,,,,,,,,,,,,,,,KDFW 151915Z AUTO ///19KT 10SM CLR M12/M18 A3029 RMK T11201180 MADISHF
DFW,2021-02-15 19:20,,,,320.00,16.00,,30.30,,10.00,,CLR,,,,,,,,,,,,,,,,KDFW 151920Z AUTO 32016KT 10SM CLR M12/M18 A3029 RMK T11201180 MADISHF
DFW,2021-02-15 19:25,,,,,20.00,,30.29,,10.00,,CLR,,,,,,,,,,,,,,,,KDFW 151925Z AUTO ///20KT 10SM CLR M11/M18 A3029 RMK T11101180 MADISHF
DFW,2021-02-15 19:30,,,,,19.00,,30.29,,10.00,,CLR,,,,,,,,,,,,,,,,KDFW 151930Z AUTO ///19KT 10SM CLR M11/M18 A3029 RMK T11101180 MADISHF
DFW,2021-02-15 19:35,,,,,20.00,,30.29,,10.00,,CLR,,,,,,,,,,,,,,,,KDFW 151935Z AUTO ///20KT 10SM CLR M11/M18 A3029 RMK T11101180 MADISHF
DFW,2021-02-15 19:40,,,,320.00,17.00,,30.28,,10.00,,CLR,,,,,,,,,,,,,,,,KDFW 151940Z AUTO 32017KT 10SM CLR M11/M18 A3028 RMK T11101180 MADISHF
DFW,2021-02-15 19:45,,,,,17.00,,30.28,,10.00,,CLR,,,,,,,,,,,,,,,,KDFW 151945Z AUTO ///17KT 10SM CLR M11/M18 A3028 RMK T11101180 MADISHF
DFW,2021-02-15 19:50,,,,320.00,16.00,,30.28,,10.00,22.00,CLR,,,,,,,,,,,,,,,,KDFW 151950Z AUTO 32016G22KT 10SM CLR M11/M18 A3028 RMK T11101180 MADISHF
DFW,2021-02-15 19:53,12.00,0.00,57.88,330.00,19.00,0.00,30.28,1026.20,10.00,29.00,FEW,FEW,,,3000.00,12000.00,,,,,,,29.00,320.00,2021-02-15 19:51,-7.01,KDFW 151953Z 33019G29KT 10SM FEW030 FEW120 M11/M18 A3028 RMK AO2 PK WND 32029/1951 SLP262 T11111178
DFW,2021-02-15 19:55,,,,320.00,17.00,,30.28,,10.00,,CLR,,,,,,,,,,,,,,,,KDFW 151955Z AUTO 32017KT 10SM CLR M11/M18 A3028 RMK T11101180 MADISHF
DFW,2021-02-15 20:00,,,,,18.00,,30.27,,10.00,,CLR,,,,,,,,,,,,,,,,KDFW 152000Z AUTO ///18KT 10SM CLR M11/M17 A3027 RMK T11101170 MADISHF
DFW,2021-02-15 20:05,,,,320.00,17.00,,30.27,,10.00,,CLR,,,,,,,,,,,,,,,,KDFW 152005Z AUTO 32017KT 10SM CLR M11/M17 A3027 RMK T11101170 MADISHF
DFW,2021-02-15 20:10,,,,310.00,17.00,,30.27,,10.00,,CLR,,,,,,,,,,,,,,,,KDFW 152010Z AUTO 31017KT 10SM CLR M11/M18 A3027 RMK T11101180 MADISHF
DFW,2021-02-15 20:15,,,,,19.00,,30.27,,10.00,,CLR,,,,,,,,,,,,,,,,KDFW 152015Z AUTO ///19KT 10SM CLR M11/M18 A3027 RMK T11101180 MADISHF
DFW,2021-02-15 20:20,,,,,16.00,,30.27,,10.00,,CLR,,,,,,,,,,,,,,,,KDFW 152020Z AUTO ///16KT 10SM CLR M11/M18 A3027 RMK T11101180 MADISHF
DFW,2021-02-15 20:25,,,,,17.00,,30.27,,10.00,22.00,CLR,,,,,,,,,,,,,,,,KDFW 152025Z AUTO ///17G22KT 10SM CLR M11/M17 A3027 RMK T11101170 MADISHF
DFW,2021-02-15 20:30,,,,,17.00,,30.26,,10.00,,CLR,,,,,,,,,,,,,,,,KDFW 152030Z AUTO ///17KT 10SM CLR M11/M17 A3026 RMK T11101170 MADISHF
DFW,2021-02-15 20:35,,,,,19.00,,30.26,,10.00,,CLR,,,,,,,,,,,,,,,,KDFW 152035Z AUTO ///19KT 10SM CLR M11/M18 A3026 RMK T11101180 MADISHF
DFW,2021-02-15 20:40,,,,330.00,17.00,,30.26,,10.00,,CLR,,,,,,,,,,,,,,,,KDFW 152040Z AUTO 33017KT 10SM CLR M11/M18 A3026 RMK T11101180 MADISHF
DFW,2021-02-15 20:45,,,,330.00,18.00,,30.26,,10.00,22.00,CLR,,,,,,,,,,,,,,,,KDFW 152045Z AUTO 33018G22KT 10SM CLR M11/M18 A3026 RMK T11101180 MADISHF
DFW,2021-02-15 20:50,,,,320.00,17.00,,30.26,,10.00,,FEW,,,,3000.00,,,,,,,,,,,,KDFW 152050Z AUTO 32017KT 10SM FEW030 M11/M18 A3026 RMK T11101180 MADISHF
DFW,2021-02-15 20:53,12.90,0.00,55.62,340.00,17.00,0.00,30.26,1025.60,10.00,,FEW,,,,3000.00,,,,,,,,26.00,320.00,2021-02-15 20:26,-4.95,KDFW 152053Z 34017KT 10SM FEW030 M11/M18 A3026 RMK AO2 PK WND 32026/2026 SLP256 T11061178 56025
DFW,2021-02-15 20:55,,,,,17.00,,30.26,,10.00,,FEW,,,,3000.00,,,,,,,,,,,,KDFW 152055Z AUTO ///17KT 10SM FEW030 M11/M18 A3026 RMK T11101180 MADISHF
DFW,2021-02-15 21:00,,,,340.00,15.00,,30.26,,10.00,,FEW,,,,3000.00,,,,,,,,,,,,KDFW 152100Z AUTO 34015KT 10SM FEW030 M11/M17 A3026 RMK T11101170 MADISHF
DFW,2021-02-15 21:05,,,,330.00,18.00,,30.26,,10.00,,FEW,,,,3000.00,,,,,,,,,,,,KDFW 152105Z AUTO 33018KT 10SM FEW030 M11/M17 A3026 RMK T11101170 MADISHF
DFW,2021-02-15 21:10,,,,,19.00,,30.26,,10.00,,FEW,,,,3000.00,,,,,,,,,,,,KDFW 152110Z AUTO ///19KT 10SM FEW030 M11/M17 A3026 RMK T11101170 MADISHF
DFW,2021-02-15 21:15,,,,320.00,16.00,,30.26,,10.00,,FEW,,,,3000.00,,,,,,,,,,,,KDFW 152115Z AUTO 32016KT 10SM FEW030 M11/M18 A3026 RMK T11101180 MADISHF
DFW,2021-02-15 21:20,,,,320.00,18.00,,30.25,,10.00,23.00,FEW,,,,3000.00,,,,,,,,,,,,KDFW 152120Z AUTO 32018G23KT 10SM FEW030 M11/M17 A3025 RMK T11101170 MADISHF
DFW,2021-02-15 21:25,,,,,18.00,,30.25,,10.00,22.00,FEW,,,,3000.00,,,,,,,,,,,,KDFW 152125Z AUTO ///18G22KT 10SM FEW030 M11/M18 A3025 RMK T11101180 MADISHF
DFW,2021-02-15 21:30,,,,320.00,17.00,,30.25,,10.00,,FEW,,,,3000.00,,,,,,,,,,,,KDFW 152130Z AUTO 32017KT 10SM FEW030 M11/M18 A3025 RMK T11101180 MADISHF
DFW,2021-02-15 21:35,,,,310.00,16.00,,30.25,,10.00,22.00,FEW,,,,3000.00,,,,,,,,,,,,KDFW 152135Z AUTO 31016G22KT 10SM FEW030 M11/M17 A3025 RMK T11101170 MADISHF
DFW,2021-02-15 21:40,,,,,15.00,,30.25,,10.00,,FEW,,,,3000.00,,,,,,,,,,,,KDFW 152140Z AUTO ///15KT 10SM FEW030 M11/M17 A3025 RMK T11101170 MADISHF
DFW,2021-02-15 21:45,,,,310.00,18.00,,30.25,,10.00,,FEW,,,,3000.00,,,,,,,,,,,,KDFW 152145Z AUTO 31018KT 10SM FEW030 M11/M17 A3025 RMK T11101170 MADISHF
DFW,2021-02-15 21:50,,,,310.00,18.00,,30.24,,10.00,,FEW,,,,3000.00,,,,,,,,,,,,KDFW 152150Z AUTO 31018KT 10SM FEW030 M11/M17 A3023 RMK T11101170 MADISHF
DFW,2021-02-15 21:53,12.90,1.00,58.29,310.00,16.00,0.00,30.24,1025.20,10.00,25.00,FEW,,,,3000.00,,,,,,,,,,,-4.48,KDFW 152153Z 31016G25KT 10SM FEW030 M11/M17 A3024 RMK AO2 SLP252 T11061172
DFW,2021-02-15 21:55,,,,310.00,17.00,,30.24,,10.00,23.00,CLR,,,,,,,,,,,,,,,,KDFW 152155Z AUTO 31017G23KT 10SM CLR M11/M17 A3023 RMK T11101170 MADISHF
DFW,2021-02-15 22:00,,,,310.00,16.00,,30.24,,10.00,,FEW,,,,3000.00,,,,,,,,,,,,KDFW 152200Z AUTO 31016KT 10SM FEW030 M11/M17 A3023 RMK T11101170 MADISHF
DFW,2021-02-15 22:05,,,,320.00,13.00,,30.24,,10.00,,FEW,,,,3000.00,,,,,,,,,,,,KDFW 152205Z AUTO 32013KT 10SM FEW030 M11/M17 A3023 RMK T11101170 MADISHF
DFW,2021-02-15 22:10,,,,320.00,14.00,,30.23,,10.00,,FEW,,,,3000.00,,,,,,,,,,,,KDFW 152210Z AUTO 32014KT 10SM FEW030 M10/M17 A3022 RMK T11001170 MADISHF
DFW,2021-02-15 22:15,,,,330.00,15.00,,30.24,,10.00,,FEW,,,,3000.00,,,,,,,,,,,,KDFW 152215Z AUTO 33015KT 10SM FEW030 M10/M17 A3023 RMK T11001170 MADISHF
DFW,2021-02-15 22:20,,,,320.00,15.00,,30.24,,10.00,,FEW,,,,3000.00,,,,,,,,,,,,KDFW 152220Z AUTO 32015KT 10SM FEW030 M11/M17 A3023 RMK T11101170 MADISHF
DFW,2021-02-15 22:25,,,,320.00,14.00,,30.23,,10.00,,FEW,,,,3000.00,,,,,,,,,,,,KDFW 152225Z AUTO 32014KT 10SM FEW030 M11/M17 A3022 RMK T11101170 MADISHF
DFW,2021-02-15 22:30,,,,,18.00,,30.23,,10.00,,FEW,,,,3000.00,,,,,,,,,,,,KDFW 152230Z AUTO ///18KT 10SM FEW030 M10/M17 A3022 RMK T11001170 MADISHF
DFW,2021-02-15 22:35,,,,,15.00,,30.23,,10.00,,FEW,,,,3000.00,,,,,,,,,,,,KDFW 152235Z AUTO ///15KT 10SM FEW030 M11/M17 A3022 RMK T11101170 MADISHF
DFW,2021-02-15 22:40,,,,330.00,11.00,,30.23,,10.00,,FEW,,,,3000.00,,,,,,,,,,,,KDFW 152240Z AUTO 33011KT 10SM FEW030 M11/M17 A3022 RMK T11101170 MADISHF
DFW,2021-02-15 22:45,,,,320.00,14.00,,30.24,,10.00,,FEW,,,,3000.00,,,,,,,,,,,,KDFW 152245Z AUTO 32014KT 10SM FEW030 M10/M17 A3023 RMK T11001170 MADISHF
DFW,2021-02-15 22:50,,,,330.00,13.00,,30.24,,10.00,,FEW,,,,3000.00,,,,,,,,,,,,KDFW 152250Z AUTO 33013KT 10SM FEW030 M11/M17 A3023 RMK T11101170 MADISHF
DFW,2021-02-15 22:53,12.90,1.00,58.29,320.00,14.00,0.00,30.24,1025.10,10.00,,FEW,FEW,,,3000.00,25000.00,,,,,,,,,,-3.46,KDFW 152253Z 32014KT 10SM FEW030 FEW250 M11/M17 A3024 RMK AO2 SLP251 T11061172
DFW,2021-02-15 22:55,,,,320.00,15.00,,30.24,,10.00,,CLR,,,,,,,,,,,,,,,,KDFW 152255Z AUTO 32015KT 10SM CLR M11/M17 A3023 RMK T11101170 MADISHF
DFW,2021-02-15 23:00,,,,330.00,14.00,,30.24,,10.00,,CLR,,,,,,,,,,,,,,,,KDFW 152300Z AUTO 33014KT 10SM CLR M11/M17 A3023 RMK T11101170 MADISHF
DFW,2021-02-15 23:05,,,,320.00,11.00,,30.25,,10.00,,CLR,,,,,,,,,,,,,,,,KDFW 152305Z AUTO 32011KT 10SM CLR M11/M17 A3025 RMK T11101170 MADISHF
DFW,2021-02-15 23:10,,,,320.00,11.00,,30.25,,10.00,,CLR,,,,,,,,,,,,,,,,KDFW 152310Z AUTO 32011KT 10SM CLR M11/M17 A3025 RMK T11101170 MADISHF
DFW,2021-02-15 23:15,,,,310.00,15.00,,30.25,,10.00,,FEW,,,,3000.00,,,,,,,,,,,,KDFW 152315Z AUTO 31015KT 10SM FEW030 M11/M17 A3025 RMK T11101170 MADISHF
DFW,2021-02-15 23:20,,,,300.00,14.00,,30.25,,10.00,,FEW,,,,3000.00,,,,,,,,,,,,KDFW 152320Z AUTO 30014KT 10SM FEW030 M11/M18 A3025 RMK T11101180 MADISHF
DFW,2021-02-15 23:25,,,,300.00,13.00,,30.25,,10.00,,FEW,,,,3000.00,,,,,,,,,,,,KDFW 152325Z AUTO 30013KT 10SM FEW030 M11/M18 A3025 RMK T11101180 MADISHF
DFW,2021-02-15 23:30,,,,320.00,11.00,,30.25,,10.00,,FEW,,,,3000.00,,,,,,,,,,,,KDFW 152330Z AUTO 32011KT 10SM FEW030 M11/M18 A3025 RMK T11101180 MADISHF
DFW,2021-02-15 23:35,,,,310.00,15.00,,30.25,,10.00,,FEW,,,,3000.00,,,,,,,,,,,,KDFW 152335Z AUTO 31015KT 10SM FEW030 M11/M18 A3025 RMK T11101180 MADISHF
DFW,2021-02-15 23:40,,,,310.00,14.00,,30.25,,10.00,,FEW,,,,3000.00,,,,,,,,,,,,KDFW 152340Z AUTO 31014KT 10SM FEW030 M11/M18 A3025 RMK T11101180 MADISHF
DFW,2021-02-15 23:45,,,,300.00,16.00,,30.25,,10.00,,FEW,,,,3000.00,,,,,,,,,,,,KDFW 152345Z AUTO 30016KT 10SM FEW030 M11/M18 A3025 RMK T11101180 MADISHF
DFW,2021-02-15 23:50,,,,320.00,14.00,,30.25,,10.00,,FEW,,,,3000.00,,,,,,,,,,,,KDFW 152350Z AUTO 32014KT 10SM FEW030 M11/M18 A3025 RMK T11101180  4/003 MADISHF
DFW,2021-02-15 23:53,12.00,-0.90,55.48,310.00,13.00,0.00,30.25,1025.20,10.00,,FEW,,,,3000.00,,,,,,,,,,,-4.05,KDFW 152353Z 31013KT 10SM FEW030 M11/M18 A3025 RMK AO2 SLP252 4/003 T11111183 11100 21128 55004
DFW,2021-02-15 23:55,,,,320.00,13.00,,30.25,,10.00,,FEW,,,,3000.00,,,,,,,,,,,,KDFW 152355Z AUTO 32013KT 10SM FEW030 M11/M18 A3025 RMK T11101180 MADISHF
DFW,2021-02-16 00:00,,,,320.00,14.00,,30.25,,10.00,,FEW,,,,3000.00,,,,,,,,,,,,KDFW 160000Z AUTO 32014KT 10SM FEW030 M12/M18 A3025 RMK T11201180 MADISHF
DFW,2021-02-16 00:05,,,,320.00,15.00,,30.25,,10.00,,FEW,,,,3000.00,,,,,,,,,,,,KDFW 160005Z AUTO 32015KT 10SM FEW030 M12/M18 A3025 RMK T11201180 MADISHF
DFW,2021-02-16 00:10,,,,,16.00,,30.24,,10.00,,FEW,,,,3000.00,,,,,,,,,,,,KDFW 160010Z AUTO ///16KT 10SM FEW030 M12/M18 A3023 RMK T11201180 MADISHF
DFW,2021-02-16 00:15,,,,,15.00,,30.25,,10.00,,FEW,,,,3000.00,,,,,,,,,,,,KDFW 160015Z AUTO ///15KT 10SM FEW030 M12/M18 A3025 RMK T11201180 MADISHF
DFW,2021-02-16 00:20,,,,330.00,13.00,,30.25,,10.00,,FEW,,,,3000.00,,,,,,,,,,,,KDFW 160020Z AUTO 33013KT 10SM FEW030 M12/M18 A3025 RMK T11201180 MADISHF
DFW,2021-02-16 00:25,,,,320.00,14.00,,30.25,,10.00,,FEW,,,,3000.00,,,,,,,,,,,,KDFW 160025Z AUTO 32014KT 10SM FEW030 M12/M18 A3025 RMK T11201180 MADISHF
DFW,2021-02-16 00:30,,,,320.00,15.00,,30.25,,10.00,,FEW,,,,3000.00,,,,,,,,,,,,KDFW 160030Z AUTO 32015KT 10SM FEW030 M12/M18 A3025 RMK T11201180 MADISHF
DFW,2021-02-16 00:35,,,,320.00,14.00,,30.25,,10.00,,FEW,,,,3000.00,,,,,,,,,,,,KDFW 160035Z AUTO 32014KT 10SM FEW030 M12/M18 A3025 RMK T11201180 MADISHF
DFW,2021-02-16 00:40,,,,320.00,13.00,,30.25,,10.00,,FEW,,,,3000.00,,,,,,,,,,,,KDFW 160040Z AUTO 32013KT 10SM FEW030 M12/M18 A3025 RMK T11201180 MADISHF
DFW,2021-02-16 00:45,,,,320.00,13.00,,30.25,,10.00,,FEW,,,,3000.00,,,,,,,,,,,,KDFW 160045Z AUTO 32013KT 10SM FEW030 M12/M18 A3025 RMK T11201180 MADISHF
DFW,2021-02-16 00:50,,,,320.00,13.00,,30.25,,10.00,,FEW,,,,3000.00,,,,,,,,,,,,KDFW 160050Z AUTO 32013KT 10SM FEW030 M12/M18 A3025 RMK T11201180 MADISHF
DFW,2021-02-16 00:53,10.00,-0.90,60.64,320.00,12.00,0.00,30.26,1025.50,10.00,,FEW,FEW,,,3000.00,25000.00,,,,,,,,,,-6.00,KDFW 160053Z 32012KT 10SM FEW030 FEW250 M12/M18 A3026 RMK AO2 SLP255 T11221183
DFW,2021-02-16 00:55,,,,320.00,11.00,,30.26,,10.00,,FEW,,,,3000.00,,,,,,,,,,,,KDFW 160055Z AUTO 32011KT 10SM FEW030 M12/M18 A3026 RMK T11201180 MADISHF
DFW,2021-02-16 01:00,,,,310.00,14.00,,30.26,,10.00,,FEW,,,,3000.00,,,,,,,,,,,,KDFW 160100Z AUTO 31014KT 10SM FEW030 M12/M18 A3026 RMK T11201180 MADISHF
DFW,2021-02-16 01:05,,,,330.00,10.00,,30.26,,10.00,,FEW,,,,3000.00,,,,,,,,,,,,KDFW 160105Z AUTO 33010KT 10SM FEW030 M12/M18 A3026 RMK T11201180 MADISHF
DFW,2021-02-16 01:10,,,,320.00,11.00,,30.26,,10.00,,FEW,,,,3000.00,,,,,,,,,,,,KDFW 160110Z AUTO 32011KT 10SM FEW030 M12/M18 A3026 RMK T11201180 MADISHF
DFW,2021-02-16 01:15,,,,310.00,14.00,,30.26,,10.00,,FEW,,,,3000.00,,,,,,,,,,,,KDFW 160115Z AUTO 31014KT 10SM FEW030 M12/M19 A3026 RMK T11201190 MADISHF
DFW,2021-02-16 01:20,,,,310.00,14.00,,30.26,,10.00,,FEW,,,,3000.00,,,,,,,,,,,,KDFW 160120Z AUTO 31014KT 10SM FEW030 M12/M19 A3026 RMK T11201190 MADISHF
DFW,2021-02-16 01:25,,,,320.00,13.00,,30.26,,10.00,,FEW,,,,3000.00,,,,,,,,,,,,KDFW 160125Z AUTO 32013KT 10SM FEW030 M12/M19 A3026 RMK T11201190 MADISHF
DFW,2021-02-16 01:30,,,,310.00,10.00,,30.26,,10.00,,FEW,,,,3000.00,,,,,,,,,,,,KDFW 160130Z AUTO 31010KT 10SM FEW030 M13/M19 A3026 RMK T11301190 MADISHF
DFW,2021-02-16 01:35,,,,310.00,13.00,,30.26,,10.00,18.00,FEW,,,,3000.00,,,,,,,,,,,,KDFW 160135Z AUTO 31013G18KT 10SM FEW030 M13/M19 A3026 RMK T11301190 MADISHF
DFW,2021-02-16 01:40,,,,310.00,11.00,,30.26,,10.00,,FEW,,,,3000.00,,,,,,,,,,,,KDFW 160140Z AUTO 31011KT 10SM FEW030 M13/M19 A3026 RMK T11301190 MADISHF
DFW,2021-02-16 01:45,,,,310.00,14.00,,30.27,,10.00,,FEW,,,,3000.00,,,,,,,,,,,,KDFW 160145Z AUTO 31014KT 10SM FEW030 M13/M19 A3027 RMK T11301190 MADISHF
DFW,2021-02-16 01:50,,,,310.00,14.00,,30.27,,10.00,,FEW,,,,3000.00,,,,,,,,,,,,KDFW 160150Z AUTO 31014KT 10SM FEW030 M13/M19 A3027 RMK T11301190 MADISHF
DFW,2021-02-16 01:53,9.00,-2.00,60.21,310.00,13.00,0.00,30.27,1026.10,10.00,,FEW,FEW,,,3000.00,25000.00,,,,,,,,,,-7.90,KDFW 160153Z 31013KT 10SM FEW030 FEW250 M13/M19 A3027 RMK AO2 SLP261 T11281189
DFW,2021-02-16 01:55,,,,310.00,13.00,,30.27,,10.00,,FEW,,,,3000.00,,,,,,,,,,,,KDFW 160155Z AUTO 31013KT 10SM FEW030 M13/M19 A3027 RMK T11301190 MADISHF
DFW,2021-02-16 02:00,,,,310.00,11.00,,30.27,,10.00,16.00,FEW,,,,3000.00,,,,,,,,,,,,KDFW 160200Z AUTO 31011G16KT 10SM FEW030 M13/M19 A3027 RMK T11301190 MADISHF
DFW,2021-02-16 02:05,,,,310.00,11.00,,30.26,,10.00,,FEW,,,,3000.00,,,,,,,,,,,,KDFW 160205Z AUTO 31011KT 10SM FEW030 M13/M19 A3026 RMK T11301190 MADISHF
DFW,2021-02-16 02:10,,,,310.00,14.00,,30.27,,10.00,,FEW,,,,3000.00,,,,,,,,,,,,KDFW 160210Z AUTO 31014KT 10SM FEW030 M13/M19 A3027 RMK T11301190 MADISHF
DFW,2021-02-16 02:15,,,,310.00,11.00,,30.27,,10.00,,FEW,,,,3000.00,,,,,,,,,,,,KDFW 160215Z AUTO 31011KT 10SM FEW030 M13/M19 A3027 RMK T11301190 MADISHF
DFW,2021-02-16 02:20,,,,320.00,13.00,,30.26,,10.00,,FEW,,,,3000.00,,,,,,,,,,,,KDFW 160220Z AUTO 32013KT 10SM FEW030 M13/M19 A3026 RMK T11301190 MADISHF
DFW,2021-02-16 02:25,,,,310.00,14.00,,30.27,,10.00,,FEW,,,,3000.00,,,,,,,,,,,,KDFW 160225Z AUTO 31014KT 10SM FEW030 M13/M19 A3027 RMK T11301190 MADISHF
DFW,2021-02-16 02:30,,,,310.00,11.00,,30.27,,10.00,,FEW,,,,3000.00,,,,,,,,,,,,KDFW 160230Z AUTO 31011KT 10SM FEW030 M13/M19 A3027 RMK T11301190 MADISHF
DFW,2021-02-16 02:35,,,,320.00,11.00,,30.26,,10.00,,FEW,,,,3000.00,,,,,,,,,,,,KDFW 160235Z AUTO 32011KT 10SM FEW030 M13/M19 A3026 RMK T11301190 MADISHF
DFW,2021-02-16 02:40,,,,320.00,11.00,,30.26,,10.00,,FEW,,,,3000.00,,,,,,,,,,,,KDFW 160240Z AUTO 32011KT 10SM FEW030 M13/M19 A3026 RMK T11301190 MADISHF
DFW,2021-02-16 02:45,,,,320.00,11.00,,30.26,,10.00,,FEW,,,,3000.00,,,,,,,,,,,,KDFW 160245Z AUTO 32011KT 10SM FEW030 M13/M19 A3026 RMK T11301190 MADISHF
DFW,2021-02-16 02:50,,,,320.00,11.00,,30.27,,10.00,,FEW,,,,3000.00,,,,,,,,,,,,KDFW 160250Z AUTO 32011KT 10SM FEW030 M13/M19 A3027 RMK T11301190 MADISHF
DFW,2021-02-16 02:53,8.10,-2.00,62.70,320.00,10.00,0.00,30.27,1026.00,10.00,,FEW,,,,3000.00,,,,,,,,,,,-7.00,KDFW 160253Z 32010KT 10SM FEW030 M13/M19 A3027 RMK AO2 SLP260 T11331189 50007
DFW,2021-02-16 02:55,,,,320.00,10.00,,30.26,,10.00,,CLR,,,,,,,,,,,,,,,,KDFW 160255Z AUTO 32010KT 10SM CLR M13/M19 A3026 RMK T11301190 MADISHF
DFW,2021-02-16 03:00,,,,320.00,11.00,,30.26,,10.00,,CLR,,,,,,,,,,,,,,,,KDFW 160300Z AUTO 32011KT 10SM CLR M13/M19 A3026 RMK T11301190 MADISHF
DFW,2021-02-16 03:05,,,,320.00,11.00,,30.26,,10.00,,FEW,,,,3000.00,,,,,,,,,,,,KDFW 160305Z AUTO 32011KT 10SM FEW030 M13/M19 A3026 RMK T11301190 MADISHF
DFW,2021-02-16 03:10,,,,320.00,10.00,,30.26,,10.00,,FEW,,,,3000.00,,,,,,,,,,,,KDFW 160310Z AUTO 32010KT 10SM FEW030 M13/M19 A3026 RMK T11301190 MADISHF
DFW,2021-02-16 03:15,,,,320.00,10.00,,30.26,,10.00,,FEW,,,,3000.00,,,,,,,,,,,,KDFW 160315Z AUTO 32010KT 10SM FEW030 M13/M19 A3026 RMK T11301190 MADISHF
DFW,2021-02-16 03:20,,,,320.00,11.00,,30.27,,10.00,,FEW,,,,3000.00,,,,,,,,,,,,KDFW 160320Z AUTO 32011KT 10SM FEW030 M13/M19 A3027 RMK T11301190 MADISHF
DFW,2021-02-16 03:25,,,,310.00,10.00,,30.27,,10.00,,FEW,,,,3000.00,,,,,,,,,,,,KDFW 160325Z AUTO 31010KT 10SM FEW030 M13/M19 A3027 RMK T11301190 MADISHF
DFW,2021-02-16 03:30,,,,310.00,11.00,,30.27,,10.00,,FEW,,,,3000.00,,,,,,,,,,,,KDFW 160330Z AUTO 31011KT 10SM FEW030 M13/M19 A3027 RMK T11301190 MADISHF
DFW,2021-02-16 03:35,,,,310.00,11.00,,30.27,,10.00,,FEW,,,,3000.00,,,,,,,,,,,,KDFW 160335Z AUTO 31011KT 10SM FEW030 M13/M19 A3027 RMK T11301190 MADISHF
DFW,2021-02-16 03:40,,,,310.00,11.00,,30.27,,10.00,,FEW,,,,3000.00,,,,,,,,,,,,KDFW 160340Z AUTO 31011KT 10SM FEW030 M13/M19 A3027 RMK T11301190 MADISHF
DFW,2021-02-16 03:45,,,,310.00,13.00,,30.27,,10.00,,FEW,,,,3000.00,,,,,,,,,,,,KDFW 160345Z AUTO 31013KT 10SM FEW030 M13/M19 A3027 RMK T11301190 MADISHF
DFW,2021-02-16 03:50,,,,310.00,13.00,,30.27,,10.00,,FEW,,,,3000.00,,,,,,,,,,,,KDFW 160350Z AUTO 31013KT 10SM FEW030 M13/M19 A3027 RMK T11301190 MADISHF
DFW,2021-02-16 03:53,8.10,-2.00,62.70,310.00,12.00,0.00,30.27,1026.20,10.00,,FEW,,,,3000.00,,,,,,,,,,,-8.42,KDFW 160353Z 31012KT 10SM FEW030 M13/M19 A3027 RMK AO2 SLP262 T11331189
DFW,2021-02-16 03:55,,,,310.00,11.00,,30.27,,10.00,,FEW,,,,3000.00,,,,,,,,,,,,KDFW 160355Z AUTO 31011KT 10SM FEW030 M13/M19 A3027 RMK T11301190 MADISHF
DFW,2021-02-16 04:00,,,,320.00,11.00,,30.27,,10.00,,FEW,,,,3000.00,,,,,,,,,,,,KDFW 160400Z AUTO 32011KT 10SM FEW030 M13/M19 A3027 RMK T11301190 MADISHF
DFW,2021-02-16 04:05,,,,320.00,11.00,,30.27,,10.00,,FEW,,,,3000.00,,,,,,,,,,,,KDFW 160405Z AUTO 32011KT 10SM FEW030 M14/M19 A3027 RMK T11401190 MADISHF
DFW,2021-02-16 04:10,,,,320.00,10.00,,30.27,,10.00,,FEW,,,,3000.00,,,,,,,,,,,,KDFW 160410Z AUTO 32010KT 10SM FEW030 M14/M19 A3027 RMK T11401190 MADISHF
DFW,2021-02-16 04:15,,,,330.00,11.00,,30.27,,10.00,,FEW,,,,3000.00,,,,,,,,,,,,KDFW 160415Z AUTO 33011KT 10SM FEW030 M14/M19 A3027 RMK T11401190 MADISHF
DFW,2021-02-16 04:20,,,,330.00,11.00,,30.27,,10.00,,FEW,,,,3000.00,,,,,,,,,,,,KDFW 160420Z AUTO 33011KT 10SM FEW030 M14/M19 A3027 RMK T11401190 MADISHF
DFW,2021-02-16 04:25,,,,,14.00,,30.27,,10.00,,FEW,,,,3000.00,,,,,,,,,,,,KDFW 160425Z AUTO ///14KT 10SM FEW030 M14/M19 A3027 RMK T11401190 MADISHF
DFW,2021-02-16 04:30,,,,330.00,14.00,,30.28,,10.00,,FEW,,,,3000.00,,,,,,,,,,,,KDFW 160430Z AUTO 33014KT 10SM FEW030 M14/M19 A3028 RMK T11401190 MADISHF
DFW,2021-02-16 04:35,,,,330.00,13.00,,30.28,,10.00,18.00,FEW,,,,3000.00,,,,,,,,,,,,KDFW 160435Z AUTO 33013G18KT 10SM FEW030 M14/M19 A3028 RMK T11401190 MADISHF
DFW,2021-02-16 04:40,,,,330.00,11.00,,30.28,,10.00,,FEW,,,,3000.00,,,,,,,,,,,,KDFW 160440Z AUTO 33011KT 10SM FEW030 M14/M19 A3028 RMK T11401190 MADISHF
DFW,2021-02-16 04:45,,,,330.00,13.00,,30.28,,10.00,,FEW,,,,3000.00,,,,,,,,,,,,KDFW 160445Z AUTO 33013KT 10SM FEW030 M14/M19 A3028 RMK T11401190 MADISHF
DFW,2021-02-16 04:50,,,,340.00,11.00,,30.28,,10.00,,FEW,,,,3000.00,,,,,,,,,,,,KDFW 160450Z AUTO 34011KT 10SM FEW030 M14/M19 A3028 RMK T11401190 MADISHF
DFW,2021-02-16 04:53,7.00,-2.00,65.89,340.00,12.00,0.00,30.28,1026.30,10.00,,FEW,,,,3000.00,,,,,,,,,,,-9.82,KDFW 160453Z 34012KT 10SM FEW030 M14/M19 A3028 RMK AO2 SLP263 T11391189
DFW,2021-02-16 04:55,,,,340.00,11.00,,30.28,,10.00,,FEW,,,,3000.00,,,,,,,,,,,,KDFW 160455Z AUTO 34011KT 10SM FEW030 M14/M19 A3028 RMK T11401190 MADISHF
DFW,2021-02-16 05:00,,,,340.00,11.00,,30.28,,10.00,,FEW,,,,3000.00,,,,,,,,,,,,KDFW 160500Z AUTO 34011KT 10SM FEW030 M14/M19 A3028 RMK T11401190 MADISHF
DFW,2021-02-16 05:05,,,,,15.00,,30.27,,10.00,,FEW,,,,3000.00,,,,,,,,,,,,KDFW 160505Z AUTO ///15KT 10SM FEW030 M14/M19 A3027 RMK T11401190 MADISHF
DFW,2021-02-16 05:10,,,,,14.00,,30.27,,10.00,,FEW,,,,3000.00,,,,,,,,,,,,KDFW 160510Z AUTO ///14KT 10SM FEW030 M14/M19 A3027 RMK T11401190 MADISHF
DFW,2021-02-16 05:15,,,,,11.00,,30.27,,10.00,,FEW,,,,3000.00,,,,,,,,,,,,KDFW 160515Z AUTO ///11KT 10SM FEW030 M14/M19 A3027 RMK T11401190 MADISHF
DFW,2021-02-16 05:20,,,,340.00,11.00,,30.27,,10.00,,FEW,,,,3000.00,,,,,,,,,,,,KDFW 160520Z AUTO 34011KT 10SM FEW030 M14/M19 A3027 RMK T11401190 MADISHF
DFW,2021-02-16 05:25,,,,350.00,11.00,,30.26,,10.00,,FEW,,,,3000.00,,,,,,,,,,,,KDFW 160525Z AUTO 35011KT 10SM FEW030 M14/M20 A3026 RMK T11401200 MADISHF
DFW,2021-02-16 05:30,,,,340.00,11.00,,30.26,,10.00,,FEW,,,,3000.00,,,,,,,,,,,,KDFW 160530Z AUTO 34011KT 10SM FEW030 M14/M20 A3026 RMK T11401200 MADISHF
DFW,2021-02-16 05:35,,,,340.00,11.00,,30.27,,10.00,,FEW,,,,3000.00,,,,,,,,,,,,KDFW 160535Z AUTO 34011KT 10SM FEW030 M15/M20 A3027 RMK T11501200 MADISHF
DFW,2021-02-16 05:40,,,,340.00,10.00,,30.26,,10.00,,FEW,,,,3000.00,,,,,,,,,,,,KDFW 160540Z AUTO 34010KT 10SM FEW030 M15/M20 A3026 RMK T11501200 MADISHF
DFW,2021-02-16 05:45,,,,340.00,11.00,,30.26,,10.00,,CLR,,,,,,,,,,,,,,,,KDFW 160545Z AUTO 34011KT 10SM CLR M15/M20 A3026 RMK T11501200 MADISHF
DFW,2021-02-16 05:50,,,,340.00,11.00,,30.26,,10.00,,CLR,,,,,,,,,,,,,,,,KDFW 160550Z AUTO 34011KT 10SM CLR M15/M20 A3026 RMK T11501200  4/003 MADISHF
DFW,2021-02-16 05:53,5.00,-4.00,65.62,340.00,11.00,0.00,30.26,1025.90,10.00,,CLR,,,,,,,,,,,,,,,-11.65,KDFW 160553Z 34011KT 10SM CLR M15/M20 A3026 RMK AO2 SLP259 4/003 T11501200 11111 21150 411001156 58002
DFW,2021-02-16 05:55,,,,340.00,11.00,,30.26,,10.00,,CLR,,,,,,,,,,,,,,,,KDFW 160555Z AUTO 34011KT 10SM CLR M15/M20 A3026 RMK T11501200 MADISHF
DFW,2021-02-16 06:00,,,,340.00,11.00,,30.26,,10.00,,CLR,,,,,,,,,,,,,,,,KDFW 160600Z AUTO 34011KT 10SM CLR M15/M20 A3026 RMK T11501200 MADISHF
DFW,2021-02-16 06:05,,,,340.00,10.00,,30.26,,10.00,,CLR,,,,,,,,,,,,,,,,KDFW 160605Z AUTO 34010KT 10SM CLR M15/M20 A3026 RMK T11501200 MADISHF
DFW,2021-02-16 06:10,,,,340.00,9.00,,30.26,,10.00,,CLR,,,,,,,,,,,,,,,,KDFW 160610Z AUTO 34009KT 10SM CLR M15/M20 A3026 RMK T11501200 MADISHF
DFW,2021-02-16 06:15,,,,340.00,9.00,,30.26,,10.00,,CLR,,,,,,,,,,,,,,,,KDFW 160615Z AUTO 34009KT 10SM CLR M16/M20 A3026 RMK T11601200 MADISHF
DFW,2021-02-16 06:20,,,,330.00,9.00,,30.26,,10.00,,CLR,,,,,,,,,,,,,,,,KDFW 160620Z AUTO 33009KT 10SM CLR M16/M20 A3026 RMK T11601200 MADISHF
DFW,2021-02-16 06:25,,,,340.00,9.00,,30.26,,10.00,,CLR,,,,,,,,,,,,,,,,KDFW 160625Z AUTO 34009KT 10SM CLR M16/M20 A3026 RMK T11601200 MADISHF
DFW,2021-02-16 06:30,,,,330.00,9.00,,30.27,,10.00,,CLR,,,,,,,,,,,,,,,,KDFW 160630Z AUTO 33009KT 10SM CLR M16/M20 A3027 RMK T11601200 MADISHF
DFW,2021-02-16 06:35,,,,330.00,10.00,,30.27,,10.00,,CLR,,,,,,,,,,,,,,,,KDFW 160635Z AUTO 33010KT 10SM CLR M16/M21 A3027 RMK T11601210 MADISHF
DFW,2021-02-16 06:40,,,,340.00,10.00,,30.26,,10.00,,CLR,,,,,,,,,,,,,,,,KDFW 160640Z AUTO 34010KT 10SM CLR M16/M21 A3026 RMK T11601210 MADISHF
DFW,2021-02-16 06:45,,,,340.00,10.00,,30.26,,10.00,,CLR,,,,,,,,,,,,,,,,KDFW 160645Z AUTO 34010KT 10SM CLR M16/M21 A3026 RMK T11601210 MADISHF
DFW,2021-02-16 06:50,,,,340.00,9.00,,30.26,,10.00,,CLR,,,,,,,,,,,,,,,,KDFW 160650Z AUTO 34009KT 10SM CLR M16/M21 A3026 RMK T11601210 MADISHF
DFW,2021-02-16 06:53,3.90,-5.10,65.47,350.00,9.00,0.00,30.25,1025.50,10.00,,CLR,,,,,,,,,,,,,,,-11.43,KDFW 160653Z 35009KT 10SM CLR M16/M21 A3025 RMK AO2 SLP255 T11561206
DFW,2021-02-16 06:55,,,,340.00,8.00,,30.26,,10.00,,CLR,,,,,,,,,,,,,,,,KDFW 160655Z AUTO 34008KT 10SM CLR M16/M21 A3026 RMK T11601210 MADISHF
DFW,2021-02-16 07:00,,,,340.00,9.00,,30.25,,10.00,,CLR,,,,,,,,,,,,,,,,KDFW 160700Z AUTO 34009KT 10SM CLR M16/M21 A3025 RMK T11601210 MADISHF
DFW,2021-02-16 07:05,,,,340.00,10.00,,30.25,,10.00,,CLR,,,,,,,,,,,,,,,,KDFW 160705Z AUTO 34010KT 10SM CLR M16/M21 A3025 RMK T11601210 MADISHF
DFW,2021-02-16 07:10,,,,330.00,10.00,,30.25,,10.00,,CLR,,,,,,,,,,,,,,,,KDFW 160710Z AUTO 33010KT 10SM CLR M16/M21 A3025 RMK T11601210 MADISHF
DFW,2021-02-16 07:15,,,,330.00,10.00,,30.25,,10.00,,CLR,,,,,,,,,,,,,,,,KDFW 160715Z AUTO 33010KT 10SM CLR M16/M21 A3025 RMK T11601210 MADISHF
DFW,2021-02-16 07:20,,,,330.00,10.00,,30.25,,10.00,,CLR,,,,,,,,,,,,,,,,KDFW 160720Z AUTO 33010KT 10SM CLR M16/M21 A3025 RMK T11601210 MADISHF
DFW,2021-02-16 07:25,,,,330.00,9.00,,30.25,,10.00,,CLR,,,,,,,,,,,,,,,,KDFW 160725Z AUTO 33009KT 10SM CLR M16/M21 A3025 RMK T11601210 MADISHF
DFW,2021-02-16 07:30,,,,330.00,9.00,,30.25,,10.00,,CLR,,,,,,,,,,,,,,,,KDFW 160730Z AUTO 33009KT 10SM CLR M16/M21 A3025 RMK T11601210 MADISHF
DFW,2021-02-16 07:35,,,,330.00,9.00,,30.25,,10.00,,CLR,,,,,,,,,,,,,,,,KDFW 160735Z AUTO 33009KT 10SM CLR M16/M21 A3025 RMK T11601210 MADISHF
DFW,2021-02-16 07:40,,,,330.00,8.00,,30.25,,10.00,,CLR,,,,,,,,,,,,,,,,KDFW 160740Z AUTO 33008KT 10SM CLR M16/M21 A3025 RMK T11601210 MADISHF
DFW,2021-02-16 07:45,,,,330.00,7.00,,30.26,,10.00,,CLR,,,,,,,,,,,,,,,,KDFW 160745Z AUTO 33007KT 10SM CLR M16/M20 A3026 RMK T11601200 MADISHF
DFW,2021-02-16 07:50,,,,330.00,7.00,,30.26,,10.00,,CLR,,,,,,,,,,,,,,,,KDFW 160750Z AUTO 33007KT 10SM CLR M16/M20 A3026 RMK T11601200 MADISHF
DFW,2021-02-16 07:53,3.00,-4.00,71.95,330.00,7.00,0.00,30.26,1025.60,10.00,,CLR,,,,,,,,,,,,,,,-10.57,KDFW 160753Z 33007KT 10SM CLR M16/M20 A3026 RMK AO2 SLP256 T11611200
DFW,2021-02-16 07:55,,,,330.00,7.00,,30.26,,10.00,,CLR,,,,,,,,,,,,,,,,KDFW 160755Z AUTO 33007KT 10SM CLR M16/M20 A3026 RMK T11601200 MADISHF
DFW,2021-02-16 08:00,,,,320.00,7.00,,30.26,,10.00,,CLR,,,,,,,,,,,,,,,,KDFW 160800Z AUTO 32007KT 10SM CLR M16/M20 A3026 RMK T11601200 MADISHF
DFW,2021-02-16 08:05,,,,320.00,7.00,,30.26,,10.00,,CLR,,,,,,,,,,,,,,,,KDFW 160805Z AUTO 32007KT 10SM CLR M16/M19 A3026 RMK T11601190 MADISHF
DFW,2021-02-16 08:10,,,,330.00,7.00,,30.25,,10.00,,CLR,,,,,,,,,,,,,,,,KDFW 160810Z AUTO 33007KT 10SM CLR M16/M19 A3025 RMK T11601190 MADISHF
DFW,2021-02-16 08:15,,,,320.00,7.00,,30.25,,10.00,,CLR,,,,,,,,,,,,,,,,KDFW 160815Z AUTO 32007KT 10SM CLR M16/M19 A3025 RMK T11601190 MADISHF
DFW,2021-02-16 08:20,,,,310.00,7.00,,30.26,,10.00,,CLR,,,,,,,,,,,,,,,,KDFW 160820Z AUTO 31007KT 10SM CLR M16/M19 A3026 RMK T11601190 MADISHF
DFW,2021-02-16 08:25,,,,310.00,5.00,,30.26,,10.00,,CLR,,,,,,,,,,,,,,,,KDFW 160825Z AUTO 31005KT 10SM CLR M16/M19 A3026 RMK T11601190 MADISHF
DFW,2021-02-16 08:30,,,,300.00,5.00,,30.26,,10.00,,CLR,,,,,,,,,,,,,,,,KDFW 160830Z AUTO 30005KT 10SM CLR M16/M19 A3026 RMK T11601190 MADISHF
DFW,2021-02-16 08:35,,,,310.00,5.00,,30.25,,10.00,,CLR,,,,,,,,,,,,,,,,KDFW 160835Z AUTO 31005KT 10SM CLR M16/M19 A3025 RMK T11601190 MADISHF
DFW,2021-02-16 08:40,,,,310.00,5.00,,30.25,,10.00,,CLR,,,,,,,,,,,,,,,,KDFW 160840Z AUTO 31005KT 10SM CLR M16/M19 A3025 RMK T11601190 MADISHF
DFW,2021-02-16 08:45,,,,300.00,7.00,,30.25,,10.00,,CLR,,,,,,,,,,,,,,,,KDFW 160845Z AUTO 30007KT 10SM CLR M16/M19 A3025 RMK T11601190 MADISHF
DFW,2021-02-16 08:50,,,,300.00,8.00,,30.25,,10.00,,FEW,,,,3999.00,,,,,,,,,,,,KDFW 160850Z AUTO 30008KT 10SM FEW039 M16/M19 A3025 RMK T11601190 MADISHF
DFW,2021-02-16 08:53,3.00,-2.90,75.82,300.00,8.00,0.00,30.25,1025.40,10.00,,FEW,,,,4000.00,,,,,,,,,,,-11.61,KDFW 160853Z 30008KT 10SM FEW040 M16/M19 A3025 RMK AO2 SLP254 T11611194 57004
DFW,2021-02-16 08:55,,,,310.00,7.00,,30.25,,10.00,,CLR,,,,,,,,,,,,,,,,KDFW 160855Z AUTO 31007KT 10SM CLR M16/M19 A3025 RMK T11601190 MADISHF
DFW,2021-02-16 09:00,,,,310.00,8.00,,30.25,,10.00,,CLR,,,,,,,,,,,,,,,,KDFW 160900Z AUTO 31008KT 10SM CLR M16/M19 A3025 RMK T11601190 MADISHF
DFW,2021-02-16 09:05,,,,310.00,8.00,,30.25,,10.00,,CLR,,,,,,,,,,,,,,,,KDFW 160905Z AUTO 31008KT 10SM CLR M16/M19 A3025 RMK T11601190 MADISHF
DFW,2021-02-16 09:10,,,,310.00,8.00,,30.25,,10.00,,CLR,,,,,,,,,,,,,,,,KDFW 160910Z AUTO 31008KT 10SM CLR M16/M19 A3025 RMK T11601190 MADISHF
DFW,2021-02-16 09:15,,,,310.00,7.00,,30.24,,10.00,,CLR,,,,,,,,,,,,,,,,KDFW 160915Z AUTO 31007KT 10SM CLR M16/M19 A3023 RMK T11601190 MADISHF
DFW,2021-02-16 09:20,,,,320.00,8.00,,30.24,,10.00,,CLR,,,,,,,,,,,,,,,,KDFW 160920Z AUTO 32008KT 10SM CLR M16/M19 A3023 RMK T11601190 MADISHF
DFW,2021-02-16 09:25,,,,330.00,7.00,,30.23,,10.00,,CLR,,,,,,,,,,,,,,,,KDFW 160925Z AUTO 33007KT 10SM CLR M17/M20 A3022 RMK T11701200 MADISHF
DFW,2021-02-16 09:30,,,,330.00,5.00,,30.23,,10.00,,CLR,,,,,,,,,,,,,,,,KDFW 160930Z AUTO 33005KT 10SM CLR M17/M20 A3022 RMK T11701200 MADISHF
DFW,2021-02-16 09:35,,,,330.00,5.00,,30.23,,10.00,,CLR,,,,,,,,,,,,,,,,KDFW 160935Z AUTO 33005KT 10SM CLR M17/M20 A3022 RMK T11701200 MADISHF
DFW,2021-02-16 09:40,,,,330.00,5.00,,30.23,,10.00,,CLR,,,,,,,,,,,,,,,,KDFW 160940Z AUTO 33005KT 10SM CLR M17/M20 A3022 RMK T11701200 MADISHF
DFW,2021-02-16 09:45,,,,330.00,5.00,,30.23,,10.00,,CLR,,,,,,,,,,,,,,,,KDFW 160945Z AUTO 33005KT 10SM CLR M17/M20 A3022 RMK T11701200 MADISHF
DFW,2021-02-16 09:50,,,,340.00,4.00,,30.23,,10.00,,CLR,,,,,,,,,,,,,,,,KDFW 160950Z AUTO 34004KT 10SM CLR M17/M20 A3022 RMK T11701200 MADISHF
DFW,2021-02-16 09:53,1.00,-4.00,78.95,340.00,4.00,0.00,30.24,1025.00,10.00,,FEW,,,,4000.00,,,,,,,,,,,-8.78,KDFW 160953Z 34004KT 10SM FEW040 M17/M20 A3024 RMK AO2 SLP250 T11721200
DFW,2021-02-16 09:55,,,,340.00,4.00,,30.24,,10.00,,CLR,,,,,,,,,,,,,,,,KDFW 160955Z AUTO 34004KT 10SM CLR M17/M20 A3023 RMK T11701200 MADISHF
DFW,2021-02-16 10:00,,,,340.00,7.00,,30.24,,10.00,,CLR,,,,,,,,,,,,,,,,KDFW 161000Z AUTO 34007KT 10SM CLR M17/M20 A3023 RMK T11701200 MADISHF
DFW,2021-02-16 10:05,,,,340.00,7.00,,30.24,,10.00,,CLR,,,,,,,,,,,,,,,,KDFW 161005Z AUTO 34007KT 10SM CLR M17/M21 A3023 RMK T11701210 MADISHF
DFW,2021-02-16 10:10,,,,340.00,5.00,,30.24,,10.00,,CLR,,,,,,,,,,,,,,,,KDFW 161010Z AUTO 34005KT 10SM CLR M17/M21 A3023 RMK T11701210 MADISHF
DFW,2021-02-16 10:15,,,,340.00,5.00,,30.25,,10.00,,CLR,,,,,,,,,,,,,,,,KDFW 161015Z AUTO 34005KT 10SM CLR M17/M21 A3025 RMK T11701210 MADISHF
DFW,2021-02-16 10:20,,,,340.00,5.00,,30.25,,10.00,,CLR,,,,,,,,,,,,,,,,KDFW 161020Z AUTO 34005KT 10SM CLR M17/M21 A3025 RMK T11701210 MADISHF
DFW,2021-02-16 10:25,,,,350.00,5.00,,30.25,,10.00,,CLR,,,,,,,,,,,,,,,,KDFW 161025Z AUTO 35005KT 10SM CLR M17/M21 A3025 RMK T11701210 MADISHF
DFW,2021-02-16 10:30,,,,350.00,5.00,,30.24,,10.00,,CLR,,,,,,,,,,,,,,,,KDFW 161030Z AUTO 35005KT 10SM CLR M18/M21 A3023 RMK T11801210 MADISHF
DFW,2021-02-16 10:35,,,,10.00,5.00,,30.23,,10.00,,CLR,,,,,,,,,,,,,,,,KDFW 161035Z AUTO 01005KT 10SM CLR M18/M21 A3022 RMK T11801210 MADISHF
DFW,2021-02-16 10:40,,,,20.00,5.00,,30.23,,10.00,,CLR,,,,,,,,,,,,,,,,KDFW 161040Z AUTO 02005KT 10SM CLR M18/M21 A3022 RMK T11801210 MADISHF
DFW,2021-02-16 10:45,,,,30.00,2.00,,30.23,,10.00,,FEW,,,,1100.00,,,,,,,,,,,,KDFW 161045Z AUTO 03002KT 10SM FEW011 M18/M21 A3022 RMK T11801210 MADISHF
DFW,2021-02-16 10:50,,,,0.00,0.00,,30.23,,10.00,,FEW,,,,1100.00,,,,,,,,,,,,KDFW 161050Z AUTO 00000KT 10SM FEW011 M18/M21 A3022 RMK T11801210 MADISHF
DFW,2021-02-16 10:53,1.00,-5.10,74.89,40.00,3.00,0.00,30.24,1025.00,10.00,,FEW,BKN,,,1100.00,25000.00,,,,,,,,,,-6.75,KDFW 161053Z 04003KT 10SM FEW011 BKN250 M17/M21 A3024 RMK AO2 SLP250 T11721206
DFW,2021-02-16 10:55,,,,40.00,2.00,,30.23,,10.00,,SCT,,,,1100.00,,,,,,,,,,,,KDFW 161055Z AUTO 04002KT 10SM SCT011 M17/M20 A3022 RMK T11701200 MADISHF
DFW,2021-02-16 11:00,,,,20.00,2.00,,30.23,,10.00,,SCT,,,,1100.00,,,,,,,,,,,,KDFW 161100Z AUTO 02002KT 10SM SCT011 M17/M21 A3022 RMK T11701210 MADISHF
DFW,2021-02-16 11:05,,,,350.00,2.00,,30.24,,10.00,,SCT,,,,1100.00,,,,,,,,,,,,KDFW 161105Z AUTO 35002KT 10SM SCT011 M17/M21 A3023 RMK T11701210 MADISHF
DFW,2021-02-16 11:10,,,,360.00,5.00,,30.24,,10.00,,SCT,,,,1100.00,,,,,,,,,,,,KDFW 161110Z AUTO 36005KT 10SM SCT011 M17/M21 A3023 RMK T11701210 MADISHF
DFW,2021-02-16 11:15,,,,350.00,5.00,,30.24,,10.00,,SCT,,,,1100.00,,,,,,,,,,,,KDFW 161115Z AUTO 35005KT 10SM SCT011 M18/M21 A3023 RMK T11801210 MADISHF
DFW,2021-02-16 11:20,,,,350.00,4.00,,30.24,,10.00,,SCT,,,,1100.00,,,,,,,,,,,,KDFW 161120Z AUTO 35004KT 10SM SCT011 M18/M21 A3023 RMK T11801210 MADISHF
DFW,2021-02-16 11:25,,,,360.00,5.00,,30.24,,10.00,,SCT,,,,1100.00,,,,,,,,,,,,KDFW 161125Z AUTO 36005KT 10SM SCT011 M18/M21 A3023 RMK T11801210 MADISHF
DFW,2021-02-16 11:30,,,,360.00,4.00,,30.24,,10.00,,SCT,,,,1100.00,,,,,,,,,,,,KDFW 161130Z AUTO 36004KT 10SM SCT011 M18/M21 A3023 RMK T11801210 MADISHF
DFW,2021-02-16 11:35,,,,340.00,4.00,,30.24,,10.00,,SCT,,,,1100.00,,,,,,,,,,,,KDFW 161135Z AUTO 34004KT 10SM SCT011 M18/M21 A3023 RMK T11801210 MADISHF
DFW,2021-02-16 11:40,,,,330.00,2.00,,30.24,,10.00,,SCT,,,,1100.00,,,,,,,,,,,,KDFW 161140Z AUTO 33002KT 10SM SCT011 M18/M21 A3023 RMK T11801210 MADISHF
DFW,2021-02-16 11:45,,,,330.00,2.00,,30.24,,10.00,,SCT,,,,1100.00,,,,,,,,,,,,KDFW 161145Z AUTO 33002KT 10SM SCT011 M17/M21 A3023 RMK T11701210 MADISHF
DFW,2021-02-16 11:50,,,,0.00,0.00,,30.24,,10.00,,SCT,,,,1100.00,,,,,,,,,,,,KDFW 161150Z AUTO 00000KT 10SM SCT011 M17/M21 A3023 RMK T11701210 MADISHF
DFW,2021-02-16 11:53,1.00,-5.10,74.89,320.00,3.00,0.00,30.24,1025.00,10.00,,FEW,FEW,,,1100.00,25000.00,,,,,,,,,,-6.75,KDFW 161153Z 32003KT 10SM FEW011 FEW250 M17/M21 A3024 RMK AO2 SLP250 T11721206 11150 21183 55004 $
DFW,2021-02-16 11:55,,,,330.00,2.00,,30.24,,10.00,,CLR,,,,,,,,,,,,,,,,KDFW 161155Z AUTO 33002KT 10SM CLR M17/M21 A3023 RMK T11701210 MADISHF
DFW,2021-02-16 12:00,,,,330.00,2.00,,30.24,,10.00,,CLR,,,,,,,,,,,,,,,,KDFW 161200Z AUTO 33002KT 10SM CLR M17/M20 A3023 RMK T11701200 MADISHF
DFW,2021-02-16 12:05,,,,320.00,4.00,,30.24,,10.00,,CLR,,,,,,,,,,,,,,,,KDFW 161205Z AUTO 32004KT 10SM CLR M18/M21 A3023 RMK T11801210 MADISHF
DFW,2021-02-16 12:10,,,,330.00,2.00,,30.24,,10.00,,CLR,,,,,,,,,,,,,,,,KDFW 161210Z AUTO 33002KT 10SM CLR M17/M20 A3023 RMK T11701200 MADISHF
DFW,2021-02-16 12:15,,,,340.00,4.00,,30.24,,10.00,,CLR,,,,,,,,,,,,,,,,KDFW 161215Z AUTO 34004KT 10SM CLR M17/M20 A3023 RMK T11701200 MADISHF
DFW,2021-02-16 12:20,,,,350.00,4.00,,30.24,,10.00,,CLR,,,,,,,,,,,,,,,,KDFW 161220Z AUTO 35004KT 10SM CLR M18/M21 A3023 RMK T11801210 MADISHF
DFW,2021-02-16 12:25,,,,360.00,4.00,,30.24,,10.00,,CLR,,,,,,,,,,,,,,,,KDFW 161225Z AUTO 36004KT 10SM CLR M19/M21 A3023 RMK T11901210 MADISHF
DFW,2021-02-16 12:30,,,,350.00,2.00,,30.24,,10.00,,CLR,,,,,,,,,,,,,,,,KDFW 161230Z AUTO 35002KT 10SM CLR M18/M21 A3023 RMK T11801210 MADISHF
DFW,2021-02-16 12:35,,,,350.00,2.00,,30.25,,10.00,,CLR,,,,,,,,,,,,,,,,KDFW 161235Z AUTO 35002KT 10SM CLR M18/M21 A3025 RMK T11801210 MADISHF
DFW,2021-02-16 12:40,,,,360.00,4.00,,30.24,,10.00,,CLR,,,,,,,,,,,,,,,,KDFW 161240Z AUTO 36004KT 10SM CLR M18/M21 A3023 RMK T11801210 MADISHF
DFW,2021-02-16 12:45,,,,360.00,5.00,,30.24,,10.00,,CLR,,,,,,,,,,,,,,,,KDFW 161245Z AUTO 36005KT 10SM CLR M18/M21 A3023 RMK T11801210 MADISHF
DFW,2021-02-16 12:50,,,,10.00,4.00,,30.23,,10.00,,FEW,,,,1100.00,,,,,,,,,,,,KDFW 161250Z AUTO 01004KT 10SM FEW011 M18/M21 A3022 RMK T11801210 MADISHF
DFW,2021-02-16 12:53,-0.90,-5.10,81.87,10.00,4.00,0.00,30.23,1024.90,10.00,,FEW,FEW,SCT,,1100.00,18000.00,25000.00,,,,,,,,,-11.00,KDFW 161253Z 01004KT 10SM FEW011 FEW180 SCT250 M18/M21 A3023 RMK AO2 SLP249 T11831206 $
DFW,2021-02-16 12:55,,,,10.00,4.00,,30.23,,10.00,,CLR,,,,,,,,,,,,,,,,KDFW 161255Z AUTO 01004KT 10SM CLR M18/M21 A3022 RMK T11801210 MADISHF
DFW,2021-02-16 13:00,,,,10.00,4.00,,30.23,,10.00,,CLR,,,,,,,,,,,,,,,,KDFW 161300Z AUTO 01004KT 10SM CLR M18/M21 A3022 RMK T11801210 MADISHF
DFW,2021-02-16 13:05,,,,0.00,0.00,,30.24,,10.00,,CLR,,,,,,,,,,,,,,,,KDFW 161305Z AUTO 00000KT 10SM CLR M18/M21 A3023 RMK T11801210 MADISHF
DFW,2021-02-16 13:10,,,,0.00,0.00,,30.24,,10.00,,CLR,,,,,,,,,,,,,,,,KDFW 161310Z AUTO 00000KT 10SM CLR M18/M21 A3023 RMK T11801210 MADISHF
DFW,2021-02-16 13:15,,,,0.00,0.00,,30.24,,10.00,,CLR,,,,,,,,,,,,,,,,KDFW 161315Z AUTO 00000KT 10SM CLR M17/M20 A3023 RMK T11701200 MADISHF
DFW,2021-02-16 13:20,,,,0.00,0.00,,30.24,,10.00,,CLR,,,,,,,,,,,,,,,,KDFW 161320Z AUTO 00000KT 10SM CLR M17/M19 A3023 RMK T11701190 MADISHF
DFW,2021-02-16 13:25,,,,0.00,0.00,,30.24,,10.00,,CLR,,,,,,,,,,,,,,,,KDFW 161325Z AUTO 00000KT 10SM CLR M17/M19 A3023 RMK T11701190 MADISHF
DFW,2021-02-16 13:30,,,,10.00,2.00,,30.24,,10.00,,CLR,,,,,,,,,,,,,,,,KDFW 161330Z AUTO 01002KT 10SM CLR M17/M20 A3023 RMK T11701200 MADISHF
DFW,2021-02-16 13:35,,,,360.00,2.00,,30.24,,10.00,,CLR,,,,,,,,,,,,,,,,KDFW 161335Z AUTO 36002KT 10SM CLR M17/M20 A3023 RMK T11701200 MADISHF
DFW,2021-02-16 13:40,,,,340.00,4.00,,30.25,,10.00,,CLR,,,,,,,,,,,,,,,,KDFW 161340Z AUTO 34004KT 10SM CLR M17/M20 A3025 RMK T11701200 MADISHF
DFW,2021-02-16 13:45,,,,330.00,4.00,,30.25,,10.00,,CLR,,,,,,,,,,,,,,,,KDFW 161345Z AUTO 33004KT 10SM CLR M17/M19 A3025 RMK T11701190 MADISHF
DFW,2021-02-16 13:50,,,,320.00,5.00,,30.26,,10.00,,CLR,,,,,,,,,,,,,,,,KDFW 161350Z AUTO 32005KT 10SM CLR M17/M19 A3026 RMK T11701190 MADISHF
DFW,2021-02-16 13:53,1.90,-2.90,79.79,320.00,5.00,0.00,30.26,1025.70,10.00,,FEW,BKN,,,1200.00,25000.00,,,,,,,,,,-9.35,KDFW 161353Z 32005KT 10SM FEW012 BKN250 M17/M19 A3026 RMK AO2 SLP257 T11671194
DFW,2021-02-16 13:55,,,,320.00,5.00,,30.26,,10.00,,CLR,,,,,,,,,,,,,,,,KDFW 161355Z AUTO 32005KT 10SM CLR M17/M19 A3026 RMK T11701190 MADISHF
DFW,2021-02-16 14:00,,,,320.00,5.00,,30.25,,10.00,,CLR,,,,,,,,,,,,,,,,KDFW 161400Z AUTO 32005KT 10SM CLR M16/M19 A3025 RMK T11601190 MADISHF
DFW,2021-02-16 14:05,,,,340.00,4.00,,30.25,,10.00,,CLR,,,,,,,,,,,,,,,,KDFW 161405Z AUTO 34004KT 10SM CLR M16/M19 A3025 RMK T11601190 MADISHF
DFW,2021-02-16 14:10,,,,350.00,4.00,,30.25,,10.00,,CLR,,,,,,,,,,,,,,,,KDFW 161410Z AUTO 35004KT 10SM CLR M16/M19 A3025 RMK T11601190 MADISHF
DFW,2021-02-16 14:15,,,,360.00,4.00,,30.24,,10.00,,CLR,,,,,,,,,,,,,,,,KDFW 161415Z AUTO 36004KT 10SM CLR M16/M19 A3023 RMK T11601190 MADISHF
DFW,2021-02-16 14:20,,,,360.00,5.00,,30.23,,10.00,,CLR,,,,,,,,,,,,,,,,KDFW 161420Z AUTO 36005KT 10SM CLR M16/M19 A3022 RMK T11601190 MADISHF
DFW,2021-02-16 14:25,,,,350.00,7.00,,30.23,,10.00,,CLR,,,,,,,,,,,,,,,,KDFW 161425Z AUTO 35007KT 10SM CLR M16/M19 A3022 RMK T11601190 MADISHF
DFW,2021-02-16 14:30,,,,360.00,5.00,,30.23,,10.00,,CLR,,,,,,,,,,,,,,,,KDFW 161430Z AUTO 36005KT 10SM CLR M16/M18 A3022 RMK T11601180 MADISHF
DFW,2021-02-16 14:35,,,,10.00,5.00,,30.23,,10.00,,CLR,,,,,,,,,,,,,,,,KDFW 161435Z AUTO 01005KT 10SM CLR M15/M18 A3022 RMK T11501180 MADISHF
DFW,2021-02-16 14:40,,,,20.00,9.00,,30.22,,10.00,,CLR,,,,,,,,,,,,,,,,KDFW 161440Z AUTO 02009KT 10SM CLR M15/M18 A3021 RMK T11501180 MADISHF
DFW,2021-02-16 14:45,,,,40.00,5.00,,30.21,,10.00,,CLR,,,,,,,,,,,,,,,,KDFW 161445Z AUTO 04005KT 10SM CLR M15/M18 A3020 RMK T11501180 MADISHF
DFW,2021-02-16 14:50,,,,20.00,7.00,,30.21,,10.00,,CLR,,,,,,,,,,,,,,,,KDFW 161450Z AUTO 02007KT 10SM CLR M14/M18 A3020 RMK T11401180 MADISHF
DFW,2021-02-16 14:53,6.10,0.00,75.43,20.00,6.00,0.00,30.21,1024.30,10.00,,FEW,BKN,,,1200.00,25000.00,,,,,,,,,,-5.66,KDFW 161453Z 02006KT 10SM FEW012 BKN250 M14/M18 A3021 RMK AO2 SLP243 T11441178 58007
DFW,2021-02-16 14:55,,,,20.00,8.00,,30.22,,10.00,,CLR,,,,,,,,,,,,,,,,KDFW 161455Z AUTO 02008KT 10SM CLR M14/M18 A3021 RMK T11401180 MADISHF
DFW,2021-02-16 15:00,,,,30.00,8.00,,30.21,,10.00,,CLR,,,,,,,,,,,,,,,,KDFW 161500Z AUTO 03008KT 10SM CLR M14/M18 A3020 RMK T11401180 MADISHF
DFW,2021-02-16 15:05,,,,40.00,9.00,,30.22,,10.00,,CLR,,,,,,,,,,,,,,,,KDFW 161505Z AUTO 04009KT 10SM CLR M14/M18 A3021 RMK T11401180 MADISHF
DFW,2021-02-16 15:10,,,,40.00,8.00,,30.21,,10.00,,CLR,,,,,,,,,,,,,,,,KDFW 161510Z AUTO 04008KT 10SM CLR M14/M18 A3020 RMK T11401180 MADISHF
DFW,2021-02-16 15:15,,,,20.00,8.00,,30.21,,10.00,,CLR,,,,,,,,,,,,,,,,KDFW 161515Z AUTO 02008KT 10SM CLR M14/M18 A3020 RMK T11401180 MADISHF
DFW,2021-02-16 15:20,,,,30.00,8.00,,30.21,,10.00,,CLR,,,,,,,,,,,,,,,,KDFW 161520Z AUTO 03008KT 10SM CLR M14/M18 A3020 RMK T11401180 MADISHF
DFW,2021-02-16 15:25,,,,50.00,7.00,,30.21,,10.00,,CLR,,,,,,,,,,,,,,,,KDFW 161525Z AUTO 05007KT 10SM CLR M14/M18 A3020 RMK T11401180 MADISHF
DFW,2021-02-16 15:30,,,,40.00,5.00,,30.21,,10.00,,CLR,,,,,,,,,,,,,,,,KDFW 161530Z AUTO 04005KT 10SM CLR M14/M17 A3020 RMK T11401170 MADISHF
DFW,2021-02-16 15:35,,,,20.00,7.00,,30.21,,10.00,,CLR,,,,,,,,,,,,,,,,KDFW 161535Z AUTO 02007KT 10SM CLR M13/M17 A3020 RMK T11301170 MADISHF
DFW,2021-02-16 15:40,,,,20.00,5.00,,30.22,,10.00,,CLR,,,,,,,,,,,,,,,,KDFW 161540Z AUTO 02005KT 10SM CLR M13/M17 A3021 RMK T11301170 MADISHF
DFW,2021-02-16 15:45,,,,30.00,5.00,,30.22,,10.00,,CLR,,,,,,,,,,,,,,,,KDFW 161545Z AUTO 03005KT 10SM CLR M13/M17 A3021 RMK T11301170 MADISHF
DFW,2021-02-16 15:50,,,,50.00,5.00,,30.22,,10.00,,CLR,,,,,,,,,,,,,,,,KDFW 161550Z AUTO 05005KT 10SM CLR M13/M17 A3021 RMK T11301170 MADISHF
DFW,2021-02-16 15:53,9.00,1.90,72.30,60.00,5.00,0.00,30.23,1024.60,10.00,,FEW,BKN,,,2000.00,25000.00,,,,,,,,,,-0.92,KDFW 161553Z 06005KT 10SM FEW020 BKN250 M13/M17 A3023 RMK AO2 SLP246 T11281167
DFW,2021-02-16 15:55,,,,70.00,4.00,,30.23,,10.00,,CLR,,,,,,,,,,,,,,,,KDFW 161555Z AUTO 07004KT 10SM CLR M13/M17 A3022 RMK T11301170 MADISHF
DFW,2021-02-16 16:00,,,,0.00,0.00,,30.23,,10.00,,CLR,,,,,,,,,,,,,,,,KDFW 161600Z AUTO 00000KT 10SM CLR M13/M17 A3022 RMK T11301170 MADISHF
DFW,2021-02-16 16:05,,,,130.00,2.00,,30.23,,10.00,,CLR,,,,,,,,,,,,,,,,KDFW 161605Z AUTO 13002KT 10SM CLR M13/M17 A3022 RMK T11301170 MADISHF
DFW,2021-02-16 16:10,,,,0.00,0.00,,30.24,,10.00,,CLR,,,,,,,,,,,,,,,,KDFW 161610Z AUTO 00000KT 10SM CLR M13/M17 A3023 RMK T11301170 MADISHF
DFW,2021-02-16 16:15,,,,0.00,0.00,,30.23,,10.00,,CLR,,,,,,,,,,,,,,,,KDFW 161615Z AUTO 00000KT 10SM CLR M13/M17 A3022 RMK T11301170 MADISHF
DFW,2021-02-16 16:20,,,,0.00,0.00,,30.23,,10.00,,CLR,,,,,,,,,,,,,,,,KDFW 161620Z AUTO 00000KT 10SM CLR M12/M17 A3022 RMK T11201170 MADISHF
DFW,2021-02-16 16:25,,,,0.00,0.00,,30.23,,10.00,,CLR,,,,,,,,,,,,,,,,KDFW 161625Z AUTO 00000KT 10SM CLR M12/M17 A3022 RMK T11201170 MADISHF
DFW,2021-02-16 16:30,,,,110.00,2.00,,30.23,,10.00,,CLR,,,,,,,,,,,,,,,,KDFW 161630Z AUTO 11002KT 10SM CLR M12/M18 A3022 RMK T11201180 MADISHF
DFW,2021-02-16 16:35,,,,170.00,4.00,,30.23,,10.00,,CLR,,,,,,,,-SN,,,,,,,,KDFW 161635Z AUTO 17004KT 10SM -SN CLR M12/M17 A3022 RMK T11201170 MADISHF
DFW,2021-02-16 16:40,,,,180.00,4.00,,30.23,,9.00,,CLR,,,,,,,,-SN,,,,,,,,KDFW 161640Z AUTO 18004KT 9SM -SN CLR M12/M17 A3022 RMK T11201170 MADISHF
DFW,2021-02-16 16:45,,,,0.00,0.00,,30.23,,9.00,,CLR,,,,,,,,-SN,,,,,,,,KDFW 161645Z AUTO 00000KT 9SM -SN CLR M13/M17 A3022 RMK T11301170 MADISHF
DFW,2021-02-16 16:50,,,,0.00,0.00,,30.23,,9.00,,CLR,,,,,,,,,,,,,,,,KDFW 161650Z AUTO 00000KT 9SM CLR M12/M17 A3022 RMK T11201170 MADISHF
DFW,2021-02-16 16:53,10.90,1.00,63.69,0.00,0.00,0.00,30.23,1024.50,10.00,,FEW,BKN,BKN,,2000.00,15000.00,25000.00,,,,,,,,,,KDFW 161653Z 00000KT 10SM FEW020 BKN150 BKN250 M12/M17 A3023 RMK AO2 SLP245 T11171172
DFW,2021-02-16 16:55,,,,0.00,0.00,,30.22,,10.00,,CLR,,,,,,,,,,,,,,,,KDFW 161655Z AUTO 00000KT 10SM CLR M12/M17 A3021 RMK T11201170 MADISHF
DFW,2021-02-16 17:00,,,,0.00,0.00,,30.22,,10.00,,CLR,,,,,,,,,,,,,,,,KDFW 161700Z AUTO 00000KT 10SM CLR M12/M17 A3021 RMK T11201170 MADISHF
DFW,2021-02-16 17:05,,,,0.00,0.00,,30.22,,10.00,,CLR,,,,,,,,,,,,,,,,KDFW 161705Z AUTO 00000KT 10SM CLR M12/M17 A3021 RMK T11201170 MADISHF
DFW,2021-02-16 17:10,,,,0.00,0.00,,30.23,,10.00,,CLR,,,,,,,,,,,,,,,,KDFW 161710Z AUTO 00000KT 10SM CLR M12/M17 A3022 RMK T11201170 MADISHF
DFW,2021-02-16 17:15,,,,0.00,0.00,,30.23,,10.00,,CLR,,,,,,,,,,,,,,,,KDFW 161715Z AUTO 00000KT 10SM CLR M12/M17 A3022 RMK T11201170 MADISHF
DFW,2021-02-16 17:20,,,,0.00,0.00,,30.23,,10.00,,CLR,,,,,,,,,,,,,,,,KDFW 161720Z AUTO 00000KT 10SM CLR M12/M17 A3022 RMK T11201170 MADISHF
DFW,2021-02-16 17:25,,,,0.00,0.00,,30.23,,10.00,,CLR,,,,,,,,,,,,,,,,KDFW 161725Z AUTO 00000KT 10SM CLR M11/M17 A3022 RMK T11101170 MADISHF
DFW,2021-02-16 17:30,,,,0.00,0.00,,30.24,,10.00,,CLR,,,,,,,,,,,,,,,,KDFW 161730Z AUTO 00000KT 10SM CLR M11/M18 A3023 RMK T11101180 MADISHF
DFW,2021-02-16 17:35,,,,240.00,2.00,,30.24,,10.00,,CLR,,,,,,,,,,,,,,,,KDFW 161735Z AUTO 24002KT 10SM CLR M11/M17 A3023 RMK T11101170 MADISHF
DFW,2021-02-16 17:40,,,,0.00,0.00,,30.24,,10.00,,CLR,,,,,,,,,,,,,,,,KDFW 161740Z AUTO 00000KT 10SM CLR M11/M18 A3023 RMK T11101180 MADISHF
DFW,2021-02-16 17:45,,,,0.00,0.00,,30.24,,10.00,,CLR,,,,,,,,,,,,,,,,KDFW 161745Z AUTO 00000KT 10SM CLR M10/M17 A3023 RMK T11001170 MADISHF
DFW,2021-02-16 17:50,,,,0.00,0.00,,30.23,,10.00,,CLR,,,,,,,,,,,,,,,,KDFW 161750Z AUTO 00000KT 10SM CLR M11/M17 A3022 RMK T11101170 MADISHF
DFW,2021-02-16 17:53,14.00,1.90,57.91,0.00,0.00,0.00,30.23,1024.70,10.00,,FEW,BKN,BKN,,2000.00,15000.00,25000.00,,,,,,,,,,KDFW 161753Z 00000KT 10SM FEW020 BKN150 BKN250 M10/M17 A3023 RMK AO2 SLP247 T11001167 11100 21189 51005
DFW,2021-02-16 17:55,,,,0.00,0.00,,30.23,,10.00,,CLR,,,,,,,,,,,,,,,,KDFW 161755Z AUTO 00000KT 10SM CLR M10/M17 A3022 RMK T11001170 MADISHF
DFW,2021-02-16 18:00,,,,200.00,2.00,,30.23,,10.00,,CLR,,,,,,,,,,,,,,,,KDFW 161800Z AUTO 20002KT 10SM CLR M11/M17 A3022 RMK T11101170 MADISHF
DFW,2021-02-16 18:05,,,,0.00,0.00,,30.23,,10.00,,CLR,,,,,,,,,,,,,,,,KDFW 161805Z AUTO 00000KT 10SM CLR M10/M17 A3022 RMK T11001170 MADISHF
DFW,2021-02-16 18:10,,,,0.00,0.00,,30.23,,10.00,,CLR,,,,,,,,,,,,,,,,KDFW 161810Z AUTO 00000KT 10SM CLR M09/M16 A3022 RMK T10901160 MADISHF
DFW,2021-02-16 18:15,,,,0.00,0.00,,30.22,,10.00,,CLR,,,,,,,,,,,,,,,,KDFW 161815Z AUTO 00000KT 10SM CLR M10/M17 A3021 RMK T11001170 MADISHF
DFW,2021-02-16 18:20,,,,80.00,2.00,,30.21,,10.00,,CLR,,,,,,,,,,,,,,,,KDFW 161820Z AUTO 08002KT 10SM CLR M09/M16 A3020 RMK T10901160 VRB03KT  MADISHF
DFW,2021-02-16 18:25,,,,0.00,0.00,,30.21,,10.00,,CLR,,,,,,,,,,,,,,,,KDFW 161825Z AUTO 00000KT 10SM CLR M10/M17 A3020 RMK T11001170 MADISHF
DFW,2021-02-16 18:30,,,,140.00,2.00,,30.20,,10.00,,FEW,,,,11000.00,,,,,,,,,,,,KDFW 161830Z AUTO 14002KT 10SM FEW110 M09/M16 A3020 RMK T10901160 VRB03KT  MADISHF
DFW,2021-02-16 18:35,,,,0.00,0.00,,30.19,,10.00,,SCT,,,,11000.00,,,,,,,,,,,,KDFW 161835Z AUTO 00000KT 10SM SCT110 M08/M16 A3019 RMK T10801160 MADISHF
DFW,2021-02-16 18:40,,,,170.00,4.00,,30.19,,10.00,,BKN,,,,11000.00,,,,,,,,,,,,KDFW 161840Z AUTO 17004KT 10SM BKN110 M09/M16 A3019 RMK T10901160 MADISHF
DFW,2021-02-16 18:45,,,,110.00,2.00,,30.19,,10.00,,BKN,,,,11000.00,,,,,,,,,,,,KDFW 161845Z AUTO 11002KT 10SM BKN110 M09/M16 A3019 RMK T10901160 VRB03KT  MADISHF
DFW,2021-02-16 18:50,,,,100.00,2.00,,30.18,,10.00,,BKN,,,,11000.00,,,,,,,,,,,,KDFW 161850Z AUTO 10002KT 10SM BKN110 M08/M16 A3018 RMK T10801160 VRB03KT  MADISHF
DFW,2021-02-16 18:53,18.00,3.90,53.40,70.00,4.00,0.00,30.18,1022.90,10.00,,SCT,BKN,BKN,,11000.00,16000.00,25000.00,,,,,,,,,11.07,KDFW 161853Z 07004KT 10SM SCT110 BKN160 BKN250 M08/M16 A3018 RMK AO2 SLP229 T10781156
DFW,2021-02-16 19:00,,,,60.00,2.00,,30.17,,10.00,,SCT,,,,11000.00,,,,,,,,,,,,KDFW 161900Z AUTO 06002KT 10SM SCT110 M08/M16 A3017 RMK T10801160 VRB03KT  MADISHF
DFW,2021-02-16 19:05,,,,120.00,5.00,,30.17,,10.00,,FEW,,,,11000.00,,,,,,,,,,,,KDFW 161905Z AUTO 12005KT 10SM FEW110 M08/M16 A3017 RMK T10801160 MADISHF
DFW,2021-02-16 19:10,,,,120.00,5.00,,30.16,,10.00,,FEW,,,,11000.00,,,,,,,,,,,,KDFW 161910Z AUTO 12005KT 10SM FEW110 M09/M16 A3015 RMK T10901160 MADISHF
DFW,2021-02-16 19:15,,,,110.00,7.00,,30.16,,10.00,,CLR,,,,,,,,,,,,,,,,KDFW 161915Z AUTO 11007KT 10SM CLR M08/M15 A3015 RMK T10801150 MADISHF
DFW,2021-02-16 19:20,,,,150.00,7.00,,30.16,,10.00,,CLR,,,,,,,,,,,,,,,,KDFW 161920Z AUTO 15007KT 10SM CLR M08/M16 A3015 RMK T10801160 MADISHF
DFW,2021-02-16 19:25,,,,130.00,5.00,,30.15,,10.00,,CLR,,,,,,,,,,,,,,,,KDFW 161925Z AUTO 13005KT 10SM CLR M08/M15 A3014 RMK T10801150 MADISHF
DFW,2021-02-16 19:30,,,,130.00,5.00,,30.14,,10.00,,CLR,,,,,,,,,,,,,,,,KDFW 161930Z AUTO 13005KT 10SM CLR M08/M16 A3013 RMK T10801160 MADISHF
DFW,2021-02-16 19:35,,,,110.00,5.00,,30.15,,10.00,,CLR,,,,,,,,,,,,,,,,KDFW 161935Z AUTO 11005KT 10SM CLR M08/M16 A3014 RMK T10801160 MADISHF
DFW,2021-02-16 19:40,,,,150.00,5.00,,30.15,,10.00,,CLR,,,,,,,,,,,,,,,,KDFW 161940Z AUTO 15005KT 10SM CLR M08/M16 A3014 RMK T10801160 MADISHF
DFW,2021-02-16 19:45,,,,150.00,7.00,,30.14,,10.00,,CLR,,,,,,,,,,,,,,,,KDFW 161945Z AUTO 15007KT 10SM CLR M08/M16 A3013 RMK T10801160 MADISHF
DFW,2021-02-16 19:50,,,,100.00,5.00,,30.14,,10.00,,CLR,,,,,,,,,,,,,,,,KDFW 161950Z AUTO 10005KT 10SM CLR M08/M16 A3013 RMK T10801160 MADISHF
DFW,2021-02-16 19:53,18.00,5.00,56.16,100.00,5.00,0.00,30.14,1021.60,10.00,,FEW,BKN,OVC,,11000.00,15000.00,25000.00,,,,,,,,,9.77,KDFW 161953Z 10005KT 10SM FEW110 BKN150 OVC250 M08/M15 A3014 RMK AO2 SLP216 T10781150
DFW,2021-02-16 19:55,,,,140.00,8.00,,30.14,,10.00,,CLR,,,,,,,,,,,,,,,,KDFW 161955Z AUTO 14008KT 10SM CLR M08/M15 A3013 RMK T10801150 MADISHF
DFW,2021-02-16 20:00,,,,130.00,8.00,,30.13,,10.00,,CLR,,,,,,,,,,,,,,,,KDFW 162000Z AUTO 13008KT 10SM CLR M08/M16 A3012 RMK T10801160 MADISHF
DFW,2021-02-16 20:05,,,,100.00,8.00,,30.12,,10.00,,SCT,,,,4400.00,,,,,,,,,,,,KDFW 162005Z AUTO 10008KT 10SM SCT044 M08/M16 A3012 RMK T10801160 MADISHF
DFW,2021-02-16 20:10,,,,110.00,9.00,,30.11,,10.00,,SCT,,,,4200.00,,,,,,,,,,,,KDFW 162010Z AUTO 11009KT 10SM SCT042 M08/M16 A3011 RMK T10801160 MADISHF
DFW,2021-02-16 20:15,,,,120.00,7.00,,30.12,,10.00,,SCT,,,,4200.00,,,,,,,,,,,,KDFW 162015Z AUTO 12007KT 10SM SCT042 M08/M16 A3012 RMK T10801160 MADISHF
DFW,2021-02-16 20:20,,,,110.00,9.00,,30.12,,10.00,,BKN,,,,4200.00,,,,,,,,,,,,KDFW 162020Z AUTO 11009KT 10SM BKN042 M08/M16 A3012 RMK T10801160 MADISHF
DFW,2021-02-16 20:25,,,,100.00,7.00,,30.11,,10.00,,BKN,,,,4200.00,,,,,,,,,,,,KDFW 162025Z AUTO 10007KT 10SM BKN042 M08/M16 A3011 RMK T10801160 MADISHF
DFW,2021-02-16 20:30,,,,110.00,8.00,,30.11,,10.00,,OVC,,,,4200.00,,,,,,,,,,,,KDFW 162030Z AUTO 11008KT 10SM OVC042 M08/M16 A3011 RMK T10801160 MADISHF
DFW,2021-02-16 20:35,,,,120.00,8.00,,30.12,,10.00,,BKN,,,,4200.00,,,,,,,,,,,,KDFW 162035Z AUTO 12008KT 10SM BKN042 M08/M16 A3012 RMK T10801160 MADISHF
DFW,2021-02-16 20:40,,,,130.00,8.00,,30.12,,10.00,,OVC,,,,4200.00,,,,,,,,,,,,KDFW 162040Z AUTO 13008KT 10SM OVC042 M08/M16 A3012 RMK T10801160 MADISHF
DFW,2021-02-16 20:45,,,,100.00,7.00,,30.11,,10.00,,OVC,,,,4200.00,,,,,,,,,,,,KDFW 162045Z AUTO 10007KT 10SM OVC042 M08/M15 A3011 RMK T10801150 MADISHF
DFW,2021-02-16 20:50,,,,120.00,8.00,,30.12,,10.00,,OVC,,,,4200.00,,,,,,,,,,,,KDFW 162050Z AUTO 12008KT 10SM OVC042 M08/M15 A3012 RMK T10801150 MADISHF
DFW,2021-02-16 20:53,17.10,5.00,58.38,140.00,5.00,0.00,30.12,1021.10,10.00,,OVC,,,,4200.00,,,,,,,,,,,8.70,KDFW 162053Z 14005KT 10SM OVC042 M08/M15 A3012 RMK AO2 SLP211 T10831150 56036
DFW,2021-02-16 20:55,,,,130.00,10.00,,30.12,,10.00,,OVC,,,,4200.00,,,,,,,,,,,,KDFW 162055Z AUTO 13010KT 10SM OVC042 M08/M15 A3012 RMK T10801150 MADISHF
DFW,2021-02-16 21:00,,,,120.00,7.00,,30.12,,10.00,,OVC,,,,4300.00,,,,,,,,,,,,KDFW 162100Z AUTO 12007KT 10SM OVC043 M08/M15 A3012 RMK T10801150 MADISHF
DFW,2021-02-16 21:05,,,,110.00,4.00,,30.11,,10.00,,OVC,,,,4300.00,,,,,,,,,,,,KDFW 162105Z AUTO 11004KT 10SM OVC043 M08/M15 A3011 RMK T10801150 MADISHF
DFW,2021-02-16 21:10,,,,110.00,5.00,,30.12,,10.00,,OVC,,,,4300.00,,,,,,,,,,,,KDFW 162110Z AUTO 11005KT 10SM OVC043 M08/M14 A3012 RMK T10801140 MADISHF
DFW,2021-02-16 21:15,,,,100.00,5.00,,30.12,,10.00,,OVC,,,,4300.00,,,,,,,,,,,,KDFW 162115Z AUTO 10005KT 10SM OVC043 M08/M15 A3012 RMK T10801150 MADISHF
DFW,2021-02-16 21:20,,,,140.00,7.00,,30.12,,10.00,,OVC,,,,4300.00,,,,,,,,,,,,KDFW 162120Z AUTO 14007KT 10SM OVC043 M08/M15 A3012 RMK T10801150 MADISHF
DFW,2021-02-16 21:25,,,,130.00,5.00,,30.12,,10.00,,OVC,,,,4300.00,,,,,,,,,,,,KDFW 162125Z AUTO 13005KT 10SM OVC043 M08/M15 A3012 RMK T10801150 MADISHF
DFW,2021-02-16 21:30,,,,120.00,5.00,,30.12,,10.00,,OVC,,,,4300.00,,,,,,,,,,,,KDFW 162130Z AUTO 12005KT 10SM OVC043 M08/M16 A3012 RMK T10801160 MADISHF
DFW,2021-02-16 21:35,,,,110.00,7.00,,30.11,,10.00,,OVC,,,,4200.00,,,,,,,,,,,,KDFW 162135Z AUTO 11007KT 10SM OVC042 M08/M15 A3011 RMK T10801150 MADISHF
DFW,2021-02-16 21:40,,,,120.00,9.00,,30.10,,10.00,,BKN,OVC,,,4200.00,10000.00,,,,,,,,,,,KDFW 162140Z AUTO 12009KT 10SM BKN042 OVC100 M08/M15 A3010 RMK T10801150 MADISHF
DFW,2021-02-16 21:45,,,,120.00,9.00,,30.10,,10.00,,BKN,OVC,,,4100.00,10000.00,,,,,,,,,,,KDFW 162145Z AUTO 12009KT 10SM BKN041 OVC100 M08/M15 A3010 RMK T10801150 MADISHF
DFW,2021-02-16 21:50,,,,120.00,8.00,,30.11,,10.00,,SCT,OVC,,,4100.00,10000.00,,,,,,,,,,,KDFW 162150Z AUTO 12008KT 10SM SCT041 OVC100 M08/M14 A3011 RMK T10801140 MADISHF
DFW,2021-02-16 21:53,17.10,6.10,61.39,110.00,5.00,0.00,30.10,1020.40,10.00,,BKN,OVC,,,4100.00,10000.00,,,,,,,,,,8.70,KDFW 162153Z 11005KT 10SM BKN041 OVC100 M08/M14 A3010 RMK AO2 SLP204 T10831144
DFW,2021-02-16 21:55,,,,120.00,5.00,,30.10,,10.00,,SCT,OVC,,,4100.00,10000.00,,,,,,,,,,,KDFW 162155Z AUTO 12005KT 10SM SCT041 OVC100 M08/M14 A3010 RMK T10801140 MADISHF
DFW,2021-02-16 22:00,,,,130.00,8.00,,30.11,,10.00,,FEW,OVC,,,4100.00,10000.00,,,,,,,,,,,KDFW 162200Z AUTO 13008KT 10SM FEW041 OVC100 M08/M15 A3011 RMK T10801150 MADISHF
DFW,2021-02-16 22:05,,,,140.00,8.00,,30.11,,10.00,,OVC,,,,10000.00,,,,,,,,,,,,KDFW 162205Z AUTO 14008KT 10SM OVC100 M08/M16 A3011 RMK T10801160 MADISHF
DFW,2021-02-16 22:10,,,,140.00,5.00,,30.10,,10.00,,OVC,,,,10000.00,,,,,,,,,,,,KDFW 162210Z AUTO 14005KT 10SM OVC100 M08/M15 A3010 RMK T10801150 MADISHF
DFW,2021-02-16 22:15,,,,130.00,8.00,,30.10,,10.00,,OVC,,,,10000.00,,,,,,,,,,,,KDFW 162215Z AUTO 13008KT 10SM OVC100 M08/M15 A3010 RMK T10801150 MADISHF
DFW,2021-02-16 22:20,,,,130.00,8.00,,30.10,,10.00,,FEW,OVC,,,7500.00,11000.00,,,,,,,,,,,KDFW 162220Z AUTO 13008KT 10SM FEW075 OVC110 M08/M15 A3010 RMK T10801150 MADISHF
DFW,2021-02-16 22:25,,,,130.00,10.00,,30.10,,10.00,,FEW,OVC,,,7500.00,10000.00,,,,,,,,,,,KDFW 162225Z AUTO 13010KT 10SM FEW075 OVC100 M08/M16 A3010 RMK T10801160 MADISHF
DFW,2021-02-16 22:30,,,,120.00,9.00,,30.10,,10.00,,OVC,,,,10000.00,,,,,,,,,,,,KDFW 162230Z AUTO 12009KT 10SM OVC100 M08/M15 A3010 RMK T10801150 MADISHF
DFW,2021-02-16 22:35,,,,120.00,10.00,,30.09,,10.00,,SCT,OVC,,,9000.00,11000.00,,,,,,,,,,,KDFW 162235Z AUTO 12010KT 10SM SCT090 OVC110 M08/M15 A3009 RMK T10801150 MADISHF
DFW,2021-02-16 22:40,,,,130.00,8.00,,30.10,,10.00,,BKN,OVC,,,8500.00,11000.00,,,,,,,,,,,KDFW 162240Z AUTO 13008KT 10SM BKN085 OVC110 M08/M15 A3010 RMK T10801150 MADISHF
DFW,2021-02-16 22:45,,,,130.00,10.00,,30.10,,10.00,,BKN,OVC,,,9000.00,10000.00,,,,,,,,,,,KDFW 162245Z AUTO 13010KT 10SM BKN090 OVC100 M08/M15 A3010 RMK T10801150 MADISHF
DFW,2021-02-16 22:50,,,,140.00,10.00,,30.10,,10.00,,BKN,OVC,,,9000.00,10000.00,,,,,,,,,,,KDFW 162250Z AUTO 14010KT 10SM BKN090 OVC100 M08/M15 A3010 RMK T10801150 MADISHF
DFW,2021-02-16 22:53,18.00,5.00,56.16,130.00,8.00,0.00,30.09,1020.00,10.00,,BKN,OVC,,,9000.00,11000.00,,,,,,,,,,6.87,KDFW 162253Z 13008KT 10SM BKN090 OVC110 M08/M15 A3009 RMK AO2 SLP200 T10781150
DFW,2021-02-16 22:55,,,,140.00,8.00,,30.10,,10.00,,BKN,OVC,,,9000.00,11000.00,,,,,,,,,,,KDFW 162255Z AUTO 14008KT 10SM BKN090 OVC110 M08/M15 A3010 RMK T10801150 MADISHF
DFW,2021-02-16 23:00,,,,140.00,10.00,,30.09,,10.00,,OVC,,,,9000.00,,,,,,,,,,,,KDFW 162300Z AUTO 14010KT 10SM OVC090 M08/M15 A3009 RMK T10801150 MADISHF
DFW,2021-02-16 23:05,,,,140.00,10.00,,30.08,,10.00,,OVC,,,,9000.00,,,,,,,,,,,,KDFW 162305Z AUTO 14010KT 10SM OVC090 M08/M15 A3007 RMK T10801150 MADISHF
DFW,2021-02-16 23:10,,,,140.00,9.00,,30.09,,10.00,,OVC,,,,9000.00,,,,,,,,,,,,KDFW 162310Z AUTO 14009KT 10SM OVC090 M08/M15 A3009 RMK T10801150 MADISHF
DFW,2021-02-16 23:15,,,,140.00,9.00,,30.09,,10.00,,BKN,OVC,,,9000.00,11000.00,,,,,,,,,,,KDFW 162315Z AUTO 14009KT 10SM BKN090 OVC110 M08/M15 A3009 RMK T10801150 MADISHF
DFW,2021-02-16 23:20,,,,140.00,9.00,,30.08,,10.00,,BKN,OVC,,,9000.00,11000.00,,,,,,,,,,,KDFW 162320Z AUTO 14009KT 10SM BKN090 OVC110 M08/M15 A3007 RMK T10801150 MADISHF
DFW,2021-02-16 23:25,,,,120.00,9.00,,30.08,,10.00,,BKN,OVC,,,9000.00,11000.00,,,,,,,,,,,KDFW 162325Z AUTO 12009KT 10SM BKN090 OVC110 M08/M15 A3007 RMK T10801150 MADISHF
DFW,2021-02-16 23:30,,,,120.00,9.00,,30.08,,10.00,,SCT,OVC,,,9000.00,11000.00,,,,,,,,,,,KDFW 162330Z AUTO 12009KT 10SM SCT090 OVC110 M08/M15 A3007 RMK T10801150 MADISHF
DFW,2021-02-16 23:35,,,,130.00,9.00,,30.08,,10.00,,SCT,BKN,OVC,,5000.00,9000.00,11000.00,,,,,,,,,,KDFW 162335Z AUTO 13009KT 10SM SCT050 BKN090 OVC110 M08/M15 A3007 RMK T10801150 MADISHF
DFW,2021-02-16 23:40,,,,140.00,10.00,,30.08,,10.00,,BKN,BKN,OVC,,5000.00,9000.00,11000.00,,,,,,,,,,KDFW 162340Z AUTO 14010KT 10SM BKN050 BKN090 OVC110 M08/M15 A3007 RMK T10801150 MADISHF
DFW,2021-02-16 23:45,,,,120.00,7.00,,30.07,,10.00,,BKN,OVC,,,5000.00,11000.00,,,,,,,,,,,KDFW 162345Z AUTO 12007KT 10SM BKN050 OVC110 M08/M15 A3006 RMK T10801150 MADISHF
DFW,2021-02-16 23:50,,,,110.00,8.00,,30.07,,10.00,,BKN,OVC,,,5000.00,11000.00,,,,,,,,,,,KDFW 162350Z AUTO 11008KT 10SM BKN050 OVC110 M08/M15 A3006 RMK T10801150  4/003 MADISHF
DFW,2021-02-16 23:53,17.10,3.90,55.51,120.00,8.00,0.00,30.08,1019.40,10.00,,BKN,OVC,,,5000.00,11000.00,,,,,,,,,,5.76,KDFW 162353Z 12008KT 10SM BKN050 OVC110 M08/M16 A3008 RMK AO2 SLP194 4/003 T10831156 11078 21106 56016
DFW,2021-02-16 23:55,,,,110.00,7.00,,30.07,,10.00,,OVC,,,,5000.00,,,,,,,,,,,,KDFW 162355Z AUTO 11007KT 10SM OVC050 M08/M15 A3006 RMK T10801150 MADISHF
DFW,2021-02-17 00:00,,,,110.00,5.00,,30.08,,10.00,,OVC,,,,5000.00,,,,,,,,,,,,KDFW 170000Z AUTO 11005KT 10SM OVC050 M08/M15 A3007 RMK T10801150 MADISHF
DFW,2021-02-17 00:05,,,,120.00,5.00,,30.09,,10.00,,OVC,,,,5000.00,,,,,,,,,,,,KDFW 170005Z AUTO 12005KT 10SM OVC050 M08/M15 A3009 RMK T10801150 MADISHF
DFW,2021-02-17 00:10,,,,120.00,5.00,,30.09,,10.00,,OVC,,,,5000.00,,,,,,,,,,,,KDFW 170010Z AUTO 12005KT 10SM OVC050 M08/M15 A3009 RMK T10801150 MADISHF
DFW,2021-02-17 00:15,,,,130.00,8.00,,30.09,,10.00,,OVC,,,,5000.00,,,,,,,,,,,,KDFW 170015Z AUTO 13008KT 10SM OVC050 M08/M15 A3009 RMK T10801150 MADISHF
DFW,2021-02-17 00:20,,,,130.00,10.00,,30.09,,10.00,,OVC,,,,5000.00,,,,,,,,,,,,KDFW 170020Z AUTO 13010KT 10SM OVC050 M08/M15 A3009 RMK T10801150 MADISHF
DFW,2021-02-17 00:25,,,,140.00,10.00,,30.09,,10.00,,OVC,,,,5000.00,,,,,,,,,,,,KDFW 170025Z AUTO 14010KT 10SM OVC050 M08/M15 A3009 RMK T10801150 MADISHF
DFW,2021-02-17 00:30,,,,130.00,11.00,,30.09,,10.00,,OVC,,,,5000.00,,,,,,,,,,,,KDFW 170030Z AUTO 13011KT 10SM OVC050 M08/M15 A3009 RMK T10801150 MADISHF
DFW,2021-02-17 00:35,,,,130.00,11.00,,30.08,,10.00,,OVC,,,,5000.00,,,,,,,,,,,,KDFW 170035Z AUTO 13011KT 10SM OVC050 M08/M14 A3007 RMK T10801140 MADISHF
DFW,2021-02-17 00:40,,,,130.00,11.00,,30.09,,10.00,,OVC,,,,5000.00,,,,,,,,,,,,KDFW 170040Z AUTO 13011KT 10SM OVC050 M08/M15 A3009 RMK T10801150 MADISHF
DFW,2021-02-17 00:45,,,,130.00,10.00,,30.09,,10.00,,OVC,,,,4800.00,,,,,,,,,,,,KDFW 170045Z AUTO 13010KT 10SM OVC048 M08/M15 A3009 RMK T10801150 MADISHF
DFW,2021-02-17 00:50,,,,130.00,11.00,,30.08,,10.00,,OVC,,,,4800.00,,,,,,,,,,,,KDFW 170050Z AUTO 13011KT 10SM OVC048 M08/M14 A3007 RMK T10801140 MADISHF
DFW,2021-02-17 00:53,17.10,6.10,61.39,140.00,12.00,0.00,30.09,1019.80,10.00,,OVC,,,,4800.00,,,,,,,,,,,3.04,KDFW 170053Z 14012KT 10SM OVC048 M08/M14 A3009 RMK AO2 SLP198 T10831144
DFW,2021-02-17 00:55,,,,130.00,11.00,,30.09,,10.00,,OVC,,,,4800.00,,,,,,,,,,,,KDFW 170055Z AUTO 13011KT 10SM OVC048 M08/M14 A3009 RMK T10801140 MADISHF
DFW,2021-02-17 01:00,,,,130.00,11.00,,30.09,,10.00,,OVC,,,,4800.00,,,,,,,,,,,,KDFW 170100Z AUTO 13011KT 10SM OVC048 M08/M14 A3009 RMK T10801140 MADISHF
DFW,2021-02-17 01:05,,,,120.00,13.00,,30.07,,10.00,,OVC,,,,4700.00,,,,,,,,,,,,KDFW 170105Z AUTO 12013KT 10SM OVC047 M08/M14 A3006 RMK T10801140 MADISHF
DFW,2021-02-17 01:10,,,,120.00,11.00,,30.07,,10.00,,OVC,,,,4700.00,,,,,,,,,,,,KDFW 170110Z AUTO 12011KT 10SM OVC047 M08/M14 A3006 RMK T10801140 MADISHF
DFW,2021-02-17 01:15,,,,120.00,9.00,,30.06,,10.00,,OVC,,,,4500.00,,,,,,,,,,,,KDFW 170115Z AUTO 12009KT 10SM OVC045 M08/M14 A3005 RMK T10801140 MADISHF
DFW,2021-02-17 01:20,,,,120.00,11.00,,30.06,,10.00,,OVC,,,,4500.00,,,,,,,,,,,,KDFW 170120Z AUTO 12011KT 10SM OVC045 M08/M14 A3005 RMK T10801140 MADISHF
DFW,2021-02-17 01:25,,,,130.00,11.00,,30.06,,10.00,,OVC,,,,4300.00,,,,,,,,,,,,KDFW 170125Z AUTO 13011KT 10SM OVC043 M08/M14 A3005 RMK T10801140 MADISHF
DFW,2021-02-17 01:30,,,,130.00,9.00,,30.06,,10.00,,OVC,,,,4300.00,,,,,,,,,,,,KDFW 170130Z AUTO 13009KT 10SM OVC043 M08/M14 A3005 RMK T10801140 MADISHF
DFW,2021-02-17 01:35,,,,130.00,10.00,,30.07,,10.00,,OVC,,,,4300.00,,,,,,,,,,,,KDFW 170135Z AUTO 13010KT 10SM OVC043 M08/M14 A3006 RMK T10801140 MADISHF
DFW,2021-02-17 01:40,,,,130.00,9.00,,30.08,,10.00,,OVC,,,,4300.00,,,,,,,,,,,,KDFW 170140Z AUTO 13009KT 10SM OVC043 M08/M14 A3007 RMK T10801140 MADISHF
DFW,2021-02-17 01:45,,,,120.00,10.00,,30.07,,10.00,,OVC,,,,4200.00,,,,,,,,,,,,KDFW 170145Z AUTO 12010KT 10SM OVC042 M08/M14 A3006 RMK T10801140 MADISHF
DFW,2021-02-17 01:50,,,,120.00,11.00,,30.07,,10.00,,OVC,,,,4200.00,,,,,,,,,,,,KDFW 170150Z AUTO 12011KT 10SM OVC042 M08/M14 A3006 RMK T10801140 MADISHF
DFW,2021-02-17 01:53,17.10,7.00,63.95,120.00,9.00,0.00,30.07,1019.20,10.00,,OVC,,,,4200.00,,,,,,,,,,,4.99,KDFW 170153Z 12009KT 10SM OVC042 M08/M14 A3007 RMK AO2 SLP192 T10831139
DFW,2021-02-17 01:55,,,,130.00,10.00,,30.07,,10.00,,OVC,,,,4200.00,,,,,,,,,,,,KDFW 170155Z AUTO 13010KT 10SM OVC042 M08/M14 A3006 RMK T10801140 MADISHF
DFW,2021-02-17 02:00,,,,120.00,11.00,,30.07,,10.00,,OVC,,,,4100.00,,,,,,,,,,,,KDFW 170200Z AUTO 12011KT 10SM OVC041 M08/M14 A3006 RMK T10801140 MADISHF
DFW,2021-02-17 02:05,,,,130.00,11.00,,30.07,,10.00,,OVC,,,,4100.00,,,,,,,,,,,,KDFW 170205Z AUTO 13011KT 10SM OVC041 M08/M14 A3006 RMK T10801140 MADISHF
DFW,2021-02-17 02:10,,,,130.00,10.00,,30.07,,10.00,,OVC,,,,4100.00,,,,,,,,,,,,KDFW 170210Z AUTO 13010KT 10SM OVC041 M08/M14 A3006 RMK T10801140 MADISHF
DFW,2021-02-17 02:15,,,,130.00,11.00,,30.07,,10.00,,OVC,,,,4100.00,,,,,,,,,,,,KDFW 170215Z AUTO 13011KT 10SM OVC041 M08/M14 A3006 RMK T10801140 MADISHF
DFW,2021-02-17 02:20,,,,140.00,11.00,,30.08,,10.00,,OVC,,,,4100.00,,,,,,,,,,,,KDFW 170220Z AUTO 14011KT 10SM OVC041 M08/M14 A3007 RMK T10801140 MADISHF
DFW,2021-02-17 02:25,,,,140.00,13.00,,30.09,,10.00,,OVC,,,,3900.00,,,,,,,,,,,,KDFW 170225Z AUTO 14013KT 10SM OVC039 M08/M14 A3009 RMK T10801140 MADISHF
DFW,2021-02-17 02:30,,,,130.00,11.00,,30.08,,10.00,,OVC,,,,3900.00,,,,-SN,,,,,,,,KDFW 170230Z AUTO 13011KT 10SM -SN OVC039 M08/M14 A3007 RMK T10801140 MADISHF
DFW,2021-02-17 02:35,,,,140.00,11.00,,30.08,,9.00,,OVC,,,,3900.00,,,,-SN,,,,,,,,KDFW 170235Z AUTO 14011KT 9SM -SN OVC039 M08/M13 A3007 RMK T10801130 MADISHF
DFW,2021-02-17 02:40,,,,150.00,10.00,,30.08,,9.00,,OVC,,,,3900.00,,,,-SN,,,,,,,,KDFW 170240Z AUTO 15010KT 9SM -SN OVC039 M08/M13 A3007 RMK T10801130 MADISHF
DFW,2021-02-17 02:45,,,,140.00,14.00,,30.08,,9.00,,OVC,,,,3900.00,,,,-SN,,,,,,,,KDFW 170245Z AUTO 14014KT 9SM -SN OVC039 M08/M13 A3007 RMK T10801130 MADISHF
DFW,2021-02-17 02:50,,,,140.00,11.00,,30.08,,9.00,,OVC,,,,3900.00,,,,-SN,,,,,,,,KDFW 170250Z AUTO 14011KT 9SM -SN OVC039 M08/M13 A3007 RMK T10801130 MADISHF
DFW,2021-02-17 02:53,18.00,8.10,64.66,140.00,14.00,T,30.08,1019.50,9.00,,OVC,,,,3900.00,,,,-SN,,,,,,,3.12,KDFW 170253Z 14014KT 9SM -SN OVC039 M08/M13 A3008 RMK AO2 SNB29 SLP195 P0000 60000 T10781133 52001
DFW,2021-02-17 02:55,,,,130.00,11.00,,30.08,,9.00,,OVC,,,,3900.00,,,,-SN,,,,,,,,KDFW 170255Z AUTO 13011KT 9SM -SN OVC039 M08/M13 A3007 RMK T10801130 MADISHF
DFW,2021-02-17 03:00,,,,150.00,11.00,,30.08,,9.00,,OVC,,,,3900.00,,,,-SN,,,,,,,,KDFW 170300Z AUTO 15011KT 9SM -SN OVC039 M08/M13 A3007 RMK T10801130 MADISHF
DFW,2021-02-17 03:05,,,,140.00,11.00,,30.09,,9.00,,OVC,,,,3900.00,,,,-SN,,,,,,,,KDFW 170305Z AUTO 14011KT 9SM -SN OVC039 M08/M13 A3009 RMK T10801130 MADISHF
DFW,2021-02-17 03:10,,,,140.00,10.00,,30.09,,8.00,,OVC,,,,3900.00,,,,-SN,,,,,,,,KDFW 170310Z AUTO 14010KT 8SM -SN OVC039 M08/M13 A3009 RMK T10801130 MADISHF
DFW,2021-02-17 03:15,,,,130.00,11.00,,30.09,,8.00,,OVC,,,,3700.00,,,,-SN,,,,,,,,KDFW 170315Z AUTO 13011KT 8SM -SN OVC037 M08/M13 A3009 RMK T10801130 MADISHF
DFW,2021-02-17 03:20,,,,140.00,8.00,,30.09,,8.00,,OVC,,,,3700.00,,,,-SN,,,,,,,,KDFW 170320Z AUTO 14008KT 8SM -SN OVC037 M08/M13 A3009 RMK T10801130 MADISHF
DFW,2021-02-17 03:25,,,,150.00,8.00,,30.10,,5.00,,OVC,,,,3700.00,,,,-SN,,,,,,,,KDFW 170325Z AUTO 15008KT 5SM -SN OVC037 M08/M13 A3010 RMK T10801130 MADISHF
DFW,2021-02-17 03:30,,,,150.00,8.00,,30.10,,4.00,,OVC,,,,3700.00,,,,-SN,,,,,,,,KDFW 170330Z AUTO 15008KT 4SM -SN OVC037 M08/M13 A3010 RMK T10801130 MADISHF
DFW,2021-02-17 03:35,,,,140.00,7.00,,30.10,,6.00,,OVC,,,,3600.00,,,,-SN BR,,,,,,,,KDFW 170335Z AUTO 14007KT 6SM -SN BR OVC036 M08/M12 A3010 RMK T10801120 MADISHF
DFW,2021-02-17 03:40,,,,120.00,5.00,,30.09,,7.00,,BKN,OVC,,,3600.00,4300.00,,,-SN,,,,,,,,KDFW 170340Z AUTO 12005KT 7SM -SN BKN036 OVC043 M08/M12 A3009 RMK T10801120 MADISHF
DFW,2021-02-17 03:45,,,,130.00,8.00,,30.08,,5.00,,OVC,,,,3800.00,,,,-SN BR,,,,,,,,KDFW 170345Z AUTO 13008KT 5SM -SN BR OVC038 M08/M12 A3007 RMK T10801120 MADISHF
DFW,2021-02-17 03:50,,,,120.00,8.00,,30.08,,5.00,,OVC,,,,3800.00,,,,-SN BR,,,,,,,,KDFW 170350Z AUTO 12008KT 5SM -SN BR OVC038 M08/M12 A3007 RMK T10801120 MADISHF
DFW,2021-02-17 03:53,18.00,10.90,73.30,130.00,7.00,T,30.09,1019.70,4.00,,OVC,,,,3800.00,,,,-SN BR,,,,,,,7.71,KDFW 170353Z 13007KT 4SM -SN BR OVC038 M08/M12 A3009 RMK AO2 SLP197 P0000 T10781117
DFW,2021-02-17 03:55,,,,130.00,7.00,,30.09,,7.00,,OVC,,,,3800.00,,,,-SN BR,,,,,,,,KDFW 170355Z AUTO 13007KT 7SM -SN BR OVC038 M08/M12 A3009 RMK T10801120 MADISHF
DFW,2021-02-17 04:00,,,,130.00,4.00,,30.10,,9.00,,OVC,,,,3900.00,,,,-SN,,,,,,,,KDFW 170400Z AUTO 13004KT 9SM -SN OVC039 M08/M12 A3010 RMK T10801120 MADISHF
DFW,2021-02-17 04:05,,,,130.00,4.00,,30.10,,8.00,,OVC,,,,3900.00,,,,-SN,,,,,,,,KDFW 170405Z AUTO 13004KT 8SM -SN OVC039 M08/M12 A3010 RMK T10801120 MADISHF
DFW,2021-02-17 04:10,,,,120.00,2.00,,30.10,,7.00,,OVC,,,,3900.00,,,,-SN,,,,,,,,KDFW 170410Z AUTO 12002KT 7SM -SN OVC039 M08/M12 A3010 RMK T10801120 MADISHF
DFW,2021-02-17 04:15,,,,120.00,2.00,0.01,30.10,,7.00,,OVC,,,,3999.00,,,,-SN,,,,,,,,KDFW 170415Z AUTO 12002KT 7SM -SN OVC039 M08/M12 A3010 RMK P0000 T10801120 MADISHF
DFW,2021-02-17 04:20,,,,140.00,5.00,0.01,30.10,,8.00,,OVC,,,,3999.00,,,,-SN,,,,,,,,KDFW 170420Z AUTO 14005KT 8SM -SN OVC039 M08/M12 A3010 RMK P0000 T10801120 MADISHF
DFW,2021-02-17 04:25,,,,140.00,5.00,0.01,30.10,,9.00,,OVC,,,,3999.00,,,,,,,,,,,,KDFW 170425Z AUTO 14005KT 9SM OVC039 M08/M12 A3010 RMK P0000 T10801120 MADISHF
DFW,2021-02-17 04:30,,,,130.00,7.00,0.01,30.09,,9.00,,OVC,,,,3999.00,,,,,,,,,,,,KDFW 170430Z AUTO 13007KT 9SM OVC039 M08/M12 A3009 RMK P0000 T10801120 MADISHF
DFW,2021-02-17 04:35,,,,120.00,5.00,0.01,30.09,,9.00,,OVC,,,,3999.00,,,,,,,,,,,,KDFW 170435Z AUTO 12005KT 9SM OVC039 M08/M12 A3009 RMK P0000 T10801120 MADISHF
DFW,2021-02-17 04:40,,,,120.00,2.00,0.01,30.10,,10.00,,OVC,,,,3999.00,,,,,,,,,,,,KDFW 170440Z AUTO 12002KT 10SM OVC039 M08/M11 A3010 RMK P0000 T10801110 MADISHF
DFW,2021-02-17 04:45,,,,120.00,2.00,0.01,30.11,,10.00,,FEW,OVC,,,3000.00,3800.00,,,,,,,,,,,KDFW 170445Z AUTO 12002KT 10SM FEW030 OVC038 M08/M12 A3011 RMK P0000 T10801120 MADISHF
DFW,2021-02-17 04:50,,,,120.00,4.00,0.01,30.11,,7.00,,SCT,OVC,,,2700.00,3800.00,,,-SN,,,,,,,,KDFW 170450Z AUTO 12004KT 7SM -SN SCT027 OVC038 M08/M12 A3011 RMK P0000 T10801120 MADISHF
DFW,2021-02-17 04:53,18.00,12.00,76.97,110.00,4.00,0.01,30.11,1020.20,5.00,,BKN,OVC,,,2700.00,3900.00,,,-SN,,,,,,,11.07,KDFW 170453Z 11004KT 5SM -SN BKN027 OVC039 M08/M11 A3011 RMK AO2 SNE23B50 SLP202 P0001 T10781111
DFW,2021-02-17 04:55,,,,110.00,5.00,,30.11,,4.00,,BKN,OVC,,,2700.00,3900.00,,,-SN,,,,,,,,KDFW 170455Z AUTO 11005KT 4SM -SN BKN027 OVC039 M08/M11 A3011 RMK T10801110 MADISHF
DFW,2021-02-17 05:00,,,,110.00,4.00,,30.11,,3.50,,BKN,OVC,,,2600.00,3900.00,,,-SN,,,,,,,,KDFW 170500Z AUTO 11004KT 3SM -SN BKN026 OVC039 M08/M11 A3011 RMK T10801110 MADISHF
DFW,2021-02-17 05:05,,,,110.00,5.00,,30.11,,4.00,,BKN,OVC,,,2600.00,3900.00,,,-SN,,,,,,,,KDFW 170505Z AUTO 11005KT 4SM -SN BKN026 OVC039 M08/M11 A3011 RMK T10801110 MADISHF
DFW,2021-02-17 05:10,,,,100.00,4.00,,30.12,,5.00,,OVC,,,,2800.00,,,,-SN,,,,,,,,KDFW 170510Z AUTO 10004KT 5SM -SN OVC028 M08/M11 A3012 RMK T10801110 MADISHF
DFW,2021-02-17 05:15,,,,80.00,2.00,,30.12,,5.00,,OVC,,,,2800.00,,,,-SN,,,,,,,,KDFW 170515Z AUTO 08002KT 5SM -SN OVC028 M08/M11 A3012 RMK T10801110 MADISHF
DFW,2021-02-17 05:20,,,,50.00,4.00,,30.12,,4.00,,OVC,,,,2600.00,,,,-SN,,,,,,,,KDFW 170520Z AUTO 05004KT 4SM -SN OVC026 M08/M11 A3012 RMK T10801110 MADISHF
DFW,2021-02-17 05:25,,,,50.00,4.00,,30.12,,3.50,,OVC,,,,2600.00,,,,-SN BR,,,,,,,,KDFW 170525Z AUTO 05004KT 3SM -SN BR OVC026 M08/M10 A3012 RMK T10801100 MADISHF
DFW,2021-02-17 05:30,,,,50.00,4.00,,30.11,,2.50,,OVC,,,,2400.00,,,,-SN BR,,,,,,,,KDFW 170530Z AUTO 05004KT 2 1/2SM -SN BR OVC024 M08/M10 A3011 RMK T10801100 MADISHF
DFW,2021-02-17 05:33,18.00,14.00,84.05,50.00,5.00,T,30.11,,2.00,,OVC,,,,2200.00,,,,-SN BR,,,,,,,9.77,KDFW 170533Z 05005KT 2SM -SN BR OVC022 M08/M10 A3011 RMK AO2 P0000 T10781100
DFW,2021-02-17 05:35,,,,50.00,4.00,,30.11,,2.00,,OVC,,,,1999.00,,,,-SN BR,,,,,,,,KDFW 170535Z AUTO 05004KT 2SM -SN BR OVC019 M08/M10 A3011 RMK T10801100 MADISHF
DFW,2021-02-17 05:40,,,,60.00,4.00,,30.11,,2.00,,OVC,,,,1800.00,,,,-SN BR,,,,,,,,KDFW 170540Z AUTO 06004KT 2SM -SN BR OVC018 M08/M09 A3011 RMK T10801090 MADISHF
DFW,2021-02-17 05:45,,,,70.00,4.00,,30.11,,2.00,,OVC,,,,1400.00,,,,-SN BR,,,,,,,,KDFW 170545Z AUTO 07004KT 2SM -SN BR OVC014 M08/M09 A3011 RMK T10801090 MADISHF
DFW,2021-02-17 05:46,18.00,15.10,88.20,60.00,4.00,T,30.11,,0.75,,VV ,,,,1400.00,,,,-SN BR,,,,,,,11.07,KDFW 170546Z 06004KT 3/4SM R17C/5500VP6000FT -SN BR VV014 M08/M09 A3011 RMK AO2 P0000 T10781094
DFW,2021-02-17 05:50,,,,50.00,4.00,0.01,30.11,,0.75,,OVC,,,,1400.00,,,,-SN BR,,,,,,,,KDFW 170550Z AUTO 05004KT 1SM -SN BR OVC014 M08/M09 A3011 RMK P0000 T10801090 MADISHF
DFW,2021-02-17 05:53,18.00,15.10,88.20,70.00,6.00,0.01,30.10,1020.00,0.75,,OVC,,,,1200.00,,,,-SN BR,,,,,,,8.67,KDFW 170553Z 07006KT 3/4SM R17C/5500VP6000FT -SN BR OVC012 M08/M09 A3010 RMK AO2 SLP200 4/003 P0001 60002 T10781094 11078 21083 410781189 50006
DFW,2021-02-17 05:55,,,,70.00,5.00,,30.10,,0.75,,OVC,,,,1200.00,,,,-SN BR,,,,,,,,KDFW 170555Z AUTO 07005KT 1SM -SN BR OVC012 M08/M09 A3010 RMK T10801090 MADISHF
DFW,2021-02-17 06:00,,,,50.00,4.00,,30.11,,0.75,,OVC,,,,1200.00,,,,-SN BR,,,,,,,,KDFW 170600Z AUTO 05004KT 1SM -SN BR OVC012 M08/M09 A3011 RMK T10801090 MADISHF
DFW,2021-02-17 06:05,,,,50.00,5.00,,30.11,,0.75,,OVC,,,,1200.00,,,,-SN BR,,,,,,,,KDFW 170605Z AUTO 05005KT 1SM -SN BR OVC012 M08/M09 A3011 RMK T10801090 MADISHF
DFW,2021-02-17 06:10,,,,50.00,5.00,,30.11,,0.75,,OVC,,,,1200.00,,,,-SN BR,,,,,,,,KDFW 170610Z AUTO 05005KT 1SM -SN BR OVC012 M08/M09 A3011 RMK T10801090 MADISHF
DFW,2021-02-17 06:15,,,,70.00,5.00,,30.11,,1.25,,OVC,,,,1400.00,,,,-SN BR,,,,,,,,KDFW 170615Z AUTO 07005KT 1 1/2SM -SN BR OVC014 M08/M09 A3011 RMK T10801090 MADISHF
DFW,2021-02-17 06:17,18.00,16.00,91.72,80.00,5.00,T,30.10,,1.25,,FEW,OVC,,,900.00,1400.00,,,-SN BR,,,,,,,9.77,KDFW 170617Z 08005KT 1 1/4SM -SN BR FEW009 OVC014 M08/M09 A3010 RMK AO2 P0000 T10781089
DFW,2021-02-17 06:20,,,,70.00,5.00,,30.10,,1.25,,FEW,OVC,,,900.00,1400.00,,,-SN BR,,,,,,,,KDFW 170620Z AUTO 07005KT 1 1/2SM -SN BR FEW009 OVC014 M08/M09 A3010 RMK T10801090 MADISHF
DFW,2021-02-17 06:25,,,,70.00,4.00,,30.11,,1.25,,FEW,OVC,,,900.00,1400.00,,,-SN BR,,,,,,,,KDFW 170625Z AUTO 07004KT 1 1/2SM -SN BR FEW009 OVC014 M08/M09 A3011 RMK T10801090 MADISHF
DFW,2021-02-17 06:30,,,,80.00,4.00,,30.11,,1.25,,FEW,OVC,,,900.00,1400.00,,,-SN BR,,,,,,,,KDFW 170630Z AUTO 08004KT 1 1/2SM -SN BR FEW009 OVC014 M08/M09 A3011 RMK T10801090 MADISHF
DFW,2021-02-17 06:35,,,,80.00,4.00,,30.11,,1.25,,FEW,OVC,,,900.00,1400.00,,,-SN BR,,,,,,,,KDFW 170635Z AUTO 08004KT 1 1/2SM -SN BR FEW009 OVC014 M07/M09 A3011 RMK T10701090 MADISHF
DFW,2021-02-17 06:40,,,,80.00,4.00,,30.10,,1.25,,FEW,OVC,,,900.00,1400.00,,,-SN BR,,,,,,,,KDFW 170640Z AUTO 08004KT 1 1/2SM -SN BR FEW009 OVC014 M07/M09 A3010 RMK T10701090 MADISHF
DFW,2021-02-17 06:45,,,,70.00,4.00,0.01,30.11,,1.25,,FEW,OVC,,,900.00,1400.00,,,-SN BR,,,,,,,,KDFW 170645Z AUTO 07004KT 1 1/2SM -SN BR FEW009 OVC014 M07/M09 A3011 RMK P0000 T10701090 MADISHF
DFW,2021-02-17 06:50,,,,80.00,2.00,0.01,30.11,,1.25,,FEW,OVC,,,900.00,1400.00,,,-SN BR,,,,,,,,KDFW 170650Z AUTO 08002KT 1 1/2SM -SN BR FEW009 OVC014 M07/M09 A3011 RMK P0000 T10701090 MADISHF
DFW,2021-02-17 06:53,19.00,16.00,87.87,80.00,5.00,0.01,30.10,1020.00,1.50,,BKN,OVC,,,2300.00,3700.00,,,-SN BR,,,,,,,10.96,KDFW 170653Z 08005KT 1 1/2SM -SN BR BKN023 OVC037 M07/M09 A3010 RMK AO2 SLP200 P0001 T10721089
DFW,2021-02-17 06:55,,,,80.00,4.00,,30.10,,1.75,,BKN,OVC,,,2300.00,3700.00,,,-SN BR,,,,,,,,KDFW 170655Z AUTO 08004KT 2SM -SN BR BKN023 OVC037 M07/M09 A3010 RMK T10701090 MADISHF
DFW,2021-02-17 07:00,,,,100.00,4.00,,30.10,,1.75,,OVC,,,,2300.00,,,,-SN BR,,,,,,,,KDFW 170700Z AUTO 10004KT 2SM -SN BR OVC023 M07/M09 A3010 RMK T10701090 MADISHF
DFW,2021-02-17 07:05,,,,100.00,5.00,,30.10,,1.50,,OVC,,,,2100.00,,,,-SN BR,,,,,,,,KDFW 170705Z AUTO 10005KT 1 1/2SM -SN BR OVC021 M07/M09 A3010 RMK T10701090 MADISHF
DFW,2021-02-17 07:10,,,,90.00,5.00,,30.10,,1.75,,OVC,,,,2100.00,,,,-SN BR,,,,,,,,KDFW 170710Z AUTO 09005KT 2SM -SN BR OVC021 M07/M09 A3010 RMK T10701090 MADISHF
DFW,2021-02-17 07:15,,,,80.00,5.00,,30.11,,1.75,,OVC,,,,2100.00,,,,-SN BR,,,,,,,,KDFW 170715Z AUTO 08005KT 2SM -SN BR OVC021 M07/M09 A3011 RMK T10701090 MADISHF
DFW,2021-02-17 07:20,,,,70.00,5.00,,30.10,,1.75,,OVC,,,,2100.00,,,,-SN BR,,,,,,,,KDFW 170720Z AUTO 07005KT 2SM -SN BR OVC021 M07/M09 A3010 RMK T10701090 MADISHF
DFW,2021-02-17 07:25,,,,80.00,5.00,,30.10,,1.75,,OVC,,,,1900.00,,,,-SN BR,,,,,,,,KDFW 170725Z AUTO 08005KT 2SM -SN BR OVC019 M07/M09 A3010 RMK T10701090 MADISHF
DFW,2021-02-17 07:30,,,,80.00,4.00,0.01,30.10,,1.50,,OVC,,,,1900.00,,,,-SN BR,,,,,,,,KDFW 170730Z AUTO 08004KT 1 1/2SM -SN BR OVC019 M07/M09 A3010 RMK P0000 T10701090 MADISHF
DFW,2021-02-17 07:35,,,,70.00,4.00,0.01,30.11,,1.25,,OVC,,,,1699.00,,,,-SN BR,,,,,,,,KDFW 170735Z AUTO 07004KT 1 1/2SM -SN BR OVC016 M07/M09 A3011 RMK P0000 T10701090 MADISHF
DFW,2021-02-17 07:40,,,,80.00,4.00,0.01,30.10,,1.00,,OVC,,,,1500.00,,,,-SN BR,,,,,,,,KDFW 170740Z AUTO 08004KT 1SM -SN BR OVC015 M07/M09 A3010 RMK P0000 T10701090 MADISHF
DFW,2021-02-17 07:45,,,,80.00,4.00,0.02,30.11,,1.00,,OVC,,,,1500.00,,,,-SN BR,,,,,,,,KDFW 170745Z AUTO 08004KT 1SM -SN BR OVC015 M07/M09 A3011 RMK P0001 T10701090 MADISHF
DFW,2021-02-17 07:50,,,,0.00,0.00,0.02,30.12,,1.00,,OVC,,,,1500.00,,,,-SN BR,,,,,,,,KDFW 170750Z AUTO 00000KT 1SM -SN BR OVC015 M07/M08 A3012 RMK P0001 T10701080 MADISHF
DFW,2021-02-17 07:53,19.00,17.10,92.15,70.00,3.00,0.03,30.11,1020.30,1.25,,OVC,,,,1400.00,,,,GS BR,,,,,,,13.83,KDFW 170753Z 07003KT 1 1/4SM GS BR OVC014 M07/M08 A3011 RMK AO2 SNE52GSB52 SLP203 P0003 T10721083
DFW,2021-02-17 07:55,,,,90.00,4.00,,30.11,,1.25,,OVC,,,,1400.00,,,,-BR,,,,,,,,KDFW 170755Z AUTO 09004KT 1 1/2SM -BR OVC014 M07/M08 A3011 RMK T10701080 MADISHF
DFW,2021-02-17 08:00,,,,100.00,2.00,0.01,30.11,,1.25,,OVC,,,,1200.00,,,,-BR,,,,,,,,KDFW 170800Z AUTO 10002KT 1 1/2SM -BR OVC012 M07/M08 A3011 RMK P0000 T10701080 MADISHF
DFW,2021-02-17 08:05,,,,100.00,5.00,0.01,30.10,,1.25,,OVC,,,,1200.00,,,,-BR,,,,,,,,KDFW 170805Z AUTO 10005KT 1 1/2SM -BR OVC012 M07/M08 A3010 RMK P0000 T10701080 MADISHF
DFW,2021-02-17 08:10,,,,90.00,5.00,0.01,30.10,,1.00,,VV ,,,,1300.00,,,,-BR,,,,,,,,KDFW 170810Z AUTO 09005KT 1SM -BR VV013 M07/M08 A3010 RMK P0000 T10701080 MADISHF
DFW,2021-02-17 08:15,,,,90.00,5.00,0.02,30.10,,1.00,,VV ,,,,1300.00,,,,-BR,,,,,,,,KDFW 170815Z AUTO 09005KT 1SM -BR VV013 M07/M08 A3010 RMK P0001 T10701080 MADISHF
DFW,2021-02-17 08:20,,,,100.00,5.00,0.02,30.09,,1.00,,OVC,,,,1300.00,,,,-BR,,,,,,,,KDFW 170820Z AUTO 10005KT 1SM -BR OVC013 M07/M08 A3009 RMK P0001 T10701080 MADISHF
DFW,2021-02-17 08:25,,,,90.00,4.00,0.02,30.09,,1.00,,OVC,,,,1300.00,,,,-SN BR,,,,,,,,KDFW 170825Z AUTO 09004KT 1SM -SN BR OVC013 M07/M08 A3009 RMK P0001 T10701080 MADISHF
DFW,2021-02-17 08:30,,,,100.00,5.00,0.02,30.08,,1.00,,OVC,,,,1300.00,,,,-SN BR,,,,,,,,KDFW 170830Z AUTO 10005KT 1SM -SN BR OVC013 M07/M08 A3007 RMK P0001 T10701080 MADISHF
DFW,2021-02-17 08:35,,,,90.00,4.00,0.03,30.08,,1.00,,OVC,,,,1300.00,,,,-SN BR,,,,,,,,KDFW 170835Z AUTO 09004KT 1SM -SN BR OVC013 M07/M08 A3007 RMK P0002 T10701080 MADISHF
DFW,2021-02-17 08:40,,,,80.00,5.00,0.03,30.08,,1.00,,OVC,,,,1300.00,,,,-SN BR,,,,,,,,KDFW 170840Z AUTO 08005KT 1SM -SN BR OVC013 M07/M08 A3007 RMK P0002 T10701080 MADISHF
DFW,2021-02-17 08:45,,,,80.00,5.00,0.03,30.07,,1.00,,OVC,,,,1300.00,,,,-SN BR,,,,,,,,KDFW 170845Z AUTO 08005KT 1SM -SN BR OVC013 M07/M08 A3006 RMK P0002 T10701080 MADISHF
DFW,2021-02-17 08:50,,,,70.00,5.00,0.03,30.08,,1.25,,OVC,,,,1300.00,,,,-SN BR,,,,,,,,KDFW 170850Z AUTO 07005KT 1 1/2SM -SN BR OVC013 M07/M08 A3007 RMK P0002 T10701080 MADISHF
DFW,2021-02-17 08:53,19.00,17.10,92.15,80.00,5.00,0.04,30.08,1019.40,1.25,,OVC,,,,1700.00,,,,-SN BR,,,,,,,10.96,KDFW 170853Z 08005KT 1 1/4SM -SN BR OVC017 M07/M08 A3008 RMK AO2 GSE24SNB24 SLP194 P0004 60008 T10721083 58005
DFW,2021-02-17 08:55,,,,80.00,5.00,,30.08,,1.50,,OVC,,,,1900.00,,,,-SN BR,,,,,,,,KDFW 170855Z AUTO 08005KT 1 1/2SM -SN BR OVC019 M07/M08 A3007 RMK T10701080 MADISHF
DFW,2021-02-17 09:00,,,,80.00,4.00,,30.09,,1.50,,OVC,,,,1900.00,,,,-SN BR,,,,,,,,KDFW 170900Z AUTO 08004KT 1 1/2SM -SN BR OVC019 M07/M08 A3009 RMK T10701080 MADISHF
DFW,2021-02-17 09:05,,,,70.00,4.00,,30.08,,1.50,,OVC,,,,2100.00,,,,-SN BR,,,,,,,,KDFW 170905Z AUTO 07004KT 1 1/2SM -SN BR OVC021 M07/M08 A3007 RMK T10701080 MADISHF
DFW,2021-02-17 09:10,,,,80.00,5.00,,30.09,,1.50,,OVC,,,,2300.00,,,,-SN BR,,,,,,,,KDFW 170910Z AUTO 08005KT 1 1/2SM -SN BR OVC023 M07/M08 A3009 RMK T10701080 MADISHF
DFW,2021-02-17 09:15,,,,60.00,5.00,0.01,30.09,,1.75,,BKN,OVC,,,2300.00,3999.00,,,-SN BR,,,,,,,,KDFW 170915Z AUTO 06005KT 2SM -SN BR BKN023 OVC039 M07/M08 A3009 RMK P0000 T10701080 MADISHF
DFW,2021-02-17 09:20,,,,70.00,5.00,0.01,30.08,,2.00,,BKN,OVC,,,2300.00,3800.00,,,-SN BR,,,,,,,,KDFW 170920Z AUTO 07005KT 2SM -SN BR BKN023 OVC038 M07/M08 A3007 RMK P0000 T10701080 MADISHF
DFW,2021-02-17 09:23,19.90,17.10,88.68,70.00,7.00,0.01,30.07,,2.00,,SCT,OVC,,,2500.00,3800.00,,,-SN BR,,,,,,,10.03,KDFW 170923Z 07007KT 2SM -SN BR SCT025 OVC038 M07/M08 A3007 RMK AO2 P0001 T10671083
DFW,2021-02-17 09:25,,,,60.00,7.00,0.01,30.07,,2.00,,SCT,OVC,,,2500.00,3800.00,,,-SN BR,,,,,,,,KDFW 170925Z AUTO 06007KT 2SM -SN BR SCT025 OVC038 M07/M08 A3006 RMK P0000 T10701080 MADISHF
DFW,2021-02-17 09:30,,,,60.00,5.00,0.01,30.07,,2.00,,FEW,OVC,,,2700.00,3800.00,,,-SN BR,,,,,,,,KDFW 170930Z AUTO 06005KT 2SM -SN BR FEW027 OVC038 M07/M08 A3006 RMK P0000 T10701080 MADISHF
DFW,2021-02-17 09:35,,,,50.00,5.00,0.01,30.06,,2.00,,FEW,OVC,,,2900.00,3700.00,,,-SN BR,,,,,,,,KDFW 170935Z AUTO 05005KT 2SM -SN BR FEW029 OVC037 M07/M08 A3005 RMK P0000 T10701080 MADISHF
DFW,2021-02-17 09:40,,,,70.00,5.00,0.01,30.07,,2.00,,OVC,,,,3500.00,,,,-SN BR,,,,,,,,KDFW 170940Z AUTO 07005KT 2SM -SN BR OVC035 M07/M08 A3006 RMK P0000 T10701080 MADISHF
DFW,2021-02-17 09:45,,,,60.00,5.00,0.02,30.07,,2.00,,BKN,OVC,,,2800.00,3700.00,,,-SN BR,,,,,,,,KDFW 170945Z AUTO 06005KT 2SM -SN BR BKN028 OVC037 M07/M08 A3006 RMK P0001 T10701080 MADISHF
DFW,2021-02-17 09:48,19.40,17.60,92.57,50.00,4.00,0.02,30.08,,1.50,,BKN,OVC,,,2600.00,3700.00,,,-SN BR,,,,,,,12.71,KDFW 170948Z 05004KT 1 1/2SM -SN BR BKN026 OVC037 M07/M08 A3008 RMK AO2 P0002
DFW,2021-02-17 09:50,,,,50.00,5.00,0.02,30.08,,1.50,,BKN,OVC,,,2600.00,3700.00,,,-SN BR,,,,,,,,KDFW 170950Z AUTO 05005KT 1 1/2SM -SN BR BKN026 OVC037 M07/M08 A3007 RMK P0001 T10701080 MADISHF
DFW,2021-02-17 09:53,19.90,18.00,92.19,60.00,7.00,0.02,30.08,1019.10,1.25,,BKN,OVC,,,2600.00,3600.00,,,-SN BR,,,,,,,10.03,KDFW 170953Z 06007KT 1 1/4SM -SN BR BKN026 OVC036 M07/M08 A3008 RMK AO2 SLP191 P0002 T10671078
DFW,2021-02-17 09:55,,,,50.00,7.00,,30.07,,1.25,,BKN,OVC,,,2600.00,3600.00,,,-SN BR,,,,,,,,KDFW 170955Z AUTO 05007KT 1 1/2SM -SN BR BKN026 OVC036 M07/M08 A3006 RMK T10701080 MADISHF
DFW,2021-02-17 10:00,,,,70.00,5.00,0.01,30.07,,1.25,,BKN,OVC,,,2600.00,3600.00,,,-SN BR,,,,,,,,KDFW 171000Z AUTO 07005KT 1 1/2SM -SN BR BKN026 OVC036 M07/M08 A3006 RMK P0000 T10701080 MADISHF
DFW,2021-02-17 10:05,,,,60.00,5.00,0.01,30.07,,1.25,,BKN,OVC,,,2600.00,3399.00,,,-SN BR,,,,,,,,KDFW 171005Z AUTO 06005KT 1 1/2SM -SN BR BKN026 OVC033 M07/M08 A3006 RMK P0000 T10701080 MADISHF
DFW,2021-02-17 10:10,,,,60.00,5.00,0.01,30.07,,1.25,,BKN,OVC,,,2600.00,3399.00,,,-SN BR,,,,,,,,KDFW 171010Z AUTO 06005KT 1 1/2SM -SN BR BKN026 OVC033 M07/M08 A3006 RMK P0000 T10701080 MADISHF
DFW,2021-02-17 10:15,,,,50.00,5.00,0.01,30.07,,1.25,,BKN,OVC,,,2600.00,3399.00,,,-SN BR,,,,,,,,KDFW 171015Z AUTO 05005KT 1 1/2SM -SN BR BKN026 OVC033 M07/M08 A3006 RMK P0000 T10701080 MADISHF
DFW,2021-02-17 10:20,,,,50.00,7.00,0.01,30.06,,1.25,,BKN,OVC,,,2600.00,3399.00,,,-SN BR,,,,,,,,KDFW 171020Z AUTO 05007KT 1 1/2SM -SN BR BKN026 OVC033 M07/M08 A3005 RMK P0000 T10701080 MADISHF
DFW,2021-02-17 10:24,19.90,18.00,92.19,50.00,5.00,0.01,30.06,,1.75,,SCT,OVC,,,2600.00,3400.00,,,-SNPL BR,,,,,,,12.03,KDFW 171024Z 05005KT 1 3/4SM -SNPL BR SCT026 OVC034 M07/M08 A3006 RMK AO2 PLB23 P0001 T10671078
DFW,2021-02-17 10:25,,,,50.00,5.00,0.01,30.06,,1.75,,SCT,OVC,,,2600.00,3399.00,,,-PL -SN BR,,,,,,,,KDFW 171025Z AUTO 05005KT 2SM -PL -SN BR SCT026 OVC033 M07/M08 A3005 RMK P0000 T10701080 MADISHF
DFW,2021-02-17 10:30,,,,50.00,5.00,0.01,30.06,,1.75,,SCT,OVC,,,2600.00,3399.00,,,-PL -SN BR,,,,,,,,KDFW 171030Z AUTO 05005KT 2SM -PL -SN BR SCT026 OVC033 M07/M08 A3005 RMK P0000 T10701080 MADISHF
DFW,2021-02-17 10:35,,,,50.00,5.00,0.01,30.05,,1.75,,SCT,OVC,,,2600.00,3399.00,,,-PL -SN BR,,,,,,,,KDFW 171035Z AUTO 05005KT 2SM -PL -SN BR SCT026 OVC033 M07/M08 A3004 RMK P0000 T10701080 MADISHF
DFW,2021-02-17 10:40,,,,50.00,5.00,0.02,30.06,,1.75,,SCT,OVC,,,2600.00,3399.00,,,-PL -SN BR,,,,,,,,KDFW 171040Z AUTO 05005KT 2SM -PL -SN BR SCT026 OVC033 M07/M08 A3005 RMK P0001 T10701080 MADISHF
DFW,2021-02-17 10:45,,,,50.00,5.00,0.02,30.06,,1.75,,SCT,OVC,,,2600.00,3399.00,,,-PL -SN BR,,,,,,,,KDFW 171045Z AUTO 05005KT 2SM -PL -SN BR SCT026 OVC033 M07/M08 A3005 RMK P0001 T10701080 MADISHF
DFW,2021-02-17 10:50,,,,60.00,7.00,0.03,30.05,,1.75,,SCT,OVC,,,2600.00,3399.00,,,-PL -SN BR,,,,,,,,KDFW 171050Z AUTO 06007KT 2SM -PL -SN BR SCT026 OVC033 M07/M08 A3004 RMK P0002 T10701080 MADISHF
DFW,2021-02-17 10:53,19.90,18.00,92.19,60.00,7.00,0.03,30.06,1018.50,3.00,,SCT,OVC,,,2600.00,3200.00,,,-SN BR,,,,,,,10.03,KDFW 171053Z 06007KT 3SM -SN BR SCT026 OVC032 M07/M08 A3006 RMK AO2 PLB23E53 SLP185 P0003 T10671078
DFW,2021-02-17 10:55,,,,60.00,7.00,,30.06,,3.00,,SCT,OVC,,,2600.00,3200.00,,,-SN BR,,,,,,,,KDFW 171055Z AUTO 06007KT 3SM -SN BR SCT026 OVC032 M07/M08 A3005 RMK T10701080 MADISHF
DFW,2021-02-17 11:00,,,,70.00,7.00,,30.05,,3.00,,OVC,,,,3000.00,,,,-SN BR,,,,,,,,KDFW 171100Z AUTO 07007KT 3SM -SN BR OVC030 M07/M08 A3004 RMK T10701080 MADISHF
DFW,2021-02-17 11:05,,,,50.00,5.00,,30.05,,3.00,,FEW,OVC,,,700.00,3000.00,,,-SN BR,,,,,,,,KDFW 171105Z AUTO 05005KT 3SM -SN BR FEW007 OVC030 M07/M08 A3004 RMK T10701080 MADISHF
DFW,2021-02-17 11:10,,,,60.00,5.00,,30.05,,3.00,,OVC,,,,3000.00,,,,-SN BR,,,,,,,,KDFW 171110Z AUTO 06005KT 3SM -SN BR OVC030 M07/M08 A3004 RMK T10701080 MADISHF
DFW,2021-02-17 11:15,,,,60.00,5.00,,30.05,,3.00,,BKN,OVC,,,2600.00,3200.00,,,-SN BR,,,,,,,,KDFW 171115Z AUTO 06005KT 3SM -SN BR BKN026 OVC032 M07/M08 A3004 RMK T10701080 MADISHF
DFW,2021-02-17 11:16,19.90,18.00,92.19,60.00,5.00,T,30.06,,2.00,,OVC,,,,3000.00,,,,-SN BR,,,,,,,12.03,KDFW 171116Z 06005KT 2SM -SN BR OVC030 M07/M08 A3006 RMK AO2 P0000 T10671078
DFW,2021-02-17 11:20,,,,50.00,7.00,,30.05,,2.00,,OVC,,,,3000.00,,,,-SN BR,,,,,,,,KDFW 171120Z AUTO 05007KT 2SM -SN BR OVC030 M07/M08 A3004 RMK T10701080 MADISHF
DFW,2021-02-17 11:25,,,,50.00,5.00,0.01,30.06,,2.00,,FEW,OVC,,,700.00,3000.00,,,-SN BR,,,,,,,,KDFW 171125Z AUTO 05005KT 2SM -SN BR FEW007 OVC030 M07/M08 A3005 RMK P0000 T10701080 MADISHF
DFW,2021-02-17 11:30,,,,60.00,7.00,0.01,30.06,,2.00,,OVC,,,,3000.00,,,,-SN BR,,,,,,,,KDFW 171130Z AUTO 06007KT 2SM -SN BR OVC030 M07/M08 A3005 RMK P0000 T10701080 MADISHF
DFW,2021-02-17 11:35,,,,60.00,8.00,0.01,30.06,,2.00,,OVC,,,,3000.00,,,,-SN BR,,,,,,,,KDFW 171135Z AUTO 06008KT 2SM -SN BR OVC030 M07/M08 A3005 RMK P0000 T10701080 MADISHF
DFW,2021-02-17 11:40,,,,60.00,7.00,0.01,30.05,,2.00,,OVC,,,,3000.00,,,,-SN BR,,,,,,,,KDFW 171140Z AUTO 06007KT 2SM -SN BR OVC030 M07/M08 A3004 RMK P0000 T10701080 MADISHF
DFW,2021-02-17 11:45,,,,60.00,5.00,0.01,30.05,,2.00,,BKN,OVC,,,2400.00,3000.00,,,-SN BR,,,,,,,,KDFW 171145Z AUTO 06005KT 2SM -SN BR BKN024 OVC030 M07/M08 A3004 RMK P0000 T10701080 MADISHF
DFW,2021-02-17 11:46,19.90,18.00,92.19,60.00,6.00,0.01,30.05,,1.75,,BKN,OVC,,,2400.00,3000.00,,,-SN BR,,,,,,,10.96,KDFW 171146Z 06006KT 1 3/4SM -SN BR BKN024 OVC030 M07/M08 A3005 RMK AO2 P0001 T10671078
DFW,2021-02-17 11:50,,,,60.00,5.00,0.01,30.06,,1.75,,BKN,OVC,,,2200.00,3000.00,,,-SN BR,,,,,,,,KDFW 171150Z AUTO 06005KT 2SM -SN BR BKN022 OVC030 M07/M08 A3005 RMK P0000 T10701080 MADISHF
DFW,2021-02-17 11:53,19.90,18.00,92.19,60.00,6.00,0.01,30.06,1018.50,1.75,,OVC,,,,2200.00,,,,-SN BR,,,,,,,10.96,KDFW 171153Z 06006KT 1 3/4SM -SN BR OVC022 M07/M08 A3006 RMK AO2 SLP185 4/004 P0001 60014 70016 T10671078 11067 21078 56009
DFW,2021-02-17 11:55,,,,70.00,5.00,,30.06,,1.75,,OVC,,,,2200.00,,,,-SN BR,,,,,,,,KDFW 171155Z AUTO 07005KT 2SM -SN BR OVC022 M07/M08 A3005 RMK T10701080 MADISHF
DFW,2021-02-17 12:00,,,,80.00,5.00,,30.06,,1.75,,OVC,,,,1999.00,,,,-SN BR,,,,,,,,KDFW 171200Z AUTO 08005KT 2SM -SN BR OVC019 M07/M08 A3005 RMK T10701080 MADISHF
DFW,2021-02-17 12:05,,,,80.00,5.00,,30.05,,1.75,,OVC,,,,1800.00,,,,-SN BR,,,,,,,,KDFW 171205Z AUTO 08005KT 2SM -SN BR OVC018 M07/M08 A3004 RMK T10701080 MADISHF
DFW,2021-02-17 12:10,,,,80.00,5.00,,30.05,,1.75,,OVC,,,,1600.00,,,,-SN BR,,,,,,,,KDFW 171210Z AUTO 08005KT 2SM -SN BR OVC016 M07/M08 A3004 RMK T10701080 MADISHF
DFW,2021-02-17 12:15,,,,80.00,5.00,0.01,30.06,,1.75,,OVC,,,,1600.00,,,,-SN BR,,,,,,,,KDFW 171215Z AUTO 08005KT 2SM -SN BR OVC016 M07/M08 A3005 RMK P0000 T10701080 MADISHF
DFW,2021-02-17 12:20,,,,90.00,5.00,0.01,30.07,,1.25,,OVC,,,,1600.00,,,,-SN BR,,,,,,,,KDFW 171220Z AUTO 09005KT 1 1/2SM -SN BR OVC016 M07/M08 A3006 RMK P0000 T10701080 MADISHF
DFW,2021-02-17 12:25,,,,80.00,5.00,0.01,30.07,,1.50,,BKN,OVC,,,1600.00,2900.00,,,-SN BR,,,,,,,,KDFW 171225Z AUTO 08005KT 1 1/2SM -SN BR BKN016 OVC029 M07/M08 A3006 RMK P0000 T10701080 MADISHF
DFW,2021-02-17 12:30,,,,90.00,4.00,0.01,30.07,,1.75,,BKN,OVC,,,1600.00,2900.00,,,-SN BR,,,,,,,,KDFW 171230Z AUTO 09004KT 2SM -SN BR BKN016 OVC029 M07/M08 A3006 RMK P0000 T10701080 MADISHF
DFW,2021-02-17 12:35,,,,100.00,4.00,0.01,30.07,,1.75,,SCT,OVC,,,1500.00,2700.00,,,-SN BR,,,,,,,,KDFW 171235Z AUTO 10004KT 2SM -SN BR SCT015 OVC027 M07/M08 A3006 RMK P0000 T10701080 MADISHF
DFW,2021-02-17 12:40,,,,90.00,4.00,0.01,30.07,,1.50,,BKN,OVC,,,1500.00,2700.00,,,-SN BR,,,,,,,,KDFW 171240Z AUTO 09004KT 1 1/2SM -SN BR BKN015 OVC027 M07/M08 A3006 RMK P0000 T10701080 MADISHF
DFW,2021-02-17 12:45,,,,90.00,4.00,0.01,30.06,,1.50,,BKN,OVC,,,1600.00,2700.00,,,-SN BR,,,,,,,,KDFW 171245Z AUTO 09004KT 1 1/2SM -SN BR BKN016 OVC027 M07/M08 A3005 RMK P0000 T10701080 MADISHF
DFW,2021-02-17 12:50,,,,50.00,4.00,0.01,30.07,,1.50,,BKN,OVC,,,1600.00,2700.00,,,-PL -SN BR,,,,,,,,KDFW 171250Z AUTO 05004KT 1 1/2SM -PL -SN BR BKN016 OVC027 M07/M08 A3006 RMK P0000 T10701080 MADISHF
DFW,2021-02-17 12:53,19.90,18.00,92.19,50.00,4.00,0.01,30.07,1018.90,1.50,,BKN,OVC,,,1600.00,2700.00,,,-SNPL BR,,,,,,,13.29,KDFW 171253Z 05004KT 1 1/2SM -SNPL BR BKN016 OVC027 M07/M08 A3007 RMK AO2 PLB50 SLP189 P0001 T10671078
DFW,2021-02-17 12:55,,,,60.00,2.00,,30.07,,1.50,,BKN,OVC,,,1600.00,2700.00,,,-PL -SN BR,,,,,,,,KDFW 171255Z AUTO 06002KT 1 1/2SM -PL -SN BR BKN016 OVC027 M07/M08 A3006 RMK T10701080 MADISHF
DFW,2021-02-17 13:00,,,,70.00,4.00,,30.06,,1.25,,BKN,OVC,,,1600.00,2500.00,,,-PL -SN BR,,,,,,,,KDFW 171300Z AUTO 07004KT 1 1/2SM -PL -SN BR BKN016 OVC025 M07/M08 A3005 RMK T10701080 MADISHF
DFW,2021-02-17 13:05,,,,80.00,2.00,,30.07,,1.25,,BKN,OVC,,,1600.00,2500.00,,,-PL -SN BR,,,,,,,,KDFW 171305Z AUTO 08002KT 1 1/2SM -PL -SN BR BKN016 OVC025 M07/M08 A3006 RMK T10701080 MADISHF
DFW,2021-02-17 13:10,,,,60.00,4.00,,30.06,,1.50,,BKN,OVC,,,1500.00,2300.00,,,-PL -SN BR,,,,,,,,KDFW 171310Z AUTO 06004KT 1 1/2SM -PL -SN BR BKN015 OVC023 M07/M07 A3005 RMK T10701070 MADISHF
DFW,2021-02-17 13:15,,,,60.00,4.00,,30.07,,1.50,,BKN,OVC,,,1500.00,2300.00,,,-PL -SN BR,,,,,,,,KDFW 171315Z AUTO 06004KT 1 1/2SM -PL -SN BR BKN015 OVC023 M07/M07 A3006 RMK T10701070 MADISHF
DFW,2021-02-17 13:20,,,,50.00,4.00,,30.07,,1.50,,SCT,OVC,,,1500.00,2100.00,,,-PL -SN BR,,,,,,,,KDFW 171320Z AUTO 05004KT 1 1/2SM -PL -SN BR SCT015 OVC021 M06/M08 A3006 RMK T10601080 MADISHF
DFW,2021-02-17 13:24,21.00,19.00,91.83,60.00,4.00,T,30.07,,1.25,,BKN,OVC,,,1500.00,2100.00,,,-SN BR,,,,,,,14.57,KDFW 171324Z 06004KT 1 1/4SM -SN BR BKN015 OVC021 M06/M07 A3007 RMK AO2 PLE23 P0000 T10611072
DFW,2021-02-17 13:25,,,,60.00,4.00,,30.07,,1.25,,BKN,OVC,,,1500.00,2100.00,,,-SN BR,,,,,,,,KDFW 171325Z AUTO 06004KT 1 1/2SM -SN BR BKN015 OVC021 M06/M07 A3006 RMK T10601070 MADISHF
DFW,2021-02-17 13:30,,,,40.00,4.00,0.01,30.08,,1.00,,FEW,OVC,,,1400.00,2100.00,,,-SN BR,,,,,,,,KDFW 171330Z AUTO 04004KT 1SM -SN BR FEW014 OVC021 M06/M07 A3007 RMK P0000 T10601070 MADISHF
DFW,2021-02-17 13:35,,,,40.00,5.00,0.01,30.07,,1.25,,FEW,OVC,,,1400.00,2100.00,,,-SN BR,,,,,,,,KDFW 171335Z AUTO 04005KT 1 1/2SM -SN BR FEW014 OVC021 M06/M08 A3006 RMK P0000 T10601080 MADISHF
DFW,2021-02-17 13:40,,,,20.00,4.00,0.01,30.08,,1.50,,OVC,,,,2100.00,,,,-SN BR,,,,,,,,KDFW 171340Z AUTO 02004KT 1 1/2SM -SN BR OVC021 M06/M08 A3007 RMK P0000 T10601080 MADISHF
DFW,2021-02-17 13:45,,,,40.00,4.00,0.01,30.08,,1.50,,FEW,OVC,,,1200.00,2100.00,,,-SN BR,,,,,,,,KDFW 171345Z AUTO 04004KT 1 1/2SM -SN BR FEW012 OVC021 M06/M07 A3007 RMK P0000 T10601070 MADISHF
DFW,2021-02-17 13:50,,,,60.00,2.00,0.01,30.08,,1.75,,SCT,OVC,,,1200.00,2100.00,,,-SN BR,,,,,,,,KDFW 171350Z AUTO 06002KT 2SM -SN BR SCT012 OVC021 M06/M07 A3007 RMK P0000 T10601070 MADISHF
DFW,2021-02-17 13:53,21.00,19.00,91.83,50.00,3.00,0.01,30.08,1019.20,2.00,,BKN,OVC,,,1200.00,2100.00,,,-SN BR,,,,,,,16.11,KDFW 171353Z 05003KT 2SM -SN BR BKN012 OVC021 M06/M07 A3008 RMK AO2 PLE23 SLP192 P0001 T10611072
DFW,2021-02-17 13:55,,,,40.00,4.00,,30.08,,2.50,,BKN,OVC,,,1200.00,2100.00,,,-SN BR,,,,,,,,KDFW 171355Z AUTO 04004KT 2 1/2SM -SN BR BKN012 OVC021 M06/M07 A3007 RMK T10601070 MADISHF
DFW,2021-02-17 14:00,,,,50.00,5.00,,30.08,,3.00,,BKN,OVC,,,1200.00,2100.00,,,BR,,,,,,,,KDFW 171400Z AUTO 05005KT 3SM BR BKN012 OVC021 M06/M07 A3007 RMK T10601070 MADISHF
DFW,2021-02-17 14:05,,,,60.00,4.00,,30.08,,5.00,,BKN,OVC,,,1200.00,2100.00,,,BR,,,,,,,,KDFW 171405Z AUTO 06004KT 5SM BR BKN012 OVC021 M06/M07 A3007 RMK T10601070 MADISHF
DFW,2021-02-17 14:10,,,,40.00,5.00,,30.08,,7.00,,OVC,,,,1100.00,,,,,,,,,,,,KDFW 171410Z AUTO 04005KT 7SM OVC011 M06/M07 A3007 RMK T10601070 MADISHF
DFW,2021-02-17 14:15,,,,50.00,5.00,,30.08,,8.00,,OVC,,,,1100.00,,,,-SN,,,,,,,,KDFW 171415Z AUTO 05005KT 8SM -SN OVC011 M06/M07 A3007 RMK T10601070 MADISHF
DFW,2021-02-17 14:20,,,,50.00,5.00,,30.08,,7.00,,OVC,,,,1100.00,,,,-SN,,,,,,,,KDFW 171420Z AUTO 05005KT 7SM -SN OVC011 M06/M07 A3007 RMK T10601070 MADISHF
DFW,2021-02-17 14:25,,,,40.00,5.00,,30.08,,7.00,,OVC,,,,1100.00,,,,-SN,,,,,,,,KDFW 171425Z AUTO 04005KT 7SM -SN OVC011 M06/M07 A3007 RMK T10601070 MADISHF
DFW,2021-02-17 14:30,,,,40.00,5.00,,30.08,,8.00,,OVC,,,,1100.00,,,,-SN,,,,,,,,KDFW 171430Z AUTO 04005KT 8SM -SN OVC011 M06/M07 A3007 RMK T10601070 MADISHF
DFW,2021-02-17 14:35,,,,30.00,5.00,,30.09,,8.00,,OVC,,,,1100.00,,,,-SN,,,,,,,,KDFW 171435Z AUTO 03005KT 8SM -SN OVC011 M06/M07 A3009 RMK T10601070 MADISHF
DFW,2021-02-17 14:40,,,,20.00,5.00,,30.09,,9.00,,OVC,,,,999.00,,,,-SN,,,,,,,,KDFW 171440Z AUTO 02005KT 9SM -SN OVC009 M06/M07 A3009 RMK T10601070 MADISHF
DFW,2021-02-17 14:45,,,,40.00,5.00,,30.09,,9.00,,OVC,,,,999.00,,,,-SN,,,,,,,,KDFW 171445Z AUTO 04005KT 9SM -SN OVC009 M06/M07 A3009 RMK T10601070 MADISHF
DFW,2021-02-17 14:50,,,,30.00,5.00,,30.10,,9.00,,OVC,,,,999.00,,,,-SN,,,,,,,,KDFW 171450Z AUTO 03005KT 9SM -SN OVC009 M06/M07 A3010 RMK T10601070 MADISHF
DFW,2021-02-17 14:53,21.90,19.00,88.40,20.00,4.00,T,30.10,1019.90,4.00,,OVC,,,,1000.00,,,,BR,,,,,,,15.63,KDFW 171453Z 02004KT 4SM BR OVC010 M06/M07 A3010 RMK AO2 SNE1358B15E52 SLP199 P0000 60002 T10561072 53015
DFW,2021-02-17 14:55,,,,10.00,5.00,,30.10,,9.00,,OVC,,,,999.00,,,,,,,,,,,,KDFW 171455Z AUTO 01005KT 9SM OVC009 M06/M07 A3010 RMK T10601070 MADISHF
DFW,2021-02-17 15:00,,,,10.00,5.00,,30.10,,9.00,,OVC,,,,999.00,,,,,,,,,,,,KDFW 171500Z AUTO 01005KT 9SM OVC009 M06/M07 A3010 RMK T10601070 MADISHF
DFW,2021-02-17 15:05,,,,10.00,5.00,,30.11,,4.00,,OVC,,,,900.00,,,,BR,,,,,,,,KDFW 171505Z AUTO 01005KT 4SM BR OVC009 M06/M07 A3011 RMK T10601070 MADISHF
DFW,2021-02-17 15:10,,,,10.00,5.00,,30.10,,4.00,,OVC,,,,900.00,,,,BR,,,,,,,,KDFW 171510Z AUTO 01005KT 4SM BR OVC009 M06/M07 A3010 RMK T10601070 MADISHF
DFW,2021-02-17 15:15,,,,360.00,5.00,,30.11,,4.00,,OVC,,,,900.00,,,,BR,,,,,,,,KDFW 171515Z AUTO 36005KT 4SM BR OVC009 M06/M07 A3011 RMK T10601070 MADISHF
DFW,2021-02-17 15:20,,,,10.00,5.00,,30.11,,9.00,,OVC,,,,900.00,,,,,,,,,,,,KDFW 171520Z AUTO 01005KT 9SM OVC009 M06/M07 A3011 RMK T10601070 MADISHF
DFW,2021-02-17 15:25,,,,360.00,5.00,,30.11,,10.00,,OVC,,,,900.00,,,,,,,,,,,,KDFW 171525Z AUTO 36005KT 10SM OVC009 M06/M07 A3011 RMK T10601070 MADISHF
DFW,2021-02-17 15:30,,,,350.00,8.00,,30.11,,9.00,,OVC,,,,900.00,,,,,,,,,,,,KDFW 171530Z AUTO 35008KT 9SM OVC009 M06/M07 A3011 RMK T10601070 MADISHF
DFW,2021-02-17 15:35,,,,350.00,8.00,,30.11,,9.00,,OVC,,,,900.00,,,,,,,,,,,,KDFW 171535Z AUTO 35008KT 9SM OVC009 M06/M07 A3011 RMK T10601070 MADISHF
DFW,2021-02-17 15:40,,,,350.00,9.00,,30.11,,10.00,,OVC,,,,900.00,,,,,,,,,,,,KDFW 171540Z AUTO 35009KT 10SM OVC009 M06/M07 A3011 RMK T10601070 MADISHF
DFW,2021-02-17 15:45,,,,360.00,9.00,,30.11,,10.00,,OVC,,,,900.00,,,,,,,,,,,,KDFW 171545Z AUTO 36009KT 10SM OVC009 M06/M07 A3011 RMK T10601070 MADISHF
DFW,2021-02-17 15:50,,,,350.00,10.00,,30.11,,10.00,,OVC,,,,900.00,,,,,,,,,,,,KDFW 171550Z AUTO 35010KT 10SM OVC009 M06/M07 A3011 RMK T10601070 MADISHF
DFW,2021-02-17 15:53,21.90,19.00,88.40,360.00,9.00,0.00,30.11,1020.20,6.00,,OVC,,,,900.00,,,,BR,,,,,,,10.96,KDFW 171553Z 36009KT 6SM BR OVC009 M06/M07 A3011 RMK AO2 SLP202 T10561072
DFW,2021-02-17 15:55,,,,360.00,9.00,,30.11,,10.00,,OVC,,,,900.00,,,,,,,,,,,,KDFW 171555Z AUTO 36009KT 10SM OVC009 M06/M07 A3011 RMK T10601070 MADISHF
DFW,2021-02-17 16:00,,,,20.00,9.00,,30.11,,10.00,,OVC,,,,900.00,,,,,,,,,,,,KDFW 171600Z AUTO 02009KT 10SM OVC009 M05/M07 A3011 RMK T10501070 MADISHF
DFW,2021-02-17 16:05,,,,10.00,8.00,,30.10,,10.00,,OVC,,,,900.00,,,,,,,,,,,,KDFW 171605Z AUTO 01008KT 10SM OVC009 M05/M07 A3010 RMK T10501070 MADISHF
DFW,2021-02-17 16:10,,,,20.00,10.00,,30.10,,10.00,,OVC,,,,900.00,,,,,,,,,,,,KDFW 171610Z AUTO 02010KT 10SM OVC009 M05/M07 A3010 RMK T10501070 MADISHF
DFW,2021-02-17 16:15,,,,10.00,9.00,,30.09,,10.00,,OVC,,,,900.00,,,,,,,,,,,,KDFW 171615Z AUTO 01009KT 10SM OVC009 M05/M07 A3009 RMK T10501070 MADISHF
DFW,2021-02-17 16:20,,,,10.00,10.00,,30.09,,10.00,,OVC,,,,900.00,,,,,,,,,,,,KDFW 171620Z AUTO 01010KT 10SM OVC009 M05/M07 A3009 RMK T10501070 MADISHF
DFW,2021-02-17 16:25,,,,10.00,9.00,,30.10,,10.00,,OVC,,,,900.00,,,,,,,,,,,,KDFW 171625Z AUTO 01009KT 10SM OVC009 M05/M07 A3010 RMK T10501070 MADISHF
DFW,2021-02-17 16:30,,,,360.00,8.00,,30.10,,10.00,,OVC,,,,900.00,,,,,,,,,,,,KDFW 171630Z AUTO 36008KT 10SM OVC009 M05/M07 A3010 RMK T10501070 MADISHF
DFW,2021-02-17 16:35,,,,360.00,9.00,,30.10,,10.00,,OVC,,,,900.00,,,,,,,,,,,,KDFW 171635Z AUTO 36009KT 10SM OVC009 M05/M07 A3010 RMK T10501070 MADISHF
DFW,2021-02-17 16:40,,,,10.00,10.00,,30.10,,10.00,,OVC,,,,900.00,,,,,,,,,,,,KDFW 171640Z AUTO 01010KT 10SM OVC009 M05/M07 A3010 RMK T10501070 MADISHF
DFW,2021-02-17 16:45,,,,10.00,11.00,,30.10,,10.00,,OVC,,,,900.00,,,,,,,,,,,,KDFW 171645Z AUTO 01011KT 10SM OVC009 M05/M07 A3010 RMK T10501070 MADISHF
DFW,2021-02-17 16:50,,,,360.00,11.00,,30.11,,10.00,,OVC,,,,900.00,,,,,,,,,,,,KDFW 171650Z AUTO 36011KT 10SM OVC009 M05/M07 A3011 RMK T10501070 MADISHF
DFW,2021-02-17 16:53,23.00,19.00,84.39,10.00,8.00,0.00,30.11,1020.30,8.00,,OVC,,,,900.00,,,,,,,,,,,13.03,KDFW 171653Z 01008KT 8SM OVC009 M05/M07 A3011 RMK AO2 SLP203 T10501072
DFW,2021-02-17 16:55,,,,10.00,8.00,,30.12,,10.00,,OVC,,,,999.00,,,,,,,,,,,,KDFW 171655Z AUTO 01008KT 10SM OVC009 M05/M07 A3012 RMK T10501070 MADISHF
DFW,2021-02-17 17:00,,,,360.00,7.00,,30.12,,8.00,,OVC,,,,999.00,,,,,,,,,,,,KDFW 171700Z AUTO 36007KT 8SM OVC009 M04/M07 A3012 RMK T10401070 MADISHF
DFW,2021-02-17 17:01,24.10,19.00,80.59,360.00,7.00,0.00,30.12,,8.00,,OVC,,,,1000.00,,,,,,,,,,,15.15,KDFW 171701Z 36007KT 8SM OVC010 M04/M07 A3012 RMK AO2 T10441072
DFW,2021-02-17 17:05,,,,20.00,8.00,,30.12,,8.00,,OVC,,,,999.00,,,,,,,,,,,,KDFW 171705Z AUTO 02008KT 8SM OVC009 M04/M07 A3012 RMK T10401070 MADISHF
DFW,2021-02-17 17:10,,,,10.00,9.00,,30.12,,8.00,,OVC,,,,999.00,,,,,,,,,,,,KDFW 171710Z AUTO 01009KT 8SM OVC009 M04/M07 A3012 RMK T10401070 MADISHF
DFW,2021-02-17 17:15,,,,20.00,9.00,,30.13,,8.00,,OVC,,,,999.00,,,,,,,,,,,,KDFW 171715Z AUTO 02009KT 8SM OVC009 M04/M07 A3012 RMK T10401070 MADISHF
DFW,2021-02-17 17:20,,,,10.00,9.00,,30.12,,8.00,,OVC,,,,1100.00,,,,,,,,,,,,KDFW 171720Z AUTO 01009KT 8SM OVC011 M04/M07 A3012 RMK T10401070 MADISHF
DFW,2021-02-17 17:25,,,,360.00,10.00,,30.13,,10.00,,OVC,,,,1100.00,,,,,,,,,,,,KDFW 171725Z AUTO 36010KT 10SM OVC011 M04/M07 A3012 RMK T10401070 MADISHF
DFW,2021-02-17 17:30,,,,360.00,10.00,,30.12,,10.00,,OVC,,,,1100.00,,,,,,,,,,,,KDFW 171730Z AUTO 36010KT 10SM OVC011 M04/M07 A3012 RMK T10401070 MADISHF
DFW,2021-02-17 17:35,,,,350.00,10.00,,30.12,,10.00,,OVC,,,,1100.00,,,,,,,,,,,,KDFW 171735Z AUTO 35010KT 10SM OVC011 M04/M07 A3012 RMK T10401070 MADISHF
DFW,2021-02-17 17:40,,,,360.00,11.00,,30.10,,10.00,,OVC,,,,1100.00,,,,,,,,,,,,KDFW 171740Z AUTO 36011KT 10SM OVC011 M04/M07 A3010 RMK T10401070 MADISHF
DFW,2021-02-17 17:45,,,,10.00,10.00,,30.09,,10.00,,OVC,,,,1100.00,,,,,,,,,,,,KDFW 171745Z AUTO 01010KT 10SM OVC011 M04/M07 A3009 RMK T10401070 MADISHF
DFW,2021-02-17 17:50,,,,10.00,10.00,,30.10,,10.00,,OVC,,,,999.00,,,,,,,,,,,,KDFW 171750Z AUTO 01010KT 10SM OVC009 M04/M07 A3010 RMK T10401070 MADISHF
DFW,2021-02-17 17:53,24.10,19.00,80.59,10.00,12.00,0.00,30.10,1019.80,10.00,,OVC,,,,1000.00,,,,,,,,,,,11.95,KDFW 171753Z 01012KT 10SM OVC010 M04/M07 A3010 RMK AO2 SLP198 4/004 60002 T10441072 11044 21067 50000
DFW,2021-02-17 17:55,,,,10.00,10.00,,30.10,,10.00,,OVC,,,,999.00,,,,,,,,,,,,KDFW 171755Z AUTO 01010KT 10SM OVC009 M04/M07 A3010 RMK T10401070 MADISHF
DFW,2021-02-17 18:00,,,,360.00,10.00,,30.10,,10.00,,OVC,,,,999.00,,,,,,,,,,,,KDFW 171800Z AUTO 36010KT 10SM OVC009 M04/M07 A3010 RMK T10401070 MADISHF
DFW,2021-02-17 18:05,,,,360.00,10.00,,30.10,,10.00,,OVC,,,,999.00,,,,,,,,,,,,KDFW 171805Z AUTO 36010KT 10SM OVC009 M04/M07 A3010 RMK T10401070 MADISHF
DFW,2021-02-17 18:10,,,,10.00,11.00,,30.09,,10.00,,OVC,,,,999.00,,,,,,,,,,,,KDFW 171810Z AUTO 01011KT 10SM OVC009 M04/M07 A3009 RMK T10401070 MADISHF
DFW,2021-02-17 18:15,,,,360.00,10.00,,30.10,,10.00,,OVC,,,,999.00,,,,,,,,,,,,KDFW 171815Z AUTO 36010KT 10SM OVC009 M04/M07 A3010 RMK T10401070 MADISHF
DFW,2021-02-17 18:20,,,,10.00,9.00,,30.09,,10.00,,OVC,,,,999.00,,,,,,,,,,,,KDFW 171820Z AUTO 01009KT 10SM OVC009 M04/M07 A3009 RMK T10401070 MADISHF
DFW,2021-02-17 18:25,,,,10.00,10.00,,30.10,,10.00,,OVC,,,,1100.00,,,,,,,,,,,,KDFW 171825Z AUTO 01010KT 10SM OVC011 M04/M07 A3010 RMK T10401070 MADISHF
DFW,2021-02-17 18:30,,,,360.00,8.00,,30.10,,10.00,,OVC,,,,1100.00,,,,,,,,,,,,KDFW 171830Z AUTO 36008KT 10SM OVC011 M04/M07 A3010 RMK T10401070 MADISHF
DFW,2021-02-17 18:35,,,,20.00,9.00,,30.09,,10.00,,OVC,,,,1100.00,,,,,,,,,,,,KDFW 171835Z AUTO 02009KT 10SM OVC011 M04/M07 A3009 RMK T10401070 MADISHF
DFW,2021-02-17 18:40,,,,20.00,8.00,,30.09,,10.00,,OVC,,,,1100.00,,,,,,,,,,,,KDFW 171840Z AUTO 02008KT 10SM OVC011 M04/M07 A3009 RMK T10401070 MADISHF
DFW,2021-02-17 18:45,,,,10.00,9.00,,30.08,,10.00,,OVC,,,,1100.00,,,,,,,,,,,,KDFW 171845Z AUTO 01009KT 10SM OVC011 M04/M07 A3007 RMK T10401070 MADISHF
DFW,2021-02-17 18:50,,,,360.00,8.00,,30.08,,10.00,,OVC,,,,1100.00,,,,,,,,,,,,KDFW 171850Z AUTO 36008KT 10SM OVC011 M04/M07 A3007 RMK T10401070 MADISHF
DFW,2021-02-17 18:53,25.00,19.90,80.66,10.00,8.00,0.00,30.08,1019.20,10.00,,OVC,,,,1100.00,,,,,,,,,,,15.49,KDFW 171853Z 01008KT 10SM OVC011 M04/M07 A3008 RMK AO2 SLP192 T10391067
DFW,2021-02-17 18:55,,,,20.00,8.00,,30.08,,10.00,,OVC,,,,1100.00,,,,,,,,,,,,KDFW 171855Z AUTO 02008KT 10SM OVC011 M04/M07 A3007 RMK T10401070 MADISHF
DFW,2021-02-17 19:00,,,,30.00,9.00,,30.08,,10.00,,OVC,,,,1100.00,,,,,,,,,,,,KDFW 171900Z AUTO 03009KT 10SM OVC011 M04/M07 A3007 RMK T10401070 MADISHF
DFW,2021-02-17 19:05,,,,30.00,8.00,,30.07,,10.00,,OVC,,,,1100.00,,,,,,,,,,,,KDFW 171905Z AUTO 03008KT 10SM OVC011 M04/M07 A3006 RMK T10401070 MADISHF
DFW,2021-02-17 19:10,,,,30.00,7.00,,30.08,,10.00,,OVC,,,,1100.00,,,,,,,,,,,,KDFW 171910Z AUTO 03007KT 10SM OVC011 M04/M07 A3007 RMK T10401070 MADISHF
DFW,2021-02-17 19:15,,,,30.00,9.00,,30.08,,10.00,,OVC,,,,1200.00,,,,,,,,,,,,KDFW 171915Z AUTO 03009KT 10SM OVC012 M03/M07 A3007 RMK T10301070 MADISHF
DFW,2021-02-17 19:20,,,,30.00,8.00,,30.08,,10.00,,OVC,,,,1200.00,,,,,,,,,,,,KDFW 171920Z AUTO 03008KT 10SM OVC012 M04/M07 A3007 RMK T10401070 MADISHF
DFW,2021-02-17 19:25,,,,40.00,9.00,,30.08,,10.00,,OVC,,,,1200.00,,,,,,,,,,,,KDFW 171925Z AUTO 04009KT 10SM OVC012 M04/M07 A3007 RMK T10401070 MADISHF
DFW,2021-02-17 19:30,,,,30.00,7.00,,30.08,,10.00,,OVC,,,,1200.00,,,,,,,,,,,,KDFW 171930Z AUTO 03007KT 10SM OVC012 M04/M07 A3007 RMK T10401070 MADISHF
DFW,2021-02-17 19:35,,,,10.00,9.00,,30.07,,10.00,,OVC,,,,1200.00,,,,,,,,,,,,KDFW 171935Z AUTO 01009KT 10SM OVC012 M04/M07 A3006 RMK T10401070 MADISHF
DFW,2021-02-17 19:40,,,,10.00,8.00,,30.07,,10.00,,OVC,,,,1200.00,,,,,,,,,,,,KDFW 171940Z AUTO 01008KT 10SM OVC012 M04/M07 A3006 RMK T10401070 MADISHF
DFW,2021-02-17 19:45,,,,360.00,9.00,,30.07,,10.00,,OVC,,,,1300.00,,,,,,,,,,,,KDFW 171945Z AUTO 36009KT 10SM OVC013 M03/M07 A3006 RMK T10301070 MADISHF
DFW,2021-02-17 19:50,,,,360.00,9.00,,30.06,,10.00,,OVC,,,,1300.00,,,,,,,,,,,,KDFW 171950Z AUTO 36009KT 10SM OVC013 M03/M07 A3005 RMK T10301070 MADISHF
DFW,2021-02-17 19:53,26.10,19.90,77.06,360.00,10.00,0.00,30.06,1018.60,10.00,,OVC,,,,1300.00,,,,,,,,,,,15.57,KDFW 171953Z 36010KT 10SM OVC013 M03/M07 A3006 RMK AO2 SLP186 T10331067
DFW,2021-02-17 19:55,,,,360.00,9.00,,30.06,,10.00,,OVC,,,,1300.00,,,,,,,,,,,,KDFW 171955Z AUTO 36009KT 10SM OVC013 M03/M07 A3005 RMK T10301070 MADISHF
DFW,2021-02-17 20:00,,,,10.00,11.00,,30.06,,10.00,,OVC,,,,1300.00,,,,,,,,,,,,KDFW 172000Z AUTO 01011KT 10SM OVC013 M03/M07 A3005 RMK T10301070 MADISHF
DFW,2021-02-17 20:05,,,,360.00,11.00,,30.06,,10.00,,OVC,,,,1300.00,,,,,,,,,,,,KDFW 172005Z AUTO 36011KT 10SM OVC013 M03/M06 A3005 RMK T10301060 MADISHF
DFW,2021-02-17 20:10,,,,20.00,11.00,,30.05,,10.00,,OVC,,,,1300.00,,,,,,,,,,,,KDFW 172010Z AUTO 02011KT 10SM OVC013 M03/M06 A3004 RMK T10301060 MADISHF
DFW,2021-02-17 20:15,,,,10.00,10.00,,30.06,,10.00,,OVC,,,,1300.00,,,,,,,,,,,,KDFW 172015Z AUTO 01010KT 10SM OVC013 M03/M06 A3005 RMK T10301060 MADISHF
DFW,2021-02-17 20:20,,,,360.00,10.00,,30.06,,10.00,,OVC,,,,1300.00,,,,,,,,,,,,KDFW 172020Z AUTO 36010KT 10SM OVC013 M03/M06 A3005 RMK T10301060 MADISHF
DFW,2021-02-17 20:25,,,,30.00,10.00,,30.06,,10.00,,OVC,,,,1200.00,,,,,,,,,,,,KDFW 172025Z AUTO 03010KT 10SM OVC012 M03/M06 A3005 RMK T10301060 MADISHF
DFW,2021-02-17 20:30,,,,20.00,9.00,,30.06,,10.00,,OVC,,,,1200.00,,,,,,,,,,,,KDFW 172030Z AUTO 02009KT 10SM OVC012 M03/M06 A3005 RMK T10301060 MADISHF
DFW,2021-02-17 20:35,,,,10.00,9.00,,30.06,,10.00,,OVC,,,,1200.00,,,,,,,,,,,,KDFW 172035Z AUTO 01009KT 10SM OVC012 M03/M06 A3005 RMK T10301060 MADISHF
DFW,2021-02-17 20:40,,,,360.00,7.00,,30.06,,10.00,,OVC,,,,1200.00,,,,,,,,,,,,KDFW 172040Z AUTO 36007KT 10SM OVC012 M03/M06 A3005 RMK T10301060 MADISHF
DFW,2021-02-17 20:45,,,,30.00,9.00,,30.05,,10.00,,OVC,,,,1300.00,,,,,,,,,,,,KDFW 172045Z AUTO 03009KT 10SM OVC013 M03/M06 A3004 RMK T10301060 MADISHF
DFW,2021-02-17 20:50,,,,30.00,9.00,,30.05,,10.00,,OVC,,,,1300.00,,,,,,,,,,,,KDFW 172050Z AUTO 03009KT 10SM OVC013 M03/M06 A3004 RMK T10301060 MADISHF
DFW,2021-02-17 20:53,27.00,21.00,77.80,10.00,9.00,0.00,30.05,1018.10,10.00,,OVC,,,,1300.00,,,,,,,,,,,17.30,KDFW 172053Z 01009KT 10SM OVC013 M03/M06 A3005 RMK AO2 SLP181 T10281061 56017
DFW,2021-02-17 20:55,,,,20.00,10.00,,30.05,,10.00,,OVC,,,,1300.00,,,,,,,,,,,,KDFW 172055Z AUTO 02010KT 10SM OVC013 M03/M06 A3004 RMK T10301060 MADISHF
DFW,2021-02-17 21:00,,,,360.00,10.00,,30.05,,10.00,,OVC,,,,1400.00,,,,,,,,,,,,KDFW 172100Z AUTO 36010KT 10SM OVC014 M03/M06 A3004 RMK T10301060 MADISHF
DFW,2021-02-17 21:05,,,,350.00,11.00,,30.05,,10.00,,OVC,,,,1400.00,,,,,,,,,,,,KDFW 172105Z AUTO 35011KT 10SM OVC014 M03/M06 A3004 RMK T10301060 MADISHF
DFW,2021-02-17 21:10,,,,10.00,10.00,,30.05,,10.00,,OVC,,,,1400.00,,,,,,,,,,,,KDFW 172110Z AUTO 01010KT 10SM OVC014 M03/M06 A3004 RMK T10301060 MADISHF
DFW,2021-02-17 21:15,,,,10.00,8.00,,30.06,,10.00,,OVC,,,,1400.00,,,,,,,,,,,,KDFW 172115Z AUTO 01008KT 10SM OVC014 M03/M06 A3005 RMK T10301060 MADISHF
DFW,2021-02-17 21:20,,,,360.00,8.00,,30.06,,10.00,,OVC,,,,1400.00,,,,,,,,,,,,KDFW 172120Z AUTO 36008KT 10SM OVC014 M03/M06 A3005 RMK T10301060 MADISHF
DFW,2021-02-17 21:25,,,,360.00,7.00,,30.07,,10.00,,OVC,,,,1400.00,,,,,,,,,,,,KDFW 172125Z AUTO 36007KT 10SM OVC014 M03/M06 A3006 RMK T10301060 MADISHF
DFW,2021-02-17 21:30,,,,360.00,8.00,,30.08,,10.00,,OVC,,,,1400.00,,,,,,,,,,,,KDFW 172130Z AUTO 36008KT 10SM OVC014 M03/M06 A3007 RMK T10301060 MADISHF
DFW,2021-02-17 21:35,,,,360.00,8.00,,30.08,,10.00,,OVC,,,,1400.00,,,,,,,,,,,,KDFW 172135Z AUTO 36008KT 10SM OVC014 M03/M06 A3007 RMK T10301060 MADISHF
DFW,2021-02-17 21:40,,,,10.00,8.00,,30.08,,10.00,,OVC,,,,1400.00,,,,,,,,,,,,KDFW 172140Z AUTO 01008KT 10SM OVC014 M03/M06 A3007 RMK T10301060 MADISHF
DFW,2021-02-17 21:45,,,,20.00,5.00,,30.08,,10.00,,OVC,,,,1400.00,,,,,,,,,,,,KDFW 172145Z AUTO 02005KT 10SM OVC014 M03/M06 A3007 RMK T10301060 MADISHF
DFW,2021-02-17 21:50,,,,20.00,7.00,,30.08,,10.00,,BKN,OVC,,,1400.00,1999.00,,,,,,,,,,,KDFW 172150Z AUTO 02007KT 10SM BKN014 OVC019 M03/M06 A3007 RMK T10301060 MADISHF
DFW,2021-02-17 21:53,27.00,21.00,77.80,20.00,7.00,0.00,30.08,1019.10,10.00,,BKN,OVC,,,1400.00,2200.00,,,,,,,,,,18.68,KDFW 172153Z 02007KT 10SM BKN014 OVC022 M03/M06 A3008 RMK AO2 SLP191 T10281061
DFW,2021-02-17 21:55,,,,10.00,7.00,,30.08,,10.00,,BKN,OVC,,,1400.00,2200.00,,,,,,,,,,,KDFW 172155Z AUTO 01007KT 10SM BKN014 OVC022 M03/M06 A3007 RMK T10301060 MADISHF
DFW,2021-02-17 22:00,,,,10.00,8.00,,30.08,,10.00,,BKN,OVC,,,1400.00,1999.00,,,,,,,,,,,KDFW 172200Z AUTO 01008KT 10SM BKN014 OVC019 M03/M06 A3007 RMK T10301060 MADISHF
DFW,2021-02-17 22:05,,,,10.00,8.00,,30.08,,10.00,,OVC,,,,1699.00,,,,,,,,,,,,KDFW 172205Z AUTO 01008KT 10SM OVC016 M03/M06 A3007 RMK T10301060 MADISHF
DFW,2021-02-17 22:09,27.00,21.00,77.80,10.00,9.00,0.00,30.09,,10.00,,OVC,,,,1700.00,,,,,,,,,,,17.30,KDFW 172209Z 01009KT 10SM OVC017 M03/M06 A3009 RMK AO2 T10281061
DFW,2021-02-17 22:10,,,,360.00,9.00,,30.09,,10.00,,OVC,,,,1699.00,,,,,,,,,,,,KDFW 172210Z AUTO 36009KT 10SM OVC016 M03/M06 A3009 RMK T10301060 MADISHF
DFW,2021-02-17 22:15,,,,360.00,11.00,,30.09,,10.00,,OVC,,,,1699.00,,,,,,,,,,,,KDFW 172215Z AUTO 36011KT 10SM OVC016 M03/M06 A3009 RMK T10301060 MADISHF
DFW,2021-02-17 22:20,,,,10.00,10.00,,30.09,,10.00,,OVC,,,,1699.00,,,,,,,,,,,,KDFW 172220Z AUTO 01010KT 10SM OVC016 M03/M06 A3009 RMK T10301060 MADISHF
DFW,2021-02-17 22:25,,,,360.00,10.00,,30.10,,10.00,,BKN,OVC,,,1699.00,2400.00,,,,,,,,,,,KDFW 172225Z AUTO 36010KT 10SM BKN016 OVC024 M03/M06 A3010 RMK T10301060 MADISHF
DFW,2021-02-17 22:30,,,,360.00,8.00,,30.10,,10.00,,OVC,,,,1699.00,,,,,,,,,,,,KDFW 172230Z AUTO 36008KT 10SM OVC016 M03/M06 A3010 RMK T10301060 MADISHF
DFW,2021-02-17 22:35,,,,360.00,9.00,,30.10,,10.00,,OVC,,,,1800.00,,,,,,,,,,,,KDFW 172235Z AUTO 36009KT 10SM OVC018 M03/M06 A3010 RMK T10301060 MADISHF
DFW,2021-02-17 22:40,,,,360.00,11.00,,30.09,,4.00,,OVC,,,,1800.00,,,,HZ,,,,,,,,KDFW 172240Z AUTO 36011KT 4SM HZ OVC018 M03/M06 A3009 RMK T10301060 MADISHF
DFW,2021-02-17 22:45,,,,360.00,11.00,,30.09,,4.00,,OVC,,,,1800.00,,,,HZ,,,,,,,,KDFW 172245Z AUTO 36011KT 4SM HZ OVC018 M03/M06 A3009 RMK T10301060 MADISHF
DFW,2021-02-17 22:50,,,,360.00,9.00,,30.09,,8.00,,OVC,,,,1800.00,,,,,,,,,,,,KDFW 172250Z AUTO 36009KT 8SM OVC018 M03/M06 A3009 RMK T10301060 MADISHF
DFW,2021-02-17 22:53,27.00,21.00,77.80,360.00,11.00,0.00,30.10,1019.70,10.00,,OVC,,,,1600.00,,,,,,,,,,,16.15,KDFW 172253Z 36011KT 10SM OVC016 M03/M06 A3010 RMK AO2 SLP197 T10281061
DFW,2021-02-17 22:55,,,,360.00,10.00,,30.10,,10.00,,OVC,,,,1600.00,,,,,,,,,,,,KDFW 172255Z AUTO 36010KT 10SM OVC016 M03/M06 A3010 RMK T10301060 MADISHF
DFW,2021-02-17 23:00,,,,350.00,10.00,,30.10,,10.00,,OVC,,,,1600.00,,,,,,,,,,,,KDFW 172300Z AUTO 35010KT 10SM OVC016 M03/M06 A3010 RMK T10301060 MADISHF
DFW,2021-02-17 23:05,,,,,11.00,,30.10,,10.00,,OVC,,,,1600.00,,,,,,,,,,,,KDFW 172305Z AUTO ///11KT 10SM OVC016 M03/M06 A3010 RMK T10301060 MADISHF
DFW,2021-02-17 23:10,,,,350.00,11.00,,30.11,,10.00,,OVC,,,,1600.00,,,,,,,,,,,,KDFW 172310Z AUTO 35011KT 10SM OVC016 M03/M06 A3011 RMK T10301060 MADISHF
DFW,2021-02-17 23:15,,,,,11.00,,30.11,,10.00,,OVC,,,,1600.00,,,,,,,,,,,,KDFW 172315Z AUTO ///11KT 10SM OVC016 M03/M07 A3011 RMK T10301070 MADISHF
DFW,2021-02-17 23:20,,,,350.00,11.00,,30.11,,10.00,,OVC,,,,1600.00,,,,,,,,,,,,KDFW 172320Z AUTO 35011KT 10SM OVC016 M03/M07 A3011 RMK T10301070 MADISHF
DFW,2021-02-17 23:25,,,,,11.00,,30.11,,10.00,,OVC,,,,1600.00,,,,,,,,,,,,KDFW 172325Z AUTO ///11KT 10SM OVC016 M03/M07 A3011 RMK T10301070 MADISHF
DFW,2021-02-17 23:30,,,,,11.00,,30.11,,10.00,,OVC,,,,1600.00,,,,,,,,,,,,KDFW 172330Z AUTO ///11KT 10SM OVC016 M03/M06 A3011 RMK T10301060 MADISHF
DFW,2021-02-17 23:35,,,,,11.00,,30.11,,10.00,,OVC,,,,1600.00,,,,,,,,,,,,KDFW 172335Z AUTO ///11KT 10SM OVC016 M03/M06 A3011 RMK T10301060 MADISHF
DFW,2021-02-17 23:40,,,,360.00,10.00,,30.11,,10.00,,OVC,,,,1600.00,,,,,,,,,,,,KDFW 172340Z AUTO 36010KT 10SM OVC016 M03/M07 A3011 RMK T10301070  4/003 MADISHF
DFW,2021-02-17 23:45,,,,10.00,11.00,,30.11,,10.00,,OVC,,,,1600.00,,,,,,,,,,,,KDFW 172345Z AUTO 01011KT 10SM OVC016 M03/M06 A3011 RMK T10301060  4/003 MADISHF
DFW,2021-02-17 23:50,,,,360.00,11.00,,30.12,,10.00,,BKN,OVC,,,1600.00,2600.00,,,,,,,,,,,KDFW 172350Z AUTO 36011KT 10SM BKN016 OVC026 M03/M07 A3012 RMK T10301070  4/003 MADISHF
DFW,2021-02-17 23:53,26.10,21.00,80.75,360.00,11.00,0.00,30.12,1020.60,10.00,,BKN,OVC,,,1600.00,2600.00,,,,,,,,,,15.01,KDFW 172353Z 36011KT 10SM BKN016 OVC026 M03/M06 A3012 RMK AO2 SLP206 4/003 T10331061 11028 21044 51024
DFW,2021-02-17 23:55,,,,,10.00,,30.12,,10.00,,BKN,OVC,,,1600.00,2600.00,,,,,,,,,,,KDFW 172355Z AUTO ///10KT 10SM BKN016 OVC026 M03/M06 A3012 RMK T10301060 MADISHF
DFW,2021-02-18 00:00,,,,,10.00,,30.13,,10.00,,BKN,OVC,,,1600.00,2600.00,,,,,,,,,,,KDFW 180000Z AUTO ///10KT 10SM BKN016 OVC026 M03/M06 A3012 RMK T10301060 MADISHF
DFW,2021-02-18 00:05,,,,,13.00,,30.13,,10.00,,BKN,OVC,,,1600.00,2800.00,,,,,,,,,,,KDFW 180005Z AUTO ///13KT 10SM BKN016 OVC028 M03/M06 A3012 RMK T10301060 MADISHF
DFW,2021-02-18 00:10,,,,360.00,11.00,,30.13,,10.00,,BKN,OVC,,,1600.00,2800.00,,,,,,,,,,,KDFW 180010Z AUTO 36011KT 10SM BKN016 OVC028 M03/M06 A3012 RMK T10301060 MADISHF
DFW,2021-02-18 00:15,,,,360.00,11.00,,30.13,,10.00,,BKN,OVC,,,1600.00,3000.00,,,,,,,,,,,KDFW 180015Z AUTO 36011KT 10SM BKN016 OVC030 M03/M07 A3012 RMK T10301070 MADISHF
DFW,2021-02-18 00:20,,,,360.00,11.00,,30.14,,10.00,,BKN,OVC,,,1600.00,3000.00,,,,,,,,,,,KDFW 180020Z AUTO 36011KT 10SM BKN016 OVC030 M03/M07 A3013 RMK T10301070 MADISHF
DFW,2021-02-18 00:25,,,,,13.00,,30.14,,10.00,,BKN,OVC,,,1600.00,3000.00,,,,,,,,,,,KDFW 180025Z AUTO ///13KT 10SM BKN016 OVC030 M03/M07 A3013 RMK T10301070 MADISHF
DFW,2021-02-18 00:30,,,,,11.00,,30.14,,10.00,,BKN,OVC,,,1600.00,2900.00,,,,,,,,,,,KDFW 180030Z AUTO ///11KT 10SM BKN016 OVC029 M03/M07 A3013 RMK T10301070 MADISHF
DFW,2021-02-18 00:35,,,,,11.00,,30.14,,10.00,,OVC,,,,1600.00,,,,,,,,,,,,KDFW 180035Z AUTO ///11KT 10SM OVC016 M03/M07 A3013 RMK T10301070 MADISHF
DFW,2021-02-18 00:40,,,,,11.00,,30.15,,10.00,,OVC,,,,1600.00,,,,,,,,,,,,KDFW 180040Z AUTO ///11KT 10SM OVC016 M03/M06 A3014 RMK T10301060 MADISHF
DFW,2021-02-18 00:45,,,,,11.00,,30.15,,10.00,,OVC,,,,1600.00,,,,,,,,,,,,KDFW 180045Z AUTO ///11KT 10SM OVC016 M03/M07 A3014 RMK T10301070 MADISHF
DFW,2021-02-18 00:50,,,,,11.00,,30.15,,10.00,,OVC,,,,1600.00,,,,,,,,,,,,KDFW 180050Z AUTO ///11KT 10SM OVC016 M03/M07 A3014 RMK T10301070 MADISHF
DFW,2021-02-18 00:53,26.10,19.90,77.06,350.00,11.00,0.00,30.15,1021.70,10.00,,OVC,,,,1600.00,,,,,,,,,,,15.01,KDFW 180053Z 35011KT 10SM OVC016 M03/M07 A3015 RMK AO2 SLP217 T10331067
DFW,2021-02-18 00:55,,,,,11.00,,30.16,,10.00,,OVC,,,,1600.00,,,,,,,,,,,,KDFW 180055Z AUTO ///11KT 10SM OVC016 M03/M07 A3015 RMK T10301070 MADISHF
DFW,2021-02-18 01:00,,,,,11.00,,30.16,,10.00,,OVC,,,,1600.00,,,,,,,,,,,,KDFW 180100Z AUTO ///11KT 10SM OVC016 M03/M07 A3015 RMK T10301070 MADISHF
DFW,2021-02-18 01:05,,,,,13.00,,30.16,,10.00,,OVC,,,,1600.00,,,,,,,,,,,,KDFW 180105Z AUTO ///13KT 10SM OVC016 M03/M07 A3015 RMK T10301070 MADISHF
DFW,2021-02-18 01:10,,,,,13.00,,30.16,,10.00,,OVC,,,,1600.00,,,,,,,,,,,,KDFW 180110Z AUTO ///13KT 10SM OVC016 M03/M07 A3015 RMK T10301070 MADISHF
DFW,2021-02-18 01:15,,,,,11.00,,30.17,,10.00,,OVC,,,,1600.00,,,,,,,,,,,,KDFW 180115Z AUTO ///11KT 10SM OVC016 M03/M07 A3017 RMK T10301070 MADISHF
DFW,2021-02-18 01:20,,,,350.00,9.00,,30.17,,10.00,,OVC,,,,1600.00,,,,,,,,,,,,KDFW 180120Z AUTO 35009KT 10SM OVC016 M03/M07 A3017 RMK T10301070 MADISHF
DFW,2021-02-18 01:25,,,,360.00,11.00,,30.17,,10.00,,OVC,,,,1600.00,,,,,,,,,,,,KDFW 180125Z AUTO 36011KT 10SM OVC016 M03/M06 A3017 RMK T10301060 MADISHF
DFW,2021-02-18 01:30,,,,350.00,9.00,,30.17,,10.00,,OVC,,,,1600.00,,,,,,,,,,,,KDFW 180130Z AUTO 35009KT 10SM OVC016 M03/M06 A3017 RMK T10301060 MADISHF
DFW,2021-02-18 01:35,,,,360.00,10.00,,30.17,,10.00,,OVC,,,,1600.00,,,,,,,,,,,,KDFW 180135Z AUTO 36010KT 10SM OVC016 M03/M06 A3017 RMK T10301060 MADISHF
DFW,2021-02-18 01:40,,,,350.00,10.00,,30.17,,10.00,,OVC,,,,1600.00,,,,,,,,,,,,KDFW 180140Z AUTO 35010KT 10SM OVC016 M03/M06 A3017 RMK T10301060 MADISHF
DFW,2021-02-18 01:45,,,,,11.00,,30.17,,10.00,,OVC,,,,1600.00,,,,,,,,,,,,KDFW 180145Z AUTO ///11KT 10SM OVC016 M03/M06 A3017 RMK T10301060 MADISHF
DFW,2021-02-18 01:50,,,,,11.00,,30.18,,10.00,,OVC,,,,1600.00,,,,,,,,,,,,KDFW 180150Z AUTO ///11KT 10SM OVC016 M03/M06 A3018 RMK T10301060 MADISHF
DFW,2021-02-18 01:53,26.10,21.00,80.75,360.00,9.00,0.00,30.18,1022.40,10.00,,OVC,,,,1600.00,,,,,,,,,,,16.18,KDFW 180153Z 36009KT 10SM OVC016 M03/M06 A3018 RMK AO2 SLP224 T10331061
DFW,2021-02-18 01:55,,,,360.00,11.00,,30.18,,10.00,,OVC,,,,1600.00,,,,,,,,,,,,KDFW 180155Z AUTO 36011KT 10SM OVC016 M03/M06 A3018 RMK T10301060 MADISHF
DFW,2021-02-18 02:00,,,,360.00,11.00,,30.18,,10.00,,OVC,,,,1600.00,,,,,,,,,,,,KDFW 180200Z AUTO 36011KT 10SM OVC016 M03/M07 A3018 RMK T10301070 MADISHF
DFW,2021-02-18 02:05,,,,360.00,11.00,,30.18,,10.00,,OVC,,,,1600.00,,,,,,,,,,,,KDFW 180205Z AUTO 36011KT 10SM OVC016 M03/M07 A3018 RMK T10301070 MADISHF
DFW,2021-02-18 02:10,,,,360.00,11.00,,30.18,,10.00,,OVC,,,,1600.00,,,,,,,,,,,,KDFW 180210Z AUTO 36011KT 10SM OVC016 M03/M07 A3018 RMK T10301070 MADISHF
DFW,2021-02-18 02:15,,,,360.00,10.00,,30.19,,10.00,,OVC,,,,1699.00,,,,,,,,,,,,KDFW 180215Z AUTO 36010KT 10SM OVC016 M03/M07 A3019 RMK T10301070 MADISHF
DFW,2021-02-18 02:20,,,,360.00,11.00,,30.19,,10.00,,OVC,,,,1699.00,,,,,,,,,,,,KDFW 180220Z AUTO 36011KT 10SM OVC016 M03/M07 A3019 RMK T10301070 MADISHF
DFW,2021-02-18 02:25,,,,360.00,11.00,,30.19,,10.00,,OVC,,,,1699.00,,,,,,,,,,,,KDFW 180225Z AUTO 36011KT 10SM OVC016 M03/M07 A3019 RMK T10301070 MADISHF
DFW,2021-02-18 02:30,,,,360.00,11.00,,30.19,,10.00,,OVC,,,,1699.00,,,,,,,,,,,,KDFW 180230Z AUTO 36011KT 10SM OVC016 M03/M07 A3019 RMK T10301070 MADISHF
DFW,2021-02-18 02:35,,,,360.00,9.00,,30.19,,10.00,,OVC,,,,1699.00,,,,,,,,,,,,KDFW 180235Z AUTO 36009KT 10SM OVC016 M03/M07 A3019 RMK T10301070 MADISHF
DFW,2021-02-18 02:40,,,,10.00,8.00,,30.19,,10.00,,BKN,OVC,,,1699.00,3200.00,,,,,,,,,,,KDFW 180240Z AUTO 01008KT 10SM BKN016 OVC032 M03/M07 A3019 RMK T10301070 MADISHF
DFW,2021-02-18 02:45,,,,360.00,8.00,,30.20,,10.00,,BKN,OVC,,,1800.00,3200.00,,,,,,,,,,,KDFW 180245Z AUTO 36008KT 10SM BKN018 OVC032 M03/M06 A3020 RMK T10301060 MADISHF
DFW,2021-02-18 02:50,,,,10.00,7.00,,30.20,,10.00,,BKN,OVC,,,1800.00,3200.00,,,,,,,,,,,KDFW 180250Z AUTO 01007KT 10SM BKN018 OVC032 M03/M06 A3020 RMK T10301060 MADISHF
DFW,2021-02-18 02:53,26.10,21.00,80.75,10.00,7.00,0.00,30.20,1023.30,10.00,,SCT,BKN,OVC,,1800.00,3300.00,4400.00,,,,,,,,,17.59,KDFW 180253Z 01007KT 10SM SCT018 BKN033 OVC044 M03/M06 A3020 RMK AO2 SLP233 T10331061 51026
DFW,2021-02-18 02:55,,,,10.00,8.00,,30.20,,10.00,,SCT,BKN,OVC,,1800.00,3300.00,4400.00,,,,,,,,,,KDFW 180255Z AUTO 01008KT 10SM SCT018 BKN033 OVC044 M03/M06 A3020 RMK T10301060 MADISHF
DFW,2021-02-18 03:00,,,,10.00,8.00,,30.20,,10.00,,FEW,BKN,OVC,,1800.00,3300.00,4400.00,,,,,,,,,,KDFW 180300Z AUTO 01008KT 10SM FEW018 BKN033 OVC044 M03/M07 A3020 RMK T10301070 MADISHF
DFW,2021-02-18 03:05,,,,10.00,7.00,,30.21,,10.00,,FEW,SCT,OVC,,1800.00,3300.00,4400.00,,,,,,,,,,KDFW 180305Z AUTO 01007KT 10SM FEW018 SCT033 OVC044 M03/M07 A3020 RMK T10301070 MADISHF
DFW,2021-02-18 03:10,,,,360.00,9.00,,30.21,,10.00,,FEW,OVC,,,3300.00,4400.00,,,,,,,,,,,KDFW 180310Z AUTO 36009KT 10SM FEW033 OVC044 M03/M07 A3020 RMK T10301070 MADISHF
DFW,2021-02-18 03:15,,,,10.00,9.00,,30.21,,10.00,,FEW,OVC,,,3300.00,4400.00,,,,,,,,,,,KDFW 180315Z AUTO 01009KT 10SM FEW033 OVC044 M03/M07 A3020 RMK T10301070 MADISHF
DFW,2021-02-18 03:20,,,,10.00,9.00,,30.21,,10.00,,FEW,OVC,,,1800.00,4400.00,,,,,,,,,,,KDFW 180320Z AUTO 01009KT 10SM FEW018 OVC044 M03/M07 A3020 RMK T10301070 MADISHF
DFW,2021-02-18 03:25,,,,360.00,9.00,,30.21,,10.00,,FEW,OVC,,,1800.00,4300.00,,,,,,,,,,,KDFW 180325Z AUTO 36009KT 10SM FEW018 OVC043 M03/M07 A3020 RMK T10301070 MADISHF
DFW,2021-02-18 03:30,,,,350.00,9.00,,30.21,,10.00,,OVC,,,,4300.00,,,,,,,,,,,,KDFW 180330Z AUTO 35009KT 10SM OVC043 M03/M07 A3020 RMK T10301070 MADISHF
DFW,2021-02-18 03:35,,,,350.00,9.00,,30.21,,10.00,,OVC,,,,4300.00,,,,,,,,,,,,KDFW 180335Z AUTO 35009KT 10SM OVC043 M03/M06 A3020 RMK T10301060 MADISHF
DFW,2021-02-18 03:40,,,,350.00,9.00,,30.21,,9.00,,OVC,,,,4300.00,,,,,,,,,,,,KDFW 180340Z AUTO 35009KT 9SM OVC043 M03/M06 A3020 RMK T10301060 MADISHF
DFW,2021-02-18 03:45,,,,,10.00,,30.21,,9.00,,OVC,,,,4300.00,,,,,,,,,,,,KDFW 180345Z AUTO ///10KT 9SM OVC043 M03/M07 A3020 RMK T10301070 MADISHF
DFW,2021-02-18 03:50,,,,350.00,9.00,,30.22,,10.00,,OVC,,,,4300.00,,,,,,,,,,,,KDFW 180350Z AUTO 35009KT 10SM OVC043 M03/M07 A3021 RMK T10301070 MADISHF
DFW,2021-02-18 03:53,26.10,19.90,77.06,350.00,9.00,0.00,30.21,1023.70,10.00,,FEW,OVC,,,1800.00,4300.00,,,,,,,,,,16.18,KDFW 180353Z 35009KT 10SM FEW018 OVC043 M03/M07 A3021 RMK AO2 SLP237 T10331067
DFW,2021-02-18 03:55,,,,350.00,9.00,,30.21,,10.00,,OVC,,,,4300.00,,,,,,,,,,,,KDFW 180355Z AUTO 35009KT 10SM OVC043 M03/M07 A3020 RMK T10301070 MADISHF
DFW,2021-02-18 04:00,,,,350.00,10.00,,30.21,,10.00,,OVC,,,,4300.00,,,,,,,,,,,,KDFW 180400Z AUTO 35010KT 10SM OVC043 M03/M07 A3020 RMK T10301070 MADISHF
DFW,2021-02-18 04:05,,,,350.00,8.00,,30.22,,10.00,,FEW,OVC,,,1800.00,4300.00,,,,,,,,,,,KDFW 180405Z AUTO 35008KT 10SM FEW018 OVC043 M03/M07 A3021 RMK T10301070 MADISHF
DFW,2021-02-18 04:10,,,,350.00,9.00,,30.22,,10.00,,FEW,OVC,,,1800.00,4300.00,,,,,,,,,,,KDFW 180410Z AUTO 35009KT 10SM FEW018 OVC043 M03/M07 A3021 RMK T10301070 MADISHF
DFW,2021-02-18 04:15,,,,360.00,9.00,,30.22,,10.00,,FEW,OVC,,,1800.00,4300.00,,,,,,,,,,,KDFW 180415Z AUTO 36009KT 10SM FEW018 OVC043 M03/M07 A3021 RMK T10301070 MADISHF
DFW,2021-02-18 04:20,,,,350.00,9.00,,30.22,,10.00,,FEW,OVC,,,1800.00,4100.00,,,,,,,,,,,KDFW 180420Z AUTO 35009KT 10SM FEW018 OVC041 M03/M07 A3021 RMK T10301070 MADISHF
DFW,2021-02-18 04:25,,,,340.00,9.00,,30.22,,10.00,,SCT,OVC,,,1800.00,4100.00,,,,,,,,,,,KDFW 180425Z AUTO 34009KT 10SM SCT018 OVC041 M03/M07 A3021 RMK T10301070 MADISHF
DFW,2021-02-18 04:30,,,,350.00,9.00,,30.21,,10.00,,BKN,OVC,,,1800.00,4100.00,,,,,,,,,,,KDFW 180430Z AUTO 35009KT 10SM BKN018 OVC041 M03/M07 A3020 RMK T10301070 MADISHF
DFW,2021-02-18 04:35,,,,350.00,9.00,,30.21,,10.00,,BKN,OVC,,,1800.00,4100.00,,,,,,,,,,,KDFW 180435Z AUTO 35009KT 10SM BKN018 OVC041 M03/M07 A3020 RMK T10301070 MADISHF
DFW,2021-02-18 04:40,,,,350.00,10.00,,30.21,,10.00,,BKN,OVC,,,1800.00,4100.00,,,,,,,,,,,KDFW 180440Z AUTO 35010KT 10SM BKN018 OVC041 M03/M07 A3020 RMK T10301070 MADISHF
DFW,2021-02-18 04:45,,,,350.00,11.00,,30.20,,10.00,,BKN,OVC,,,1800.00,4100.00,,,,,,,,,,,KDFW 180445Z AUTO 35011KT 10SM BKN018 OVC041 M03/M07 A3020 RMK T10301070 MADISHF
DFW,2021-02-18 04:50,,,,360.00,10.00,,30.20,,10.00,,BKN,OVC,,,1800.00,4100.00,,,,,,,,,,,KDFW 180450Z AUTO 36010KT 10SM BKN018 OVC041 M03/M07 A3020 RMK T10301070 MADISHF
DFW,2021-02-18 04:53,26.10,19.90,77.06,360.00,11.00,0.00,30.19,1022.80,10.00,,BKN,OVC,,,1800.00,4100.00,,,,,,,,,,15.01,KDFW 180453Z 36011KT 10SM BKN018 OVC041 M03/M07 A3019 RMK AO2 PRESFR SLP228 T10331067
DFW,2021-02-18 04:55,,,,360.00,11.00,,30.18,,10.00,,BKN,OVC,,,1800.00,4100.00,,,,,,,,,,,KDFW 180455Z AUTO 36011KT 10SM BKN018 OVC041 M03/M07 A3018 RMK T10301070 MADISHF
DFW,2021-02-18 05:00,,,,360.00,10.00,,30.19,,10.00,,BKN,OVC,,,1800.00,4100.00,,,,,,,,,,,KDFW 180500Z AUTO 36010KT 10SM BKN018 OVC041 M03/M07 A3019 RMK T10301070 MADISHF
DFW,2021-02-18 05:05,,,,360.00,10.00,,30.20,,10.00,,BKN,OVC,,,1800.00,4100.00,,,,,,,,,,,KDFW 180505Z AUTO 36010KT 10SM BKN018 OVC041 M03/M07 A3020 RMK T10301070 MADISHF
DFW,2021-02-18 05:10,,,,360.00,8.00,,30.21,,10.00,,SCT,OVC,,,1800.00,4100.00,,,,,,,,,,,KDFW 180510Z AUTO 36008KT 10SM SCT018 OVC041 M03/M07 A3020 RMK T10301070 MADISHF
DFW,2021-02-18 05:14,26.10,19.90,77.06,360.00,8.00,0.00,30.22,,10.00,,SCT,OVC,,,1800.00,4100.00,,,,,,,,,,16.85,KDFW 180514Z 36008KT 10SM SCT018 OVC041 M03/M07 A3022 RMK AO2 PRESRR T10331067
DFW,2021-02-18 05:15,,,,360.00,7.00,,30.22,,10.00,,SCT,OVC,,,1800.00,4100.00,,,,,,,,,,,KDFW 180515Z AUTO 36007KT 10SM SCT018 OVC041 M03/M07 A3021 RMK T10301070 MADISHF
DFW,2021-02-18 05:20,,,,360.00,7.00,,30.22,,10.00,,SCT,OVC,,,1800.00,4100.00,,,,,,,,,,,KDFW 180520Z AUTO 36007KT 10SM SCT018 OVC041 M03/M07 A3021 RMK T10301070 MADISHF
DFW,2021-02-18 05:25,,,,360.00,11.00,,30.21,,10.00,,BKN,OVC,,,1800.00,4100.00,,,,,,,,,,,KDFW 180525Z AUTO 36011KT 10SM BKN018 OVC041 M03/M07 A3020 RMK T10301070 MADISHF
DFW,2021-02-18 05:28,26.10,19.90,77.06,360.00,10.00,0.00,30.21,,10.00,,BKN,OVC,,,1800.00,4100.00,,,,,,,,,,15.57,KDFW 180528Z 36010KT 10SM BKN018 OVC041 M03/M07 A3021 RMK AO2 T10331067
DFW,2021-02-18 05:30,,,,360.00,10.00,,30.21,,10.00,,BKN,OVC,,,1800.00,4100.00,,,,,,,,,,,KDFW 180530Z AUTO 36010KT 10SM BKN018 OVC041 M03/M07 A3020 RMK T10301070 MADISHF
DFW,2021-02-18 05:35,,,,10.00,10.00,,30.20,,10.00,,BKN,OVC,,,1800.00,4100.00,,,,,,,,,,,KDFW 180535Z AUTO 01010KT 10SM BKN018 OVC041 M03/M07 A3020 RMK T10301070 MADISHF
DFW,2021-02-18 05:40,,,,360.00,9.00,,30.22,,10.00,,OVC,,,,1800.00,,,,,,,,,,,,KDFW 180540Z AUTO 36009KT 10SM OVC018 M03/M07 A3021 RMK T10301070 MADISHF
DFW,2021-02-18 05:45,,,,360.00,10.00,,30.22,,10.00,,OVC,,,,1800.00,,,,,,,,,,,,KDFW 180545Z AUTO 36010KT 10SM OVC018 M03/M07 A3021 RMK T10301070 MADISHF
DFW,2021-02-18 05:50,,,,360.00,10.00,,30.22,,10.00,,OVC,,,,1699.00,,,,,,,,,,,,KDFW 180550Z AUTO 36010KT 10SM OVC016 M03/M07 A3021 RMK T10301070 MADISHF
DFW,2021-02-18 05:53,26.10,19.90,77.06,10.00,12.00,0.00,30.22,1023.70,10.00,,OVC,,,,1700.00,,,,,,,,,,,14.49,KDFW 180553Z 01012KT 10SM OVC017 M03/M07 A3022 RMK AO2 SLP237 T10331067 11033 21033 410281078 53005
DFW,2021-02-18 05:55,,,,,10.00,,30.21,,10.00,,OVC,,,,1699.00,,,,,,,,,,,,KDFW 180555Z AUTO ///10KT 10SM OVC016 M03/M07 A3020 RMK T10301070 MADISHF
DFW,2021-02-18 06:00,,,,360.00,9.00,,30.21,,10.00,,OVC,,,,1699.00,,,,,,,,,,,,KDFW 180600Z AUTO 36009KT 10SM OVC016 M03/M07 A3020 RMK T10301070 MADISHF
DFW,2021-02-18 06:05,,,,,11.00,,30.21,,10.00,,OVC,,,,1699.00,,,,,,,,,,,,KDFW 180605Z AUTO ///11KT 10SM OVC016 M03/M07 A3020 RMK T10301070 MADISHF
DFW,2021-02-18 06:10,,,,,13.00,,30.20,,10.00,,OVC,,,,1699.00,,,,,,,,,,,,KDFW 180610Z AUTO ///13KT 10SM OVC016 M03/M07 A3020 RMK T10301070 MADISHF
DFW,2021-02-18 06:15,,,,360.00,10.00,,30.20,,10.00,,OVC,,,,1699.00,,,,,,,,,,,,KDFW 180615Z AUTO 36010KT 10SM OVC016 M03/M07 A3020 RMK T10301070 MADISHF
DFW,2021-02-18 06:20,,,,,15.00,,30.19,,10.00,,OVC,,,,1699.00,,,,,,,,,,,,KDFW 180620Z AUTO ///15KT 10SM OVC016 M03/M07 A3019 RMK T10301070 MADISHF
DFW,2021-02-18 06:25,,,,,11.00,,30.19,,10.00,,OVC,,,,1699.00,,,,,,,,,,,,KDFW 180625Z AUTO ///11KT 10SM OVC016 M04/M07 A3019 RMK T10401070 MADISHF
DFW,2021-02-18 06:30,,,,,13.00,,30.19,,10.00,,OVC,,,,1699.00,,,,,,,,,,,,KDFW 180630Z AUTO ///13KT 10SM OVC016 M04/M07 A3019 RMK T10401070 MADISHF
DFW,2021-02-18 06:35,,,,,13.00,,30.19,,10.00,,OVC,,,,1600.00,,,,,,,,,,,,KDFW 180635Z AUTO ///13KT 10SM OVC016 M04/M07 A3019 RMK T10401070 MADISHF
DFW,2021-02-18 06:40,,,,,13.00,,30.19,,10.00,,OVC,,,,1600.00,,,,,,,,,,,,KDFW 180640Z AUTO ///13KT 10SM OVC016 M04/M07 A3019 RMK T10401070 MADISHF
DFW,2021-02-18 06:45,,,,,14.00,,30.19,,10.00,,OVC,,,,1600.00,,,,,,,,,,,,KDFW 180645Z AUTO ///14KT 10SM OVC016 M04/M07 A3019 RMK T10401070 MADISHF
DFW,2021-02-18 06:50,,,,,11.00,,30.20,,10.00,17.00,OVC,,,,1600.00,,,,,,,,,,,,KDFW 180650Z AUTO ///11G17KT 10SM OVC016 M04/M07 A3020 RMK T10401070 MADISHF
DFW,2021-02-18 06:53,25.00,19.00,77.62,360.00,12.00,0.00,30.20,1023.30,10.00,,OVC,,,,1700.00,,,,,,,,,,,13.09,KDFW 180653Z 36012KT 10SM OVC017 M04/M07 A3020 RMK AO2 SLP233 T10391072
DFW,2021-02-18 06:55,,,,350.00,13.00,,30.20,,10.00,,OVC,,,,1699.00,,,,,,,,,,,,KDFW 180655Z AUTO 35013KT 10SM OVC016 M04/M07 A3020 RMK T10401070 MADISHF
DFW,2021-02-18 07:00,,,,,13.00,,30.21,,10.00,,OVC,,,,1699.00,,,,,,,,,,,,KDFW 180700Z AUTO ///13KT 10SM OVC016 M04/M07 A3020 RMK T10401070 MADISHF
DFW,2021-02-18 07:05,,,,,13.00,,30.19,,10.00,,OVC,,,,1699.00,,,,,,,,,,,,KDFW 180705Z AUTO ///13KT 10SM OVC016 M04/M07 A3019 RMK T10401070 MADISHF
DFW,2021-02-18 07:10,,,,,16.00,,30.18,,10.00,,OVC,,,,1699.00,,,,,,,,,,,,KDFW 180710Z AUTO ///16KT 10SM OVC016 M04/M07 A3018 RMK T10401070 MADISHF
DFW,2021-02-18 07:15,,,,,16.00,,30.17,,10.00,,OVC,,,,1699.00,,,,,,,,,,,,KDFW 180715Z AUTO ///16KT 10SM OVC016 M04/M07 A3017 RMK T10401070 MADISHF
DFW,2021-02-18 07:20,,,,,16.00,,30.18,,10.00,,OVC,,,,1699.00,,,,,,,,,,,,KDFW 180720Z AUTO ///16KT 10SM OVC016 M04/M07 A3018 RMK T10401070 MADISHF
DFW,2021-02-18 07:25,,,,360.00,15.00,,30.18,,10.00,,OVC,,,,1699.00,,,,,,,,,,,,KDFW 180725Z AUTO 36015KT 10SM OVC016 M04/M07 A3018 RMK T10401070 MADISHF
DFW,2021-02-18 07:30,,,,360.00,14.00,,30.18,,10.00,,OVC,,,,1699.00,,,,,,,,,,,,KDFW 180730Z AUTO 36014KT 10SM OVC016 M04/M07 A3018 RMK T10401070 MADISHF
DFW,2021-02-18 07:35,,,,360.00,11.00,,30.20,,10.00,,OVC,,,,1699.00,,,,,,,,,,,,KDFW 180735Z AUTO 36011KT 10SM OVC016 M04/M07 A3020 RMK T10401070 MADISHF
DFW,2021-02-18 07:40,,,,350.00,14.00,,30.20,,10.00,,OVC,,,,1800.00,,,,,,,,,,,,KDFW 180740Z AUTO 35014KT 10SM OVC018 M04/M07 A3020 RMK T10401070 MADISHF
DFW,2021-02-18 07:45,,,,360.00,13.00,,30.20,,10.00,,OVC,,,,1800.00,,,,,,,,,,,,KDFW 180745Z AUTO 36013KT 10SM OVC018 M04/M07 A3020 RMK T10401070 MADISHF
DFW,2021-02-18 07:50,,,,10.00,13.00,,30.19,,10.00,,BKN,OVC,,,1800.00,3600.00,,,,,,,,,,,KDFW 180750Z AUTO 01013KT 10SM BKN018 OVC036 M04/M07 A3019 RMK T10401070 MADISHF
DFW,2021-02-18 07:53,25.00,19.00,77.62,360.00,12.00,0.00,30.20,1023.20,10.00,,BKN,OVC,,,1800.00,3600.00,,,,,,,,,,13.09,KDFW 180753Z 36012KT 10SM BKN018 OVC036 M04/M07 A3020 RMK AO2 SLP232 T10391072
DFW,2021-02-18 07:55,,,,,13.00,,30.21,,10.00,18.00,BKN,OVC,,,1800.00,3600.00,,,,,,,,,,,KDFW 180755Z AUTO ///13G18KT 10SM BKN018 OVC036 M04/M07 A3020 RMK T10401070 MADISHF
DFW,2021-02-18 08:00,,,,360.00,10.00,,30.22,,10.00,,BKN,OVC,,,1800.00,3600.00,,,,,,,,,,,KDFW 180800Z AUTO 36010KT 10SM BKN018 OVC036 M04/M07 A3021 RMK T10401070 MADISHF
DFW,2021-02-18 08:05,,,,360.00,11.00,,30.23,,10.00,,BKN,OVC,,,1800.00,3600.00,,,,,,,,,,,KDFW 180805Z AUTO 36011KT 10SM BKN018 OVC036 M04/M07 A3022 RMK T10401070 MADISHF
DFW,2021-02-18 08:10,,,,360.00,11.00,,30.23,,10.00,,BKN,OVC,,,1800.00,3600.00,,,,,,,,,,,KDFW 180810Z AUTO 36011KT 10SM BKN018 OVC036 M04/M07 A3022 RMK T10401070 MADISHF
DFW,2021-02-18 08:15,,,,360.00,13.00,,30.22,,10.00,,BKN,OVC,,,1800.00,3600.00,,,,,,,,,,,KDFW 180815Z AUTO 36013KT 10SM BKN018 OVC036 M04/M07 A3021 RMK T10401070 MADISHF
DFW,2021-02-18 08:20,,,,,14.00,,30.22,,10.00,,BKN,OVC,,,1800.00,3600.00,,,,,,,,,,,KDFW 180820Z AUTO ///14KT 10SM BKN018 OVC036 M04/M07 A3021 RMK T10401070 MADISHF
DFW,2021-02-18 08:25,,,,360.00,13.00,,30.22,,10.00,,BKN,OVC,,,1800.00,3600.00,,,,,,,,,,,KDFW 180825Z AUTO 36013KT 10SM BKN018 OVC036 M04/M07 A3021 RMK T10401070 MADISHF
DFW,2021-02-18 08:30,,,,10.00,11.00,,30.22,,10.00,,OVC,,,,1800.00,,,,,,,,,,,,KDFW 180830Z AUTO 01011KT 10SM OVC018 M04/M07 A3021 RMK T10401070 MADISHF
DFW,2021-02-18 08:35,,,,10.00,9.00,,30.22,,10.00,,OVC,,,,1800.00,,,,,,,,,,,,KDFW 180835Z AUTO 01009KT 10SM OVC018 M04/M07 A3021 RMK T10401070 MADISHF
DFW,2021-02-18 08:40,,,,10.00,10.00,,30.23,,10.00,,OVC,,,,1800.00,,,,,,,,,,,,KDFW 180840Z AUTO 01010KT 10SM OVC018 M04/M07 A3022 RMK T10401070 MADISHF
DFW,2021-02-18 08:45,,,,10.00,9.00,,30.23,,10.00,,BKN,OVC,,,1800.00,3500.00,,,,,,,,,,,KDFW 180845Z AUTO 01009KT 10SM BKN018 OVC035 M04/M07 A3022 RMK T10401070 MADISHF
DFW,2021-02-18 08:50,,,,10.00,8.00,,30.23,,10.00,,BKN,OVC,,,1800.00,3500.00,,,,,,,,,,,KDFW 180850Z AUTO 01008KT 10SM BKN018 OVC035 M04/M07 A3022 RMK T10401070 MADISHF
DFW,2021-02-18 08:53,25.00,19.00,77.62,10.00,7.00,0.00,30.23,1024.20,10.00,,BKN,OVC,,,1800.00,3500.00,,,,,,,,,,16.25,KDFW 180853Z 01007KT 10SM BKN018 OVC035 M04/M07 A3023 RMK AO2 SLP242 T10391072 53005
DFW,2021-02-18 08:55,,,,10.00,9.00,,30.23,,10.00,,BKN,OVC,,,1800.00,3500.00,,,,,,,,,,,KDFW 180855Z AUTO 01009KT 10SM BKN018 OVC035 M04/M07 A3022 RMK T10401070 MADISHF
DFW,2021-02-18 09:00,,,,10.00,10.00,,30.23,,10.00,,BKN,OVC,,,1800.00,3500.00,,,,,,,,,,,KDFW 180900Z AUTO 01010KT 10SM BKN018 OVC035 M04/M07 A3022 RMK T10401070 MADISHF
DFW,2021-02-18 09:05,,,,20.00,11.00,,30.24,,10.00,,BKN,OVC,,,1900.00,3500.00,,,,,,,,,,,KDFW 180905Z AUTO 02011KT 10SM BKN019 OVC035 M04/M07 A3023 RMK T10401070 MADISHF
DFW,2021-02-18 09:10,,,,20.00,9.00,,30.24,,10.00,,SCT,OVC,,,1900.00,3500.00,,,,,,,,,,,KDFW 180910Z AUTO 02009KT 10SM SCT019 OVC035 M04/M07 A3023 RMK T10401070 MADISHF
DFW,2021-02-18 09:15,,,,20.00,8.00,,30.24,,10.00,,SCT,OVC,,,1900.00,3500.00,,,,,,,,,,,KDFW 180915Z AUTO 02008KT 10SM SCT019 OVC035 M04/M07 A3023 RMK T10401070 MADISHF
DFW,2021-02-18 09:16,25.00,19.00,77.62,20.00,7.00,0.00,30.24,,10.00,,SCT,OVC,,,1900.00,3500.00,,,,,,,,,,16.25,KDFW 180916Z 02007KT 10SM SCT019 OVC035 M04/M07 A3024 RMK AO2 T10391072
DFW,2021-02-18 09:20,,,,30.00,9.00,,30.24,,10.00,,SCT,OVC,,,1900.00,3500.00,,,,,,,,,,,KDFW 180920Z AUTO 03009KT 10SM SCT019 OVC035 M04/M07 A3023 RMK T10401070 MADISHF
DFW,2021-02-18 09:25,,,,20.00,11.00,,30.23,,10.00,,FEW,OVC,,,1900.00,3500.00,,,,,,,,,,,KDFW 180925Z AUTO 02011KT 10SM FEW019 OVC035 M04/M07 A3022 RMK T10401070 MADISHF
DFW,2021-02-18 09:30,,,,10.00,11.00,,30.22,,10.00,,FEW,OVC,,,1900.00,3500.00,,,,,,,,,,,KDFW 180930Z AUTO 01011KT 10SM FEW019 OVC035 M04/M07 A3021 RMK T10401070 MADISHF
DFW,2021-02-18 09:35,,,,20.00,11.00,,30.23,,10.00,,FEW,OVC,,,1900.00,3500.00,,,,,,,,,,,KDFW 180935Z AUTO 02011KT 10SM FEW019 OVC035 M04/M07 A3022 RMK T10401070 MADISHF
DFW,2021-02-18 09:40,,,,30.00,11.00,,30.23,,10.00,,FEW,OVC,,,1900.00,3500.00,,,,,,,,,,,KDFW 180940Z AUTO 03011KT 10SM FEW019 OVC035 M04/M07 A3022 RMK T10401070 MADISHF
DFW,2021-02-18 09:45,,,,10.00,10.00,,30.23,,10.00,15.00,OVC,,,,3500.00,,,,,,,,,,,,KDFW 180945Z AUTO 01010G15KT 10SM OVC035 M04/M08 A3022 RMK T10401080 MADISHF
DFW,2021-02-18 09:50,,,,20.00,11.00,,30.24,,10.00,,FEW,OVC,,,1800.00,3500.00,,,,,,,,,,,KDFW 180950Z AUTO 02011KT 10SM FEW018 OVC035 M04/M08 A3023 RMK T10401080 MADISHF
DFW,2021-02-18 09:53,25.00,18.00,74.36,20.00,11.00,0.00,30.25,1024.70,10.00,,FEW,OVC,,,1800.00,3500.00,,,,,,,,,,13.62,KDFW 180953Z 02011KT 10SM FEW018 OVC035 M04/M08 A3025 RMK AO2 PRESRR SLP247 T10391078
DFW,2021-02-18 09:55,,,,20.00,11.00,,30.25,,10.00,,OVC,,,,3500.00,,,,,,,,,,,,KDFW 180955Z AUTO 02011KT 10SM OVC035 M04/M08 A3025 RMK T10401080 MADISHF
DFW,2021-02-18 10:00,,,,20.00,9.00,,30.26,,10.00,,OVC,,,,3500.00,,,,,,,,,,,,KDFW 181000Z AUTO 02009KT 10SM OVC035 M04/M08 A3026 RMK T10401080 MADISHF
DFW,2021-02-18 10:05,,,,10.00,11.00,,30.27,,10.00,,OVC,,,,3500.00,,,,,,,,,,,,KDFW 181005Z AUTO 01011KT 10SM OVC035 M04/M08 A3027 RMK T10401080 MADISHF
DFW,2021-02-18 10:10,,,,10.00,11.00,,30.28,,10.00,,OVC,,,,3500.00,,,,,,,,,,,,KDFW 181010Z AUTO 01011KT 10SM OVC035 M04/M08 A3028 RMK T10401080 MADISHF
DFW,2021-02-18 10:15,,,,10.00,11.00,,30.27,,10.00,,OVC,,,,3500.00,,,,,,,,,,,,KDFW 181015Z AUTO 01011KT 10SM OVC035 M04/M08 A3027 RMK T10401080 MADISHF
DFW,2021-02-18 10:20,,,,20.00,10.00,,30.27,,10.00,,OVC,,,,3500.00,,,,,,,,,,,,KDFW 181020Z AUTO 02010KT 10SM OVC035 M04/M08 A3027 RMK T10401080 MADISHF
DFW,2021-02-18 10:25,,,,20.00,7.00,,30.28,,10.00,,FEW,OVC,,,2800.00,3500.00,,,,,,,,,,,KDFW 181025Z AUTO 02007KT 10SM FEW028 OVC035 M04/M08 A3028 RMK T10401080 MADISHF
DFW,2021-02-18 10:30,,,,20.00,8.00,,30.29,,10.00,,SCT,OVC,,,2800.00,3500.00,,,,,,,,,,,KDFW 181030Z AUTO 02008KT 10SM SCT028 OVC035 M04/M08 A3029 RMK T10401080 MADISHF
DFW,2021-02-18 10:35,,,,10.00,7.00,,30.29,,10.00,,SCT,OVC,,,2800.00,3500.00,,,,,,,,,,,KDFW 181035Z AUTO 01007KT 10SM SCT028 OVC035 M04/M08 A3029 RMK T10401080 MADISHF
DFW,2021-02-18 10:40,,,,20.00,5.00,,30.29,,10.00,,BKN,OVC,,,2800.00,3500.00,,,,,,,,,,,KDFW 181040Z AUTO 02005KT 10SM BKN028 OVC035 M04/M08 A3029 RMK T10401080 MADISHF
DFW,2021-02-18 10:44,25.00,18.00,74.36,30.00,7.00,0.00,30.28,,10.00,,BKN,OVC,,,2800.00,3500.00,,,,,,,,,,16.25,KDFW 181044Z 03007KT 10SM BKN028 OVC035 M04/M08 A3028 RMK AO2 T10391078
DFW,2021-02-18 10:45,,,,30.00,5.00,,30.28,,10.00,,BKN,OVC,,,2800.00,3500.00,,,,,,,,,,,KDFW 181045Z AUTO 03005KT 10SM BKN028 OVC035 M04/M08 A3028 RMK T10401080 MADISHF
DFW,2021-02-18 10:50,,,,20.00,7.00,,30.29,,10.00,,BKN,OVC,,,2800.00,3500.00,,,,,,,,,,,KDFW 181050Z AUTO 02007KT 10SM BKN028 OVC035 M04/M08 A3029 RMK T10401080 MADISHF
DFW,2021-02-18 10:53,25.00,18.00,74.36,30.00,7.00,0.00,30.29,1026.10,10.00,,BKN,OVC,,,2800.00,3500.00,,,,,,,,,,16.25,KDFW 181053Z 03007KT 10SM BKN028 OVC035 M04/M08 A3029 RMK AO2 SLP261 T10391078
DFW,2021-02-18 10:55,,,,20.00,7.00,,30.29,,10.00,,BKN,OVC,,,2800.00,3500.00,,,,,,,,,,,KDFW 181055Z AUTO 02007KT 10SM BKN028 OVC035 M04/M08 A3029 RMK T10401080 MADISHF
DFW,2021-02-18 11:00,,,,30.00,8.00,,30.27,,10.00,,BKN,OVC,,,2800.00,3500.00,,,,,,,,,,,KDFW 181100Z AUTO 03008KT 10SM BKN028 OVC035 M04/M08 A3027 RMK T10401080 MADISHF
DFW,2021-02-18 11:05,,,,20.00,5.00,,30.27,,10.00,,BKN,OVC,,,2900.00,3500.00,,,,,,,,,,,KDFW 181105Z AUTO 02005KT 10SM BKN029 OVC035 M04/M08 A3027 RMK T10401080 MADISHF
DFW,2021-02-18 11:10,,,,20.00,5.00,,30.27,,10.00,,BKN,OVC,,,2900.00,3500.00,,,,,,,,,,,KDFW 181110Z AUTO 02005KT 10SM BKN029 OVC035 M04/M08 A3027 RMK T10401080 MADISHF
DFW,2021-02-18 11:15,,,,10.00,5.00,,30.27,,10.00,,BKN,OVC,,,2900.00,3500.00,,,,,,,,,,,KDFW 181115Z AUTO 01005KT 10SM BKN029 OVC035 M04/M08 A3027 RMK T10401080 MADISHF
DFW,2021-02-18 11:20,,,,10.00,8.00,,30.27,,10.00,,BKN,OVC,,,2900.00,3500.00,,,,,,,,,,,KDFW 181120Z AUTO 01008KT 10SM BKN029 OVC035 M04/M08 A3027 RMK T10401080 MADISHF
DFW,2021-02-18 11:25,,,,10.00,9.00,,30.28,,10.00,,BKN,OVC,,,2900.00,3500.00,,,,,,,,,,,KDFW 181125Z AUTO 01009KT 10SM BKN029 OVC035 M04/M08 A3028 RMK T10401080 MADISHF
DFW,2021-02-18 11:30,,,,350.00,10.00,,30.29,,10.00,,BKN,OVC,,,2900.00,3500.00,,,,,,,,,,,KDFW 181130Z AUTO 35010KT 10SM BKN029 OVC035 M04/M08 A3029 RMK T10401080 MADISHF
DFW,2021-02-18 11:35,,,,350.00,11.00,,30.29,,10.00,,BKN,OVC,,,2900.00,3500.00,,,,,,,,,,,KDFW 181135Z AUTO 35011KT 10SM BKN029 OVC035 M04/M08 A3029 RMK T10401080 MADISHF
DFW,2021-02-18 11:40,,,,360.00,11.00,,30.29,,10.00,,BKN,OVC,,,2900.00,3500.00,,,,,,,,,,,KDFW 181140Z AUTO 36011KT 10SM BKN029 OVC035 M04/M08 A3029 RMK T10401080 MADISHF
DFW,2021-02-18 11:45,,,,,11.00,,30.28,,10.00,,BKN,OVC,,,2900.00,3500.00,,,,,,,,,,,KDFW 181145Z AUTO ///11KT 10SM BKN029 OVC035 M04/M08 A3028 RMK T10401080 MADISHF
DFW,2021-02-18 11:50,,,,360.00,11.00,,30.28,,10.00,,SCT,OVC,,,2900.00,3500.00,,,,,,,,,,,KDFW 181150Z AUTO 36011KT 10SM SCT029 OVC035 M04/M08 A3028 RMK T10401080 MADISHF
DFW,2021-02-18 11:53,25.00,18.00,74.36,360.00,12.00,0.00,30.29,1026.30,10.00,,SCT,OVC,,,2900.00,3500.00,,,,,,,,,,13.09,KDFW 181153Z 36012KT 10SM SCT029 OVC035 M04/M08 A3029 RMK AO2 SLP263 70002 T10391078 11033 21039 51020
DFW,2021-02-18 11:55,,,,360.00,10.00,,30.29,,10.00,,OVC,,,,3100.00,,,,,,,,,,,,KDFW 181155Z AUTO 36010KT 10SM OVC031 M04/M08 A3029 RMK T10401080 MADISHF
DFW,2021-02-18 12:00,,,,350.00,11.00,,30.28,,10.00,,OVC,,,,3100.00,,,,,,,,,,,,KDFW 181200Z AUTO 35011KT 10SM OVC031 M04/M08 A3028 RMK T10401080 MADISHF
DFW,2021-02-18 12:05,,,,360.00,11.00,,30.28,,10.00,,OVC,,,,3100.00,,,,,,,,,,,,KDFW 181205Z AUTO 36011KT 10SM OVC031 M04/M08 A3028 RMK T10401080 MADISHF
DFW,2021-02-18 12:10,,,,,14.00,,30.28,,10.00,,OVC,,,,3100.00,,,,,,,,,,,,KDFW 181210Z AUTO ///14KT 10SM OVC031 M04/M08 A3028 RMK T10401080 MADISHF
DFW,2021-02-18 12:15,,,,350.00,11.00,,30.28,,10.00,,OVC,,,,3300.00,,,,,,,,,,,,KDFW 181215Z AUTO 35011KT 10SM OVC033 M04/M08 A3028 RMK T10401080 MADISHF
DFW,2021-02-18 12:20,,,,350.00,11.00,,30.29,,10.00,,SCT,OVC,,,3000.00,3600.00,,,,,,,,,,,KDFW 181220Z AUTO 35011KT 10SM SCT030 OVC036 M04/M08 A3029 RMK T10401080 MADISHF
DFW,2021-02-18 12:25,,,,,10.00,,30.29,,10.00,16.00,OVC,,,,3500.00,,,,,,,,,,,,KDFW 181225Z AUTO ///10G16KT 10SM OVC035 M04/M08 A3029 RMK T10401080 MADISHF
DFW,2021-02-18 12:30,,,,,11.00,,30.30,,10.00,,OVC,,,,3500.00,,,,,,,,,,,,KDFW 181230Z AUTO ///11KT 10SM OVC035 M04/M08 A3029 RMK T10401080 MADISHF
DFW,2021-02-18 12:35,,,,,13.00,,30.30,,10.00,,OVC,,,,3500.00,,,,,,,,,,,,KDFW 181235Z AUTO ///13KT 10SM OVC035 M04/M08 A3029 RMK T10401080 MADISHF
DFW,2021-02-18 12:40,,,,350.00,14.00,,30.31,,10.00,,OVC,,,,3500.00,,,,,,,,,,,,KDFW 181240Z AUTO 35014KT 10SM OVC035 M04/M08 A3030 RMK T10401080 MADISHF
DFW,2021-02-18 12:45,,,,350.00,11.00,,30.30,,10.00,,OVC,,,,3600.00,,,,,,,,,,,,KDFW 181245Z AUTO 35011KT 10SM OVC036 M04/M08 A3029 RMK T10401080 MADISHF
DFW,2021-02-18 12:50,,,,350.00,11.00,,30.30,,10.00,,OVC,,,,3600.00,,,,,,,,,,,,KDFW 181250Z AUTO 35011KT 10SM OVC036 M04/M08 A3029 RMK T10401080 MADISHF
DFW,2021-02-18 12:53,24.10,17.10,74.27,350.00,11.00,0.00,30.31,1026.70,10.00,,OVC,,,,3600.00,,,,,,,,,,,12.48,KDFW 181253Z 35011KT 10SM OVC036 M04/M08 A3031 RMK AO2 SLP267 T10441083
DFW,2021-02-18 12:55,,,,,11.00,,30.31,,10.00,,OVC,,,,3600.00,,,,,,,,,,,,KDFW 181255Z AUTO ///11KT 10SM OVC036 M04/M08 A3030 RMK T10401080 MADISHF
DFW,2021-02-18 13:00,,,,,13.00,,30.31,,10.00,,OVC,,,,3600.00,,,,,,,,,,,,KDFW 181300Z AUTO ///13KT 10SM OVC036 M04/M08 A3030 RMK T10401080 MADISHF
DFW,2021-02-18 13:05,,,,,11.00,,30.30,,10.00,,OVC,,,,3600.00,,,,,,,,,,,,KDFW 181305Z AUTO ///11KT 10SM OVC036 M04/M08 A3029 RMK T10401080 MADISHF
DFW,2021-02-18 13:10,,,,350.00,11.00,,30.30,,10.00,,OVC,,,,3600.00,,,,,,,,,,,,KDFW 181310Z AUTO 35011KT 10SM OVC036 M04/M08 A3029 RMK T10401080 MADISHF
DFW,2021-02-18 13:15,,,,350.00,11.00,,30.30,,10.00,,FEW,OVC,,,2100.00,3600.00,,,,,,,,,,,KDFW 181315Z AUTO 35011KT 10SM FEW021 OVC036 M04/M08 A3029 RMK T10401080 MADISHF
DFW,2021-02-18 13:20,,,,350.00,13.00,,30.29,,10.00,,FEW,OVC,,,2100.00,3600.00,,,,,,,,,,,KDFW 181320Z AUTO 35013KT 10SM FEW021 OVC036 M04/M08 A3029 RMK T10401080 MADISHF
DFW,2021-02-18 13:25,,,,,13.00,,30.29,,10.00,,OVC,,,,3500.00,,,,,,,,,,,,KDFW 181325Z AUTO ///13KT 10SM OVC035 M04/M08 A3029 RMK T10401080 MADISHF
DFW,2021-02-18 13:30,,,,,14.00,,30.29,,10.00,,OVC,,,,3500.00,,,,,,,,,,,,KDFW 181330Z AUTO ///14KT 10SM OVC035 M04/M08 A3029 RMK T10401080 MADISHF
DFW,2021-02-18 13:35,,,,,11.00,,30.30,,10.00,,OVC,,,,3500.00,,,,,,,,,,,,KDFW 181335Z AUTO ///11KT 10SM OVC035 M04/M08 A3029 RMK T10401080 MADISHF
DFW,2021-02-18 13:40,,,,,11.00,,30.30,,10.00,,OVC,,,,3500.00,,,,,,,,,,,,KDFW 181340Z AUTO ///11KT 10SM OVC035 M04/M08 A3029 RMK T10401080 MADISHF
DFW,2021-02-18 13:45,,,,,13.00,,30.31,,10.00,,OVC,,,,3500.00,,,,,,,,,,,,KDFW 181345Z AUTO ///13KT 10SM OVC035 M04/M08 A3030 RMK T10401080 MADISHF
DFW,2021-02-18 13:50,,,,,13.00,,30.32,,10.00,,OVC,,,,3500.00,,,,,,,,,,,,KDFW 181350Z AUTO ///13KT 10SM OVC035 M04/M08 A3031 RMK T10401080 MADISHF
DFW,2021-02-18 13:53,24.10,17.10,74.27,350.00,13.00,0.00,30.33,1027.50,10.00,,OVC,,,,3500.00,,,,,,,,,,,11.45,KDFW 181353Z 35013KT 10SM OVC035 M04/M08 A3033 RMK AO2 PRESRR SLP275 T10441083
DFW,2021-02-18 13:55,,,,350.00,11.00,,30.33,,10.00,,OVC,,,,3500.00,,,,,,,,,,,,KDFW 181355Z AUTO 35011KT 10SM OVC035 M04/M08 A3032 RMK T10401080 MADISHF
DFW,2021-02-18 14:00,,,,350.00,11.00,,30.34,,10.00,,OVC,,,,3500.00,,,,,,,,,,,,KDFW 181400Z AUTO 35011KT 10SM OVC035 M04/M08 A3034 RMK T10401080 MADISHF
DFW,2021-02-18 14:05,,,,340.00,11.00,,30.34,,10.00,,OVC,,,,3500.00,,,,,,,,,,,,KDFW 181405Z AUTO 34011KT 10SM OVC035 M04/M08 A3034 RMK T10401080 MADISHF
DFW,2021-02-18 14:10,,,,,14.00,,30.34,,10.00,,OVC,,,,3500.00,,,,,,,,,,,,KDFW 181410Z AUTO ///14KT 10SM OVC035 M04/M08 A3034 RMK T10401080 MADISHF
DFW,2021-02-18 14:15,,,,,13.00,,30.34,,10.00,19.00,OVC,,,,3500.00,,,,,,,,,,,,KDFW 181415Z AUTO ///13G19KT 10SM OVC035 M04/M09 A3034 RMK T10401090 MADISHF
DFW,2021-02-18 14:20,,,,,14.00,,30.35,,10.00,,OVC,,,,3500.00,,,,,,,,,,,,KDFW 181420Z AUTO ///14KT 10SM OVC035 M04/M09 A3035 RMK T10401090 MADISHF
DFW,2021-02-18 14:25,,,,350.00,11.00,,30.35,,10.00,,OVC,,,,3500.00,,,,,,,,,,,,KDFW 181425Z AUTO 35011KT 10SM OVC035 M04/M09 A3035 RMK T10401090 MADISHF
DFW,2021-02-18 14:30,,,,,11.00,,30.36,,10.00,,OVC,,,,3500.00,,,,,,,,,,,,KDFW 181430Z AUTO ///11KT 10SM OVC035 M04/M09 A3036 RMK T10401090 MADISHF
DFW,2021-02-18 14:35,,,,350.00,11.00,,30.36,,10.00,,OVC,,,,3500.00,,,,,,,,,,,,KDFW 181435Z AUTO 35011KT 10SM OVC035 M04/M09 A3036 RMK T10401090 MADISHF
DFW,2021-02-18 14:40,,,,,16.00,,30.36,,10.00,,OVC,,,,3500.00,,,,,,,,,,,,KDFW 181440Z AUTO ///16KT 10SM OVC035 M04/M09 A3036 RMK T10401090 MADISHF
DFW,2021-02-18 14:45,,,,,15.00,,30.36,,10.00,,OVC,,,,3500.00,,,,,,,,,,,,KDFW 181445Z AUTO ///15KT 10SM OVC035 M04/M09 A3036 RMK T10401090 MADISHF
DFW,2021-02-18 14:50,,,,,16.00,,30.37,,10.00,21.00,OVC,,,,3500.00,,,,,,,,,,,,KDFW 181450Z AUTO ///16G21KT 10SM OVC035 M04/M09 A3037 RMK T10401090 MADISHF
DFW,2021-02-18 14:53,24.10,16.00,70.81,350.00,17.00,0.00,30.36,1028.70,10.00,,OVC,,,,3500.00,,,,,,,,,,,9.73,KDFW 181453Z 35017KT 10SM OVC035 M04/M09 A3036 RMK AO2 SLP287 T10441089 53023
DFW,2021-02-18 14:55,,,,350.00,17.00,,30.37,,10.00,,OVC,,,,3500.00,,,,,,,,,,,,KDFW 181455Z AUTO 35017KT 10SM OVC035 M04/M09 A3037 RMK T10401090 MADISHF
DFW,2021-02-18 15:00,,,,,16.00,,30.37,,10.00,,OVC,,,,3500.00,,,,,,,,,,,,KDFW 181500Z AUTO ///16KT 10SM OVC035 M04/M09 A3037 RMK T10401090 MADISHF
DFW,2021-02-18 15:05,,,,,15.00,,30.36,,10.00,,OVC,,,,3500.00,,,,,,,,,,,,KDFW 181505Z AUTO ///15KT 10SM OVC035 M04/M09 A3036 RMK T10401090 MADISHF
DFW,2021-02-18 15:10,,,,,17.00,,30.36,,10.00,22.00,OVC,,,,3500.00,,,,,,,,,,,,KDFW 181510Z AUTO ///17G22KT 10SM OVC035 M04/M09 A3036 RMK T10401090 MADISHF
DFW,2021-02-18 15:15,,,,,15.00,,30.36,,10.00,,OVC,,,,3500.00,,,,,,,,,,,,KDFW 181515Z AUTO ///15KT 10SM OVC035 M04/M09 A3036 RMK T10401090 MADISHF
DFW,2021-02-18 15:20,,,,,16.00,,30.36,,10.00,,OVC,,,,3500.00,,,,,,,,,,,,KDFW 181520Z AUTO ///16KT 10SM OVC035 M04/M09 A3036 RMK T10401090 MADISHF
DFW,2021-02-18 15:25,,,,,17.00,,30.36,,10.00,,OVC,,,,3500.00,,,,,,,,,,,,KDFW 181525Z AUTO ///17KT 10SM OVC035 M04/M09 A3036 RMK T10401090 MADISHF
DFW,2021-02-18 15:30,,,,,18.00,,30.37,,10.00,,OVC,,,,3500.00,,,,,,,,,,,,KDFW 181530Z AUTO ///18KT 10SM OVC035 M05/M10 A3037 RMK T10501100 MADISHF
DFW,2021-02-18 15:35,,,,,13.00,,30.38,,10.00,,OVC,,,,3500.00,,,,,,,,,,,,KDFW 181535Z AUTO ///13KT 10SM OVC035 M05/M10 A3037 RMK T10501100 MADISHF
DFW,2021-02-18 15:40,,,,,15.00,,30.38,,10.00,,OVC,,,,3399.00,,,,,,,,,,,,KDFW 181540Z AUTO ///15KT 10SM OVC033 M05/M10 A3037 RMK T10501100 MADISHF
DFW,2021-02-18 15:45,,,,,15.00,,30.38,,10.00,,OVC,,,,3399.00,,,,,,,,,,,,KDFW 181545Z AUTO ///15KT 10SM OVC033 M05/M10 A3037 RMK T10501100 MADISHF
DFW,2021-02-18 15:50,,,,,14.00,,30.38,,10.00,,OVC,,,,3399.00,,,,,,,,,,,,KDFW 181550Z AUTO ///14KT 10SM OVC033 M05/M10 A3037 RMK T10501100 MADISHF
DFW,2021-02-18 15:53,23.00,14.00,67.96,360.00,16.00,0.00,30.37,1029.10,10.00,,OVC,,,,3300.00,,,,,,,,,,,8.69,KDFW 181553Z 36016KT 10SM OVC033 M05/M10 A3037 RMK AO2 SLP291 T10501100
DFW,2021-02-18 15:55,,,,,18.00,,30.38,,10.00,,BKN,,,,3300.00,,,,,,,,,,,,KDFW 181555Z AUTO ///18KT 10SM BKN033 M05/M10 A3037 RMK T10501100 MADISHF
DFW,2021-02-18 16:00,,,,,15.00,,30.39,,10.00,,SCT,,,,3300.00,,,,,,,,,,,,KDFW 181600Z AUTO ///15KT 10SM SCT033 M05/M11 A3038 RMK T10501110 MADISHF
DFW,2021-02-18 16:05,,,,350.00,14.00,,30.40,,10.00,,SCT,,,,3300.00,,,,,,,,,,,,KDFW 181605Z AUTO 35014KT 10SM SCT033 M04/M10 A3039 RMK T10401100 MADISHF
DFW,2021-02-18 16:10,,,,350.00,13.00,,30.40,,10.00,,FEW,,,,3300.00,,,,,,,,,,,,KDFW 181610Z AUTO 35013KT 10SM FEW033 M04/M10 A3039 RMK T10401100 MADISHF
DFW,2021-02-18 16:15,,,,350.00,17.00,,30.39,,10.00,,FEW,,,,3300.00,,,,,,,,,,,,KDFW 181615Z AUTO 35017KT 10SM FEW033 M04/M11 A3038 RMK T10401110 MADISHF
DFW,2021-02-18 16:20,,,,360.00,15.00,,30.40,,10.00,,CLR,,,,,,,,,,,,,,,,KDFW 181620Z AUTO 36015KT 10SM CLR M04/M10 A3039 RMK T10401100 MADISHF
DFW,2021-02-18 16:25,,,,340.00,11.00,,30.40,,10.00,,CLR,,,,,,,,,,,,,,,,KDFW 181625Z AUTO 34011KT 10SM CLR M04/M10 A3039 RMK T10401100 MADISHF
DFW,2021-02-18 16:30,,,,360.00,11.00,,30.40,,10.00,,CLR,,,,,,,,,,,,,,,,KDFW 181630Z AUTO 36011KT 10SM CLR M04/M10 A3039 RMK T10401100 MADISHF
DFW,2021-02-18 16:35,,,,340.00,11.00,,30.41,,10.00,,CLR,,,,,,,,,,,,,,,,KDFW 181635Z AUTO 34011KT 10SM CLR M04/M10 A3040 RMK T10401100 MADISHF
DFW,2021-02-18 16:40,,,,340.00,13.00,,30.40,,10.00,,CLR,,,,,,,,,,,,,,,,KDFW 181640Z AUTO 34013KT 10SM CLR M04/M10 A3039 RMK T10401100 MADISHF
DFW,2021-02-18 16:45,,,,350.00,11.00,,30.40,,10.00,,CLR,,,,,,,,,,,,,,,,KDFW 181645Z AUTO 35011KT 10SM CLR M05/M10 A3039 RMK T10501100 MADISHF
DFW,2021-02-18 16:50,,,,340.00,14.00,,30.41,,10.00,,CLR,,,,,,,,,,,,,,,,KDFW 181650Z AUTO 34014KT 10SM CLR M04/M09 A3040 RMK T10401090 MADISHF
DFW,2021-02-18 16:53,24.10,14.00,64.89,330.00,14.00,0.00,30.41,1030.20,10.00,,FEW,OVC,,,3500.00,16000.00,,,,,,,,,,10.98,KDFW 181653Z 33014KT 10SM FEW035 OVC160 M04/M10 A3041 RMK AO2 SLP302 T10441100
DFW,2021-02-18 16:55,,,,330.00,13.00,,30.41,,10.00,,CLR,,,,,,,,,,,,,,,,KDFW 181655Z AUTO 33013KT 10SM CLR M04/M10 A3040 RMK T10401100 MADISHF
DFW,2021-02-18 17:00,,,,,13.00,,30.41,,10.00,,CLR,,,,,,,,,,,,,,,,KDFW 181700Z AUTO ///13KT 10SM CLR M04/M10 A3040 RMK T10401100 MADISHF
DFW,2021-02-18 17:05,,,,330.00,11.00,,30.41,,10.00,,CLR,,,,,,,,,,,,,,,,KDFW 181705Z AUTO 33011KT 10SM CLR M04/M10 A3040 RMK T10401100 MADISHF
DFW,2021-02-18 17:10,,,,330.00,11.00,,30.42,,10.00,,CLR,,,,,,,,,,,,,,,,KDFW 181710Z AUTO 33011KT 10SM CLR M04/M09 A3042 RMK T10401090 MADISHF
DFW,2021-02-18 17:15,,,,,14.00,,30.42,,10.00,,CLR,,,,,,,,,,,,,,,,KDFW 181715Z AUTO ///14KT 10SM CLR M04/M09 A3042 RMK T10401090 MADISHF
DFW,2021-02-18 17:20,,,,,14.00,,30.42,,10.00,,CLR,,,,,,,,,,,,,,,,KDFW 181720Z AUTO ///14KT 10SM CLR M04/M10 A3042 RMK T10401100 MADISHF
DFW,2021-02-18 17:25,,,,330.00,15.00,,30.42,,10.00,,CLR,,,,,,,,,,,,,,,,KDFW 181725Z AUTO 33015KT 10SM CLR M04/M10 A3042 RMK T10401100 MADISHF
DFW,2021-02-18 17:30,,,,,14.00,,30.42,,10.00,,CLR,,,,,,,,,,,,,,,,KDFW 181730Z AUTO ///14KT 10SM CLR M04/M10 A3042 RMK T10401100 MADISHF
DFW,2021-02-18 17:35,,,,,14.00,,30.42,,10.00,,CLR,,,,,,,,,,,,,,,,KDFW 181735Z AUTO ///14KT 10SM CLR M04/M10 A3042 RMK T10401100 MADISHF
DFW,2021-02-18 17:40,,,,,14.00,,30.43,,10.00,,CLR,,,,,,,,,,,,,,,,KDFW 181740Z AUTO ///14KT 10SM CLR M04/M10 A3043 RMK T10401100 MADISHF
DFW,2021-02-18 17:45,,,,,13.00,,30.42,,10.00,,CLR,,,,,,,,,,,,,,,,KDFW 181745Z AUTO ///13KT 10SM CLR M04/M10 A3042 RMK T10401100 MADISHF
DFW,2021-02-18 17:50,,,,330.00,14.00,,30.42,,10.00,,FEW,,,,3500.00,,,,,,,,,,,,KDFW 181750Z AUTO 33014KT 10SM FEW035 M04/M10 A3042 RMK T10401100  4/003 MADISHF
DFW,2021-02-18 17:53,24.10,14.00,64.89,340.00,14.00,0.00,30.42,1030.60,10.00,,FEW,OVC,,,3500.00,17000.00,,,,,,,,,,10.98,KDFW 181753Z 34014KT 10SM FEW035 OVC170 M04/M10 A3042 RMK AO2 SLP306 4/003 T10441100 11039 21050 53018
DFW,2021-02-18 17:55,,,,,15.00,,30.42,,10.00,,CLR,,,,,,,,,,,,,,,,KDFW 181755Z AUTO ///15KT 10SM CLR M04/M09 A3042 RMK T10401090 MADISHF
DFW,2021-02-18 18:00,,,,,15.00,,30.42,,10.00,,CLR,,,,,,,,,,,,,,,,KDFW 181800Z AUTO ///15KT 10SM CLR M04/M10 A3042 RMK T10401100 MADISHF
DFW,2021-02-18 18:05,,,,,15.00,,30.41,,10.00,,CLR,,,,,,,,,,,,,,,,KDFW 181805Z AUTO ///15KT 10SM CLR M04/M10 A3040 RMK T10401100 MADISHF
DFW,2021-02-18 18:10,,,,,14.00,,30.41,,10.00,,CLR,,,,,,,,,,,,,,,,KDFW 181810Z AUTO ///14KT 10SM CLR M04/M10 A3040 RMK T10401100 MADISHF
DFW,2021-02-18 18:15,,,,,16.00,,30.41,,10.00,,CLR,,,,,,,,,,,,,,,,KDFW 181815Z AUTO ///16KT 10SM CLR M04/M10 A3040 RMK T10401100 MADISHF
DFW,2021-02-18 18:20,,,,,16.00,,30.41,,10.00,,CLR,,,,,,,,,,,,,,,,KDFW 181820Z AUTO ///16KT 10SM CLR M04/M10 A3040 RMK T10401100 MADISHF
DFW,2021-02-18 18:25,,,,340.00,13.00,,30.41,,10.00,,CLR,,,,,,,,,,,,,,,,KDFW 181825Z AUTO 34013KT 10SM CLR M04/M10 A3040 RMK T10401100 MADISHF
DFW,2021-02-18 18:30,,,,,14.00,,30.41,,10.00,,CLR,,,,,,,,,,,,,,,,KDFW 181830Z AUTO ///14KT 10SM CLR M04/M10 A3040 RMK T10401100 MADISHF
DFW,2021-02-18 18:35,,,,350.00,11.00,,30.41,,10.00,,CLR,,,,,,,,,,,,,,,,KDFW 181835Z AUTO 35011KT 10SM CLR M04/M10 A3040 RMK T10401100 MADISHF
DFW,2021-02-18 18:40,,,,,15.00,,30.41,,10.00,,CLR,,,,,,,,,,,,,,,,KDFW 181840Z AUTO ///15KT 10SM CLR M04/M09 A3040 RMK T10401090 MADISHF
DFW,2021-02-18 18:45,,,,,15.00,,30.41,,10.00,,CLR,,,,,,,,,,,,,,,,KDFW 181845Z AUTO ///15KT 10SM CLR M04/M09 A3040 RMK T10401090 MADISHF
DFW,2021-02-18 18:50,,,,,15.00,,30.42,,10.00,,FEW,,,,3500.00,,,,,,,,,,,,KDFW 181850Z AUTO ///15KT 10SM FEW035 M04/M10 A3042 RMK T10401100 MADISHF
DFW,2021-02-18 18:53,25.00,14.00,62.50,350.00,13.00,0.00,30.42,1030.60,10.00,,FEW,BKN,OVC,,3500.00,17000.00,20000.00,,,,,,,,,12.60,KDFW 181853Z 35013KT 10SM FEW035 BKN170 OVC200 M04/M10 A3042 RMK AO2 SLP306 T10391100
DFW,2021-02-18 18:55,,,,360.00,13.00,,30.42,,10.00,,CLR,,,,,,,,,,,,,,,,KDFW 181855Z AUTO 36013KT 10SM CLR M04/M09 A3042 RMK T10401090 MADISHF
DFW,2021-02-18 19:00,,,,350.00,13.00,,30.42,,10.00,,CLR,,,,,,,,,,,,,,,,KDFW 181900Z AUTO 35013KT 10SM CLR M04/M09 A3042 RMK T10401090 MADISHF
DFW,2021-02-18 19:05,,,,350.00,13.00,,30.41,,10.00,,CLR,,,,,,,,,,,,,,,,KDFW 181905Z AUTO 35013KT 10SM CLR M04/M09 A3040 RMK T10401090 MADISHF
DFW,2021-02-18 19:10,,,,,14.00,,30.41,,10.00,,CLR,,,,,,,,,,,,,,,,KDFW 181910Z AUTO ///14KT 10SM CLR M03/M09 A3040 RMK T10301090 MADISHF
DFW,2021-02-18 19:15,,,,340.00,13.00,,30.41,,10.00,,CLR,,,,,,,,,,,,,,,,KDFW 181915Z AUTO 34013KT 10SM CLR M03/M09 A3040 RMK T10301090 MADISHF
DFW,2021-02-18 19:20,,,,360.00,11.00,,30.41,,10.00,,CLR,,,,,,,,,,,,,,,,KDFW 181920Z AUTO 36011KT 10SM CLR M03/M09 A3040 RMK T10301090 MADISHF
DFW,2021-02-18 19:25,,,,,16.00,,30.40,,10.00,,CLR,,,,,,,,,,,,,,,,KDFW 181925Z AUTO ///16KT 10SM CLR M03/M09 A3039 RMK T10301090 MADISHF
DFW,2021-02-18 19:30,,,,,13.00,,30.40,,10.00,,CLR,,,,,,,,,,,,,,,,KDFW 181930Z AUTO ///13KT 10SM CLR M03/M09 A3039 RMK T10301090 MADISHF
DFW,2021-02-18 19:35,,,,,13.00,,30.40,,10.00,18.00,CLR,,,,,,,,,,,,,,,,KDFW 181935Z AUTO ///13G18KT 10SM CLR M03/M09 A3039 RMK T10301090 MADISHF
DFW,2021-02-18 19:40,,,,340.00,11.00,,30.40,,10.00,,FEW,,,,3500.00,,,,,,,,,,,,KDFW 181940Z AUTO 34011KT 10SM FEW035 M03/M09 A3039 RMK T10301090 MADISHF
DFW,2021-02-18 19:45,,,,,13.00,,30.40,,10.00,,FEW,,,,3500.00,,,,,,,,,,,,KDFW 181945Z AUTO ///13KT 10SM FEW035 M03/M09 A3039 RMK T10301090 MADISHF
DFW,2021-02-18 19:50,,,,,13.00,,30.40,,10.00,,FEW,,,,3500.00,,,,,,,,,,,,KDFW 181950Z AUTO ///13KT 10SM FEW035 M02/M09 A3039 RMK T10201090 MADISHF
DFW,2021-02-18 19:53,28.00,16.00,60.25,340.00,14.00,0.00,30.40,1030.10,10.00,,FEW,BKN,BKN,,3500.00,20000.00,30000.00,,,,,,,,,16.01,KDFW 181953Z 34014KT 10SM FEW035 BKN200 BKN300 M02/M09 A3040 RMK AO2 SLP301 T10221089
DFW,2021-02-18 19:55,,,,330.00,14.00,,30.40,,10.00,,CLR,,,,,,,,,,,,,,,,KDFW 181955Z AUTO 33014KT 10SM CLR M02/M09 A3039 RMK T10201090 MADISHF
DFW,2021-02-18 20:00,,,,340.00,15.00,,30.40,,10.00,,CLR,,,,,,,,,,,,,,,,KDFW 182000Z AUTO 34015KT 10SM CLR M03/M09 A3039 RMK T10301090 MADISHF
DFW,2021-02-18 20:05,,,,330.00,13.00,,30.40,,10.00,,CLR,,,,,,,,,,,,,,,,KDFW 182005Z AUTO 33013KT 10SM CLR M03/M09 A3039 RMK T10301090 MADISHF
DFW,2021-02-18 20:10,,,,,15.00,,30.40,,10.00,,CLR,,,,,,,,,,,,,,,,KDFW 182010Z AUTO ///15KT 10SM CLR M02/M09 A3039 RMK T10201090 MADISHF
DFW,2021-02-18 20:15,,,,,16.00,,30.39,,10.00,,CLR,,,,,,,,,,,,,,,,KDFW 182015Z AUTO ///16KT 10SM CLR M03/M09 A3038 RMK T10301090 MADISHF
DFW,2021-02-18 20:20,,,,330.00,13.00,,30.39,,10.00,,CLR,,,,,,,,,,,,,,,,KDFW 182020Z AUTO 33013KT 10SM CLR M02/M09 A3038 RMK T10201090 MADISHF
DFW,2021-02-18 20:25,,,,,14.00,,30.39,,10.00,,CLR,,,,,,,,,,,,,,,,KDFW 182025Z AUTO ///14KT 10SM CLR M02/M09 A3038 RMK T10201090 MADISHF
DFW,2021-02-18 20:30,,,,,15.00,,30.39,,10.00,,CLR,,,,,,,,,,,,,,,,KDFW 182030Z AUTO ///15KT 10SM CLR M02/M09 A3038 RMK T10201090 MADISHF
DFW,2021-02-18 20:35,,,,,13.00,,30.39,,10.00,,CLR,,,,,,,,,,,,,,,,KDFW 182035Z AUTO ///13KT 10SM CLR M02/M09 A3038 RMK T10201090 MADISHF
DFW,2021-02-18 20:40,,,,330.00,14.00,,30.39,,10.00,,CLR,,,,,,,,,,,,,,,,KDFW 182040Z AUTO 33014KT 10SM CLR M02/M08 A3038 RMK T10201080 MADISHF
DFW,2021-02-18 20:45,,,,350.00,14.00,,30.39,,10.00,,CLR,,,,,,,,,,,,,,,,KDFW 182045Z AUTO 35014KT 10SM CLR M02/M09 A3038 RMK T10201090 MADISHF
DFW,2021-02-18 20:50,,,,340.00,13.00,,30.39,,10.00,,,,,,,,,,,,,,,,,,KDFW 182050Z AUTO 34013KT 10SM M02/M09 A3038 RMK T10201090 MADISHF
DFW,2021-02-18 20:53,30.00,17.10,58.23,330.00,14.00,0.00,30.39,1029.50,10.00,,BKN,BKN,,,20000.00,30000.00,,,,,,,,,,18.58,KDFW 182053Z 33014KT 10SM BKN200 BKN300 M01/M08 A3039 RMK AO2 SLP295 T10111083 58009
DFW,2021-02-18 20:55,,,,,14.00,,30.39,,10.00,,,,,,,,,,,,,,,,,,KDFW 182055Z AUTO ///14KT 10SM M02/M08 A3038 RMK T10201080 MADISHF
DFW,2021-02-18 21:00,,,,,13.00,,30.39,,10.00,18.00,,,,,,,,,,,,,,,,,KDFW 182100Z AUTO ///13G18KT 10SM M02/M09 A3038 RMK T10201090 MADISHF
DFW,2021-02-18 21:05,,,,330.00,14.00,,30.39,,10.00,,,,,,,,,,,,,,,,,,KDFW 182105Z AUTO 33014KT 10SM M02/M08 A3038 RMK T10201080 MADISHF
DFW,2021-02-18 21:10,,,,,14.00,,30.40,,10.00,,,,,,,,,,,,,,,,,,KDFW 182110Z AUTO ///14KT 10SM M02/M08 A3039 RMK T10201080 MADISHF
DFW,2021-02-18 21:15,,,,,13.00,,30.40,,10.00,,,,,,,,,,,,,,,,,,KDFW 182115Z AUTO ///13KT 10SM M01/M08 A3039 RMK T10101080 MADISHF
DFW,2021-02-18 21:20,,,,340.00,11.00,,30.40,,10.00,,,,,,,,,,,,,,,,,,KDFW 182120Z AUTO 34011KT 10SM M01/M08 A3039 RMK T10101080 MADISHF
DFW,2021-02-18 21:25,,,,330.00,11.00,,30.40,,10.00,,,,,,,,,,,,,,,,,,KDFW 182125Z AUTO 33011KT 10SM M01/M08 A3039 RMK T10101080 MADISHF
DFW,2021-02-18 21:30,,,,340.00,11.00,,30.40,,10.00,,,,,,,,,,,,,,,,,,KDFW 182130Z AUTO 34011KT 10SM M01/M08 A3039 RMK T10101080 MADISHF
DFW,2021-02-18 21:35,,,,,11.00,,30.40,,10.00,,,,,,,,,,,,,,,,,,KDFW 182135Z AUTO ///11KT 10SM M01/M08 A3039 RMK T10101080 MADISHF
DFW,2021-02-18 21:40,,,,,15.00,,30.40,,10.00,,,,,,,,,,,,,,,,,,KDFW 182140Z AUTO ///15KT 10SM M01/M08 A3039 RMK T10101080 MADISHF
DFW,2021-02-18 21:45,,,,,14.00,,30.41,,10.00,,,,,,,,,,,,,,,,,,KDFW 182145Z AUTO ///14KT 10SM M02/M08 A3040 RMK T10201080 MADISHF
DFW,2021-02-18 21:50,,,,,14.00,,30.41,,10.00,,,,,,,,,,,,,,,,,,KDFW 182150Z AUTO ///14KT 10SM M02/M08 A3040 RMK T10201080 MADISHF
DFW,2021-02-18 21:53,28.90,17.10,60.90,340.00,14.00,0.00,30.41,1030.20,10.00,,SCT,BKN,,,20000.00,30000.00,,,,,,,,,,17.17,KDFW 182153Z 34014KT 10SM SCT200 BKN300 M02/M08 A3041 RMK AO2 SLP302 T10171083
DFW,2021-02-18 21:55,,,,,13.00,,30.41,,10.00,,CLR,,,,,,,,,,,,,,,,KDFW 182155Z AUTO ///13KT 10SM CLR M01/M08 A3040 RMK T10101080 MADISHF
DFW,2021-02-18 22:00,,,,,14.00,,30.41,,10.00,,,,,,,,,,,,,,,,,,KDFW 182200Z AUTO ///14KT 10SM M01/M08 A3040 RMK T10101080 MADISHF
DFW,2021-02-18 22:05,,,,,13.00,,30.41,,10.00,,,,,,,,,,,,,,,,,,KDFW 182205Z AUTO ///13KT 10SM M01/M08 A3040 RMK T10101080 MADISHF
DFW,2021-02-18 22:10,,,,330.00,11.00,,30.42,,10.00,,,,,,,,,,,,,,,,,,KDFW 182210Z AUTO 33011KT 10SM M01/M08 A3042 RMK T10101080 MADISHF
DFW,2021-02-18 22:15,,,,340.00,15.00,,30.41,,10.00,,,,,,,,,,,,,,,,,,KDFW 182215Z AUTO 34015KT 10SM M01/M08 A3040 RMK T10101080 MADISHF
DFW,2021-02-18 22:20,,,,340.00,11.00,,30.41,,10.00,,,,,,,,,,,,,,,,,,KDFW 182220Z AUTO 34011KT 10SM M01/M08 A3040 RMK T10101080 MADISHF
DFW,2021-02-18 22:25,,,,340.00,13.00,,30.42,,10.00,,,,,,,,,,,,,,,,,,KDFW 182225Z AUTO 34013KT 10SM M01/M08 A3042 RMK T10101080 MADISHF
DFW,2021-02-18 22:30,,,,340.00,14.00,,30.42,,10.00,,,,,,,,,,,,,,,,,,KDFW 182230Z AUTO 34014KT 10SM M01/M08 A3042 RMK T10101080 MADISHF
DFW,2021-02-18 22:35,,,,,15.00,,30.41,,10.00,21.00,,,,,,,,,,,,,,,,,KDFW 182235Z AUTO ///15G21KT 10SM M01/M08 A3040 RMK T10101080 MADISHF
DFW,2021-02-18 22:40,,,,,14.00,,30.41,,10.00,19.00,,,,,,,,,,,,,,,,,KDFW 182240Z AUTO ///14G19KT 10SM M01/M08 A3040 RMK T10101080 MADISHF
DFW,2021-02-18 22:45,,,,340.00,11.00,,30.42,,10.00,,,,,,,,,,,,,,,,,,KDFW 182245Z AUTO 34011KT 10SM M01/M08 A3042 RMK T10101080 MADISHF
DFW,2021-02-18 22:50,,,,,13.00,,30.42,,10.00,,,,,,,,,,,,,,,,,,KDFW 182250Z AUTO ///13KT 10SM M01/M08 A3042 RMK T10101080 MADISHF
DFW,2021-02-18 22:53,30.00,17.10,58.23,330.00,14.00,0.00,30.42,1030.40,10.00,,BKN,,,,30000.00,,,,,,,,,,,18.58,KDFW 182253Z 33014KT 10SM BKN300 M01/M08 A3042 RMK AO2 SLP304 T10111083
DFW,2021-02-18 22:55,,,,330.00,14.00,,30.42,,10.00,,CLR,,,,,,,,,,,,,,,,KDFW 182255Z AUTO 33014KT 10SM CLR M01/M08 A3042 RMK T10101080 MADISHF
DFW,2021-02-18 23:00,,,,,15.00,,30.42,,10.00,,,,,,,,,,,,,,,,,,KDFW 182300Z AUTO ///15KT 10SM M01/M08 A3042 RMK T10101080 MADISHF
DFW,2021-02-18 23:05,,,,340.00,13.00,,30.42,,10.00,,,,,,,,,,,,,,,,,,KDFW 182305Z AUTO 34013KT 10SM M01/M08 A3042 RMK T10101080 MADISHF
DFW,2021-02-18 23:10,,,,330.00,14.00,,30.42,,10.00,,,,,,,,,,,,,,,,,,KDFW 182310Z AUTO 33014KT 10SM M01/M08 A3042 RMK T10101080 MADISHF
DFW,2021-02-18 23:15,,,,340.00,15.00,,30.42,,10.00,,,,,,,,,,,,,,,,,,KDFW 182315Z AUTO 34015KT 10SM M01/M08 A3042 RMK T10101080 MADISHF
DFW,2021-02-18 23:20,,,,340.00,15.00,,30.42,,10.00,,,,,,,,,,,,,,,,,,KDFW 182320Z AUTO 34015KT 10SM M01/M08 A3042 RMK T10101080 MADISHF
DFW,2021-02-18 23:25,,,,340.00,16.00,,30.42,,10.00,,,,,,,,,,,,,,,,,,KDFW 182325Z AUTO 34016KT 10SM M02/M08 A3042 RMK T10201080 MADISHF
DFW,2021-02-18 23:30,,,,330.00,15.00,,30.42,,10.00,,,,,,,,,,,,,,,,,,KDFW 182330Z AUTO 33015KT 10SM M02/M09 A3042 RMK T10201090 MADISHF
DFW,2021-02-18 23:35,,,,,15.00,,30.43,,10.00,,,,,,,,,,,,,,,,,,KDFW 182335Z AUTO ///15KT 10SM M02/M09 A3043 RMK T10201090 MADISHF
DFW,2021-02-18 23:40,,,,330.00,14.00,,30.43,,10.00,,,,,,,,,,,,,,,,,,KDFW 182340Z AUTO 33014KT 10SM M02/M09 A3043 RMK T10201090 MADISHF
DFW,2021-02-18 23:45,,,,,14.00,,30.43,,10.00,,,,,,,,,,,,,,,,,,KDFW 182345Z AUTO ///14KT 10SM M02/M08 A3043 RMK T10201080 MADISHF
DFW,2021-02-18 23:50,,,,,16.00,,30.43,,10.00,,,,,,,,,,,,,,,,,,KDFW 182350Z AUTO ///16KT 10SM M02/M09 A3043 RMK T10201090 MADISHF
DFW,2021-02-18 23:53,28.90,16.00,58.06,340.00,13.00,0.00,30.43,1030.80,10.00,,SCT,,,,30000.00,,,,,,,,,,,17.60,KDFW 182353Z 34013KT 10SM SCT300 M02/M09 A3043 RMK AO2 SLP308 T10171089 11006 21044 51012
DFW,2021-02-18 23:55,,,,330.00,13.00,,30.43,,10.00,,CLR,,,,,,,,,,,,,,,,KDFW 182355Z AUTO 33013KT 10SM CLR M02/M09 A3043 RMK T10201090 MADISHF

